{
  "type": "FeatureCollection",
  "features": [
    {
      "type": "Feature",
      "properties": {
        "name": "polygon26"
      },
      "geometry": {
        "type": "Polygon",
        "coordinates": [
          [
            [
              144.957905,
              -37.814607
            ],
            [
              144.95791,
              -37.814619
            ],
            [
              144.957916,
              -37.814633
            ],
            [
              144.957917,
              -37.814635
            ],
            [
              144.957918,
              -37.814638
            ],
            [
              144.957939,
              -37.814682
            ],
            [
              144.957935,
              -37.814684
            ],
            [
              144.957935,
              -37.814686
            ],
            [
              144.957936,
              -37.814688
            ],
            [
              144.957944,
              -37.814708
            ],
            [
              144.958148,
              -37.81465
            ],
            [
              144.958142,
              -37.814638
            ],
            [
              144.958261,
              -37.814604
            ],
            [
              144.958262,
              -37.814606
            ],
            [
              144.958264,
              -37.814605
            ],
            [
              144.958263,
              -37.814603
            ],
            [
              144.958322,
              -37.814586
            ],
            [
              144.958328,
              -37.814598
            ],
            [
              144.958331,
              -37.814597
            ],
            [
              144.958749,
              -37.814477
            ],
            [
              144.95875,
              -37.814478
            ],
            [
              144.958763,
              -37.814489
            ],
            [
              144.958765,
              -37.814489
            ],
            [
              144.958752,
              -37.814476
            ],
            [
              144.958743,
              -37.814468
            ],
            [
              144.958737,
              -37.814462
            ],
            [
              144.958737,
              -37.814461
            ],
            [
              144.958735,
              -37.814461
            ],
            [
              144.958735,
              -37.81446
            ],
            [
              144.958734,
              -37.81446
            ],
            [
              144.958808,
              -37.81443928
            ],
            [
              144.958808,
              -37.814443
            ],
            [
              144.958811,
              -37.814476
            ],
            [
              144.958815,
              -37.814476
            ],
            [
              144.958813,
              -37.814459
            ],
            [
              144.959156,
              -37.814359
            ],
            [
              144.95916,
              -37.814358
            ],
            [
              144.959174,
              -37.81437
            ],
            [
              144.959175,
              -37.814369
            ],
            [
              144.959179,
              -37.814367
            ],
            [
              144.959166,
              -37.814356
            ],
            [
              144.959218,
              -37.814343
            ],
            [
              144.959223,
              -37.814355
            ],
            [
              144.959226,
              -37.814354
            ],
            [
              144.959227,
              -37.814356
            ],
            [
              144.95923,
              -37.814355
            ],
            [
              144.959224,
              -37.814342
            ],
            [
              144.959235,
              -37.814338
            ],
            [
              144.959539,
              -37.814249
            ],
            [
              144.959541,
              -37.814249
            ],
            [
              144.959544,
              -37.814248
            ],
            [
              144.959539,
              -37.814239
            ],
            [
              144.959574,
              -37.814229
            ],
            [
              144.959574,
              -37.814228
            ],
            [
              144.959576,
              -37.814228
            ],
            [
              144.959579,
              -37.814227
            ],
            [
              144.95966,
              -37.814203
            ],
            [
              144.959663,
              -37.814203
            ],
            [
              144.959708,
              -37.814189
            ],
            [
              144.959708,
              -37.814191
            ],
            [
              144.959707,
              -37.814202
            ],
            [
              144.95971,
              -37.814202
            ],
            [
              144.960106,
              -37.814088
            ],
            [
              144.960102,
              -37.814078
            ],
            [
              144.960096,
              -37.814067
            ],
            [
              144.960094,
              -37.814064
            ],
            [
              144.960093,
              -37.814062
            ],
            [
              144.960061,
              -37.814005
            ],
            [
              144.96006,
              -37.814003
            ],
            [
              144.960058,
              -37.814001
            ],
            [
              144.960052,
              -37.81399
            ],
            [
              144.9599,
              -37.814034
            ],
            [
              144.959897,
              -37.814035
            ],
            [
              144.959897,
              -37.814036
            ],
            [
              144.95988,
              -37.81404
            ],
            [
              144.959878,
              -37.814041
            ],
            [
              144.959862,
              -37.814046
            ],
            [
              144.959863,
              -37.814047
            ],
            [
              144.95986,
              -37.814048
            ],
            [
              144.959735,
              -37.814086
            ],
            [
              144.959732,
              -37.814086
            ],
            [
              144.959702,
              -37.814095
            ],
            [
              144.959696,
              -37.814082
            ],
            [
              144.959693,
              -37.814083
            ],
            [
              144.959697,
              -37.814093
            ],
            [
              144.959405,
              -37.814177
            ],
            [
              144.9594,
              -37.814178
            ],
            [
              144.959399,
              -37.814175
            ],
            [
              144.959396,
              -37.814176
            ],
            [
              144.959397,
              -37.814179
            ],
            [
              144.95937,
              -37.814187
            ],
            [
              144.959358,
              -37.81419
            ],
            [
              144.959348,
              -37.814168
            ],
            [
              144.959344,
              -37.814169
            ],
            [
              144.959354,
              -37.814189
            ],
            [
              144.958969,
              -37.814299
            ],
            [
              144.958966,
              -37.8143
            ],
            [
              144.958938,
              -37.814309
            ],
            [
              144.958934,
              -37.814309
            ],
            [
              144.958935,
              -37.814311
            ],
            [
              144.958915,
              -37.814317
            ],
            [
              144.957905,
              -37.814607
            ]
          ],
          [
            [
              144.958468,
              -37.814536
            ],
            [
              144.958487,
              -37.814531
            ],
            [
              144.958493,
              -37.814543
            ],
            [
              144.958474,
              -37.814549
            ],
            [
              144.958468,
              -37.814536
            ]
          ],
          [
            [
              144.958581,
              -37.814504
            ],
            [
              144.9586,
              -37.814498
            ],
            [
              144.958606,
              -37.814511
            ],
            [
              144.958587,
              -37.814517
            ],
            [
              144.958581,
              -37.814504
            ]
          ],
          [
            [
              144.958689,
              -37.814473
            ],
            [
              144.958708,
              -37.814467
            ],
            [
              144.958714,
              -37.81448
            ],
            [
              144.958695,
              -37.814486
            ],
            [
              144.958689,
              -37.814473
            ]
          ],
          [
            [
              144.958943,
              -37.814322
            ],
            [
              144.958943,
              -37.814321
            ],
            [
              144.958944,
              -37.814322
            ],
            [
              144.958943,
              -37.814322
            ]
          ],
          [
            [
              144.958973,
              -37.814315
            ],
            [
              144.958973,
              -37.814314
            ],
            [
              144.958974,
              -37.814315
            ],
            [
              144.958973,
              -37.814315
            ]
          ],
          [
            [
              144.959092,
              -37.814266
            ],
            [
              144.959109,
              -37.814261
            ],
            [
              144.959116,
              -37.814274
            ],
            [
              144.959099,
              -37.814279
            ],
            [
              144.959092,
              -37.814266
            ]
          ],
          [
            [
              144.959221,
              -37.814229
            ],
            [
              144.959238,
              -37.814224
            ],
            [
              144.959245,
              -37.814237
            ],
            [
              144.959228,
              -37.814242
            ],
            [
              144.959221,
              -37.814229
            ]
          ],
          [
            [
              144.959362,
              -37.814201
            ],
            [
              144.959363,
              -37.814201
            ],
            [
              144.959363,
              -37.814202
            ],
            [
              144.959362,
              -37.814201
            ]
          ],
          [
            [
              144.959659,
              -37.814196
            ],
            [
              144.959659,
              -37.814195
            ],
            [
              144.95966,
              -37.814196
            ],
            [
              144.959659,
              -37.814196
            ]
          ],
          [
            [
              144.959769,
              -37.814162
            ],
            [
              144.959786,
              -37.814157
            ],
            [
              144.959791,
              -37.814168
            ],
            [
              144.959774,
              -37.814173
            ],
            [
              144.959769,
              -37.814162
            ]
          ],
          [
            [
              144.959861,
              -37.814059
            ],
            [
              144.959862,
              -37.814058
            ],
            [
              144.959862,
              -37.814059
            ],
            [
              144.959861,
              -37.814059
            ]
          ],
          [
            [
              144.959883,
              -37.814129
            ],
            [
              144.9599,
              -37.814124
            ],
            [
              144.959905,
              -37.814135
            ],
            [
              144.959888,
              -37.81414
            ],
            [
              144.959883,
              -37.814129
            ]
          ],
          [
            [
              144.959904,
              -37.814044
            ],
            [
              144.959904,
              -37.814043
            ],
            [
              144.959905,
              -37.814044
            ],
            [
              144.959904,
              -37.814044
            ]
          ],
          [
            [
              144.959997,
              -37.814095
            ],
            [
              144.960014,
              -37.814091
            ],
            [
              144.960019,
              -37.814102
            ],
            [
              144.960002,
              -37.814106
            ],
            [
              144.959997,
              -37.814095
            ]
          ]
        ]
      }
    }
  ]
}