{
  "type": "FeatureCollection",
  "features": [
    {
      "type": "Feature",
      "properties": {
        "name": "polygon30"
      },
      "geometry": {
        "type": "Polygon",
        "coordinates": [
          [
            [
              144.950349,
              -37.821409
            ],
            [
              144.950354,
              -37.821414
            ],
            [
              144.950355,
              -37.821414
            ],
            [
              144.950357,
              -37.821415
            ],
            [
              144.950358,
              -37.821415
            ],
            [
              144.95036,
              -37.821416
            ],
            [
              144.950369,
              -37.821416
            ],
            [
              144.95037,
              -37.821415
            ],
            [
              144.950372,
              -37.821415
            ],
            [
              144.950373,
              -37.821414
            ],
            [
              144.950375,
              -37.821414
            ],
            [
              144.950376,
              -37.821415
            ],
            [
              144.950374,
              -37.821416
            ],
            [
              144.950373,
              -37.821416
            ],
            [
              144.950373,
              -37.821417
            ],
            [
              144.95037,
              -37.821417
            ],
            [
              144.950368,
              -37.821418
            ],
            [
              144.950369,
              -37.821418
            ],
            [
              144.950387,
              -37.821441
            ],
            [
              144.950388,
              -37.821443
            ],
            [
              144.950401,
              -37.82146
            ],
            [
              144.950405,
              -37.821464
            ],
            [
              144.95041,
              -37.821471
            ],
            [
              144.950412,
              -37.821473
            ],
            [
              144.95048,
              -37.82144
            ],
            [
              144.950557,
              -37.821402
            ],
            [
              144.950873,
              -37.821244
            ],
            [
              144.950913,
              -37.821225
            ],
            [
              144.950895,
              -37.821196
            ],
            [
              144.950894,
              -37.821194
            ],
            [
              144.950874,
              -37.821161
            ],
            [
              144.950847,
              -37.821181
            ],
            [
              144.950846,
              -37.821181
            ],
            [
              144.950838,
              -37.821185
            ],
            [
              144.950827,
              -37.821191
            ],
            [
              144.950826,
              -37.821189
            ],
            [
              144.950827,
              -37.821189
            ],
            [
              144.950839,
              -37.821183
            ],
            [
              144.950845,
              -37.821179
            ],
            [
              144.950873,
              -37.82116
            ],
            [
              144.950868,
              -37.821151
            ],
            [
              144.950859,
              -37.821156
            ],
            [
              144.950816,
              -37.821177
            ],
            [
              144.950502,
              -37.821333
            ],
            [
              144.950425,
              -37.821371
            ],
            [
              144.950358,
              -37.821405
            ],
            [
              144.950349,
              -37.821409
            ]
          ]
        ]
      }
    }
  ]
}