{
  "type": "FeatureCollection",
  "features": [
    {
      "type": "Feature",
      "properties": {
        "name": "polygon38"
      },
      "geometry": {
        "type": "Polygon",
        "coordinates": [
          [
            [
              144.949355,
              -37.812452
            ],
            [
              144.949379,
              -37.812474
            ],
            [
              144.949382,
              -37.812473
            ],
            [
              144.949382,
              -37.812474
            ],
            [
              144.949383,
              -37.812475
            ],
            [
              144.949383,
              -37.812476
            ],
            [
              144.949384,
              -37.812478
            ],
            [
              144.949387,
              -37.812485
            ],
            [
              144.94939,
              -37.812484
            ],
            [
              144.949445,
              -37.812532
            ],
            [
              144.949499,
              -37.81258
            ],
            [
              144.94951,
              -37.812576
            ],
            [
              144.949511,
              -37.812577
            ],
            [
              144.949511,
              -37.812578
            ],
            [
              144.949512,
              -37.81258
            ],
            [
              144.949513,
              -37.812581
            ],
            [
              144.949504,
              -37.812584
            ],
            [
              144.949522,
              -37.812599
            ],
            [
              144.950823,
              -37.812231
            ],
            [
              144.950815,
              -37.812214
            ],
            [
              144.950812,
              -37.812214
            ],
            [
              144.950811,
              -37.812215
            ],
            [
              144.950811,
              -37.812214
            ],
            [
              144.950809,
              -37.81221
            ],
            [
              144.950811,
              -37.81221
            ],
            [
              144.950812,
              -37.812209
            ],
            [
              144.950816,
              -37.812209
            ],
            [
              144.950819,
              -37.812208
            ],
            [
              144.950828,
              -37.812208
            ],
            [
              144.950831,
              -37.812209
            ],
            [
              144.950834,
              -37.812209
            ],
            [
              144.950836,
              -37.81221
            ],
            [
              144.950839,
              -37.81221
            ],
            [
              144.950842,
              -37.812211
            ],
            [
              144.950844,
              -37.812212
            ],
            [
              144.950845,
              -37.812212
            ],
            [
              144.950847,
              -37.812213
            ],
            [
              144.950849,
              -37.812215
            ],
            [
              144.95085,
              -37.812215
            ],
            [
              144.950854,
              -37.812217
            ],
            [
              144.950858,
              -37.812221
            ],
            [
              144.950859,
              -37.812221
            ],
            [
              144.950964,
              -37.812191
            ],
            [
              144.95096,
              -37.812181
            ],
            [
              144.950959,
              -37.81218
            ],
            [
              144.950959,
              -37.812177
            ],
            [
              144.95096,
              -37.812177
            ],
            [
              144.95096,
              -37.812176
            ],
            [
              144.950962,
              -37.812174
            ],
            [
              144.950963,
              -37.812174
            ],
            [
              144.950964,
              -37.812173
            ],
            [
              144.950974,
              -37.812171
            ],
            [
              144.950915,
              -37.812041
            ],
            [
              144.950905,
              -37.812043
            ],
            [
              144.950904,
              -37.812044
            ],
            [
              144.950901,
              -37.812044
            ],
            [
              144.9509,
              -37.812043
            ],
            [
              144.950897,
              -37.812043
            ],
            [
              144.950897,
              -37.812042
            ],
            [
              144.950896,
              -37.812042
            ],
            [
              144.950896,
              -37.812041
            ],
            [
              144.950895,
              -37.812041
            ],
            [
              144.950895,
              -37.81204
            ],
            [
              144.950886,
              -37.812022
            ],
            [
              144.950783,
              -37.812051
            ],
            [
              144.95078,
              -37.812052
            ],
            [
              144.95078,
              -37.81205
            ],
            [
              144.950778,
              -37.812046
            ],
            [
              144.950776,
              -37.812047
            ],
            [
              144.950775,
              -37.812047
            ],
            [
              144.950777,
              -37.812051
            ],
            [
              144.950777,
              -37.812053
            ],
            [
              144.950743,
              -37.812062
            ],
            [
              144.950353,
              -37.812172
            ],
            [
              144.950352,
              -37.812172
            ],
            [
              144.950351,
              -37.812173
            ],
            [
              144.950312,
              -37.812183
            ],
            [
              144.950311,
              -37.812184
            ],
            [
              144.950309,
              -37.812184
            ],
            [
              144.949355,
              -37.812452
            ]
          ],
          [
            [
              144.949513,
              -37.81244
            ],
            [
              144.949564,
              -37.812426
            ],
            [
              144.949567,
              -37.812434
            ],
            [
              144.949574,
              -37.812449
            ],
            [
              144.949524,
              -37.812463
            ],
            [
              144.949517,
              -37.812448
            ],
            [
              144.949513,
              -37.81244
            ]
          ],
          [
            [
              144.949725,
              -37.812381
            ],
            [
              144.949808,
              -37.812357
            ],
            [
              144.949811,
              -37.812365
            ],
            [
              144.949817,
              -37.812377
            ],
            [
              144.949734,
              -37.8124
            ],
            [
              144.949729,
              -37.812388
            ],
            [
              144.949725,
              -37.812381
            ]
          ],
          [
            [
              144.949774,
              -37.812503
            ],
            [
              144.949777,
              -37.812493
            ],
            [
              144.949782,
              -37.81247
            ],
            [
              144.949849,
              -37.812451
            ],
            [
              144.949844,
              -37.812474
            ],
            [
              144.949841,
              -37.812484
            ],
            [
              144.949774,
              -37.812503
            ]
          ],
          [
            [
              144.949891,
              -37.812332
            ],
            [
              144.950006,
              -37.812299
            ],
            [
              144.950006,
              -37.812301
            ],
            [
              144.949892,
              -37.812333
            ],
            [
              144.949891,
              -37.812332
            ]
          ],
          [
            [
              144.95003,
              -37.812291
            ],
            [
              144.950106,
              -37.81227
            ],
            [
              144.950106,
              -37.812271
            ],
            [
              144.950107,
              -37.812272
            ],
            [
              144.950031,
              -37.812294
            ],
            [
              144.950031,
              -37.812292
            ],
            [
              144.95003,
              -37.812291
            ]
          ],
          [
            [
              144.950168,
              -37.812256
            ],
            [
              144.950205,
              -37.812245
            ],
            [
              144.950208,
              -37.812253
            ],
            [
              144.950212,
              -37.812262
            ],
            [
              144.950176,
              -37.812272
            ],
            [
              144.950168,
              -37.812256
            ]
          ],
          [
            [
              144.950317,
              -37.812212
            ],
            [
              144.950319,
              -37.812212
            ],
            [
              144.950319,
              -37.812211
            ],
            [
              144.95032,
              -37.812211
            ],
            [
              144.95032,
              -37.81221
            ],
            [
              144.950321,
              -37.81221
            ],
            [
              144.950321,
              -37.812208
            ],
            [
              144.950362,
              -37.812196
            ],
            [
              144.950362,
              -37.812197
            ],
            [
              144.950364,
              -37.812197
            ],
            [
              144.950364,
              -37.812198
            ],
            [
              144.950368,
              -37.812198
            ],
            [
              144.950368,
              -37.812199
            ],
            [
              144.950318,
              -37.812213
            ],
            [
              144.950317,
              -37.812212
            ]
          ],
          [
            [
              144.950446,
              -37.812178
            ],
            [
              144.950482,
              -37.812167
            ],
            [
              144.950486,
              -37.812175
            ],
            [
              144.95049,
              -37.812184
            ],
            [
              144.950454,
              -37.812194
            ],
            [
              144.950449,
              -37.812185
            ],
            [
              144.950446,
              -37.812178
            ]
          ],
          [
            [
              144.950519,
              -37.812293
            ],
            [
              144.950521,
              -37.812284
            ],
            [
              144.950527,
              -37.81226
            ],
            [
              144.950593,
              -37.812241
            ],
            [
              144.950587,
              -37.812265
            ],
            [
              144.950585,
              -37.812275
            ],
            [
              144.950519,
              -37.812293
            ]
          ],
          [
            [
              144.950649,
              -37.812256
            ],
            [
              144.950651,
              -37.812247
            ],
            [
              144.950657,
              -37.812222
            ],
            [
              144.950718,
              -37.812206
            ],
            [
              144.950713,
              -37.81223
            ],
            [
              144.95071,
              -37.812239
            ],
            [
              144.950649,
              -37.812256
            ]
          ],
          [
            [
              144.95067907058825,
              -37.81211115882353
            ],
            [
              144.95073915384415,
              -37.81209419230825
            ],
            [
              144.950747,
              -37.812092
            ],
            [
              144.950751,
              -37.812101
            ],
            [
              144.950756,
              -37.812113
            ],
            [
              144.950689,
              -37.812132
            ],
            [
              144.950683,
              -37.81212
            ],
            [
              144.95067907058825,
              -37.81211115882353
            ]
          ]
        ]
      }
    }
  ]
}