{
  "type": "FeatureCollection",
  "features": [
    {
      "type": "Feature",
      "properties": {
        "name": "polygon9"
      },
      "geometry": {
        "type": "Polygon",
        "coordinates": [
          [
            [
              144.955943,
              -37.800765
            ],
            [
              144.95597,
              -37.800787
            ],
            [
              144.956377,
              -37.801112
            ],
            [
              144.956378,
              -37.801114
            ],
            [
              144.956379,
              -37.801114
            ],
            [
              144.956414,
              -37.801143
            ],
            [
              144.956416,
              -37.801145
            ],
            [
              144.956556,
              -37.801257
            ],
            [
              144.956595,
              -37.801302
            ],
            [
              144.956598,
              -37.801305
            ],
            [
              144.9566,
              -37.801308
            ],
            [
              144.956619,
              -37.8012
            ],
            [
              144.956619,
              -37.801196
            ],
            [
              144.956618,
              -37.801196
            ],
            [
              144.9566,
              -37.801182
            ],
            [
              144.956653,
              -37.801093
            ],
            [
              144.956692,
              -37.801027
            ],
            [
              144.956679,
              -37.801012
            ],
            [
              144.956659,
              -37.80099
            ],
            [
              144.956643,
              -37.800973
            ],
            [
              144.956631,
              -37.800961
            ],
            [
              144.956568,
              -37.800912
            ],
            [
              144.956467,
              -37.800831
            ],
            [
              144.956352,
              -37.80074
            ],
            [
              144.956192,
              -37.800612
            ],
            [
              144.956147,
              -37.800647
            ],
            [
              144.956143,
              -37.800651
            ],
            [
              144.956141,
              -37.800652
            ],
            [
              144.956111,
              -37.800676
            ],
            [
              144.956109,
              -37.800677
            ],
            [
              144.956107,
              -37.800679
            ],
            [
              144.956038,
              -37.800734
            ],
            [
              144.956036,
              -37.800736
            ],
            [
              144.956033,
              -37.800737
            ],
            [
              144.956146,
              -37.800828
            ],
            [
              144.956152,
              -37.800833
            ],
            [
              144.956153,
              -37.800834
            ],
            [
              144.956149,
              -37.800837
            ],
            [
              144.95618,
              -37.800862
            ],
            [
              144.956153,
              -37.800883
            ],
            [
              144.956122,
              -37.800859
            ],
            [
              144.956113,
              -37.800866
            ],
            [
              144.95599,
              -37.800771
            ],
            [
              144.955989,
              -37.80077
            ],
            [
              144.956031,
              -37.800735
            ],
            [
              144.956018,
              -37.800725
            ],
            [
              144.956017,
              -37.800725
            ],
            [
              144.956017,
              -37.800724
            ],
            [
              144.956015,
              -37.800723
            ],
            [
              144.956012,
              -37.800722
            ],
            [
              144.956011,
              -37.800722
            ],
            [
              144.95601,
              -37.800721
            ],
            [
              144.956002,
              -37.800721
            ],
            [
              144.956001,
              -37.800722
            ],
            [
              144.955999,
              -37.800722
            ],
            [
              144.955998,
              -37.800723
            ],
            [
              144.955997,
              -37.800723
            ],
            [
              144.955996,
              -37.800724
            ],
            [
              144.955995,
              -37.800724
            ],
            [
              144.955995,
              -37.800725
            ],
            [
              144.955974,
              -37.800741
            ],
            [
              144.955943,
              -37.800765
            ]
          ],
          [
            [
              144.956448,
              -37.80112
            ],
            [
              144.956476,
              -37.801097
            ],
            [
              144.9565,
              -37.801116
            ],
            [
              144.956471,
              -37.801139
            ],
            [
              144.956448,
              -37.80112
            ]
          ]
        ]
      }
    }
  ]
}