{
  "type": "FeatureCollection",
  "features": [
    {
      "type": "Feature",
      "properties": {
        "name": "polygon9"
      },
      "geometry": {
        "type": "Polygon",
        "coordinates": [
          [
            [
              144.952035,
              -37.814066
            ],
            [
              144.952039,
              -37.814075
            ],
            [
              144.952066,
              -37.814067
            ],
            [
              144.952067,
              -37.814068
            ],
            [
              144.952069,
              -37.814072
            ],
            [
              144.952328,
              -37.813998
            ],
            [
              144.953481,
              -37.813671
            ],
            [
              144.952164,
              -37.814048
            ],
            [
              144.952148,
              -37.814053
            ],
            [
              144.952117,
              -37.814062
            ],
            [
              144.952082,
              -37.814071
            ],
            [
              144.952075,
              -37.814073
            ],
            [
              144.95206,
              -37.814077
            ],
            [
              144.952044,
              -37.814082
            ],
            [
              144.952042,
              -37.814082
            ],
            [
              144.952091,
              -37.81418
            ],
            [
              144.953458,
              -37.813792
            ],
            [
              144.953449,
              -37.813773
            ],
            [
              144.953448,
              -37.813771
            ],
            [
              144.953448,
              -37.813769
            ],
            [
              144.953444,
              -37.813762
            ],
            [
              144.953464,
              -37.813756
            ],
            [
              144.953472,
              -37.813754
            ],
            [
              144.953509,
              -37.813743
            ],
            [
              144.953515,
              -37.813741
            ],
            [
              144.953522,
              -37.813758
            ],
            [
              144.953539,
              -37.813753
            ],
            [
              144.953538,
              -37.813751
            ],
            [
              144.953644,
              -37.813721
            ],
            [
              144.953644,
              -37.813723
            ],
            [
              144.95371,
              -37.813704
            ],
            [
              144.95371,
              -37.813702
            ],
            [
              144.953809,
              -37.813675
            ],
            [
              144.953855,
              -37.813662
            ],
            [
              144.95402,
              -37.813614
            ],
            [
              144.95402,
              -37.813615
            ],
            [
              144.954023,
              -37.813614
            ],
            [
              144.954016,
              -37.813597
            ],
            [
              144.954033,
              -37.813591
            ],
            [
              144.95403,
              -37.813586
            ],
            [
              144.954033,
              -37.813585
            ],
            [
              144.954035,
              -37.813591
            ],
            [
              144.954056,
              -37.813584
            ],
            [
              144.954057,
              -37.813587
            ],
            [
              144.954059,
              -37.813586
            ],
            [
              144.954058,
              -37.813584
            ],
            [
              144.954059,
              -37.813583
            ],
            [
              144.95406,
              -37.813583
            ],
            [
              144.954234,
              -37.813533
            ],
            [
              144.954231,
              -37.813528
            ],
            [
              144.954228,
              -37.813528
            ],
            [
              144.95422,
              -37.813531
            ],
            [
              144.95422,
              -37.81353
            ],
            [
              144.954219,
              -37.813528
            ],
            [
              144.95423,
              -37.813525
            ],
            [
              144.954229,
              -37.813523
            ],
            [
              144.954202,
              -37.813467
            ],
            [
              144.954201,
              -37.813464
            ],
            [
              144.954193,
              -37.813448
            ],
            [
              144.953799,
              -37.813561
            ],
            [
              144.953793,
              -37.813563
            ],
            [
              144.95379,
              -37.813563
            ],
            [
              144.953732,
              -37.81358
            ],
            [
              144.953729,
              -37.813581
            ],
            [
              144.953726,
              -37.813573
            ],
            [
              144.953717,
              -37.813575
            ],
            [
              144.953716,
              -37.813572
            ],
            [
              144.953542,
              -37.813621
            ],
            [
              144.95354,
              -37.813622
            ],
            [
              144.953545,
              -37.813633
            ],
            [
              144.953488,
              -37.81365
            ],
            [
              144.953484,
              -37.813651
            ],
            [
              144.95347,
              -37.813655
            ],
            [
              144.953111,
              -37.813758
            ],
            [
              144.952035,
              -37.814066
            ]
          ]
        ]
      }
    }
  ]
}