{
  "type": "FeatureCollection",
  "features": [
    {
      "type": "Feature",
      "properties": {
        "name": "polygon21"
      },
      "geometry": {
        "type": "Polygon",
        "coordinates": [
          [
            [
              144.954514,
              -37.813357
            ],
            [
              144.954523,
              -37.813375
            ],
            [
              144.954542,
              -37.813419
            ],
            [
              144.954543,
              -37.813421
            ],
            [
              144.954545,
              -37.813423
            ],
            [
              144.954568,
              -37.813476
            ],
            [
              144.955001,
              -37.813355
            ],
            [
              144.955001,
              -37.813354
            ],
            [
              144.955002,
              -37.813353
            ],
            [
              144.955004,
              -37.813353
            ],
            [
              144.955007,
              -37.813352
            ],
            [
              144.954992,
              -37.813322
            ],
            [
              144.954992,
              -37.813321
            ],
            [
              144.955024,
              -37.813313
            ],
            [
              144.955027,
              -37.813319
            ],
            [
              144.95503,
              -37.813319
            ],
            [
              144.955027,
              -37.813312
            ],
            [
              144.95503,
              -37.813311
            ],
            [
              144.955602,
              -37.81315
            ],
            [
              144.955607,
              -37.813149
            ],
            [
              144.955608,
              -37.813151
            ],
            [
              144.955611,
              -37.813151
            ],
            [
              144.955614,
              -37.81315
            ],
            [
              144.955612,
              -37.813147
            ],
            [
              144.955663,
              -37.813132
            ],
            [
              144.955665,
              -37.813132
            ],
            [
              144.955668,
              -37.813131
            ],
            [
              144.955683,
              -37.813163
            ],
            [
              144.956049,
              -37.813058
            ],
            [
              144.956034,
              -37.813025
            ],
            [
              144.956038,
              -37.813024
            ],
            [
              144.95604,
              -37.813024
            ],
            [
              144.956044,
              -37.813022
            ],
            [
              144.956088,
              -37.81301
            ],
            [
              144.956091,
              -37.813009
            ],
            [
              144.956093,
              -37.813008
            ],
            [
              144.956107,
              -37.813039
            ],
            [
              144.956108,
              -37.813039
            ],
            [
              144.956109,
              -37.81304
            ],
            [
              144.956116,
              -37.813038
            ],
            [
              144.956303,
              -37.812984
            ],
            [
              144.956289,
              -37.812951
            ],
            [
              144.956352,
              -37.812933
            ],
            [
              144.956354,
              -37.812933
            ],
            [
              144.956356,
              -37.812932
            ],
            [
              144.956358,
              -37.812932
            ],
            [
              144.956376,
              -37.812926
            ],
            [
              144.956387,
              -37.812923
            ],
            [
              144.956391,
              -37.812922
            ],
            [
              144.956393,
              -37.812922
            ],
            [
              144.956393,
              -37.812921
            ],
            [
              144.956396,
              -37.812921
            ],
            [
              144.956396,
              -37.81292
            ],
            [
              144.956398,
              -37.81292
            ],
            [
              144.956723,
              -37.812826
            ],
            [
              144.956721,
              -37.812821
            ],
            [
              144.956721,
              -37.81282
            ],
            [
              144.956719,
              -37.812816
            ],
            [
              144.956692,
              -37.812757
            ],
            [
              144.956691,
              -37.812755
            ],
            [
              144.956689,
              -37.812752
            ],
            [
              144.956685,
              -37.812743
            ],
            [
              144.956681,
              -37.812733
            ],
            [
              144.956671,
              -37.812712
            ],
            [
              144.95628,
              -37.812823
            ],
            [
              144.956282,
              -37.812828
            ],
            [
              144.956284,
              -37.812832
            ],
            [
              144.956285,
              -37.812833
            ],
            [
              144.956294,
              -37.812854
            ],
            [
              144.956252,
              -37.812866
            ],
            [
              144.95625,
              -37.812867
            ],
            [
              144.956247,
              -37.812867
            ],
            [
              144.956245,
              -37.812868
            ],
            [
              144.956244,
              -37.812868
            ],
            [
              144.955728,
              -37.813014
            ],
            [
              144.955721,
              -37.813016
            ],
            [
              144.95572,
              -37.813016
            ],
            [
              144.95572,
              -37.813017
            ],
            [
              144.955717,
              -37.813017
            ],
            [
              144.955683,
              -37.813027
            ],
            [
              144.95568,
              -37.813028
            ],
            [
              144.955679,
              -37.813028
            ],
            [
              144.955675,
              -37.813029
            ],
            [
              144.955412,
              -37.813104
            ],
            [
              144.955405,
              -37.813105
            ],
            [
              144.955399,
              -37.813107
            ],
            [
              144.955355,
              -37.813119
            ],
            [
              144.955353,
              -37.81312
            ],
            [
              144.95535,
              -37.813121
            ],
            [
              144.955345,
              -37.813122
            ],
            [
              144.95499,
              -37.813223
            ],
            [
              144.954988,
              -37.813223
            ],
            [
              144.954987,
              -37.813224
            ],
            [
              144.954964,
              -37.81323
            ],
            [
              144.954961,
              -37.813231
            ],
            [
              144.954939,
              -37.813237
            ],
            [
              144.954936,
              -37.813238
            ],
            [
              144.954514,
              -37.813357
            ]
          ],
          [
            [
              144.955352,
              -37.813133
            ],
            [
              144.955353,
              -37.813132
            ],
            [
              144.955353,
              -37.813133
            ],
            [
              144.955352,
              -37.813133
            ]
          ],
          [
            [
              144.956243,
              -37.812879
            ],
            [
              144.956247,
              -37.812874
            ],
            [
              144.956247,
              -37.812876
            ],
            [
              144.956246,
              -37.812877
            ],
            [
              144.956246,
              -37.812878
            ],
            [
              144.956245,
              -37.812878
            ],
            [
              144.956244,
              -37.812879
            ],
            [
              144.956243,
              -37.812879
            ]
          ]
        ]
      }
    }
  ]
}