{
  "type": "FeatureCollection",
  "features": [
    {
      "type": "Feature",
      "properties": {
        "name": "polygon149"
      },
      "geometry": {
        "type": "Polygon",
        "coordinates": [
          [
            [
              144.958359,
              -37.809872
            ],
            [
              144.958442,
              -37.810049
            ],
            [
              144.958561,
              -37.810012
            ],
            [
              144.958564,
              -37.810012
            ],
            [
              144.958567,
              -37.810011
            ],
            [
              144.958567,
              -37.81001
            ],
            [
              144.958568,
              -37.810006
            ],
            [
              144.958568,
              -37.810005
            ],
            [
              144.95857,
              -37.810001
            ],
            [
              144.958573,
              -37.809996
            ],
            [
              144.958576,
              -37.809992
            ],
            [
              144.958581,
              -37.809988
            ],
            [
              144.958586,
              -37.809985
            ],
            [
              144.958592,
              -37.809983
            ],
            [
              144.9586,
              -37.810001
            ],
            [
              144.960319,
              -37.809503
            ],
            [
              144.960327,
              -37.809501
            ],
            [
              144.960328,
              -37.8095
            ],
            [
              144.96033,
              -37.8095
            ],
            [
              144.960333,
              -37.809499
            ],
            [
              144.960407,
              -37.809477
            ],
            [
              144.96041,
              -37.809477
            ],
            [
              144.960412,
              -37.809476
            ],
            [
              144.960413,
              -37.809476
            ],
            [
              144.960417,
              -37.809475
            ],
            [
              144.960729,
              -37.809384
            ],
            [
              144.960744,
              -37.80938
            ],
            [
              144.960735,
              -37.809361
            ],
            [
              144.960721,
              -37.809365
            ],
            [
              144.960719,
              -37.809362
            ],
            [
              144.960719,
              -37.80936
            ],
            [
              144.960733,
              -37.809356
            ],
            [
              144.960705,
              -37.809296
            ],
            [
              144.960678,
              -37.809236
            ],
            [
              144.960677,
              -37.809234
            ],
            [
              144.960676,
              -37.809231
            ],
            [
              144.960666,
              -37.809209
            ],
            [
              144.96045,
              -37.809269
            ],
            [
              144.960428,
              -37.809275
            ],
            [
              144.960425,
              -37.809276
            ],
            [
              144.960415,
              -37.809279
            ],
            [
              144.960399,
              -37.809285
            ],
            [
              144.960396,
              -37.809286
            ],
            [
              144.960394,
              -37.809287
            ],
            [
              144.960386,
              -37.809289
            ],
            [
              144.960375,
              -37.809292
            ],
            [
              144.960373,
              -37.809293
            ],
            [
              144.960188,
              -37.809346
            ],
            [
              144.960023,
              -37.809395
            ],
            [
              144.959592,
              -37.80952
            ],
            [
              144.959574,
              -37.809525
            ],
            [
              144.959449,
              -37.809562
            ],
            [
              144.959321,
              -37.809599
            ],
            [
              144.959308,
              -37.809603
            ],
            [
              144.959305,
              -37.809604
            ],
            [
              144.959307,
              -37.809608
            ],
            [
              144.959312,
              -37.809619
            ],
            [
              144.959314,
              -37.809621
            ],
            [
              144.959314,
              -37.809622
            ],
            [
              144.959315,
              -37.809622
            ],
            [
              144.959316,
              -37.809623
            ],
            [
              144.959317,
              -37.809623
            ],
            [
              144.959314,
              -37.809624
            ],
            [
              144.959313,
              -37.809624
            ],
            [
              144.959313,
              -37.809623
            ],
            [
              144.959312,
              -37.809623
            ],
            [
              144.95931,
              -37.809621
            ],
            [
              144.95931,
              -37.80962
            ],
            [
              144.959302,
              -37.809605
            ],
            [
              144.959236,
              -37.809624
            ],
            [
              144.959243,
              -37.809639
            ],
            [
              144.959243,
              -37.809641
            ],
            [
              144.959244,
              -37.809641
            ],
            [
              144.959244,
              -37.809644
            ],
            [
              144.959243,
              -37.809645
            ],
            [
              144.95924,
              -37.809646
            ],
            [
              144.95924,
              -37.809645
            ],
            [
              144.959241,
              -37.809644
            ],
            [
              144.959241,
              -37.809641
            ],
            [
              144.95924,
              -37.80964
            ],
            [
              144.95924,
              -37.809639
            ],
            [
              144.959233,
              -37.809625
            ],
            [
              144.95923,
              -37.809626
            ],
            [
              144.959224,
              -37.809627
            ],
            [
              144.95852,
              -37.809827
            ],
            [
              144.958531,
              -37.809851
            ],
            [
              144.958524,
              -37.809852
            ],
            [
              144.958509,
              -37.809852
            ],
            [
              144.958502,
              -37.809851
            ],
            [
              144.958497,
              -37.809848
            ],
            [
              144.958492,
              -37.809846
            ],
            [
              144.958486,
              -37.80984
            ],
            [
              144.958484,
              -37.809837
            ],
            [
              144.958482,
              -37.809832
            ],
            [
              144.95848,
              -37.809833
            ],
            [
              144.958477,
              -37.809833
            ],
            [
              144.958479,
              -37.809838
            ],
            [
              144.95848,
              -37.809838
            ],
            [
              144.958359,
              -37.809872
            ]
          ],
          [
            [
              144.958616,
              -37.809815
            ],
            [
              144.958635,
              -37.80981
            ],
            [
              144.95864,
              -37.80982
            ],
            [
              144.958621,
              -37.809825
            ],
            [
              144.958616,
              -37.809815
            ]
          ],
          [
            [
              144.958929,
              -37.809725
            ],
            [
              144.95895,
              -37.809719
            ],
            [
              144.958955,
              -37.809729
            ],
            [
              144.958934,
              -37.809735
            ],
            [
              144.958929,
              -37.809725
            ]
          ],
          [
            [
              144.959547,
              -37.809545
            ],
            [
              144.95956,
              -37.809542
            ],
            [
              144.959565,
              -37.809552
            ],
            [
              144.959552,
              -37.809555
            ],
            [
              144.959547,
              -37.809545
            ]
          ],
          [
            [
              144.95978,
              -37.809478
            ],
            [
              144.959793,
              -37.809474
            ],
            [
              144.959797,
              -37.809485
            ],
            [
              144.959785,
              -37.809488
            ],
            [
              144.95978,
              -37.809478
            ]
          ],
          [
            [
              144.959879,
              -37.80945
            ],
            [
              144.959891,
              -37.809446
            ],
            [
              144.959896,
              -37.809456
            ],
            [
              144.959883,
              -37.80946
            ],
            [
              144.959879,
              -37.80945
            ]
          ],
          [
            [
              144.960182,
              -37.809363
            ],
            [
              144.960199,
              -37.809358
            ],
            [
              144.960204,
              -37.809368
            ],
            [
              144.960186,
              -37.809373
            ],
            [
              144.960182,
              -37.809363
            ]
          ],
          [
            [
              144.9603,
              -37.809328
            ],
            [
              144.960326,
              -37.809321
            ],
            [
              144.960331,
              -37.809332
            ],
            [
              144.960305,
              -37.809339
            ],
            [
              144.9603,
              -37.809328
            ]
          ],
          [
            [
              144.9604011071429,
              -37.809311142857126
            ],
            [
              144.960407,
              -37.809309
            ],
            [
              144.96040887499998,
              -37.809309
            ],
            [
              144.9604011071429,
              -37.809311142857126
            ]
          ]
        ]
      }
    }
  ]
}