{
    "type": "FeatureCollection",
    "generator": "JOSM",
    "features": [
        {
            "type": "Feature",
            "properties": {
                "name": "polygon21"
            },
            "geometry": {
                "type": "LineString",
                "coordinates": [
                    [
                        144.95552900000,
                        -37.81993800000
                    ],
                    [
                        144.95578600000,
                        -37.82049900000
                    ],
                    [
                        144.95579100000,
                        -37.82050900000
                    ],
                    [
                        144.95579400000,
                        -37.82050800000
                    ],
                    [
                        144.95587000000,
                        -37.82067600000
                    ],
                    [
                        144.95588000000,
                        -37.82067300000
                    ],
                    [
                        144.95588200000,
                        -37.82067300000
                    ],
                    [
                        144.95589000000,
                        -37.82067100000
                    ],
                    [
                        144.95589200000,
                        -37.82067000000
                    ],
                    [
                        144.95595400000,
                        -37.82065200000
                    ],
                    [
                        144.95595700000,
                        -37.82065100000
                    ],
                    [
                        144.95596100000,
                        -37.82065000000
                    ],
                    [
                        144.95597000000,
                        -37.82064800000
                    ],
                    [
                        144.95590700000,
                        -37.82051100000
                    ],
                    [
                        144.95590700000,
                        -37.82050900000
                    ],
                    [
                        144.95590600000,
                        -37.82050800000
                    ],
                    [
                        144.95589400000,
                        -37.82048300000
                    ],
                    [
                        144.95589400000,
                        -37.82048100000
                    ],
                    [
                        144.95589300000,
                        -37.82048000000
                    ],
                    [
                        144.95580500000,
                        -37.82028600000
                    ],
                    [
                        144.95577100000,
                        -37.82021100000
                    ],
                    [
                        144.95563300000,
                        -37.81990800000
                    ],
                    [
                        144.95562000000,
                        -37.81991200000
                    ],
                    [
                        144.95562100000,
                        -37.81991400000
                    ],
                    [
                        144.95561900000,
                        -37.81991400000
                    ],
                    [
                        144.95561800000,
                        -37.81991200000
                    ],
                    [
                        144.95554600000,
                        -37.81993300000
                    ],
                    [
                        144.95554300000,
                        -37.81993400000
                    ],
                    [
                        144.95554100000,
                        -37.81993400000
                    ],
                    [
                        144.95552900000,
                        -37.81993800000
                    ]
                ]
            }
        }
    ]
}