{
  "type": "FeatureCollection",
  "features": [
    {
      "type": "Feature",
      "properties": {
        "name": "polygon89"
      },
      "geometry": {
        "type": "MultiPolygon",
        "coordinates": [
          [
            [
              [
                144.96028,
                -37.817489
              ],
              [
                144.960572,
                -37.818126
              ],
              [
                144.960576,
                -37.818125
              ],
              [
                144.960581,
                -37.818125
              ],
              [
                144.960583,
                -37.818127
              ],
              [
                144.960613,
                -37.818193
              ],
              [
                144.960614,
                -37.818195
              ],
              [
                144.960614,
                -37.818198
              ],
              [
                144.960613,
                -37.8182
              ],
              [
                144.960612,
                -37.818201
              ],
              [
                144.96061,
                -37.818201
              ],
              [
                144.960587,
                -37.818208
              ],
              [
                144.960591,
                -37.818218
              ],
              [
                144.960727,
                -37.818215
              ],
              [
                144.960734,
                -37.818229
              ],
              [
                144.960734,
                -37.81823
              ],
              [
                144.960737,
                -37.818235
              ],
              [
                144.960738,
                -37.818235
              ],
              [
                144.960738,
                -37.818236
              ],
              [
                144.960742,
                -37.818239
              ],
              [
                144.960743,
                -37.818239
              ],
              [
                144.960743,
                -37.81824
              ],
              [
                144.960749,
                -37.818243
              ],
              [
                144.960754,
                -37.818245
              ],
              [
                144.960755,
                -37.818245
              ],
              [
                144.960755,
                -37.818246
              ],
              [
                144.960774,
                -37.818246
              ],
              [
                144.960779,
                -37.818245
              ],
              [
                144.960787,
                -37.818242
              ],
              [
                144.960786,
                -37.81824
              ],
              [
                144.960783,
                -37.818241
              ],
              [
                144.960773,
                -37.818243
              ],
              [
                144.960772,
                -37.818243
              ],
              [
                144.960763,
                -37.818244
              ],
              [
                144.960757,
                -37.818243
              ],
              [
                144.960756,
                -37.818243
              ],
              [
                144.960751,
                -37.818241
              ],
              [
                144.960745,
                -37.818237
              ],
              [
                144.960741,
                -37.818234
              ],
              [
                144.96074,
                -37.818233
              ],
              [
                144.960737,
                -37.818229
              ],
              [
                144.960737,
                -37.818228
              ],
              [
                144.960731,
                -37.818215
              ],
              [
                144.960717,
                -37.818184
              ],
              [
                144.960375,
                -37.817433
              ],
              [
                144.960374,
                -37.817431
              ],
              [
                144.960373,
                -37.81743
              ],
              [
                144.960366,
                -37.817415
              ],
              [
                144.960365,
                -37.817407
              ],
              [
                144.960364,
                -37.817401
              ],
              [
                144.960365,
                -37.817394
              ],
              [
                144.960367,
                -37.817388
              ],
              [
                144.960371,
                -37.817382
              ],
              [
                144.960377,
                -37.817378
              ],
              [
                144.960391,
                -37.817372
              ],
              [
                144.960393,
                -37.817372
              ],
              [
                144.960392,
                -37.81737
              ],
              [
                144.96039,
                -37.81737
              ],
              [
                144.960383,
                -37.817372
              ],
              [
                144.960382,
                -37.817372
              ],
              [
                144.960375,
                -37.817376
              ],
              [
                144.960369,
                -37.817379
              ],
              [
                144.960369,
                -37.81738
              ],
              [
                144.960368,
                -37.81738
              ],
              [
                144.960368,
                -37.817381
              ],
              [
                144.960364,
                -37.817387
              ],
              [
                144.960363,
                -37.817387
              ],
              [
                144.960363,
                -37.817388
              ],
              [
                144.960361,
                -37.817393
              ],
              [
                144.960361,
                -37.817408
              ],
              [
                144.960363,
                -37.817415
              ],
              [
                144.960363,
                -37.817416
              ],
              [
                144.960364,
                -37.817418
              ],
              [
                144.960369,
                -37.817429
              ],
              [
                144.96037,
                -37.817431
              ],
              [
                144.960293,
                -37.817454
              ],
              [
                144.960292,
                -37.817464
              ],
              [
                144.960292,
                -37.817482
              ],
              [
                144.960291,
                -37.817484
              ],
              [
                144.96029,
                -37.817485
              ],
              [
                144.96029,
                -37.817486
              ],
              [
                144.960289,
                -37.817486
              ],
              [
                144.96028,
                -37.817489
              ]
            ]
          ],
          [
            [
              [
                144.960368,
                -37.817407
              ],
              [
                144.96037,
                -37.817414
              ],
              [
                144.960377,
                -37.817429
              ],
              [
                144.960378,
                -37.817433
              ],
              [
                144.960377,
                -37.817433
              ],
              [
                144.960719,
                -37.818183
              ],
              [
                144.960733,
                -37.818214
              ],
              [
                144.960739,
                -37.818228
              ],
              [
                144.960742,
                -37.818233
              ],
              [
                144.960746,
                -37.818236
              ],
              [
                144.960752,
                -37.818239
              ],
              [
                144.960757,
                -37.818241
              ],
              [
                144.960763,
                -37.818242
              ],
              [
                144.960772,
                -37.818241
              ],
              [
                144.960783,
                -37.818239
              ],
              [
                144.960785,
                -37.818238
              ],
              [
                144.960774,
                -37.818213
              ],
              [
                144.960612,
                -37.81786
              ],
              [
                144.960415,
                -37.817418
              ],
              [
                144.960395,
                -37.817374
              ],
              [
                144.960392,
                -37.817375
              ],
              [
                144.960385,
                -37.817377
              ],
              [
                144.960379,
                -37.81738
              ],
              [
                144.960374,
                -37.817384
              ],
              [
                144.96037,
                -37.817389
              ],
              [
                144.960368,
                -37.817394
              ],
              [
                144.960368,
                -37.817407
              ]
            ]
          ]
        ]
      }
    }
  ]
}