{
  "type": "FeatureCollection",
  "features": [
    {
      "type": "Feature",
      "properties": {
        "name": "polygon62"
      },
      "geometry": {
        "type": "Polygon",
        "coordinates": [
          [
            [
              144.968694,
              -37.813688
            ],
            [
              144.968702,
              -37.813703
            ],
            [
              144.9687,
              -37.813704
            ],
            [
              144.968696,
              -37.813704
            ],
            [
              144.968698,
              -37.813707
            ],
            [
              144.968699,
              -37.813709
            ],
            [
              144.968725,
              -37.813767
            ],
            [
              144.968726,
              -37.813769
            ],
            [
              144.968728,
              -37.813772
            ],
            [
              144.968732,
              -37.813782
            ],
            [
              144.968739,
              -37.813798
            ],
            [
              144.969166,
              -37.813671
            ],
            [
              144.969158,
              -37.813655
            ],
            [
              144.969783,
              -37.813469
            ],
            [
              144.969793,
              -37.813467
            ],
            [
              144.969795,
              -37.813467
            ],
            [
              144.969827,
              -37.813459
            ],
            [
              144.969829,
              -37.813459
            ],
            [
              144.969834,
              -37.813458
            ],
            [
              144.970099,
              -37.81338
            ],
            [
              144.970101,
              -37.813379
            ],
            [
              144.970146,
              -37.813365
            ],
            [
              144.970148,
              -37.813365
            ],
            [
              144.970155,
              -37.81338
            ],
            [
              144.970881,
              -37.813165
            ],
            [
              144.970875,
              -37.813152
            ],
            [
              144.970874,
              -37.81315
            ],
            [
              144.970873,
              -37.813147
            ],
            [
              144.970842,
              -37.81308
            ],
            [
              144.97084,
              -37.813076
            ],
            [
              144.970836,
              -37.813066
            ],
            [
              144.970832,
              -37.813058
            ],
            [
              144.970334,
              -37.813205
            ],
            [
              144.970206,
              -37.813242
            ],
            [
              144.969758,
              -37.813374
            ],
            [
              144.969761,
              -37.813382
            ],
            [
              144.969481,
              -37.813464
            ],
            [
              144.969477,
              -37.813455
            ],
            [
              144.969371,
              -37.813487
            ],
            [
              144.96937,
              -37.813488
            ],
            [
              144.969368,
              -37.813488
            ],
            [
              144.969364,
              -37.813489
            ],
            [
              144.969368,
              -37.813498
            ],
            [
              144.969326,
              -37.81351
            ],
            [
              144.969324,
              -37.813511
            ],
            [
              144.96932,
              -37.813512
            ],
            [
              144.969306,
              -37.813516
            ],
            [
              144.969303,
              -37.813508
            ],
            [
              144.968694,
              -37.813688
            ]
          ]
        ]
      }
    }
  ]
}