{
  "type": "FeatureCollection",
  "features": [
    {
      "type": "Feature",
      "properties": {
        "name": "polygon87"
      },
      "geometry": {
        "type": "MultiPolygon",
        "coordinates": [
          [
            [
              [
                144.958498,
                -37.816743
              ],
              [
                144.958504,
                -37.816756
              ],
              [
                144.958508,
                -37.816766
              ],
              [
                144.958511,
                -37.816766
              ],
              [
                144.958511,
                -37.816767
              ],
              [
                144.958512,
                -37.816767
              ],
              [
                144.958513,
                -37.816768
              ],
              [
                144.958514,
                -37.816768
              ],
              [
                144.958518,
                -37.816763
              ],
              [
                144.958525,
                -37.816766
              ],
              [
                144.958522,
                -37.816771
              ],
              [
                144.958713,
                -37.81718
              ],
              [
                144.958714,
                -37.817183
              ],
              [
                144.958715,
                -37.817185
              ],
              [
                144.958715,
                -37.817186
              ],
              [
                144.958717,
                -37.817188
              ],
              [
                144.958733,
                -37.817223
              ],
              [
                144.958734,
                -37.817226
              ],
              [
                144.958735,
                -37.817226
              ],
              [
                144.958736,
                -37.817228
              ],
              [
                144.958736,
                -37.81723
              ],
              [
                144.958893,
                -37.817573
              ],
              [
                144.958879,
                -37.817577
              ],
              [
                144.958897,
                -37.817616
              ],
              [
                144.958912,
                -37.817612
              ],
              [
                144.958914,
                -37.817616
              ],
              [
                144.95894,
                -37.81767
              ],
              [
                144.959071,
                -37.817633
              ],
              [
                144.959058,
                -37.817605
              ],
              [
                144.959025,
                -37.817533
              ],
              [
                144.959023,
                -37.817528
              ],
              [
                144.958647,
                -37.81671
              ],
              [
                144.958561,
                -37.816738
              ],
              [
                144.958557,
                -37.816736
              ],
              [
                144.958556,
                -37.816735
              ],
              [
                144.958555,
                -37.816735
              ],
              [
                144.958552,
                -37.816734
              ],
              [
                144.95855,
                -37.816733
              ],
              [
                144.958549,
                -37.816733
              ],
              [
                144.958548,
                -37.816732
              ],
              [
                144.958545,
                -37.816732
              ],
              [
                144.958543,
                -37.816731
              ],
              [
                144.958527,
                -37.816731
              ],
              [
                144.95852,
                -37.816732
              ],
              [
                144.958506,
                -37.816736
              ],
              [
                144.958508,
                -37.81674
              ],
              [
                144.958498,
                -37.816743
              ]
            ],
            [
              [
                144.958565,
                -37.816794
              ],
              [
                144.958585,
                -37.816788
              ],
              [
                144.958586,
                -37.816788
              ],
              [
                144.958595,
                -37.816808
              ],
              [
                144.958596,
                -37.81681
              ],
              [
                144.958597,
                -37.816811
              ],
              [
                144.958595,
                -37.816811
              ],
              [
                144.958576,
                -37.816817
              ],
              [
                144.958565,
                -37.816794
              ]
            ],
            [
              [
                144.95864,
                -37.816945
              ],
              [
                144.958655,
                -37.816941
              ],
              [
                144.958661,
                -37.816956
              ],
              [
                144.958663,
                -37.816959
              ],
              [
                144.958659,
                -37.816961
              ],
              [
                144.958649,
                -37.816963
              ],
              [
                144.95864,
                -37.816945
              ]
            ],
            [
              [
                144.958712,
                -37.817102
              ],
              [
                144.958727,
                -37.817097
              ],
              [
                144.958728,
                -37.817097
              ],
              [
                144.958736,
                -37.817116
              ],
              [
                144.958735,
                -37.817116
              ],
              [
                144.958731,
                -37.817117
              ],
              [
                144.95872,
                -37.81712
              ],
              [
                144.958712,
                -37.817102
              ]
            ],
            [
              [
                144.958735,
                -37.817117
              ],
              [
                144.958735,
                -37.817116
              ],
              [
                144.958757,
                -37.817165
              ],
              [
                144.958735,
                -37.817117
              ]
            ],
            [
              [
                144.958779,
                -37.817248
              ],
              [
                144.958794,
                -37.817244
              ],
              [
                144.958794,
                -37.817245
              ],
              [
                144.958801,
                -37.81726
              ],
              [
                144.958802,
                -37.817263
              ],
              [
                144.958788,
                -37.817267
              ],
              [
                144.958779,
                -37.817248
              ]
            ]
          ],
          [
            [
              [
                144.958715,
                -37.816688
              ],
              [
                144.959091,
                -37.817509
              ],
              [
                144.959093,
                -37.817513
              ],
              [
                144.959126,
                -37.817586
              ],
              [
                144.959139,
                -37.817613
              ],
              [
                144.959262,
                -37.817578
              ],
              [
                144.959237,
                -37.817523
              ],
              [
                144.959235,
                -37.817519
              ],
              [
                144.959235,
                -37.817518
              ],
              [
                144.959215,
                -37.817476
              ],
              [
                144.958836,
                -37.816649
              ],
              [
                144.958835,
                -37.816647
              ],
              [
                144.958834,
                -37.816644
              ],
              [
                144.958833,
                -37.816642
              ],
              [
                144.958817,
                -37.816647
              ],
              [
                144.958815,
                -37.816647
              ],
              [
                144.958814,
                -37.816648
              ],
              [
                144.958813,
                -37.816648
              ],
              [
                144.958812,
                -37.816649
              ],
              [
                144.958811,
                -37.816649
              ],
              [
                144.958807,
                -37.816651
              ],
              [
                144.958806,
                -37.816652
              ],
              [
                144.958805,
                -37.816652
              ],
              [
                144.958801,
                -37.816656
              ],
              [
                144.9588,
                -37.816656
              ],
              [
                144.958799,
                -37.816658
              ],
              [
                144.958798,
                -37.816659
              ],
              [
                144.958797,
                -37.816661
              ],
              [
                144.958796,
                -37.816661
              ],
              [
                144.958796,
                -37.816662
              ],
              [
                144.958715,
                -37.816688
              ]
            ],
            [
              [
                144.958816,
                -37.816723
              ],
              [
                144.958817,
                -37.816723
              ],
              [
                144.958835,
                -37.816718
              ],
              [
                144.958846,
                -37.816741
              ],
              [
                144.958828,
                -37.816746
              ],
              [
                144.958826,
                -37.816746
              ],
              [
                144.958816,
                -37.816723
              ]
            ],
            [
              [
                144.958888,
                -37.81688
              ],
              [
                144.958889,
                -37.81688
              ],
              [
                144.958908,
                -37.816874
              ],
              [
                144.958918,
                -37.816897
              ],
              [
                144.9589,
                -37.816902
              ],
              [
                144.958899,
                -37.816903
              ],
              [
                144.958888,
                -37.81688
              ]
            ],
            [
              [
                144.958956,
                -37.817027
              ],
              [
                144.958957,
                -37.817026
              ],
              [
                144.958973,
                -37.817022
              ],
              [
                144.958981,
                -37.817039
              ],
              [
                144.958965,
                -37.817043
              ],
              [
                144.958964,
                -37.817044
              ],
              [
                144.958956,
                -37.817027
              ]
            ],
            [
              [
                144.959022,
                -37.817168
              ],
              [
                144.959023,
                -37.817168
              ],
              [
                144.959039,
                -37.817163
              ],
              [
                144.959047,
                -37.81718
              ],
              [
                144.959031,
                -37.817185
              ],
              [
                144.95903,
                -37.817185
              ],
              [
                144.959022,
                -37.817168
              ]
            ],
            [
              [
                144.95911,
                -37.817359
              ],
              [
                144.959112,
                -37.817359
              ],
              [
                144.959127,
                -37.817355
              ],
              [
                144.959135,
                -37.817371
              ],
              [
                144.959119,
                -37.817376
              ],
              [
                144.959118,
                -37.817376
              ],
              [
                144.95911,
                -37.817359
              ]
            ]
          ]
        ]
      }
    }
  ]
}