{
  "type": "FeatureCollection",
  "features": [
    {
      "type": "Feature",
      "properties": {
        "name": "polygon16"
      },
      "geometry": {
        "type": "Polygon",
        "coordinates": [
          [
            [
              144.973146,
              -37.815931
            ],
            [
              144.973191,
              -37.815918
            ],
            [
              144.973237,
              -37.815907
            ],
            [
              144.97324,
              -37.815906
            ],
            [
              144.973283,
              -37.815897
            ],
            [
              144.973327,
              -37.815889
            ],
            [
              144.973329,
              -37.815888
            ],
            [
              144.973376,
              -37.815881
            ],
            [
              144.973423,
              -37.815875
            ],
            [
              144.973471,
              -37.81587
            ],
            [
              144.973518,
              -37.815866
            ],
            [
              144.973566,
              -37.815864
            ],
            [
              144.973613,
              -37.815863
            ],
            [
              144.973709,
              -37.815865
            ],
            [
              144.973756,
              -37.815868
            ],
            [
              144.973804,
              -37.815873
            ],
            [
              144.973851,
              -37.815879
            ],
            [
              144.974042,
              -37.815905
            ],
            [
              144.974997,
              -37.816034
            ],
            [
              144.976338,
              -37.816216
            ],
            [
              144.97636,
              -37.816219
            ],
            [
              144.976363,
              -37.816219
            ],
            [
              144.976366,
              -37.81622
            ],
            [
              144.976422,
              -37.816227
            ],
            [
              144.976425,
              -37.816228
            ],
            [
              144.976428,
              -37.816228
            ],
            [
              144.976453,
              -37.816231
            ],
            [
              144.976473,
              -37.816234
            ],
            [
              144.976976,
              -37.816303
            ],
            [
              144.976998,
              -37.816305
            ],
            [
              144.977027,
              -37.816309
            ],
            [
              144.977029,
              -37.81631
            ],
            [
              144.977032,
              -37.81631
            ],
            [
              144.977974,
              -37.816438
            ],
            [
              144.978001,
              -37.816441
            ],
            [
              144.978027,
              -37.816445
            ],
            [
              144.978029,
              -37.816445
            ],
            [
              144.978032,
              -37.816446
            ],
            [
              144.978135,
              -37.81646
            ],
            [
              144.97814,
              -37.81646
            ],
            [
              144.978164,
              -37.816464
            ],
            [
              144.978206,
              -37.816469
            ],
            [
              144.978676,
              -37.816533
            ],
            [
              144.97868,
              -37.816534
            ],
            [
              144.978684,
              -37.816534
            ],
            [
              144.978689,
              -37.816535
            ],
            [
              144.978701,
              -37.816538
            ],
            [
              144.978705,
              -37.81654
            ],
            [
              144.978709,
              -37.816541
            ],
            [
              144.978712,
              -37.816543
            ],
            [
              144.978716,
              -37.816544
            ],
            [
              144.97872,
              -37.816546
            ],
            [
              144.978723,
              -37.816548
            ],
            [
              144.978727,
              -37.81655
            ],
            [
              144.97873,
              -37.816552
            ],
            [
              144.978734,
              -37.816554
            ],
            [
              144.97874,
              -37.816558
            ],
            [
              144.978743,
              -37.816561
            ],
            [
              144.978746,
              -37.816563
            ],
            [
              144.978749,
              -37.816566
            ],
            [
              144.978752,
              -37.816568
            ],
            [
              144.978755,
              -37.816571
            ],
            [
              144.978757,
              -37.816574
            ],
            [
              144.978762,
              -37.816579
            ],
            [
              144.97877,
              -37.816591
            ],
            [
              144.978771,
              -37.816594
            ],
            [
              144.978773,
              -37.816598
            ],
            [
              144.978776,
              -37.816607
            ],
            [
              144.978777,
              -37.816611
            ],
            [
              144.978779,
              -37.816617
            ],
            [
              144.978779,
              -37.816621
            ],
            [
              144.97878,
              -37.816624
            ],
            [
              144.97878,
              -37.816638
            ],
            [
              144.978779,
              -37.816641
            ],
            [
              144.978779,
              -37.816644
            ],
            [
              144.978795,
              -37.816549
            ],
            [
              144.9788,
              -37.81652
            ],
            [
              144.978801,
              -37.816517
            ],
            [
              144.978801,
              -37.816515
            ],
            [
              144.978818,
              -37.816422
            ],
            [
              144.978819,
              -37.816414
            ],
            [
              144.978831,
              -37.816416
            ],
            [
              144.978832,
              -37.816416
            ],
            [
              144.978834,
              -37.816415
            ],
            [
              144.978835,
              -37.816415
            ],
            [
              144.978836,
              -37.816414
            ],
            [
              144.978836,
              -37.816413
            ],
            [
              144.978837,
              -37.816413
            ],
            [
              144.978837,
              -37.816408
            ],
            [
              144.978836,
              -37.816407
            ],
            [
              144.978836,
              -37.816406
            ],
            [
              144.978835,
              -37.816406
            ],
            [
              144.978834,
              -37.816405
            ],
            [
              144.978833,
              -37.816405
            ],
            [
              144.978821,
              -37.816404
            ],
            [
              144.978827,
              -37.816371
            ],
            [
              144.978827,
              -37.816367
            ],
            [
              144.978833,
              -37.816337
            ],
            [
              144.978834,
              -37.816331
            ],
            [
              144.978832,
              -37.816333
            ],
            [
              144.978826,
              -37.816335
            ],
            [
              144.978823,
              -37.816335
            ],
            [
              144.97821,
              -37.816252
            ],
            [
              144.978046,
              -37.81623
            ],
            [
              144.977624,
              -37.816173
            ],
            [
              144.977598,
              -37.816169
            ],
            [
              144.977567,
              -37.816165
            ],
            [
              144.977566,
              -37.816165
            ],
            [
              144.977364,
              -37.816138
            ],
            [
              144.977205,
              -37.816116
            ],
            [
              144.976212,
              -37.815981
            ],
            [
              144.976046,
              -37.815959
            ],
            [
              144.976047,
              -37.815955
            ],
            [
              144.976047,
              -37.815952
            ],
            [
              144.976048,
              -37.815947
            ],
            [
              144.976044,
              -37.815947
            ],
            [
              144.976005,
              -37.815942
            ],
            [
              144.976002,
              -37.815942
            ],
            [
              144.976,
              -37.815951
            ],
            [
              144.976,
              -37.815952
            ],
            [
              144.975989,
              -37.815951
            ],
            [
              144.975939,
              -37.815944
            ],
            [
              144.975743,
              -37.815918
            ],
            [
              144.975545,
              -37.815891
            ],
            [
              144.97517,
              -37.81584
            ],
            [
              144.975115,
              -37.815832
            ],
            [
              144.97511,
              -37.815832
            ],
            [
              144.975098,
              -37.81583
            ],
            [
              144.975006,
              -37.815818
            ],
            [
              144.975005,
              -37.815818
            ],
            [
              144.974916,
              -37.815805
            ],
            [
              144.974231,
              -37.815713
            ],
            [
              144.974177,
              -37.815705
            ],
            [
              144.974126,
              -37.815654
            ],
            [
              144.974137,
              -37.81564
            ],
            [
              144.974078,
              -37.815657
            ],
            [
              144.974078,
              -37.815658
            ],
            [
              144.974076,
              -37.815658
            ],
            [
              144.974074,
              -37.815659
            ],
            [
              144.973998,
              -37.815681
            ],
            [
              144.973993,
              -37.815682
            ],
            [
              144.973997,
              -37.815699
            ],
            [
              144.973997,
              -37.815702
            ],
            [
              144.974002,
              -37.815713
            ],
            [
              144.974005,
              -37.81572
            ],
            [
              144.974015,
              -37.815735
            ],
            [
              144.974031,
              -37.815751
            ],
            [
              144.974031,
              -37.815752
            ],
            [
              144.974032,
              -37.815753
            ],
            [
              144.974032,
              -37.815754
            ],
            [
              144.974033,
              -37.815755
            ],
            [
              144.974033,
              -37.815756
            ],
            [
              144.974032,
              -37.815756
            ],
            [
              144.974032,
              -37.815757
            ],
            [
              144.974031,
              -37.815758
            ],
            [
              144.974031,
              -37.815759
            ],
            [
              144.97403,
              -37.81576
            ],
            [
              144.974028,
              -37.81576
            ],
            [
              144.974027,
              -37.815761
            ],
            [
              144.974025,
              -37.815761
            ],
            [
              144.973998,
              -37.815758
            ],
            [
              144.973971,
              -37.815756
            ],
            [
              144.973907,
              -37.81575
            ],
            [
              144.973831,
              -37.815743
            ],
            [
              144.973797,
              -37.81574
            ],
            [
              144.973784,
              -37.815744
            ],
            [
              144.973605,
              -37.815796
            ],
            [
              144.9736,
              -37.815798
            ],
            [
              144.973598,
              -37.815798
            ],
            [
              144.973597,
              -37.815799
            ],
            [
              144.973589,
              -37.815801
            ],
            [
              144.973584,
              -37.815801
            ],
            [
              144.973585,
              -37.815824
            ],
            [
              144.973551,
              -37.815825
            ],
            [
              144.97355,
              -37.815812
            ],
            [
              144.973491,
              -37.81583
            ],
            [
              144.973146,
              -37.815931
            ]
          ],
          [
            [
              144.973679,
              -37.815827
            ],
            [
              144.973681,
              -37.815805
            ],
            [
              144.973689,
              -37.815805
            ],
            [
              144.973715,
              -37.815807
            ],
            [
              144.973712,
              -37.81583
            ],
            [
              144.973679,
              -37.815827
            ]
          ]
        ]
      }
    }
  ]
}