{
  "type": "FeatureCollection",
  "features": [
    {
      "type": "Feature",
      "properties": {
        "name": "polygon71"
      },
      "geometry": {
        "type": "MultiPolygon",
        "coordinates": [
          [
            [
              [
                144.972482,
                -37.815832
              ],
              [
                144.972496,
                -37.815862
              ],
              [
                144.972497,
                -37.815864
              ],
              [
                144.972498,
                -37.815867
              ],
              [
                144.972531,
                -37.815937
              ],
              [
                144.972719,
                -37.815883
              ],
              [
                144.973939,
                -37.815524
              ],
              [
                144.973992,
                -37.815508
              ],
              [
                144.974014,
                -37.815502
              ],
              [
                144.974014,
                -37.8155
              ],
              [
                144.974511,
                -37.815354
              ],
              [
                144.974551,
                -37.815342
              ],
              [
                144.974598,
                -37.815326
              ],
              [
                144.9746,
                -37.815329
              ],
              [
                144.974621,
                -37.815323
              ],
              [
                144.974644,
                -37.815314
              ],
              [
                144.974661,
                -37.815307
              ],
              [
                144.974636,
                -37.81524
              ],
              [
                144.97466,
                -37.815233
              ],
              [
                144.974663,
                -37.815232
              ],
              [
                144.974661,
                -37.815228
              ],
              [
                144.974671,
                -37.815224
              ],
              [
                144.974677,
                -37.815222
              ],
              [
                144.974682,
                -37.815219
              ],
              [
                144.974686,
                -37.815216
              ],
              [
                144.974689,
                -37.815213
              ],
              [
                144.974691,
                -37.81521
              ],
              [
                144.974694,
                -37.815206
              ],
              [
                144.974698,
                -37.815198
              ],
              [
                144.974698,
                -37.815191
              ],
              [
                144.974697,
                -37.815187
              ],
              [
                144.974624,
                -37.815209
              ],
              [
                144.9736,
                -37.815503
              ],
              [
                144.973597,
                -37.815504
              ],
              [
                144.973596,
                -37.815504
              ],
              [
                144.973595,
                -37.815505
              ],
              [
                144.973593,
                -37.815505
              ],
              [
                144.973555,
                -37.815516
              ],
              [
                144.973551,
                -37.815516
              ],
              [
                144.973549,
                -37.815517
              ],
              [
                144.972482,
                -37.815832
              ]
            ]
          ],
          [
            [
              [
                144.972555,
                -37.815988
              ],
              [
                144.972592,
                -37.816068
              ],
              [
                144.972589,
                -37.81608
              ],
              [
                144.972589,
                -37.816095
              ],
              [
                144.97259,
                -37.816095
              ],
              [
                144.972592,
                -37.816094
              ],
              [
                144.972603,
                -37.816091
              ],
              [
                144.972728,
                -37.816054
              ],
              [
                144.973146,
                -37.815931
              ],
              [
                144.973491,
                -37.81583
              ],
              [
                144.97355,
                -37.815812
              ],
              [
                144.97355,
                -37.815802
              ],
              [
                144.973565,
                -37.815801
              ],
              [
                144.973589,
                -37.815801
              ],
              [
                144.973597,
                -37.815799
              ],
              [
                144.973598,
                -37.815798
              ],
              [
                144.9736,
                -37.815798
              ],
              [
                144.973605,
                -37.815796
              ],
              [
                144.973784,
                -37.815744
              ],
              [
                144.973797,
                -37.81574
              ],
              [
                144.973803,
                -37.815738
              ],
              [
                144.973837,
                -37.815741
              ],
              [
                144.973852,
                -37.815743
              ],
              [
                144.973911,
                -37.815748
              ],
              [
                144.973943,
                -37.815751
              ],
              [
                144.973972,
                -37.815754
              ],
              [
                144.974025,
                -37.815759
              ],
              [
                144.974027,
                -37.815759
              ],
              [
                144.974027,
                -37.815758
              ],
              [
                144.974029,
                -37.815758
              ],
              [
                144.974029,
                -37.815757
              ],
              [
                144.97403,
                -37.815757
              ],
              [
                144.97403,
                -37.815753
              ],
              [
                144.974029,
                -37.815753
              ],
              [
                144.974029,
                -37.815752
              ],
              [
                144.974028,
                -37.815751
              ],
              [
                144.97402,
                -37.815744
              ],
              [
                144.974014,
                -37.815737
              ],
              [
                144.974013,
                -37.815736
              ],
              [
                144.974013,
                -37.815735
              ],
              [
                144.973891,
                -37.815724
              ],
              [
                144.973888,
                -37.815724
              ],
              [
                144.973887,
                -37.815723
              ],
              [
                144.973885,
                -37.815723
              ],
              [
                144.973884,
                -37.815722
              ],
              [
                144.973882,
                -37.815722
              ],
              [
                144.973876,
                -37.815716
              ],
              [
                144.973876,
                -37.815715
              ],
              [
                144.973875,
                -37.815713
              ],
              [
                144.973875,
                -37.815706
              ],
              [
                144.973876,
                -37.815705
              ],
              [
                144.973877,
                -37.815703
              ],
              [
                144.973877,
                -37.815702
              ],
              [
                144.97388,
                -37.815699
              ],
              [
                144.973882,
                -37.815698
              ],
              [
                144.973883,
                -37.815698
              ],
              [
                144.973884,
                -37.815697
              ],
              [
                144.973947,
                -37.815679
              ],
              [
                144.973991,
                -37.815683
              ],
              [
                144.973993,
                -37.815682
              ],
              [
                144.973998,
                -37.815681
              ],
              [
                144.974074,
                -37.815659
              ],
              [
                144.974076,
                -37.815658
              ],
              [
                144.974078,
                -37.815658
              ],
              [
                144.974078,
                -37.815657
              ],
              [
                144.974137,
                -37.81564
              ],
              [
                144.974681,
                -37.81548
              ],
              [
                144.974723,
                -37.81547
              ],
              [
                144.974712,
                -37.815441
              ],
              [
                144.974711,
                -37.815438
              ],
              [
                144.97471,
                -37.815436
              ],
              [
                144.974682,
                -37.815361
              ],
              [
                144.974661,
                -37.815368
              ],
              [
                144.974627,
                -37.815378
              ],
              [
                144.974629,
                -37.815383
              ],
              [
                144.974578,
                -37.815394
              ],
              [
                144.974038,
                -37.815553
              ],
              [
                144.974032,
                -37.815555
              ],
              [
                144.974031,
                -37.815553
              ],
              [
                144.974004,
                -37.815561
              ],
              [
                144.973768,
                -37.815631
              ],
              [
                144.973769,
                -37.815631
              ],
              [
                144.973757,
                -37.815635
              ],
              [
                144.973561,
                -37.815693
              ],
              [
                144.973395,
                -37.815743
              ],
              [
                144.973385,
                -37.815746
              ],
              [
                144.973384,
                -37.815743
              ],
              [
                144.972999,
                -37.815856
              ],
              [
                144.972956,
                -37.815869
              ],
              [
                144.972638,
                -37.815963
              ],
              [
                144.972637,
                -37.815963
              ],
              [
                144.972627,
                -37.815966
              ],
              [
                144.972555,
                -37.815988
              ]
            ],
            [
              [
                144.97267,
                -37.816012
              ],
              [
                144.972696,
                -37.816004
              ],
              [
                144.972705,
                -37.816021
              ],
              [
                144.972678,
                -37.816029
              ],
              [
                144.97267,
                -37.816012
              ]
            ],
            [
              [
                144.97281,
                -37.815969
              ],
              [
                144.972894,
                -37.815945
              ],
              [
                144.973108,
                -37.815884
              ],
              [
                144.973209,
                -37.815855
              ],
              [
                144.973278,
                -37.815837
              ],
              [
                144.973341,
                -37.815825
              ],
              [
                144.973405,
                -37.815815
              ],
              [
                144.973421,
                -37.815813
              ],
              [
                144.973448,
                -37.81581
              ],
              [
                144.973452,
                -37.815831
              ],
              [
                144.973385,
                -37.815839
              ],
              [
                144.97332,
                -37.81585
              ],
              [
                144.973255,
                -37.815864
              ],
              [
                144.973192,
                -37.815882
              ],
              [
                144.973189,
                -37.815883
              ],
              [
                144.973131,
                -37.815899
              ],
              [
                144.973128,
                -37.8159
              ],
              [
                144.972985,
                -37.815941
              ],
              [
                144.972843,
                -37.815981
              ],
              [
                144.97281,
                -37.815969
              ]
            ]
          ]
        ]
      }
    }
  ]
}