{
  "type": "FeatureCollection",
  "features": [
    {
      "type": "Feature",
      "properties": {
        "name": "polygon107"
      },
      "geometry": {
        "type": "MultiPolygon",
        "coordinates": [
          [
            [
              [
                144.960221,
                -37.80825
              ],
              [
                144.960254,
                -37.808323
              ],
              [
                144.960273,
                -37.808317
              ],
              [
                144.960275,
                -37.808317
              ],
              [
                144.960276,
                -37.808316
              ],
              [
                144.960296,
                -37.808316
              ],
              [
                144.960298,
                -37.808317
              ],
              [
                144.960302,
                -37.808317
              ],
              [
                144.960314,
                -37.808321
              ],
              [
                144.960314,
                -37.808322
              ],
              [
                144.960317,
                -37.808323
              ],
              [
                144.960319,
                -37.808324
              ],
              [
                144.96032,
                -37.808325
              ],
              [
                144.960322,
                -37.808326
              ],
              [
                144.960324,
                -37.808328
              ],
              [
                144.960325,
                -37.808328
              ],
              [
                144.960331,
                -37.808334
              ],
              [
                144.960332,
                -37.808336
              ],
              [
                144.960333,
                -37.808336
              ],
              [
                144.960334,
                -37.808338
              ],
              [
                144.960328,
                -37.80834
              ],
              [
                144.960269,
                -37.808357
              ],
              [
                144.960509,
                -37.808873
              ],
              [
                144.960666,
                -37.809209
              ],
              [
                144.960676,
                -37.809231
              ],
              [
                144.960677,
                -37.809234
              ],
              [
                144.960678,
                -37.809236
              ],
              [
                144.960705,
                -37.809296
              ],
              [
                144.960733,
                -37.809356
              ],
              [
                144.960743,
                -37.809353
              ],
              [
                144.960746,
                -37.809353
              ],
              [
                144.960749,
                -37.809352
              ],
              [
                144.960765,
                -37.809352
              ],
              [
                144.960768,
                -37.809353
              ],
              [
                144.960771,
                -37.809353
              ],
              [
                144.960771,
                -37.809354
              ],
              [
                144.960774,
                -37.809354
              ],
              [
                144.960783,
                -37.809357
              ],
              [
                144.960783,
                -37.809358
              ],
              [
                144.960785,
                -37.809359
              ],
              [
                144.960786,
                -37.809359
              ],
              [
                144.960788,
                -37.80936
              ],
              [
                144.960788,
                -37.809361
              ],
              [
                144.960791,
                -37.809362
              ],
              [
                144.960795,
                -37.809366
              ],
              [
                144.960796,
                -37.809366
              ],
              [
                144.960873,
                -37.809345
              ],
              [
                144.960794,
                -37.809172
              ],
              [
                144.960403,
                -37.808318
              ],
              [
                144.960343,
                -37.808189
              ],
              [
                144.960265,
                -37.808211
              ],
              [
                144.960273,
                -37.808228
              ],
              [
                144.960273,
                -37.808233
              ],
              [
                144.960272,
                -37.808233
              ],
              [
                144.960272,
                -37.808234
              ],
              [
                144.960271,
                -37.808234
              ],
              [
                144.960271,
                -37.808235
              ],
              [
                144.96027,
                -37.808236
              ],
              [
                144.960269,
                -37.808236
              ],
              [
                144.960268,
                -37.808237
              ],
              [
                144.960267,
                -37.808237
              ],
              [
                144.960221,
                -37.80825
              ]
            ]
          ],
          [
            [
              [
                144.960406,
                -37.808171
              ],
              [
                144.960465,
                -37.8083
              ],
              [
                144.960537,
                -37.808456
              ],
              [
                144.960645,
                -37.808692
              ],
              [
                144.96065,
                -37.808702
              ],
              [
                144.960659,
                -37.808721
              ],
              [
                144.960703,
                -37.808818
              ],
              [
                144.960714,
                -37.808843
              ],
              [
                144.96077,
                -37.808965
              ],
              [
                144.960857,
                -37.809154
              ],
              [
                144.960876,
                -37.809195
              ],
              [
                144.960927,
                -37.809306
              ],
              [
                144.960936,
                -37.809327
              ],
              [
                144.961007,
                -37.809308
              ],
              [
                144.961007,
                -37.809305
              ],
              [
                144.961006,
                -37.809302
              ],
              [
                144.961007,
                -37.809298
              ],
              [
                144.961007,
                -37.809295
              ],
              [
                144.961008,
                -37.809292
              ],
              [
                144.96101,
                -37.809289
              ],
              [
                144.961011,
                -37.809286
              ],
              [
                144.961015,
                -37.80928
              ],
              [
                144.961018,
                -37.809278
              ],
              [
                144.96102,
                -37.809275
              ],
              [
                144.961023,
                -37.809273
              ],
              [
                144.961027,
                -37.809271
              ],
              [
                144.96103,
                -37.809269
              ],
              [
                144.961034,
                -37.809268
              ],
              [
                144.961037,
                -37.809267
              ],
              [
                144.961058,
                -37.809261
              ],
              [
                144.961032,
                -37.809202
              ],
              [
                144.961004,
                -37.809141
              ],
              [
                144.961003,
                -37.809139
              ],
              [
                144.961002,
                -37.809136
              ],
              [
                144.960993,
                -37.809115
              ],
              [
                144.960595,
                -37.808263
              ],
              [
                144.960539,
                -37.808279
              ],
              [
                144.960536,
                -37.80828
              ],
              [
                144.960534,
                -37.808281
              ],
              [
                144.960533,
                -37.808278
              ],
              [
                144.960531,
                -37.808276
              ],
              [
                144.960531,
                -37.808274
              ],
              [
                144.96053,
                -37.808272
              ],
              [
                144.96053,
                -37.80827
              ],
              [
                144.960529,
                -37.808268
              ],
              [
                144.960529,
                -37.808264
              ],
              [
                144.96053,
                -37.808262
              ],
              [
                144.96053,
                -37.808258
              ],
              [
                144.960531,
                -37.808258
              ],
              [
                144.960531,
                -37.808256
              ],
              [
                144.960533,
                -37.808252
              ],
              [
                144.960534,
                -37.808251
              ],
              [
                144.960534,
                -37.80825
              ],
              [
                144.960538,
                -37.808246
              ],
              [
                144.960538,
                -37.808245
              ],
              [
                144.960542,
                -37.808243
              ],
              [
                144.960543,
                -37.808241
              ],
              [
                144.960544,
                -37.808241
              ],
              [
                144.960545,
                -37.80824
              ],
              [
                144.960546,
                -37.80824
              ],
              [
                144.960554,
                -37.808236
              ],
              [
                144.960579,
                -37.808229
              ],
              [
                144.960546,
                -37.808156
              ],
              [
                144.9605,
                -37.808169
              ],
              [
                144.960495,
                -37.808169
              ],
              [
                144.960495,
                -37.808168
              ],
              [
                144.960494,
                -37.808168
              ],
              [
                144.960493,
                -37.808167
              ],
              [
                144.960493,
                -37.808166
              ],
              [
                144.960492,
                -37.808166
              ],
              [
                144.960485,
                -37.808148
              ],
              [
                144.960406,
                -37.808171
              ]
            ],
            [
              [
                144.960575,
                -37.808354
              ],
              [
                144.960595,
                -37.808349
              ],
              [
                144.960607,
                -37.808376
              ],
              [
                144.960587,
                -37.808381
              ],
              [
                144.960575,
                -37.808354
              ]
            ],
            [
              [
                144.96062,
                -37.808452
              ],
              [
                144.96064,
                -37.808446
              ],
              [
                144.960648,
                -37.808465
              ],
              [
                144.960629,
                -37.80847
              ],
              [
                144.96062,
                -37.808452
              ]
            ],
            [
              [
                144.960844,
                -37.80893
              ],
              [
                144.96086,
                -37.808925
              ],
              [
                144.960868,
                -37.808942
              ],
              [
                144.960852,
                -37.808947
              ],
              [
                144.960844,
                -37.80893
              ]
            ],
            [
              [
                144.960878,
                -37.809004
              ],
              [
                144.960895,
                -37.808999
              ],
              [
                144.960902,
                -37.809016
              ],
              [
                144.960886,
                -37.809021
              ],
              [
                144.960878,
                -37.809004
              ]
            ]
          ]
        ]
      }
    }
  ]
}