{
  "type": "FeatureCollection",
  "features": [
    {
      "type": "Feature",
      "properties": {
        "name": "polygon215"
      },
      "geometry": {
        "type": "MultiPolygon",
        "coordinates": [
          [
            [
              [
                144.972692,
                -37.810206
              ],
              [
                144.972764,
                -37.81036
              ],
              [
                144.972769,
                -37.810319
              ],
              [
                144.972797,
                -37.810141
              ],
              [
                144.972823,
                -37.809973
              ],
              [
                144.972846,
                -37.809823
              ],
              [
                144.972859,
                -37.809744
              ],
              [
                144.972854,
                -37.809744
              ],
              [
                144.972855,
                -37.809738
              ],
              [
                144.972862,
                -37.809693
              ],
              [
                144.9729,
                -37.809455
              ],
              [
                144.972908,
                -37.8094
              ],
              [
                144.972909,
                -37.8094
              ],
              [
                144.972913,
                -37.809378
              ],
              [
                144.972818,
                -37.809367
              ],
              [
                144.97282,
                -37.809375
              ],
              [
                144.972818,
                -37.809386
              ],
              [
                144.972747,
                -37.809841
              ],
              [
                144.972692,
                -37.810206
              ]
            ]
          ],
          [
            [
              [
                144.972824,
                -37.810491
              ],
              [
                144.972905,
                -37.810666
              ],
              [
                144.972986109905,
                -37.81084008955226
              ],
              [
                144.972988,
                -37.810849
              ],
              [
                144.972991,
                -37.810848
              ],
              [
                144.972992,
                -37.810852
              ],
              [
                144.972994,
                -37.810855
              ],
              [
                144.972995,
                -37.810858
              ],
              [
                144.972998,
                -37.810861
              ],
              [
                144.973,
                -37.810864
              ],
              [
                144.973006,
                -37.81087
              ],
              [
                144.973004,
                -37.810869
              ],
              [
                144.972998,
                -37.810863
              ],
              [
                144.973001,
                -37.810873
              ],
              [
                144.973019,
                -37.810941
              ],
              [
                144.973022,
                -37.810935
              ],
              [
                144.973025,
                -37.810932
              ],
              [
                144.973026,
                -37.81093
              ],
              [
                144.973027,
                -37.81093
              ],
              [
                144.973028,
                -37.810929
              ],
              [
                144.973029,
                -37.810929
              ],
              [
                144.973031,
                -37.810927
              ],
              [
                144.973034,
                -37.810926
              ],
              [
                144.973036,
                -37.810924
              ],
              [
                144.973039,
                -37.810924
              ],
              [
                144.973045,
                -37.810922
              ],
              [
                144.973058,
                -37.810922
              ],
              [
                144.973057,
                -37.810888
              ],
              [
                144.973057,
                -37.810885
              ],
              [
                144.97305599084436,
                -37.810884707019326
              ],
              [
                144.973054,
                -37.810821
              ],
              [
                144.973052,
                -37.810775
              ],
              [
                144.973033,
                -37.810732
              ],
              [
                144.97303,
                -37.810728
              ],
              [
                144.973022,
                -37.810697
              ],
              [
                144.973011,
                -37.810599
              ],
              [
                144.973004,
                -37.810502
              ],
              [
                144.973003,
                -37.810457
              ],
              [
                144.973002,
                -37.810455
              ],
              [
                144.973002,
                -37.810426
              ],
              [
                144.973001,
                -37.810424
              ],
              [
                144.973,
                -37.810375
              ],
              [
                144.973,
                -37.810325
              ],
              [
                144.973001,
                -37.810249
              ],
              [
                144.973008,
                -37.810123
              ],
              [
                144.973021,
                -37.809997
              ],
              [
                144.97304,
                -37.809872
              ],
              [
                144.973048,
                -37.809825
              ],
              [
                144.973053,
                -37.809794
              ],
              [
                144.973119,
                -37.809403
              ],
              [
                144.973124,
                -37.809371
              ],
              [
                144.973117,
                -37.80937
              ],
              [
                144.973109,
                -37.809371
              ],
              [
                144.973102,
                -37.809371
              ],
              [
                144.973095,
                -37.809374
              ],
              [
                144.973089,
                -37.809378
              ],
              [
                144.973084,
                -37.809382
              ],
              [
                144.973081,
                -37.809386
              ],
              [
                144.97308,
                -37.809388
              ],
              [
                144.973079,
                -37.809392
              ],
              [
                144.973079,
                -37.809394
              ],
              [
                144.973078,
                -37.809396
              ],
              [
                144.973073,
                -37.809396
              ],
              [
                144.973071,
                -37.809395
              ],
              [
                144.973071,
                -37.809397
              ],
              [
                144.97298,
                -37.809386
              ],
              [
                144.972976,
                -37.80941
              ],
              [
                144.972978,
                -37.80941
              ],
              [
                144.972968,
                -37.809469
              ],
              [
                144.972928,
                -37.809726
              ],
              [
                144.972925,
                -37.809743
              ],
              [
                144.972924,
                -37.809748
              ],
              [
                144.972898,
                -37.809917
              ],
              [
                144.972864,
                -37.810137
              ],
              [
                144.972835,
                -37.81033
              ],
              [
                144.972829,
                -37.810386
              ],
              [
                144.972825,
                -37.810448
              ],
              [
                144.972824,
                -37.810465
              ],
              [
                144.972824,
                -37.810491
              ]
            ],
            [
              [
                144.973057,
                -37.810888
              ],
              [
                144.973042,
                -37.810884
              ],
              [
                144.973025,
                -37.810879
              ],
              [
                144.973057,
                -37.810888
              ]
            ],
            [
              [
                144.972953,
                -37.810413
              ],
              [
                144.972954,
                -37.81029
              ],
              [
                144.972954,
                -37.810273
              ],
              [
                144.972956,
                -37.810273
              ],
              [
                144.972956,
                -37.81029
              ],
              [
                144.972955,
                -37.810413
              ],
              [
                144.972959,
                -37.810536
              ],
              [
                144.972965,
                -37.81066
              ],
              [
                144.972963,
                -37.81066
              ],
              [
                144.972957,
                -37.810537
              ],
              [
                144.972953,
                -37.810413
              ]
            ],
            [
              [
                144.9729738181818,
                -37.81074818181817
              ],
              [
                144.972974,
                -37.81075
              ],
              [
                144.97298,
                -37.810783
              ],
              [
                144.972974,
                -37.810751
              ],
              [
                144.9729738181818,
                -37.81074818181817
              ]
            ],
            [
              [
                144.9729786666667,
                -37.81080533333352
              ],
              [
                144.972981,
                -37.810816
              ],
              [
                144.97298166666667,
                -37.81081914285711
              ],
              [
                144.97298,
                -37.810812
              ],
              [
                144.9729786666667,
                -37.81080533333352
              ]
            ],
            [
              [
                144.972987,
                -37.810816
              ],
              [
                144.972995,
                -37.810849
              ],
              [
                144.97299633333333,
                -37.810853
              ],
              [
                144.972995,
                -37.810851
              ],
              [
                144.972994,
                -37.810848
              ],
              [
                144.972987,
                -37.810816
              ]
            ],
            [
              [
                144.97299766666666,
                -37.810856
              ],
              [
                144.972999,
                -37.810858
              ],
              [
                144.973001,
                -37.81086
              ],
              [
                144.973003,
                -37.810863
              ],
              [
                144.973,
                -37.81086
              ],
              [
                144.972998,
                -37.810857
              ],
              [
                144.97299766666666,
                -37.810856
              ]
            ],
            [
              [
                144.97301000000002,
                -37.810872500000016
              ],
              [
                144.973013,
                -37.810874
              ],
              [
                144.973012,
                -37.810874
              ],
              [
                144.97301000000002,
                -37.810872500000016
              ]
            ],
            [
              [
                144.973013,
                -37.810874
              ],
              [
                144.9730145,
                -37.810875
              ],
              [
                144.973014,
                -37.810875
              ],
              [
                144.973013,
                -37.810874
              ]
            ]
          ]
        ]
      }
    }
  ]
}