{
  "type": "FeatureCollection",
  "features": [
    {
      "type": "Feature",
      "properties": {
        "name": "polygon103"
      },
      "geometry": {
        "type": "MultiPolygon",
        "coordinates": [
          [
            [
              [
                144.962095,
                -37.81233
              ],
              [
                144.962138,
                -37.812425
              ],
              [
                144.962139,
                -37.812427
              ],
              [
                144.96214,
                -37.81243
              ],
              [
                144.962153,
                -37.81246
              ],
              [
                144.96252,
                -37.813241
              ],
              [
                144.962529,
                -37.813259
              ],
              [
                144.962535,
                -37.813272
              ],
              [
                144.962541,
                -37.81329
              ],
              [
                144.962542,
                -37.813292
              ],
              [
                144.962559,
                -37.813338
              ],
              [
                144.96257,
                -37.813335
              ],
              [
                144.962581,
                -37.813334
              ],
              [
                144.962588,
                -37.813333
              ],
              [
                144.962596,
                -37.813333
              ],
              [
                144.962605,
                -37.813335
              ],
              [
                144.962611,
                -37.813337
              ],
              [
                144.962619,
                -37.813339
              ],
              [
                144.962623,
                -37.813342
              ],
              [
                144.962697,
                -37.813318
              ],
              [
                144.96268,
                -37.813281
              ],
              [
                144.962653,
                -37.813224
              ],
              [
                144.962284,
                -37.812421
              ],
              [
                144.962225,
                -37.812293
              ],
              [
                144.962095,
                -37.81233
              ]
            ],
            [
              [
                144.962372,
                -37.812833
              ],
              [
                144.962388,
                -37.812828
              ],
              [
                144.962393,
                -37.812838
              ],
              [
                144.962394,
                -37.812841
              ],
              [
                144.962396,
                -37.812845
              ],
              [
                144.96238,
                -37.812849
              ],
              [
                144.962372,
                -37.812833
              ]
            ],
            [
              [
                144.962473,
                -37.813067
              ],
              [
                144.962495,
                -37.813061
              ],
              [
                144.962498,
                -37.813069
              ],
              [
                144.962505,
                -37.813083
              ],
              [
                144.962506,
                -37.813086
              ],
              [
                144.962485,
                -37.813092
              ],
              [
                144.962473,
                -37.813067
              ]
            ],
            [
              [
                144.962516,
                -37.81316
              ],
              [
                144.962538,
                -37.813154
              ],
              [
                144.962541,
                -37.813161
              ],
              [
                144.962547,
                -37.813173
              ],
              [
                144.962547,
                -37.813174
              ],
              [
                144.962549,
                -37.813179
              ],
              [
                144.962528,
                -37.813185
              ],
              [
                144.962516,
                -37.81316
              ]
            ]
          ],
          [
            [
              [
                144.962289,
                -37.812274
              ],
              [
                144.962347,
                -37.812402
              ],
              [
                144.962716,
                -37.813206
              ],
              [
                144.962758,
                -37.813298
              ],
              [
                144.962833,
                -37.813274
              ],
              [
                144.962833,
                -37.813273
              ],
              [
                144.962836,
                -37.813267
              ],
              [
                144.962845,
                -37.813258
              ],
              [
                144.962851,
                -37.813254
              ],
              [
                144.96286,
                -37.81325
              ],
              [
                144.962877,
                -37.813245
              ],
              [
                144.962882,
                -37.813243
              ],
              [
                144.96286,
                -37.8132
              ],
              [
                144.962859,
                -37.813197
              ],
              [
                144.962858,
                -37.813195
              ],
              [
                144.96285,
                -37.813181
              ],
              [
                144.962845,
                -37.81317
              ],
              [
                144.962714,
                -37.812882
              ],
              [
                144.962676,
                -37.812799
              ],
              [
                144.962476,
                -37.812363
              ],
              [
                144.962464,
                -37.812337
              ],
              [
                144.962463,
                -37.812334
              ],
              [
                144.962462,
                -37.812332
              ],
              [
                144.962421,
                -37.812236
              ],
              [
                144.962289,
                -37.812274
              ]
            ]
          ]
        ]
      }
    }
  ]
}