{
  "type": "FeatureCollection",
  "features": [
    {
      "type": "Feature",
      "properties": {
        "name": "polygon28"
      },
      "geometry": {
        "type": "MultiPolygon",
        "coordinates": [
          [
            [
              [
                144.948847,
                -37.820627
              ],
              [
                144.948894,
                -37.820687
              ],
              [
                144.948901,
                -37.820683
              ],
              [
                144.948902,
                -37.820683
              ],
              [
                144.948998,
                -37.820656
              ],
              [
                144.949023,
                -37.820649
              ],
              [
                144.949117,
                -37.820622
              ],
              [
                144.949141,
                -37.820615
              ],
              [
                144.949254,
                -37.820582
              ],
              [
                144.94928,
                -37.820575
              ],
              [
                144.949381,
                -37.820546
              ],
              [
                144.949407,
                -37.820539
              ],
              [
                144.949408,
                -37.820538
              ],
              [
                144.949515,
                -37.820508
              ],
              [
                144.94954,
                -37.8205
              ],
              [
                144.949622,
                -37.820477
              ],
              [
                144.949636,
                -37.820473
              ],
              [
                144.949641,
                -37.820471
              ],
              [
                144.949645,
                -37.82047
              ],
              [
                144.94966,
                -37.820466
              ],
              [
                144.949686,
                -37.820458
              ],
              [
                144.949765,
                -37.820435
              ],
              [
                144.949791,
                -37.820428
              ],
              [
                144.949882,
                -37.820402
              ],
              [
                144.949908,
                -37.820394
              ],
              [
                144.949996,
                -37.820369
              ],
              [
                144.95002,
                -37.820362
              ],
              [
                144.950093,
                -37.820341
              ],
              [
                144.95012,
                -37.820333
              ],
              [
                144.950192,
                -37.820312
              ],
              [
                144.950168,
                -37.820281
              ],
              [
                144.950131,
                -37.820292
              ],
              [
                144.95012,
                -37.820295
              ],
              [
                144.950115,
                -37.820297
              ],
              [
                144.950104,
                -37.820273
              ],
              [
                144.94961,
                -37.820416
              ],
              [
                144.948894,
                -37.820623
              ],
              [
                144.948893,
                -37.82062
              ],
              [
                144.948889,
                -37.820615
              ],
              [
                144.948847,
                -37.820627
              ]
            ]
          ],
          [
            [
              [
                144.948871,
                -37.82073
              ],
              [
                144.948873,
                -37.820736
              ],
              [
                144.948876,
                -37.820741
              ],
              [
                144.948925,
                -37.820727
              ],
              [
                144.950223,
                -37.820351
              ],
              [
                144.950277,
                -37.820336
              ],
              [
                144.950279,
                -37.820335
              ],
              [
                144.950281,
                -37.820335
              ],
              [
                144.950285,
                -37.820334
              ],
              [
                144.950374,
                -37.820308
              ],
              [
                144.950375,
                -37.820307
              ],
              [
                144.950378,
                -37.820307
              ],
              [
                144.950442,
                -37.820288
              ],
              [
                144.950414,
                -37.820253
              ],
              [
                144.950349,
                -37.820272
              ],
              [
                144.950347,
                -37.820273
              ],
              [
                144.950346,
                -37.820273
              ],
              [
                144.950299,
                -37.820287
              ],
              [
                144.95028,
                -37.820292
              ],
              [
                144.950278,
                -37.820293
              ],
              [
                144.950276,
                -37.820293
              ],
              [
                144.950196,
                -37.820316
              ],
              [
                144.950122,
                -37.820338
              ],
              [
                144.950096,
                -37.820345
              ],
              [
                144.950023,
                -37.820366
              ],
              [
                144.949998,
                -37.820373
              ],
              [
                144.94991,
                -37.820399
              ],
              [
                144.949884,
                -37.820406
              ],
              [
                144.949793,
                -37.820433
              ],
              [
                144.949768,
                -37.82044
              ],
              [
                144.949688,
                -37.820463
              ],
              [
                144.949662,
                -37.82047
              ],
              [
                144.949647,
                -37.820475
              ],
              [
                144.949639,
                -37.820477
              ],
              [
                144.949624,
                -37.820481
              ],
              [
                144.949542,
                -37.820505
              ],
              [
                144.949517,
                -37.820512
              ],
              [
                144.949411,
                -37.820543
              ],
              [
                144.949409,
                -37.820543
              ],
              [
                144.949383,
                -37.820551
              ],
              [
                144.949282,
                -37.82058
              ],
              [
                144.949257,
                -37.820587
              ],
              [
                144.949143,
                -37.82062
              ],
              [
                144.949119,
                -37.820626
              ],
              [
                144.949025,
                -37.820653
              ],
              [
                144.949,
                -37.82066
              ],
              [
                144.948904,
                -37.820688
              ],
              [
                144.948897,
                -37.820691
              ],
              [
                144.948892,
                -37.820694
              ],
              [
                144.948888,
                -37.820696
              ],
              [
                144.948882,
                -37.820701
              ],
              [
                144.948877,
                -37.820706
              ],
              [
                144.948874,
                -37.820711
              ],
              [
                144.948872,
                -37.820717
              ],
              [
                144.948871,
                -37.820723
              ],
              [
                144.948871,
                -37.82073
              ]
            ]
          ]
        ]
      }
    }
  ]
}