{
  "type": "FeatureCollection",
  "features": [
    {
      "type": "Feature",
      "properties": {
        "name": "polygon43"
      },
      "geometry": {
        "type": "Polygon",
        "coordinates": [
          [
            [
              144.950586,
              -37.805136
            ],
            [
              144.950629,
              -37.805141
            ],
            [
              144.950632,
              -37.805142
            ],
            [
              144.950635,
              -37.805142
            ],
            [
              144.9507337303371,
              -37.80515373033708
            ],
            [
              144.950734,
              -37.805154
            ],
            [
              144.950736,
              -37.805154
            ],
            [
              144.950779,
              -37.805159
            ],
            [
              144.950875,
              -37.805171
            ],
            [
              144.950885,
              -37.805172
            ],
            [
              144.950886,
              -37.805173
            ],
            [
              144.950888,
              -37.805173
            ],
            [
              144.950924,
              -37.805177
            ],
            [
              144.950986,
              -37.804823
            ],
            [
              144.950986,
              -37.80482
            ],
            [
              144.950987,
              -37.804815
            ],
            [
              144.950989,
              -37.804804
            ],
            [
              144.950989,
              -37.804802
            ],
            [
              144.950992,
              -37.804788
            ],
            [
              144.950992,
              -37.804785
            ],
            [
              144.950993,
              -37.804783
            ],
            [
              144.950993,
              -37.804782
            ],
            [
              144.951246,
              -37.803368
            ],
            [
              144.951209,
              -37.803365
            ],
            [
              144.951206,
              -37.803365
            ],
            [
              144.951204,
              -37.803364
            ],
            [
              144.95111209411763,
              -37.803356094117646
            ],
            [
              144.951112,
              -37.803356
            ],
            [
              144.951111,
              -37.803356
            ],
            [
              144.95111,
              -37.803355
            ],
            [
              144.951108,
              -37.803355
            ],
            [
              144.951046,
              -37.803348
            ],
            [
              144.951041,
              -37.803348
            ],
            [
              144.95104,
              -37.803349
            ],
            [
              144.95098,
              -37.803343
            ],
            [
              144.950975,
              -37.803343
            ],
            [
              144.950908,
              -37.803336
            ],
            [
              144.950779,
              -37.804061
            ],
            [
              144.950779,
              -37.804067
            ],
            [
              144.950774,
              -37.804094
            ],
            [
              144.950774,
              -37.804099
            ],
            [
              144.950773,
              -37.804106
            ],
            [
              144.95072,
              -37.804394
            ],
            [
              144.95072,
              -37.804397
            ],
            [
              144.950719,
              -37.804399
            ],
            [
              144.950719,
              -37.804402
            ],
            [
              144.950713,
              -37.804435
            ],
            [
              144.950713,
              -37.80444
            ],
            [
              144.950711,
              -37.804448
            ],
            [
              144.950641,
              -37.804843
            ],
            [
              144.95064,
              -37.80485
            ],
            [
              144.95064,
              -37.804852
            ],
            [
              144.950639,
              -37.804854
            ],
            [
              144.950639,
              -37.804855
            ],
            [
              144.950638,
              -37.80486
            ],
            [
              144.950634,
              -37.804881
            ],
            [
              144.950633,
              -37.804887
            ],
            [
              144.950633,
              -37.804889
            ],
            [
              144.950632,
              -37.804892
            ],
            [
              144.950632,
              -37.804893
            ],
            [
              144.950631,
              -37.804898
            ],
            [
              144.950586,
              -37.805136
            ]
          ],
          [
            [
              144.950641,
              -37.804992
            ],
            [
              144.950643,
              -37.804978
            ],
            [
              144.950657,
              -37.80498
            ],
            [
              144.950654,
              -37.804993
            ],
            [
              144.950641,
              -37.804992
            ]
          ],
          [
            [
              144.950676,
              -37.804793
            ],
            [
              144.950679,
              -37.804777
            ],
            [
              144.950693,
              -37.804778
            ],
            [
              144.95069,
              -37.804794
            ],
            [
              144.950676,
              -37.804793
            ]
          ],
          [
            [
              144.950716,
              -37.80457
            ],
            [
              144.950718,
              -37.804557
            ],
            [
              144.950732,
              -37.804558
            ],
            [
              144.950731,
              -37.804559
            ],
            [
              144.950732,
              -37.804559
            ],
            [
              144.95073,
              -37.804572
            ],
            [
              144.950716,
              -37.80457
            ]
          ],
          [
            [
              144.950764,
              -37.804306
            ],
            [
              144.950767,
              -37.804292
            ],
            [
              144.95078,
              -37.804293
            ],
            [
              144.950778,
              -37.804307
            ],
            [
              144.950764,
              -37.804306
            ]
          ],
          [
            [
              144.95079,
              -37.804155
            ],
            [
              144.950792,
              -37.804142
            ],
            [
              144.950806,
              -37.804144
            ],
            [
              144.950803,
              -37.804157
            ],
            [
              144.95079,
              -37.804155
            ]
          ],
          [
            [
              144.950824,
              -37.803956
            ],
            [
              144.950827,
              -37.803942
            ],
            [
              144.95084,
              -37.803944
            ],
            [
              144.950838,
              -37.803957
            ],
            [
              144.950824,
              -37.803956
            ]
          ],
          [
            [
              144.950847,
              -37.803824
            ],
            [
              144.950849,
              -37.803811
            ],
            [
              144.950863,
              -37.803812
            ],
            [
              144.950861,
              -37.803826
            ],
            [
              144.950847,
              -37.803824
            ]
          ],
          [
            [
              144.950865,
              -37.803719
            ],
            [
              144.950867,
              -37.803706
            ],
            [
              144.950881,
              -37.803708
            ],
            [
              144.950879,
              -37.803721
            ],
            [
              144.950865,
              -37.803719
            ]
          ],
          [
            [
              144.950885,
              -37.803606
            ],
            [
              144.950887,
              -37.803593
            ],
            [
              144.9509,
              -37.803594
            ],
            [
              144.950898,
              -37.803608
            ],
            [
              144.950885,
              -37.803606
            ]
          ],
          [
            [
              144.950934,
              -37.804911
            ],
            [
              144.950937,
              -37.804898
            ],
            [
              144.95095,
              -37.8049
            ],
            [
              144.950948,
              -37.804913
            ],
            [
              144.950934,
              -37.804911
            ]
          ],
          [
            [
              144.950947,
              -37.803945
            ],
            [
              144.950947,
              -37.803943
            ],
            [
              144.950949,
              -37.80393
            ],
            [
              144.950953,
              -37.803926
            ],
            [
              144.950957,
              -37.803926
            ],
            [
              144.950974,
              -37.803928
            ],
            [
              144.950991,
              -37.803929
            ],
            [
              144.950992,
              -37.80393
            ],
            [
              144.950994,
              -37.80393
            ],
            [
              144.950997,
              -37.803933
            ],
            [
              144.950997,
              -37.803936
            ],
            [
              144.950995,
              -37.803948
            ],
            [
              144.950994,
              -37.803949
            ],
            [
              144.950994,
              -37.80395
            ],
            [
              144.950992,
              -37.803952
            ],
            [
              144.95099,
              -37.803952
            ],
            [
              144.950989,
              -37.803953
            ],
            [
              144.950987,
              -37.803953
            ],
            [
              144.950953,
              -37.803949
            ],
            [
              144.950952,
              -37.803949
            ],
            [
              144.950951,
              -37.803948
            ],
            [
              144.95095,
              -37.803948
            ],
            [
              144.950948,
              -37.803946
            ],
            [
              144.950948,
              -37.803945
            ],
            [
              144.950947,
              -37.803945
            ]
          ],
          [
            [
              144.95099,
              -37.804605
            ],
            [
              144.950992,
              -37.804592
            ],
            [
              144.951006,
              -37.804593
            ],
            [
              144.951003,
              -37.804607
            ],
            [
              144.95099,
              -37.804605
            ]
          ],
          [
            [
              144.95101,
              -37.80449
            ],
            [
              144.951012,
              -37.804477
            ],
            [
              144.951026,
              -37.804478
            ],
            [
              144.951024,
              -37.804492
            ],
            [
              144.95101,
              -37.80449
            ]
          ],
          [
            [
              144.951039,
              -37.804325
            ],
            [
              144.951042,
              -37.804311
            ],
            [
              144.951055,
              -37.804313
            ],
            [
              144.951053,
              -37.804326
            ],
            [
              144.951039,
              -37.804325
            ]
          ],
          [
            [
              144.951071,
              -37.804145
            ],
            [
              144.951074,
              -37.804127
            ],
            [
              144.951088,
              -37.804129
            ],
            [
              144.951085,
              -37.804147
            ],
            [
              144.951071,
              -37.804145
            ]
          ],
          [
            [
              144.951114,
              -37.803903
            ],
            [
              144.951116,
              -37.80389
            ],
            [
              144.95113,
              -37.803891
            ],
            [
              144.951127,
              -37.803904
            ],
            [
              144.951114,
              -37.803903
            ]
          ],
          [
            [
              144.951145,
              -37.803729
            ],
            [
              144.951147,
              -37.803715
            ],
            [
              144.951161,
              -37.803717
            ],
            [
              144.951158,
              -37.80373
            ],
            [
              144.951145,
              -37.803729
            ]
          ]
        ]
      }
    }
  ]
}