{
  "type": "FeatureCollection",
  "features": [
    {
      "type": "Feature",
      "properties": {
        "name": "polygon133"
      },
      "geometry": {
        "type": "MultiPolygon",
        "coordinates": [
          [
            [
              [
                144.971772,
                -37.815089
              ],
              [
                144.971773,
                -37.815091
              ],
              [
                144.971774,
                -37.815094
              ],
              [
                144.971788,
                -37.815126
              ],
              [
                144.972048,
                -37.815683
              ],
              [
                144.97205,
                -37.815688
              ],
              [
                144.972051,
                -37.81569
              ],
              [
                144.972065,
                -37.815719
              ],
              [
                144.972066,
                -37.815723
              ],
              [
                144.972067,
                -37.815725
              ],
              [
                144.97216,
                -37.815924
              ],
              [
                144.972158,
                -37.815924
              ],
              [
                144.972171,
                -37.815952
              ],
              [
                144.972173,
                -37.815952
              ],
              [
                144.972182,
                -37.815948
              ],
              [
                144.97219,
                -37.815943
              ],
              [
                144.972196,
                -37.815935
              ],
              [
                144.972199,
                -37.815927
              ],
              [
                144.972199,
                -37.815919
              ],
              [
                144.972197,
                -37.815913
              ],
              [
                144.9722,
                -37.815912
              ],
              [
                144.972203,
                -37.815912
              ],
              [
                144.972205,
                -37.815918
              ],
              [
                144.972205,
                -37.815928
              ],
              [
                144.972202,
                -37.815936
              ],
              [
                144.972202,
                -37.815937
              ],
              [
                144.972195,
                -37.815945
              ],
              [
                144.972195,
                -37.815946
              ],
              [
                144.972194,
                -37.815946
              ],
              [
                144.972186,
                -37.815952
              ],
              [
                144.972185,
                -37.815952
              ],
              [
                144.972185,
                -37.815953
              ],
              [
                144.972176,
                -37.815956
              ],
              [
                144.972175,
                -37.815956
              ],
              [
                144.972211,
                -37.816032
              ],
              [
                144.972354,
                -37.815989
              ],
              [
                144.972375,
                -37.815983
              ],
              [
                144.972448,
                -37.815962
              ],
              [
                144.972507,
                -37.815945
              ],
              [
                144.972521,
                -37.81594
              ],
              [
                144.972531,
                -37.815937
              ],
              [
                144.972498,
                -37.815867
              ],
              [
                144.972497,
                -37.815864
              ],
              [
                144.972496,
                -37.815862
              ],
              [
                144.972482,
                -37.815832
              ],
              [
                144.972255,
                -37.815343
              ],
              [
                144.972253,
                -37.815341
              ],
              [
                144.972246,
                -37.815325
              ],
              [
                144.972238,
                -37.815308
              ],
              [
                144.972237,
                -37.815305
              ],
              [
                144.972107,
                -37.815025
              ],
              [
                144.972098,
                -37.815006
              ],
              [
                144.972096,
                -37.815002
              ],
              [
                144.972085,
                -37.815005
              ],
              [
                144.97208,
                -37.815007
              ],
              [
                144.972076,
                -37.815009
              ],
              [
                144.972073,
                -37.815011
              ],
              [
                144.97207,
                -37.815014
              ],
              [
                144.972067,
                -37.815018
              ],
              [
                144.972066,
                -37.815021
              ],
              [
                144.972065,
                -37.815025
              ],
              [
                144.972065,
                -37.815033
              ],
              [
                144.972067,
                -37.815036
              ],
              [
                144.972067,
                -37.815038
              ],
              [
                144.971952,
                -37.815074
              ],
              [
                144.971835,
                -37.815111
              ],
              [
                144.971833,
                -37.815108
              ],
              [
                144.971831,
                -37.815104
              ],
              [
                144.97183,
                -37.815104
              ],
              [
                144.971827,
                -37.815099
              ],
              [
                144.971826,
                -37.815099
              ],
              [
                144.971826,
                -37.815098
              ],
              [
                144.971821,
                -37.815094
              ],
              [
                144.97182,
                -37.815094
              ],
              [
                144.971816,
                -37.815092
              ],
              [
                144.971816,
                -37.815091
              ],
              [
                144.971812,
                -37.815089
              ],
              [
                144.971811,
                -37.815089
              ],
              [
                144.971807,
                -37.815088
              ],
              [
                144.971806,
                -37.815088
              ],
              [
                144.971801,
                -37.815086
              ],
              [
                144.971784,
                -37.815086
              ],
              [
                144.971778,
                -37.815088
              ],
              [
                144.971772,
                -37.815089
              ]
            ],
            [
              [
                144.972108,
                -37.815479
              ],
              [
                144.972108,
                -37.815478
              ],
              [
                144.972109,
                -37.815478
              ],
              [
                144.972109,
                -37.815477
              ],
              [
                144.972111,
                -37.815477
              ],
              [
                144.972134,
                -37.81547
              ],
              [
                144.972151,
                -37.815465
              ],
              [
                144.972154,
                -37.815465
              ],
              [
                144.972156,
                -37.815467
              ],
              [
                144.972165,
                -37.815487
              ],
              [
                144.972165,
                -37.815489
              ],
              [
                144.972163,
                -37.815491
              ],
              [
                144.972146,
                -37.815496
              ],
              [
                144.972123,
                -37.815502
              ],
              [
                144.97212,
                -37.815502
              ],
              [
                144.972118,
                -37.8155
              ],
              [
                144.972109,
                -37.81548
              ],
              [
                144.972108,
                -37.815479
              ]
            ],
            [
              [
                144.97225,
                -37.815795
              ],
              [
                144.97225,
                -37.815793
              ],
              [
                144.972251,
                -37.815793
              ],
              [
                144.972279,
                -37.815784
              ],
              [
                144.972296,
                -37.815779
              ],
              [
                144.972297,
                -37.815779
              ],
              [
                144.972299,
                -37.815781
              ],
              [
                144.972316,
                -37.815817
              ],
              [
                144.972316,
                -37.815819
              ],
              [
                144.972315,
                -37.81582
              ],
              [
                144.972314,
                -37.81582
              ],
              [
                144.97227,
                -37.815833
              ],
              [
                144.972268,
                -37.815833
              ],
              [
                144.972267,
                -37.815832
              ],
              [
                144.97225,
                -37.815795
              ]
            ]
          ],
          [
            [
              [
                144.972111,
                -37.815479
              ],
              [
                144.972112,
                -37.815481
              ],
              [
                144.97212,
                -37.815499
              ],
              [
                144.972121,
                -37.8155
              ],
              [
                144.972122,
                -37.8155
              ],
              [
                144.972162,
                -37.815489
              ],
              [
                144.972163,
                -37.815488
              ],
              [
                144.972163,
                -37.815487
              ],
              [
                144.972155,
                -37.81547
              ],
              [
                144.972154,
                -37.815467
              ],
              [
                144.972152,
                -37.815467
              ],
              [
                144.972112,
                -37.815478
              ],
              [
                144.972111,
                -37.815478
              ],
              [
                144.972111,
                -37.815479
              ]
            ]
          ],
          [
            [
              [
                144.972239,
                -37.816092
              ],
              [
                144.97228,
                -37.81618
              ],
              [
                144.972286,
                -37.816184
              ],
              [
                144.972399,
                -37.816151
              ],
              [
                144.972409,
                -37.816148
              ],
              [
                144.972404,
                -37.816144
              ],
              [
                144.972386,
                -37.816132
              ],
              [
                144.972367,
                -37.81612
              ],
              [
                144.972344,
                -37.81611
              ],
              [
                144.972321,
                -37.816103
              ],
              [
                144.972296,
                -37.816096
              ],
              [
                144.972269,
                -37.816092
              ],
              [
                144.972244,
                -37.816091
              ],
              [
                144.972239,
                -37.816092
              ]
            ]
          ],
          [
            [
              [
                144.972252,
                -37.815794
              ],
              [
                144.972269,
                -37.815831
              ],
              [
                144.972314,
                -37.815818
              ],
              [
                144.972313,
                -37.815818
              ],
              [
                144.972297,
                -37.815781
              ],
              [
                144.972296,
                -37.815781
              ],
              [
                144.972252,
                -37.815794
              ]
            ]
          ],
          [
            [
              [
                144.972364,
                -37.816044
              ],
              [
                144.972372,
                -37.816046
              ],
              [
                144.972397,
                -37.816056
              ],
              [
                144.972416,
                -37.816066
              ],
              [
                144.972435,
                -37.816078
              ],
              [
                144.972451,
                -37.816091
              ],
              [
                144.972469,
                -37.816108
              ],
              [
                144.97247,
                -37.816108
              ],
              [
                144.972483,
                -37.816124
              ],
              [
                144.972484,
                -37.816126
              ],
              [
                144.972506,
                -37.816119
              ],
              [
                144.972589,
                -37.816095
              ],
              [
                144.972589,
                -37.81608
              ],
              [
                144.972592,
                -37.816068
              ],
              [
                144.972555,
                -37.815988
              ],
              [
                144.972477,
                -37.81601
              ],
              [
                144.972364,
                -37.816044
              ]
            ]
          ]
        ]
      }
    }
  ]
}