{
  "type": "FeatureCollection",
  "features": [
    {
      "type": "Feature",
      "properties": {
        "name": "polygon25"
      },
      "geometry": {
        "type": "MultiPolygon",
        "coordinates": [
          [
            [
              [
                144.948792,
                -37.818536
              ],
              [
                144.949472,
                -37.819397
              ],
              [
                144.949524,
                -37.819382
              ],
              [
                144.94953,
                -37.81939
              ],
              [
                144.949527,
                -37.819394
              ],
              [
                144.949525,
                -37.819397
              ],
              [
                144.949518,
                -37.819404
              ],
              [
                144.949513,
                -37.819407
              ],
              [
                144.949509,
                -37.81941
              ],
              [
                144.949504,
                -37.819412
              ],
              [
                144.9495,
                -37.819414
              ],
              [
                144.949488,
                -37.819418
              ],
              [
                144.949489,
                -37.819419
              ],
              [
                144.949495,
                -37.819417
              ],
              [
                144.949501,
                -37.819416
              ],
              [
                144.949506,
                -37.819414
              ],
              [
                144.949511,
                -37.819411
              ],
              [
                144.949515,
                -37.819408
              ],
              [
                144.94952,
                -37.819405
              ],
              [
                144.949527,
                -37.819398
              ],
              [
                144.94953,
                -37.819394
              ],
              [
                144.949532,
                -37.819389
              ],
              [
                144.949534,
                -37.819387
              ],
              [
                144.949534,
                -37.819386
              ],
              [
                144.949536,
                -37.819388
              ],
              [
                144.949622,
                -37.819364
              ],
              [
                144.949618,
                -37.819362
              ],
              [
                144.949614,
                -37.819361
              ],
              [
                144.949596,
                -37.819353
              ],
              [
                144.949588,
                -37.819347
              ],
              [
                144.949581,
                -37.819341
              ],
              [
                144.94954,
                -37.819289
              ],
              [
                144.949504,
                -37.819243
              ],
              [
                144.949468,
                -37.819198
              ],
              [
                144.949431,
                -37.81915
              ],
              [
                144.949391,
                -37.819099
              ],
              [
                144.949352,
                -37.819051
              ],
              [
                144.949328,
                -37.81902
              ],
              [
                144.949302,
                -37.818988
              ],
              [
                144.949272,
                -37.81895
              ],
              [
                144.949247,
                -37.818918
              ],
              [
                144.94921,
                -37.818871
              ],
              [
                144.949143,
                -37.818785
              ],
              [
                144.949077,
                -37.818702
              ],
              [
                144.949039,
                -37.818654
              ],
              [
                144.949008,
                -37.818616
              ],
              [
                144.948981,
                -37.818581
              ],
              [
                144.948947,
                -37.818538
              ],
              [
                144.948919,
                -37.818503
              ],
              [
                144.948917,
                -37.8185
              ],
              [
                144.948874,
                -37.818513
              ],
              [
                144.948872,
                -37.818513
              ],
              [
                144.948847,
                -37.81852
              ],
              [
                144.948846,
                -37.818521
              ],
              [
                144.948845,
                -37.818521
              ],
              [
                144.948842,
                -37.818522
              ],
              [
                144.948792,
                -37.818536
              ]
            ],
            [
              [
                144.948872,
                -37.818513
              ],
              [
                144.948873,
                -37.818514
              ],
              [
                144.948876,
                -37.818518
              ],
              [
                144.948872,
                -37.818513
              ]
            ],
            [
              [
                144.948944,
                -37.818628
              ],
              [
                144.948957,
                -37.818621
              ],
              [
                144.948969,
                -37.818636
              ],
              [
                144.948985,
                -37.818657
              ],
              [
                144.948972,
                -37.818664
              ],
              [
                144.948944,
                -37.818628
              ]
            ],
            [
              [
                144.949022,
                -37.818727
              ],
              [
                144.949035,
                -37.81872
              ],
              [
                144.949063,
                -37.818756
              ],
              [
                144.94905,
                -37.818763
              ],
              [
                144.949022,
                -37.818727
              ]
            ],
            [
              [
                144.949113,
                -37.818842
              ],
              [
                144.949126,
                -37.818836
              ],
              [
                144.949152,
                -37.818868
              ],
              [
                144.949154,
                -37.818872
              ],
              [
                144.949141,
                -37.818878
              ],
              [
                144.949113,
                -37.818842
              ]
            ],
            [
              [
                144.949181,
                -37.818928
              ],
              [
                144.949194,
                -37.818922
              ],
              [
                144.949201,
                -37.818931
              ],
              [
                144.949188,
                -37.818938
              ],
              [
                144.949181,
                -37.818928
              ]
            ],
            [
              [
                144.949219,
                -37.818976
              ],
              [
                144.949232,
                -37.81897
              ],
              [
                144.949262,
                -37.819008
              ],
              [
                144.949249,
                -37.819014
              ],
              [
                144.949219,
                -37.818976
              ]
            ],
            [
              [
                144.949336,
                -37.819135
              ],
              [
                144.949355,
                -37.819125
              ],
              [
                144.949375,
                -37.819151
              ],
              [
                144.949377,
                -37.819154
              ],
              [
                144.949359,
                -37.819163
              ],
              [
                144.949357,
                -37.819161
              ],
              [
                144.949336,
                -37.819135
              ]
            ],
            [
              [
                144.949438,
                -37.819263
              ],
              [
                144.949456,
                -37.819254
              ],
              [
                144.949511,
                -37.819323
              ],
              [
                144.9494929242772,
                -37.81933251353832
              ],
              [
                144.949438,
                -37.819263
              ]
            ]
          ],
          [
            [
              [
                144.948919,
                -37.818499
              ],
              [
                144.948921,
                -37.818502
              ],
              [
                144.948949,
                -37.818537
              ],
              [
                144.948983,
                -37.81858
              ],
              [
                144.948999,
                -37.8186
              ],
              [
                144.949018,
                -37.81859
              ],
              [
                144.949025,
                -37.818599
              ],
              [
                144.949006,
                -37.818609
              ],
              [
                144.94901,
                -37.818615
              ],
              [
                144.949041,
                -37.818653
              ],
              [
                144.94906,
                -37.818644
              ],
              [
                144.94911,
                -37.818706
              ],
              [
                144.94909,
                -37.818716
              ],
              [
                144.949125,
                -37.81876
              ],
              [
                144.949145,
                -37.818751
              ],
              [
                144.949194,
                -37.818813
              ],
              [
                144.949175,
                -37.818823
              ],
              [
                144.94921,
                -37.818867
              ],
              [
                144.949229,
                -37.818858
              ],
              [
                144.949236,
                -37.818867
              ],
              [
                144.949217,
                -37.818876
              ],
              [
                144.949249,
                -37.818917
              ],
              [
                144.949265,
                -37.818937
              ],
              [
                144.949284,
                -37.818927
              ],
              [
                144.949291,
                -37.818936
              ],
              [
                144.949272,
                -37.818946
              ],
              [
                144.949274,
                -37.818949
              ],
              [
                144.949304,
                -37.818987
              ],
              [
                144.94933,
                -37.819019
              ],
              [
                144.949337,
                -37.819028
              ],
              [
                144.949356,
                -37.819018
              ],
              [
                144.949363,
                -37.819027
              ],
              [
                144.949344,
                -37.819037
              ],
              [
                144.949354,
                -37.81905
              ],
              [
                144.949378,
                -37.819081
              ],
              [
                144.949398,
                -37.819071
              ],
              [
                144.949448,
                -37.819134
              ],
              [
                144.949428,
                -37.819144
              ],
              [
                144.949433,
                -37.819149
              ],
              [
                144.949463,
                -37.819188
              ],
              [
                144.949482,
                -37.819178
              ],
              [
                144.94949,
                -37.819187
              ],
              [
                144.94947,
                -37.819197
              ],
              [
                144.949505,
                -37.819241
              ],
              [
                144.949525,
                -37.819231
              ],
              [
                144.949587,
                -37.819311
              ],
              [
                144.949568,
                -37.819321
              ],
              [
                144.949583,
                -37.81934
              ],
              [
                144.949586,
                -37.819343
              ],
              [
                144.949598,
                -37.819352
              ],
              [
                144.949602,
                -37.819354
              ],
              [
                144.949607,
                -37.819356
              ],
              [
                144.949611,
                -37.819358
              ],
              [
                144.949691,
                -37.819336
              ],
              [
                144.94901,
                -37.818473
              ],
              [
                144.948919,
                -37.818499
              ]
            ]
          ]
        ]
      }
    }
  ]
}