{
  "type": "FeatureCollection",
  "features": [
    {
      "type": "Feature",
      "properties": {
        "name": "polygon50"
      },
      "geometry": {
        "type": "MultiPolygon",
        "coordinates": [
          [
            [
              [
                144.96664,
                -37.815318
              ],
              [
                144.96666,
                -37.815363
              ],
              [
                144.966662,
                -37.815367
              ],
              [
                144.966686,
                -37.815423
              ],
              [
                144.96857,
                -37.81487
              ],
              [
                144.968834,
                -37.814793
              ],
              [
                144.96881,
                -37.814737
              ],
              [
                144.968809,
                -37.814735
              ],
              [
                144.968808,
                -37.814732
              ],
              [
                144.968788,
                -37.814687
              ],
              [
                144.968458,
                -37.814784
              ],
              [
                144.968361,
                -37.814812
              ],
              [
                144.96664,
                -37.815318
              ]
            ]
          ],
          [
            [
              [
                144.966707,
                -37.815472
              ],
              [
                144.966731,
                -37.815528
              ],
              [
                144.966732,
                -37.81553
              ],
              [
                144.966734,
                -37.815532
              ],
              [
                144.966753,
                -37.815577
              ],
              [
                144.966919,
                -37.815528
              ],
              [
                144.966918,
                -37.815525
              ],
              [
                144.966932,
                -37.815523
              ],
              [
                144.966932,
                -37.815524
              ],
              [
                144.967029,
                -37.815495
              ],
              [
                144.967086,
                -37.815479
              ],
              [
                144.967315,
                -37.815412
              ],
              [
                144.967337,
                -37.815405
              ],
              [
                144.967339,
                -37.815404
              ],
              [
                144.96734,
                -37.815404
              ],
              [
                144.967402,
                -37.815386
              ],
              [
                144.967405,
                -37.815385
              ],
              [
                144.967416,
                -37.815382
              ],
              [
                144.968901,
                -37.814945
              ],
              [
                144.968882,
                -37.814904
              ],
              [
                144.968881,
                -37.814901
              ],
              [
                144.96888,
                -37.814899
              ],
              [
                144.968856,
                -37.814843
              ],
              [
                144.968501,
                -37.814946
              ],
              [
                144.968119,
                -37.815058
              ],
              [
                144.967807,
                -37.81515
              ],
              [
                144.967448,
                -37.815255
              ],
              [
                144.967165,
                -37.815338
              ],
              [
                144.966709,
                -37.815472
              ],
              [
                144.966707,
                -37.815472
              ]
            ]
          ]
        ]
      }
    }
  ]
}