{
  "type": "FeatureCollection",
  "features": [
    {
      "type": "Feature",
      "properties": {
        "name": "polygon38"
      },
      "geometry": {
        "type": "Polygon",
        "coordinates": [
          [
            [
              144.948631,
              -37.808636
            ],
            [
              144.948634,
              -37.808639
            ],
            [
              144.948658,
              -37.808664
            ],
            [
              144.948817,
              -37.808833
            ],
            [
              144.948919,
              -37.808949
            ],
            [
              144.949123,
              -37.809187
            ],
            [
              144.949155,
              -37.809229
            ],
            [
              144.949177,
              -37.809257
            ],
            [
              144.949178,
              -37.809259
            ],
            [
              144.94918,
              -37.80926
            ],
            [
              144.949186,
              -37.809257
            ],
            [
              144.949188,
              -37.809255
            ],
            [
              144.949189,
              -37.809253
            ],
            [
              144.949194,
              -37.809248
            ],
            [
              144.949195,
              -37.809245
            ],
            [
              144.949199,
              -37.809237
            ],
            [
              144.949199,
              -37.809221
            ],
            [
              144.949197,
              -37.809217
            ],
            [
              144.949196,
              -37.809214
            ],
            [
              144.949194,
              -37.80921
            ],
            [
              144.949286,
              -37.809166
            ],
            [
              144.949303,
              -37.809188
            ],
            [
              144.949305,
              -37.80919
            ],
            [
              144.949307,
              -37.80919
            ],
            [
              144.949307,
              -37.809191
            ],
            [
              144.949312,
              -37.809191
            ],
            [
              144.949313,
              -37.80919
            ],
            [
              144.949314,
              -37.80919
            ],
            [
              144.949316,
              -37.809189
            ],
            [
              144.949331,
              -37.809181
            ],
            [
              144.949333,
              -37.809181
            ],
            [
              144.949333,
              -37.80918
            ],
            [
              144.949334,
              -37.80918
            ],
            [
              144.949334,
              -37.809179
            ],
            [
              144.949335,
              -37.809178
            ],
            [
              144.949335,
              -37.809174
            ],
            [
              144.949334,
              -37.809173
            ],
            [
              144.949316,
              -37.809151
            ],
            [
              144.949408,
              -37.809107
            ],
            [
              144.949409,
              -37.809108
            ],
            [
              144.94941,
              -37.809108
            ],
            [
              144.949413,
              -37.809111
            ],
            [
              144.949416,
              -37.809113
            ],
            [
              144.949417,
              -37.809113
            ],
            [
              144.949423,
              -37.809115
            ],
            [
              144.949423,
              -37.809116
            ],
            [
              144.949426,
              -37.809117
            ],
            [
              144.949427,
              -37.809117
            ],
            [
              144.94943,
              -37.809118
            ],
            [
              144.949434,
              -37.809118
            ],
            [
              144.949434,
              -37.809119
            ],
            [
              144.949438,
              -37.809119
            ],
            [
              144.949441,
              -37.80912
            ],
            [
              144.949457,
              -37.80912
            ],
            [
              144.94946,
              -37.809119
            ],
            [
              144.949464,
              -37.809119
            ],
            [
              144.949467,
              -37.809118
            ],
            [
              144.949468,
              -37.809118
            ],
            [
              144.949469,
              -37.809117
            ],
            [
              144.949466,
              -37.809114
            ],
            [
              144.949446,
              -37.809088
            ],
            [
              144.949322,
              -37.808942
            ],
            [
              144.949321,
              -37.80894
            ],
            [
              144.949312,
              -37.808931
            ],
            [
              144.949311,
              -37.808931
            ],
            [
              144.94931,
              -37.808929
            ],
            [
              144.9493,
              -37.808918
            ],
            [
              144.949298,
              -37.808917
            ],
            [
              144.949298,
              -37.808916
            ],
            [
              144.949195,
              -37.808794
            ],
            [
              144.949193,
              -37.808792
            ],
            [
              144.949175,
              -37.808765
            ],
            [
              144.949173,
              -37.808764
            ],
            [
              144.948925,
              -37.808498
            ],
            [
              144.948896,
              -37.808516
            ],
            [
              144.948894,
              -37.808517
            ],
            [
              144.948892,
              -37.808519
            ],
            [
              144.948806,
              -37.808572
            ],
            [
              144.948788,
              -37.808554
            ],
            [
              144.948788,
              -37.808553
            ],
            [
              144.948787,
              -37.808553
            ],
            [
              144.948787,
              -37.808552
            ],
            [
              144.948784,
              -37.808552
            ],
            [
              144.948784,
              -37.808551
            ],
            [
              144.94878,
              -37.808551
            ],
            [
              144.94878,
              -37.808552
            ],
            [
              144.948778,
              -37.808552
            ],
            [
              144.948777,
              -37.808553
            ],
            [
              144.948769,
              -37.808558
            ],
            [
              144.948762,
              -37.808562
            ],
            [
              144.948761,
              -37.808563
            ],
            [
              144.94876,
              -37.808563
            ],
            [
              144.94876,
              -37.808564
            ],
            [
              144.948759,
              -37.808564
            ],
            [
              144.948759,
              -37.808566
            ],
            [
              144.948758,
              -37.808567
            ],
            [
              144.948758,
              -37.808568
            ],
            [
              144.948759,
              -37.808568
            ],
            [
              144.948759,
              -37.80857
            ],
            [
              144.94876,
              -37.808571
            ],
            [
              144.948778,
              -37.80859
            ],
            [
              144.948692,
              -37.808643
            ],
            [
              144.948686,
              -37.808637
            ],
            [
              144.948686,
              -37.808636
            ],
            [
              144.948685,
              -37.808636
            ],
            [
              144.948682,
              -37.808634
            ],
            [
              144.948681,
              -37.808634
            ],
            [
              144.948678,
              -37.808632
            ],
            [
              144.948673,
              -37.80863
            ],
            [
              144.948668,
              -37.808629
            ],
            [
              144.948667,
              -37.808629
            ],
            [
              144.948662,
              -37.808628
            ],
            [
              144.94865,
              -37.808628
            ],
            [
              144.948647,
              -37.808629
            ],
            [
              144.948643,
              -37.80863
            ],
            [
              144.948643,
              -37.808631
            ],
            [
              144.948642,
              -37.808631
            ],
            [
              144.948638,
              -37.808632
            ],
            [
              144.948638,
              -37.808633
            ],
            [
              144.948631,
              -37.808636
            ]
          ]
        ]
      }
    }
  ]
}