{
  "type": "FeatureCollection",
  "features": [
    {
      "type": "Feature",
      "properties": {
        "name": "polygon37"
      },
      "geometry": {
        "type": "Polygon",
        "coordinates": [
          [
            [
              144.949319,
              -37.809433
            ],
            [
              144.949321,
              -37.809435
            ],
            [
              144.949322,
              -37.809437
            ],
            [
              144.94934,
              -37.80946
            ],
            [
              144.949754,
              -37.810072
            ],
            [
              144.949771,
              -37.810099
            ],
            [
              144.949774,
              -37.810102
            ],
            [
              144.949778,
              -37.810099
            ],
            [
              144.949781,
              -37.810095
            ],
            [
              144.949786,
              -37.810089
            ],
            [
              144.94979,
              -37.810083
            ],
            [
              144.949792,
              -37.810076
            ],
            [
              144.949794,
              -37.810071
            ],
            [
              144.949795,
              -37.810065
            ],
            [
              144.949795,
              -37.810061
            ],
            [
              144.949794,
              -37.810056
            ],
            [
              144.949883,
              -37.810022
            ],
            [
              144.949906,
              -37.810058
            ],
            [
              144.949906,
              -37.810059
            ],
            [
              144.949907,
              -37.810059
            ],
            [
              144.949907,
              -37.81006
            ],
            [
              144.949909,
              -37.810062
            ],
            [
              144.94991,
              -37.810062
            ],
            [
              144.94991,
              -37.810063
            ],
            [
              144.949911,
              -37.810063
            ],
            [
              144.949912,
              -37.810064
            ],
            [
              144.949921,
              -37.810064
            ],
            [
              144.949922,
              -37.810063
            ],
            [
              144.949923,
              -37.810063
            ],
            [
              144.949923,
              -37.810062
            ],
            [
              144.949924,
              -37.810062
            ],
            [
              144.949926,
              -37.81006
            ],
            [
              144.949926,
              -37.810058
            ],
            [
              144.949927,
              -37.810058
            ],
            [
              144.949927,
              -37.810057
            ],
            [
              144.949924,
              -37.810052
            ],
            [
              144.949901,
              -37.810015
            ],
            [
              144.95002,
              -37.809969
            ],
            [
              144.94999330379747,
              -37.80992684810127
            ],
            [
              144.949995,
              -37.809926
            ],
            [
              144.949998,
              -37.809925
            ],
            [
              144.94999406598984,
              -37.80991894162437
            ],
            [
              144.95002,
              -37.809896
            ],
            [
              144.949848,
              -37.809634
            ],
            [
              144.94974,
              -37.809477
            ],
            [
              144.949628,
              -37.809325
            ],
            [
              144.949594,
              -37.80934
            ],
            [
              144.949591,
              -37.809342
            ],
            [
              144.94959,
              -37.809343
            ],
            [
              144.949475,
              -37.809397
            ],
            [
              144.949458,
              -37.809373
            ],
            [
              144.949458,
              -37.809372
            ],
            [
              144.949457,
              -37.809372
            ],
            [
              144.949456,
              -37.809371
            ],
            [
              144.949455,
              -37.809371
            ],
            [
              144.949454,
              -37.80937
            ],
            [
              144.949449,
              -37.80937
            ],
            [
              144.949448,
              -37.809371
            ],
            [
              144.949447,
              -37.809371
            ],
            [
              144.949441,
              -37.809374
            ],
            [
              144.949441,
              -37.809375
            ],
            [
              144.94944,
              -37.809375
            ],
            [
              144.949439,
              -37.809376
            ],
            [
              144.949439,
              -37.809377
            ],
            [
              144.949438,
              -37.809378
            ],
            [
              144.949438,
              -37.809381
            ],
            [
              144.949439,
              -37.809381
            ],
            [
              144.949439,
              -37.809382
            ],
            [
              144.949446,
              -37.809392
            ],
            [
              144.949456,
              -37.809406
            ],
            [
              144.949368,
              -37.809447
            ],
            [
              144.949365,
              -37.809444
            ],
            [
              144.949362,
              -37.809442
            ],
            [
              144.94936,
              -37.809441
            ],
            [
              144.949357,
              -37.809439
            ],
            [
              144.949355,
              -37.809438
            ],
            [
              144.949346,
              -37.809435
            ],
            [
              144.949343,
              -37.809435
            ],
            [
              144.94934,
              -37.809434
            ],
            [
              144.949337,
              -37.809434
            ],
            [
              144.949334,
              -37.809433
            ],
            [
              144.949319,
              -37.809433
            ]
          ],
          [
            [
              144.949666,
              -37.809437
            ],
            [
              144.94968,
              -37.809431
            ],
            [
              144.949694,
              -37.80945
            ],
            [
              144.94968,
              -37.809456
            ],
            [
              144.949666,
              -37.809437
            ]
          ]
        ]
      }
    }
  ]
}