{
  "type": "FeatureCollection",
  "features": [
    {
      "type": "Feature",
      "properties": {
        "name": "polygon164"
      },
      "geometry": {
        "type": "Polygon",
        "coordinates": [
          [
            [
              144.971531,
              -37.808475
            ],
            [
              144.971532,
              -37.808477
            ],
            [
              144.971534,
              -37.808479
            ],
            [
              144.971544,
              -37.808501
            ],
            [
              144.97191,
              -37.809311
            ],
            [
              144.971924,
              -37.80934
            ],
            [
              144.971926,
              -37.809343
            ],
            [
              144.971927,
              -37.809345
            ],
            [
              144.972019,
              -37.809535
            ],
            [
              144.972015,
              -37.809536
            ],
            [
              144.972016,
              -37.809537
            ],
            [
              144.972016,
              -37.809538
            ],
            [
              144.972017,
              -37.809539
            ],
            [
              144.97202,
              -37.809538
            ],
            [
              144.972049,
              -37.80953
            ],
            [
              144.972056,
              -37.809528
            ],
            [
              144.97208,
              -37.809528
            ],
            [
              144.972087,
              -37.809529
            ],
            [
              144.972101,
              -37.809533
            ],
            [
              144.972106,
              -37.809536
            ],
            [
              144.97211,
              -37.809539
            ],
            [
              144.972113,
              -37.809545
            ],
            [
              144.972116,
              -37.809544
            ],
            [
              144.972118,
              -37.809544
            ],
            [
              144.972178,
              -37.809526
            ],
            [
              144.972176,
              -37.809521
            ],
            [
              144.972176,
              -37.80952
            ],
            [
              144.972175,
              -37.809509
            ],
            [
              144.972175,
              -37.809508
            ],
            [
              144.972176,
              -37.8095
            ],
            [
              144.972176,
              -37.809499
            ],
            [
              144.972177,
              -37.809499
            ],
            [
              144.972181,
              -37.809491
            ],
            [
              144.972182,
              -37.809491
            ],
            [
              144.972188,
              -37.809485
            ],
            [
              144.972188,
              -37.809484
            ],
            [
              144.972189,
              -37.809484
            ],
            [
              144.972193,
              -37.809481
            ],
            [
              144.972194,
              -37.809481
            ],
            [
              144.972194,
              -37.80948
            ],
            [
              144.972195,
              -37.80948
            ],
            [
              144.972207,
              -37.809476
            ],
            [
              144.972338,
              -37.80944
            ],
            [
              144.972304,
              -37.809371
            ],
            [
              144.972278,
              -37.809378
            ],
            [
              144.972271,
              -37.809378
            ],
            [
              144.97227,
              -37.809377
            ],
            [
              144.972254,
              -37.809344
            ],
            [
              144.972254,
              -37.809341
            ],
            [
              144.972253,
              -37.80934
            ],
            [
              144.972254,
              -37.809339
            ],
            [
              144.972255,
              -37.809337
            ],
            [
              144.972259,
              -37.809335
            ],
            [
              144.972264,
              -37.809334
            ],
            [
              144.972283,
              -37.809328
            ],
            [
              144.972244,
              -37.80925
            ],
            [
              144.972244,
              -37.809248
            ],
            [
              144.972229,
              -37.809219
            ],
            [
              144.972194,
              -37.809142
            ],
            [
              144.972167,
              -37.809083
            ],
            [
              144.97215,
              -37.809047
            ],
            [
              144.972133,
              -37.80901
            ],
            [
              144.972132,
              -37.809008
            ],
            [
              144.972116,
              -37.808972
            ],
            [
              144.972115,
              -37.80897
            ],
            [
              144.972114,
              -37.808969
            ],
            [
              144.972114,
              -37.808968
            ],
            [
              144.972006,
              -37.808734
            ],
            [
              144.971962,
              -37.808638
            ],
            [
              144.971961,
              -37.808636
            ],
            [
              144.971961,
              -37.808635
            ],
            [
              144.971947,
              -37.808605
            ],
            [
              144.971946,
              -37.808603
            ],
            [
              144.971946,
              -37.808602
            ],
            [
              144.971867,
              -37.808431
            ],
            [
              144.971858,
              -37.80841
            ],
            [
              144.971827,
              -37.808419
            ],
            [
              144.971824,
              -37.80842
            ],
            [
              144.971822,
              -37.808421
            ],
            [
              144.971725,
              -37.808449
            ],
            [
              144.971727,
              -37.808454
            ],
            [
              144.971727,
              -37.808458
            ],
            [
              144.971726,
              -37.808458
            ],
            [
              144.971726,
              -37.808459
            ],
            [
              144.971725,
              -37.80846
            ],
            [
              144.971724,
              -37.80846
            ],
            [
              144.971724,
              -37.808461
            ],
            [
              144.971723,
              -37.808461
            ],
            [
              144.971715,
              -37.808463
            ],
            [
              144.97171,
              -37.808465
            ],
            [
              144.97169,
              -37.808471
            ],
            [
              144.971687,
              -37.808471
            ],
            [
              144.971687,
              -37.80847
            ],
            [
              144.971684,
              -37.80847
            ],
            [
              144.971684,
              -37.808469
            ],
            [
              144.971683,
              -37.808469
            ],
            [
              144.971683,
              -37.808468
            ],
            [
              144.971682,
              -37.808468
            ],
            [
              144.971682,
              -37.808467
            ],
            [
              144.97168,
              -37.808462
            ],
            [
              144.9716056744186,
              -37.80848334883721
            ],
            [
              144.971597,
              -37.808466
            ],
            [
              144.971597,
              -37.808465
            ],
            [
              144.971594,
              -37.808462
            ],
            [
              144.971593,
              -37.808462
            ],
            [
              144.971592,
              -37.808461
            ],
            [
              144.971591,
              -37.808461
            ],
            [
              144.97159,
              -37.80846
            ],
            [
              144.971588,
              -37.80846
            ],
            [
              144.971587,
              -37.808459
            ],
            [
              144.971584,
              -37.808459
            ],
            [
              144.971582,
              -37.80846
            ],
            [
              144.97158,
              -37.80846
            ],
            [
              144.971531,
              -37.808475
            ]
          ],
          [
            [
              144.971607,
              -37.808535
            ],
            [
              144.971607,
              -37.808534
            ],
            [
              144.97160746760562,
              -37.808534
            ],
            [
              144.97160792957746,
              -37.808535
            ],
            [
              144.971607,
              -37.808535
            ]
          ],
          [
            [
              144.971608,
              -37.808536
            ],
            [
              144.971608,
              -37.80853515243904
            ],
            [
              144.971929,
              -37.80923
            ],
            [
              144.971608,
              -37.808536
            ]
          ],
          [
            [
              144.971673,
              -37.808733
            ],
            [
              144.97169,
              -37.808729
            ],
            [
              144.971703,
              -37.808755
            ],
            [
              144.97169,
              -37.808759
            ],
            [
              144.971684,
              -37.808756
            ],
            [
              144.971673,
              -37.808733
            ]
          ],
          [
            [
              144.971722,
              -37.808838
            ],
            [
              144.971739,
              -37.808834
            ],
            [
              144.971752,
              -37.808861
            ],
            [
              144.971734,
              -37.808866
            ],
            [
              144.971722,
              -37.808838
            ]
          ],
          [
            [
              144.971813,
              -37.809041
            ],
            [
              144.971832,
              -37.809036
            ],
            [
              144.971844,
              -37.809061
            ],
            [
              144.971825,
              -37.809066
            ],
            [
              144.971813,
              -37.809041
            ]
          ],
          [
            [
              144.971846,
              -37.80846
            ],
            [
              144.971862,
              -37.808455
            ],
            [
              144.971872,
              -37.808477
            ],
            [
              144.971856,
              -37.808481
            ],
            [
              144.971846,
              -37.80846
            ]
          ],
          [
            [
              144.971885,
              -37.808544
            ],
            [
              144.971901,
              -37.808539
            ],
            [
              144.971911,
              -37.80856
            ],
            [
              144.971895,
              -37.808565
            ],
            [
              144.971885,
              -37.808544
            ]
          ],
          [
            [
              144.971946,
              -37.808677
            ],
            [
              144.971962,
              -37.808673
            ],
            [
              144.971971,
              -37.808694
            ],
            [
              144.971955,
              -37.808698
            ],
            [
              144.971946,
              -37.808677
            ]
          ],
          [
            [
              144.971985,
              -37.808762
            ],
            [
              144.972001,
              -37.808757
            ],
            [
              144.97201,
              -37.808778
            ],
            [
              144.971994,
              -37.808783
            ],
            [
              144.971985,
              -37.808762
            ]
          ],
          [
            [
              144.972023,
              -37.808847
            ],
            [
              144.972039,
              -37.808842
            ],
            [
              144.972049,
              -37.808863
            ],
            [
              144.972033,
              -37.808868
            ],
            [
              144.972023,
              -37.808847
            ]
          ],
          [
            [
              144.97207,
              -37.808949
            ],
            [
              144.972086,
              -37.808944
            ],
            [
              144.972096,
              -37.808965
            ],
            [
              144.97208,
              -37.80897
            ],
            [
              144.97207,
              -37.808949
            ]
          ],
          [
            [
              144.97211,
              -37.809034
            ],
            [
              144.972126,
              -37.809029
            ],
            [
              144.972136,
              -37.80905
            ],
            [
              144.97212,
              -37.809055
            ],
            [
              144.97211,
              -37.809034
            ]
          ],
          [
            [
              144.972149,
              -37.809118
            ],
            [
              144.972165,
              -37.809114
            ],
            [
              144.972174,
              -37.809135
            ],
            [
              144.972158,
              -37.80914
            ],
            [
              144.972149,
              -37.809118
            ]
          ]
        ]
      }
    }
  ]
}