{
  "type": "FeatureCollection",
  "features": [
    {
      "type": "Feature",
      "properties": {
        "name": "polygon116"
      },
      "geometry": {
        "type": "Polygon",
        "coordinates": [
          [
            [
              144.965604,
              -37.80777
            ],
            [
              144.965682,
              -37.807939
            ],
            [
              144.966051,
              -37.808739
            ],
            [
              144.96605,
              -37.80874
            ],
            [
              144.96605,
              -37.808749
            ],
            [
              144.966049,
              -37.808754
            ],
            [
              144.966052,
              -37.808754
            ],
            [
              144.966051,
              -37.808762
            ],
            [
              144.966045,
              -37.808776
            ],
            [
              144.966048,
              -37.808777
            ],
            [
              144.966044,
              -37.808784
            ],
            [
              144.966032,
              -37.808798
            ],
            [
              144.966025,
              -37.808804
            ],
            [
              144.966025,
              -37.808805
            ],
            [
              144.966113,
              -37.808779
            ],
            [
              144.966116,
              -37.808778
            ],
            [
              144.966119,
              -37.808778
            ],
            [
              144.96612,
              -37.808781
            ],
            [
              144.96612,
              -37.808789
            ],
            [
              144.966118,
              -37.808795
            ],
            [
              144.966117,
              -37.808799
            ],
            [
              144.966115,
              -37.808802
            ],
            [
              144.966112,
              -37.808806
            ],
            [
              144.966103,
              -37.808815
            ],
            [
              144.966098,
              -37.808818
            ],
            [
              144.96609,
              -37.808823
            ],
            [
              144.966124,
              -37.808895
            ],
            [
              144.966283,
              -37.808849
            ],
            [
              144.966383,
              -37.808819
            ],
            [
              144.966447,
              -37.808801
            ],
            [
              144.966414,
              -37.808729
            ],
            [
              144.966418,
              -37.808729
            ],
            [
              144.966424,
              -37.808728
            ],
            [
              144.966424,
              -37.808727
            ],
            [
              144.966437,
              -37.808723
            ],
            [
              144.966435,
              -37.808719
            ],
            [
              144.966472,
              -37.808708
            ],
            [
              144.966459,
              -37.808678
            ],
            [
              144.966399,
              -37.808696
            ],
            [
              144.966008,
              -37.807844
            ],
            [
              144.966042,
              -37.807834
            ],
            [
              144.966033,
              -37.807815
            ],
            [
              144.966011,
              -37.807821
            ],
            [
              144.966012,
              -37.807822
            ],
            [
              144.965999,
              -37.807826
            ],
            [
              144.965998,
              -37.807823
            ],
            [
              144.965997,
              -37.807821
            ],
            [
              144.965969,
              -37.807761
            ],
            [
              144.965942,
              -37.807702
            ],
            [
              144.965927,
              -37.807702
            ],
            [
              144.965921,
              -37.8077
            ],
            [
              144.965919,
              -37.8077
            ],
            [
              144.965916,
              -37.807699
            ],
            [
              144.965914,
              -37.807698
            ],
            [
              144.965911,
              -37.807697
            ],
            [
              144.965909,
              -37.807695
            ],
            [
              144.965907,
              -37.807694
            ],
            [
              144.965904,
              -37.807693
            ],
            [
              144.965903,
              -37.807691
            ],
            [
              144.965897,
              -37.807685
            ],
            [
              144.965809,
              -37.807711
            ],
            [
              144.965815,
              -37.807731
            ],
            [
              144.965815,
              -37.807735
            ],
            [
              144.965814,
              -37.807736
            ],
            [
              144.965814,
              -37.807737
            ],
            [
              144.965813,
              -37.807737
            ],
            [
              144.965813,
              -37.807738
            ],
            [
              144.965812,
              -37.807738
            ],
            [
              144.965811,
              -37.807739
            ],
            [
              144.96581,
              -37.807739
            ],
            [
              144.965794,
              -37.807744
            ],
            [
              144.965778,
              -37.807748
            ],
            [
              144.965778,
              -37.807749
            ],
            [
              144.965772,
              -37.807749
            ],
            [
              144.965772,
              -37.807748
            ],
            [
              144.96577,
              -37.807748
            ],
            [
              144.965769,
              -37.807747
            ],
            [
              144.965768,
              -37.807747
            ],
            [
              144.965768,
              -37.807746
            ],
            [
              144.965767,
              -37.807745
            ],
            [
              144.965767,
              -37.807744
            ],
            [
              144.965762,
              -37.807725
            ],
            [
              144.96565,
              -37.807757
            ],
            [
              144.965647,
              -37.807758
            ],
            [
              144.96568,
              -37.807829
            ],
            [
              144.965689,
              -37.807847
            ],
            [
              144.965725,
              -37.807926
            ],
            [
              144.965722,
              -37.807927
            ],
            [
              144.965684,
              -37.807846
            ],
            [
              144.965685,
              -37.807845
            ],
            [
              144.965679,
              -37.807833
            ],
            [
              144.965678,
              -37.807833
            ],
            [
              144.965644,
              -37.807759
            ],
            [
              144.965604,
              -37.80777
            ]
          ],
          [
            [
              144.966,
              -37.807917
            ],
            [
              144.966002,
              -37.807917
            ],
            [
              144.966002,
              -37.807916
            ],
            [
              144.966019,
              -37.807911
            ],
            [
              144.966029,
              -37.807933
            ],
            [
              144.966012,
              -37.807938
            ],
            [
              144.966014,
              -37.807943
            ],
            [
              144.966012,
              -37.807944
            ],
            [
              144.966,
              -37.807917
            ]
          ],
          [
            [
              144.966058,
              -37.808697
            ],
            [
              144.966075,
              -37.808692
            ],
            [
              144.966078,
              -37.808699
            ],
            [
              144.966086,
              -37.808715
            ],
            [
              144.966069,
              -37.80872
            ],
            [
              144.966058,
              -37.808697
            ]
          ],
          [
            [
              144.966063,
              -37.808049
            ],
            [
              144.96608,
              -37.808045
            ],
            [
              144.966092,
              -37.80807
            ],
            [
              144.966074,
              -37.808075
            ],
            [
              144.966063,
              -37.808049
            ]
          ],
          [
            [
              144.966219,
              -37.80839
            ],
            [
              144.966238,
              -37.808385
            ],
            [
              144.96625,
              -37.80841
            ],
            [
              144.966231,
              -37.808416
            ],
            [
              144.966219,
              -37.80839
            ]
          ],
          [
            [
              144.966296,
              -37.808563
            ],
            [
              144.966298,
              -37.808563
            ],
            [
              144.966317,
              -37.808557
            ],
            [
              144.966329,
              -37.808583
            ],
            [
              144.96631,
              -37.808588
            ],
            [
              144.966306,
              -37.80858
            ],
            [
              144.966304,
              -37.808581
            ],
            [
              144.966296,
              -37.808563
            ]
          ]
        ]
      }
    }
  ]
}