{
  "type": "FeatureCollection",
  "features": [
    {
      "type": "Feature",
      "properties": {
        "name": "polygon33"
      },
      "geometry": {
        "type": "Polygon",
        "coordinates": [
          [
            [
              144.959483,
              -37.81192
            ],
            [
              144.959501,
              -37.811961
            ],
            [
              144.959502,
              -37.811963
            ],
            [
              144.959503,
              -37.811966
            ],
            [
              144.959519,
              -37.812004
            ],
            [
              144.959523,
              -37.812012
            ],
            [
              144.95985,
              -37.811916
            ],
            [
              144.959853,
              -37.811915
            ],
            [
              144.959904,
              -37.8119
            ],
            [
              144.959906,
              -37.8119
            ],
            [
              144.95994,
              -37.81189
            ],
            [
              144.959949,
              -37.811887
            ],
            [
              144.960088,
              -37.811846
            ],
            [
              144.960163,
              -37.811824
            ],
            [
              144.960243,
              -37.811801
            ],
            [
              144.960341,
              -37.811772
            ],
            [
              144.960344,
              -37.811771
            ],
            [
              144.960363,
              -37.811766
            ],
            [
              144.960366,
              -37.811765
            ],
            [
              144.960399,
              -37.811756
            ],
            [
              144.960402,
              -37.811755
            ],
            [
              144.960409,
              -37.811754
            ],
            [
              144.960765,
              -37.811649
            ],
            [
              144.960767,
              -37.811648
            ],
            [
              144.960768,
              -37.811648
            ],
            [
              144.960771,
              -37.811647
            ],
            [
              144.960776,
              -37.811657
            ],
            [
              144.960812,
              -37.811647
            ],
            [
              144.960815,
              -37.811646
            ],
            [
              144.961119,
              -37.811564
            ],
            [
              144.961114,
              -37.811552
            ],
            [
              144.961365,
              -37.811479
            ],
            [
              144.961368,
              -37.811479
            ],
            [
              144.96137,
              -37.811478
            ],
            [
              144.961389,
              -37.811472
            ],
            [
              144.96139,
              -37.811472
            ],
            [
              144.961392,
              -37.811471
            ],
            [
              144.961397,
              -37.81147
            ],
            [
              144.961397,
              -37.811469
            ],
            [
              144.961417,
              -37.811463
            ],
            [
              144.961418,
              -37.811463
            ],
            [
              144.961422,
              -37.811462
            ],
            [
              144.961667,
              -37.811391
            ],
            [
              144.961662,
              -37.811381
            ],
            [
              144.961661,
              -37.811378
            ],
            [
              144.961659,
              -37.811376
            ],
            [
              144.961634,
              -37.811327
            ],
            [
              144.961633,
              -37.811325
            ],
            [
              144.961632,
              -37.811322
            ],
            [
              144.961625,
              -37.811308
            ],
            [
              144.961406,
              -37.811372
            ],
            [
              144.961402,
              -37.811373
            ],
            [
              144.961401,
              -37.811373
            ],
            [
              144.961355,
              -37.811386
            ],
            [
              144.961351,
              -37.811388
            ],
            [
              144.961349,
              -37.811388
            ],
            [
              144.961345,
              -37.811389
            ],
            [
              144.961203,
              -37.811431
            ],
            [
              144.961196,
              -37.811433
            ],
            [
              144.961191,
              -37.811422
            ],
            [
              144.96101,
              -37.811475
            ],
            [
              144.961015,
              -37.811486
            ],
            [
              144.961008,
              -37.811488
            ],
            [
              144.96101,
              -37.811491
            ],
            [
              144.961011,
              -37.811493
            ],
            [
              144.961011,
              -37.811494
            ],
            [
              144.961012,
              -37.811494
            ],
            [
              144.961013,
              -37.811495
            ],
            [
              144.961015,
              -37.811495
            ],
            [
              144.961017,
              -37.811497
            ],
            [
              144.961016,
              -37.811497
            ],
            [
              144.961016,
              -37.811498
            ],
            [
              144.961013,
              -37.811498
            ],
            [
              144.961012,
              -37.811497
            ],
            [
              144.96101,
              -37.811497
            ],
            [
              144.96101,
              -37.811496
            ],
            [
              144.961009,
              -37.811496
            ],
            [
              144.961008,
              -37.811495
            ],
            [
              144.961008,
              -37.811494
            ],
            [
              144.961006,
              -37.811492
            ],
            [
              144.961005,
              -37.811489
            ],
            [
              144.960968,
              -37.8115
            ],
            [
              144.960968,
              -37.811501
            ],
            [
              144.96097,
              -37.811505
            ],
            [
              144.96097,
              -37.811509
            ],
            [
              144.960967,
              -37.811512
            ],
            [
              144.960966,
              -37.811512
            ],
            [
              144.960965,
              -37.811513
            ],
            [
              144.960964,
              -37.81151
            ],
            [
              144.960965,
              -37.811509
            ],
            [
              144.960966,
              -37.811509
            ],
            [
              144.960966,
              -37.811508
            ],
            [
              144.960967,
              -37.811508
            ],
            [
              144.960967,
              -37.811505
            ],
            [
              144.960965,
              -37.811502
            ],
            [
              144.960964,
              -37.8115
            ],
            [
              144.960963,
              -37.811501
            ],
            [
              144.960775,
              -37.811556
            ],
            [
              144.960066,
              -37.811763
            ],
            [
              144.96006,
              -37.81175
            ],
            [
              144.959483,
              -37.81192
            ]
          ]
        ]
      }
    }
  ]
}