{
  "type": "FeatureCollection",
  "features": [
    {
      "type": "Feature",
      "properties": {
        "name": "polygon144"
      },
      "geometry": {
        "type": "MultiPolygon",
        "coordinates": [
          [
            [
              [
                144.960121,
                -37.81943
              ],
              [
                144.960126,
                -37.819442
              ],
              [
                144.960128,
                -37.819444
              ],
              [
                144.960129,
                -37.819447
              ],
              [
                144.960165,
                -37.819525
              ],
              [
                144.960182,
                -37.81952
              ],
              [
                144.960181,
                -37.819518
              ],
              [
                144.960538,
                -37.819418
              ],
              [
                144.960575,
                -37.819408
              ],
              [
                144.960612,
                -37.819399
              ],
              [
                144.960648,
                -37.81939
              ],
              [
                144.960686,
                -37.819381
              ],
              [
                144.960807,
                -37.819356
              ],
              [
                144.960833,
                -37.819351
              ],
              [
                144.960859,
                -37.819345
              ],
              [
                144.960884,
                -37.819338
              ],
              [
                144.960891,
                -37.819336
              ],
              [
                144.96092,
                -37.819329
              ],
              [
                144.960876,
                -37.819233
              ],
              [
                144.960875,
                -37.819231
              ],
              [
                144.960875,
                -37.81923
              ],
              [
                144.960873,
                -37.819228
              ],
              [
                144.960865,
                -37.819209
              ],
              [
                144.960121,
                -37.81943
              ]
            ]
          ],
          [
            [
              [
                144.960187,
                -37.819574
              ],
              [
                144.960249,
                -37.819708
              ],
              [
                144.960265,
                -37.819703
              ],
              [
                144.960268,
                -37.819703
              ],
              [
                144.960271,
                -37.819702
              ],
              [
                144.961004,
                -37.819511
              ],
              [
                144.961059,
                -37.819497
              ],
              [
                144.961065,
                -37.819495
              ],
              [
                144.961056,
                -37.819477
              ],
              [
                144.96104,
                -37.819442
              ],
              [
                144.96104,
                -37.819441
              ],
              [
                144.961037,
                -37.819438
              ],
              [
                144.961037,
                -37.819437
              ],
              [
                144.961036,
                -37.819437
              ],
              [
                144.961033,
                -37.819436
              ],
              [
                144.961033,
                -37.819435
              ],
              [
                144.961032,
                -37.819435
              ],
              [
                144.961029,
                -37.819434
              ],
              [
                144.961025,
                -37.819434
              ],
              [
                144.96102,
                -37.819433
              ],
              [
                144.961019,
                -37.819433
              ],
              [
                144.961013,
                -37.819434
              ],
              [
                144.961012,
                -37.819434
              ],
              [
                144.961004,
                -37.819436
              ],
              [
                144.960973,
                -37.819445
              ],
              [
                144.960943,
                -37.819378
              ],
              [
                144.960935,
                -37.81938
              ],
              [
                144.960814,
                -37.819408
              ],
              [
                144.960702,
                -37.819433
              ],
              [
                144.960643,
                -37.819446
              ],
              [
                144.960568,
                -37.819466
              ],
              [
                144.96045,
                -37.8195
              ],
              [
                144.960338,
                -37.819532
              ],
              [
                144.960205,
                -37.819569
              ],
              [
                144.960187,
                -37.819574
              ]
            ]
          ]
        ]
      }
    }
  ]
}