{
  "type": "FeatureCollection",
  "features": [
    {
      "type": "Feature",
      "properties": {
        "name": "polygon131"
      },
      "geometry": {
        "type": "Polygon",
        "coordinates": [
          [
            [
              144.968856,
              -37.814843
            ],
            [
              144.96888,
              -37.814899
            ],
            [
              144.968881,
              -37.814901
            ],
            [
              144.968882,
              -37.814904
            ],
            [
              144.968901,
              -37.814945
            ],
            [
              144.96927,
              -37.81575
            ],
            [
              144.969282,
              -37.815776
            ],
            [
              144.969283,
              -37.815779
            ],
            [
              144.969284,
              -37.815781
            ],
            [
              144.969305,
              -37.815826
            ],
            [
              144.969309,
              -37.815825
            ],
            [
              144.969317,
              -37.815824
            ],
            [
              144.969323,
              -37.815824
            ],
            [
              144.969332,
              -37.815825
            ],
            [
              144.96934,
              -37.815826
            ],
            [
              144.969344,
              -37.815827
            ],
            [
              144.969348,
              -37.81583
            ],
            [
              144.969353,
              -37.815833
            ],
            [
              144.969358,
              -37.815837
            ],
            [
              144.969361,
              -37.81584
            ],
            [
              144.969481,
              -37.815804
            ],
            [
              144.9696,
              -37.815768
            ],
            [
              144.969598,
              -37.815763
            ],
            [
              144.969598,
              -37.815762
            ],
            [
              144.969596,
              -37.815752
            ],
            [
              144.969596,
              -37.815741
            ],
            [
              144.969598,
              -37.815736
            ],
            [
              144.969598,
              -37.815735
            ],
            [
              144.969599,
              -37.815735
            ],
            [
              144.969601,
              -37.815732
            ],
            [
              144.969601,
              -37.815731
            ],
            [
              144.969602,
              -37.815731
            ],
            [
              144.969606,
              -37.815727
            ],
            [
              144.969607,
              -37.815727
            ],
            [
              144.969607,
              -37.815726
            ],
            [
              144.969608,
              -37.815726
            ],
            [
              144.969614,
              -37.815723
            ],
            [
              144.969619,
              -37.815722
            ],
            [
              144.969598,
              -37.815676
            ],
            [
              144.969599,
              -37.815675
            ],
            [
              144.969605,
              -37.815674
            ],
            [
              144.969603,
              -37.81567
            ],
            [
              144.969602,
              -37.815669
            ],
            [
              144.969597,
              -37.815671
            ],
            [
              144.969591,
              -37.815671
            ],
            [
              144.969585,
              -37.815672
            ],
            [
              144.969579,
              -37.815671
            ],
            [
              144.969574,
              -37.81567
            ],
            [
              144.969593,
              -37.815665
            ],
            [
              144.969329,
              -37.815097
            ],
            [
              144.969327,
              -37.815094
            ],
            [
              144.969327,
              -37.815092
            ],
            [
              144.969326,
              -37.815091
            ],
            [
              144.969315,
              -37.815066
            ],
            [
              144.969313,
              -37.815062
            ],
            [
              144.969312,
              -37.815061
            ],
            [
              144.969215,
              -37.814853
            ],
            [
              144.969198,
              -37.814811
            ],
            [
              144.969196,
              -37.814808
            ],
            [
              144.969195,
              -37.814806
            ],
            [
              144.969171,
              -37.81475
            ],
            [
              144.969119,
              -37.814765
            ],
            [
              144.969017,
              -37.814795
            ],
            [
              144.96886,
              -37.814842
            ],
            [
              144.968856,
              -37.814843
            ]
          ],
          [
            [
              144.969254,
              -37.815013
            ],
            [
              144.969255,
              -37.815013
            ],
            [
              144.969269,
              -37.815009
            ],
            [
              144.969278,
              -37.815027
            ],
            [
              144.969264,
              -37.815032
            ],
            [
              144.969263,
              -37.815032
            ],
            [
              144.969254,
              -37.815013
            ]
          ],
          [
            [
              144.969302,
              -37.815117
            ],
            [
              144.969303,
              -37.815116
            ],
            [
              144.969322,
              -37.815111
            ],
            [
              144.969337,
              -37.815143
            ],
            [
              144.969317,
              -37.815149
            ],
            [
              144.969312,
              -37.815137
            ],
            [
              144.969302,
              -37.815117
            ]
          ],
          [
            [
              144.969361,
              -37.815242
            ],
            [
              144.969375,
              -37.815238
            ],
            [
              144.969383,
              -37.815256
            ],
            [
              144.96937,
              -37.81526
            ],
            [
              144.969369,
              -37.815258
            ],
            [
              144.969363,
              -37.815245
            ],
            [
              144.969361,
              -37.815242
            ]
          ],
          [
            [
              144.969403,
              -37.815335
            ],
            [
              144.969404,
              -37.815335
            ],
            [
              144.969418,
              -37.815331
            ],
            [
              144.969428,
              -37.815352
            ],
            [
              144.969414,
              -37.815356
            ],
            [
              144.969413,
              -37.815356
            ],
            [
              144.969405,
              -37.815338
            ],
            [
              144.969403,
              -37.815335
            ]
          ],
          [
            [
              144.969456,
              -37.815449
            ],
            [
              144.969457,
              -37.815449
            ],
            [
              144.969471,
              -37.815445
            ],
            [
              144.969479,
              -37.815464
            ],
            [
              144.969466,
              -37.815468
            ],
            [
              144.969464,
              -37.815468
            ],
            [
              144.969456,
              -37.815449
            ]
          ]
        ]
      }
    }
  ]
}