{
  "type": "FeatureCollection",
  "features": [
    {
      "type": "Feature",
      "properties": {
        "name": "polygon84"
      },
      "geometry": {
        "type": "MultiPolygon",
        "coordinates": [
          [
            [
              [
                144.957149,
                -37.813764
              ],
              [
                144.957189,
                -37.813857
              ],
              [
                144.957191,
                -37.813861
              ],
              [
                144.957202,
                -37.813886
              ],
              [
                144.957576,
                -37.814686
              ],
              [
                144.957582,
                -37.814697
              ],
              [
                144.957587,
                -37.814711
              ],
              [
                144.957573,
                -37.814715
              ],
              [
                144.957575,
                -37.814718
              ],
              [
                144.957576,
                -37.81472
              ],
              [
                144.957589,
                -37.814716
              ],
              [
                144.957603,
                -37.814749
              ],
              [
                144.957613,
                -37.814774
              ],
              [
                144.957629,
                -37.81477
              ],
              [
                144.95763,
                -37.814769
              ],
              [
                144.957644,
                -37.814769
              ],
              [
                144.957644,
                -37.81477
              ],
              [
                144.957647,
                -37.81477
              ],
              [
                144.957648,
                -37.814771
              ],
              [
                144.957649,
                -37.814771
              ],
              [
                144.95765,
                -37.814772
              ],
              [
                144.957651,
                -37.814772
              ],
              [
                144.957653,
                -37.814774
              ],
              [
                144.957654,
                -37.814774
              ],
              [
                144.957655,
                -37.814775
              ],
              [
                144.957656,
                -37.814775
              ],
              [
                144.957656,
                -37.814776
              ],
              [
                144.957657,
                -37.814776
              ],
              [
                144.957657,
                -37.814777
              ],
              [
                144.95766,
                -37.81478
              ],
              [
                144.95766,
                -37.814781
              ],
              [
                144.957663,
                -37.814788
              ],
              [
                144.957755,
                -37.814762
              ],
              [
                144.957706,
                -37.814655
              ],
              [
                144.957336,
                -37.81385
              ],
              [
                144.957278,
                -37.813724
              ],
              [
                144.957149,
                -37.813764
              ]
            ],
            [
              [
                144.957474,
                -37.814417
              ],
              [
                144.95749,
                -37.814412
              ],
              [
                144.957497,
                -37.814429
              ],
              [
                144.957481,
                -37.814434
              ],
              [
                144.957474,
                -37.814417
              ]
            ],
            [
              [
                144.957567,
                -37.814621
              ],
              [
                144.957583,
                -37.814617
              ],
              [
                144.95759,
                -37.814633
              ],
              [
                144.957574,
                -37.814638
              ],
              [
                144.957567,
                -37.814621
              ]
            ]
          ],
          [
            [
              [
                144.957346,
                -37.813704
              ],
              [
                144.957404,
                -37.813831
              ],
              [
                144.957774,
                -37.814638
              ],
              [
                144.957822,
                -37.814742
              ],
              [
                144.957905,
                -37.814719
              ],
              [
                144.957905,
                -37.814718
              ],
              [
                144.957904,
                -37.814717
              ],
              [
                144.957904,
                -37.814716
              ],
              [
                144.957905,
                -37.814714
              ],
              [
                144.957905,
                -37.814709
              ],
              [
                144.957906,
                -37.814708
              ],
              [
                144.957907,
                -37.814706
              ],
              [
                144.957907,
                -37.814704
              ],
              [
                144.957908,
                -37.814703
              ],
              [
                144.957909,
                -37.814701
              ],
              [
                144.957912,
                -37.814698
              ],
              [
                144.957913,
                -37.814696
              ],
              [
                144.957916,
                -37.814693
              ],
              [
                144.957918,
                -37.814692
              ],
              [
                144.957919,
                -37.814691
              ],
              [
                144.957921,
                -37.81469
              ],
              [
                144.957922,
                -37.814689
              ],
              [
                144.957924,
                -37.814688
              ],
              [
                144.957925,
                -37.814687
              ],
              [
                144.957927,
                -37.814686
              ],
              [
                144.957929,
                -37.814686
              ],
              [
                144.957931,
                -37.814685
              ],
              [
                144.957932,
                -37.814684
              ],
              [
                144.957935,
                -37.814684
              ],
              [
                144.957939,
                -37.814682
              ],
              [
                144.957918,
                -37.814638
              ],
              [
                144.957917,
                -37.814635
              ],
              [
                144.957916,
                -37.814633
              ],
              [
                144.95791,
                -37.814619
              ],
              [
                144.957905,
                -37.814607
              ],
              [
                144.957534,
                -37.813796
              ],
              [
                144.95752,
                -37.813769
              ],
              [
                144.957518,
                -37.813765
              ],
              [
                144.95747,
                -37.813673
              ],
              [
                144.957346,
                -37.813704
              ]
            ]
          ]
        ]
      }
    }
  ]
}