{
  "type": "FeatureCollection",
  "features": [
    {
      "type": "Feature",
      "properties": {
        "name": "polygon193"
      },
      "geometry": {
        "type": "MultiPolygon",
        "coordinates": [
          [
            [
              [
                144.942898,
                -37.821114
              ],
              [
                144.943205,
                -37.821187
              ],
              [
                144.943217,
                -37.821191
              ],
              [
                144.943228,
                -37.821196
              ],
              [
                144.943238,
                -37.821202
              ],
              [
                144.943246,
                -37.82121
              ],
              [
                144.943253,
                -37.821218
              ],
              [
                144.943268,
                -37.821248
              ],
              [
                144.943355,
                -37.821269
              ],
              [
                144.943356,
                -37.821267
              ],
              [
                144.943359,
                -37.82126
              ],
              [
                144.943364,
                -37.821254
              ],
              [
                144.943368,
                -37.821251
              ],
              [
                144.943371,
                -37.821249
              ],
              [
                144.943378,
                -37.821244
              ],
              [
                144.943386,
                -37.821241
              ],
              [
                144.943395,
                -37.821239
              ],
              [
                144.943404,
                -37.821238
              ],
              [
                144.943413,
                -37.821238
              ],
              [
                144.943422,
                -37.821239
              ],
              [
                144.944121,
                -37.821407
              ],
              [
                144.944132,
                -37.82141
              ],
              [
                144.944161,
                -37.821417
              ],
              [
                144.94427,
                -37.821444
              ],
              [
                144.944283,
                -37.821448
              ],
              [
                144.944337,
                -37.821462
              ],
              [
                144.944431,
                -37.821486
              ],
              [
                144.944455,
                -37.821425
              ],
              [
                144.944183,
                -37.82136
              ],
              [
                144.944175,
                -37.821359
              ],
              [
                144.944137,
                -37.821349
              ],
              [
                144.944072,
                -37.821334
              ],
              [
                144.944002,
                -37.821317
              ],
              [
                144.944001,
                -37.821317
              ],
              [
                144.943935,
                -37.821301
              ],
              [
                144.943845,
                -37.821279
              ],
              [
                144.943765,
                -37.82126
              ],
              [
                144.943676,
                -37.821239
              ],
              [
                144.943665,
                -37.821236
              ],
              [
                144.943639,
                -37.82123
              ],
              [
                144.943565,
                -37.821212
              ],
              [
                144.943482,
                -37.821192
              ],
              [
                144.943395,
                -37.821171
              ],
              [
                144.943318,
                -37.821153
              ],
              [
                144.943305,
                -37.82115
              ],
              [
                144.943222,
                -37.82113
              ],
              [
                144.943151,
                -37.821113
              ],
              [
                144.943076,
                -37.821095
              ],
              [
                144.943008,
                -37.821079
              ],
              [
                144.942995,
                -37.821075
              ],
              [
                144.942919,
                -37.821058
              ],
              [
                144.942898,
                -37.821114
              ]
            ]
          ],
          [
            [
              [
                144.942944,
                -37.820993
              ],
              [
                144.943019,
                -37.821012
              ],
              [
                144.943032,
                -37.821015
              ],
              [
                144.943109,
                -37.821033
              ],
              [
                144.943183,
                -37.821051
              ],
              [
                144.943267,
                -37.821071
              ],
              [
                144.943329,
                -37.821086
              ],
              [
                144.943343,
                -37.821089
              ],
              [
                144.943419,
                -37.821107
              ],
              [
                144.943506,
                -37.821128
              ],
              [
                144.94359,
                -37.821148
              ],
              [
                144.943662,
                -37.821166
              ],
              [
                144.943689,
                -37.821172
              ],
              [
                144.943701,
                -37.821175
              ],
              [
                144.943791,
                -37.821197
              ],
              [
                144.943869,
                -37.821215
              ],
              [
                144.943959,
                -37.821237
              ],
              [
                144.944026,
                -37.821253
              ],
              [
                144.944096,
                -37.82127
              ],
              [
                144.944161,
                -37.821285
              ],
              [
                144.9442,
                -37.821295
              ],
              [
                144.944207,
                -37.821296
              ],
              [
                144.944479,
                -37.821362
              ],
              [
                144.9445,
                -37.821305
              ],
              [
                144.94448,
                -37.8213
              ],
              [
                144.944264,
                -37.821248
              ],
              [
                144.944229,
                -37.82124
              ],
              [
                144.943259,
                -37.821007
              ],
              [
                144.943247,
                -37.821004
              ],
              [
                144.943236,
                -37.820999
              ],
              [
                144.943226,
                -37.820992
              ],
              [
                144.943217,
                -37.820985
              ],
              [
                144.94321,
                -37.820976
              ],
              [
                144.943205,
                -37.820967
              ],
              [
                144.943195,
                -37.820945
              ],
              [
                144.943172,
                -37.820896
              ],
              [
                144.943157,
                -37.8209
              ],
              [
                144.943113,
                -37.820913
              ],
              [
                144.943135,
                -37.82096
              ],
              [
                144.943136,
                -37.820962
              ],
              [
                144.943136,
                -37.820967
              ],
              [
                144.943135,
                -37.820969
              ],
              [
                144.943133,
                -37.82097
              ],
              [
                144.943132,
                -37.820972
              ],
              [
                144.943128,
                -37.820974
              ],
              [
                144.943119,
                -37.820974
              ],
              [
                144.942965,
                -37.820937
              ],
              [
                144.942944,
                -37.820993
              ]
            ]
          ],
          [
            [
              [
                144.944268,
                -37.821247
              ],
              [
                144.9444767647059,
                -37.82129670588236
              ],
              [
                144.944475,
                -37.821296
              ],
              [
                144.944468,
                -37.821294
              ],
              [
                144.944467,
                -37.821293
              ],
              [
                144.944466,
                -37.821293
              ],
              [
                144.944462,
                -37.821291
              ],
              [
                144.944457,
                -37.821289
              ],
              [
                144.944455,
                -37.821288
              ],
              [
                144.944454,
                -37.821287
              ],
              [
                144.944445,
                -37.821281
              ],
              [
                144.944442,
                -37.821278
              ],
              [
                144.944439,
                -37.821276
              ],
              [
                144.944437,
                -37.821273
              ],
              [
                144.944434,
                -37.82127
              ],
              [
                144.944433,
                -37.821268
              ],
              [
                144.94443,
                -37.821264
              ],
              [
                144.944429,
                -37.821261
              ],
              [
                144.944427,
                -37.821259
              ],
              [
                144.944419,
                -37.821241
              ],
              [
                144.944322,
                -37.821218
              ],
              [
                144.944321,
                -37.821224
              ],
              [
                144.94432,
                -37.821226
              ],
              [
                144.944318,
                -37.821229
              ],
              [
                144.944318,
                -37.82123
              ],
              [
                144.944317,
                -37.821231
              ],
              [
                144.944315,
                -37.821234
              ],
              [
                144.94431,
                -37.821239
              ],
              [
                144.944309,
                -37.821239
              ],
              [
                144.944308,
                -37.82124
              ],
              [
                144.944304,
                -37.821242
              ],
              [
                144.944303,
                -37.821243
              ],
              [
                144.944302,
                -37.821243
              ],
              [
                144.944298,
                -37.821245
              ],
              [
                144.944297,
                -37.821245
              ],
              [
                144.944295,
                -37.821246
              ],
              [
                144.944291,
                -37.821247
              ],
              [
                144.944289,
                -37.821247
              ],
              [
                144.944284,
                -37.821248
              ],
              [
                144.944274,
                -37.821248
              ],
              [
                144.944268,
                -37.821247
              ]
            ]
          ],
          [
            [
              [
                144.9444767647059,
                -37.82129670588236
              ],
              [
                144.94448,
                -37.821298
              ],
              [
                144.944478,
                -37.821297
              ],
              [
                144.9444767647059,
                -37.82129670588236
              ]
            ]
          ]
        ]
      }
    }
  ]
}