{
  "type": "FeatureCollection",
  "features": [
    {
      "type": "Feature",
      "properties": {
        "name": "polygon206"
      },
      "geometry": {
        "type": "MultiPolygon",
        "coordinates": [
          [
            [
              [
                144.961965,
                -37.820764
              ],
              [
                144.961968,
                -37.820763
              ],
              [
                144.962386,
                -37.820668
              ],
              [
                144.962498,
                -37.820642
              ],
              [
                144.962593,
                -37.82062
              ],
              [
                144.962595,
                -37.820624
              ],
              [
                144.962584,
                -37.820627
              ],
              [
                144.962583,
                -37.820624
              ],
              [
                144.962496,
                -37.820645
              ],
              [
                144.962497,
                -37.820647
              ],
              [
                144.962486,
                -37.820649
              ],
              [
                144.962485,
                -37.820647
              ],
              [
                144.962442,
                -37.820657
              ],
              [
                144.962443,
                -37.820657
              ],
              [
                144.962398,
                -37.820667
              ],
              [
                144.962399,
                -37.820669
              ],
              [
                144.962387,
                -37.820672
              ],
              [
                144.962387,
                -37.82067
              ],
              [
                144.962382,
                -37.820671
              ],
              [
                144.962379,
                -37.820671
              ],
              [
                144.962322,
                -37.82072
              ],
              [
                144.962348,
                -37.820759
              ],
              [
                144.962389,
                -37.820725
              ],
              [
                144.962384,
                -37.820711
              ],
              [
                144.963099,
                -37.820547
              ],
              [
                144.963136,
                -37.820647
              ],
              [
                144.962429,
                -37.820838
              ],
              [
                144.962406,
                -37.820844
              ],
              [
                144.962408,
                -37.820847
              ],
              [
                144.96248,
                -37.820953
              ],
              [
                144.96257,
                -37.820929
              ],
              [
                144.962557,
                -37.820899
              ],
              [
                144.963928,
                -37.82053
              ],
              [
                144.964025,
                -37.820516
              ],
              [
                144.964029,
                -37.820542
              ],
              [
                144.964049,
                -37.820537
              ],
              [
                144.964058,
                -37.820577
              ],
              [
                144.964063,
                -37.820582
              ],
              [
                144.964065,
                -37.820589
              ],
              [
                144.96407,
                -37.820595
              ],
              [
                144.964078,
                -37.820612
              ],
              [
                144.964082,
                -37.820615
              ],
              [
                144.964065,
                -37.820532
              ],
              [
                144.964154,
                -37.820509
              ],
              [
                144.964412,
                -37.82044
              ],
              [
                144.964958,
                -37.820298
              ],
              [
                144.964964,
                -37.820297
              ],
              [
                144.965048,
                -37.820275
              ],
              [
                144.965053,
                -37.820274
              ],
              [
                144.965066,
                -37.82027
              ],
              [
                144.965078,
                -37.820298
              ],
              [
                144.965095,
                -37.820294
              ],
              [
                144.965131,
                -37.820287
              ],
              [
                144.965131,
                -37.820286
              ],
              [
                144.965154,
                -37.82023
              ],
              [
                144.965158,
                -37.820222
              ],
              [
                144.965167,
                -37.820201
              ],
              [
                144.965231,
                -37.820184
              ],
              [
                144.965237,
                -37.820182
              ],
              [
                144.965272,
                -37.820172
              ],
              [
                144.965294,
                -37.82018
              ],
              [
                144.965285,
                -37.820171
              ],
              [
                144.965296,
                -37.820167
              ],
              [
                144.965307,
                -37.820164
              ],
              [
                144.965319,
                -37.820161
              ],
              [
                144.96533,
                -37.820158
              ],
              [
                144.965378,
                -37.82015
              ],
              [
                144.96539,
                -37.820149
              ],
              [
                144.965402,
                -37.820149
              ],
              [
                144.965414,
                -37.820148
              ],
              [
                144.965427,
                -37.820126
              ],
              [
                144.965904,
                -37.820055
              ],
              [
                144.965932,
                -37.820065
              ],
              [
                144.966058,
                -37.820047
              ],
              [
                144.966083,
                -37.820006
              ],
              [
                144.966579,
                -37.819931
              ],
              [
                144.966615,
                -37.819945
              ],
              [
                144.966646,
                -37.819937
              ],
              [
                144.966642,
                -37.819932
              ],
              [
                144.966664,
                -37.819924
              ],
              [
                144.966676,
                -37.819921
              ],
              [
                144.966687,
                -37.819917
              ],
              [
                144.966699,
                -37.819914
              ],
              [
                144.966711,
                -37.819912
              ],
              [
                144.966723,
                -37.819909
              ],
              [
                144.966735,
                -37.819907
              ],
              [
                144.966747,
                -37.819906
              ],
              [
                144.966759,
                -37.819904
              ],
              [
                144.966772,
                -37.819903
              ],
              [
                144.966821,
                -37.819903
              ],
              [
                144.966833,
                -37.819904
              ],
              [
                144.966834,
                -37.819915
              ],
              [
                144.966889,
                -37.8199
              ],
              [
                144.966899,
                -37.819889
              ],
              [
                144.966924,
                -37.819869
              ],
              [
                144.966936,
                -37.819861
              ],
              [
                144.966948,
                -37.819854
              ],
              [
                144.966959,
                -37.819848
              ],
              [
                144.966975,
                -37.819843
              ],
              [
                144.966995,
                -37.819838
              ],
              [
                144.967009,
                -37.819836
              ],
              [
                144.967025,
                -37.819834
              ],
              [
                144.967045,
                -37.819834
              ],
              [
                144.967064,
                -37.819838
              ],
              [
                144.967078,
                -37.819843
              ],
              [
                144.96709,
                -37.819847
              ],
              [
                144.967108,
                -37.819855
              ],
              [
                144.967119,
                -37.819862
              ],
              [
                144.967125,
                -37.81986
              ],
              [
                144.967145,
                -37.81986
              ],
              [
                144.967148,
                -37.819861
              ],
              [
                144.96715,
                -37.819862
              ],
              [
                144.967153,
                -37.819862
              ],
              [
                144.967156,
                -37.819863
              ],
              [
                144.967158,
                -37.819864
              ],
              [
                144.967161,
                -37.819866
              ],
              [
                144.967165,
                -37.819868
              ],
              [
                144.967168,
                -37.81987
              ],
              [
                144.967175,
                -37.819877
              ],
              [
                144.967177,
                -37.819881
              ],
              [
                144.967179,
                -37.819883
              ],
              [
                144.96718,
                -37.819886
              ],
              [
                144.96718,
                -37.819888
              ],
              [
                144.967181,
                -37.81989
              ],
              [
                144.967181,
                -37.819901
              ],
              [
                144.96718,
                -37.819904
              ],
              [
                144.96718,
                -37.819906
              ],
              [
                144.967177,
                -37.819912
              ],
              [
                144.967175,
                -37.819914
              ],
              [
                144.967174,
                -37.819916
              ],
              [
                144.967168,
                -37.819922
              ],
              [
                144.967166,
                -37.819923
              ],
              [
                144.967164,
                -37.819925
              ],
              [
                144.967162,
                -37.819926
              ],
              [
                144.967159,
                -37.819927
              ],
              [
                144.967156,
                -37.819929
              ],
              [
                144.967156,
                -37.819935
              ],
              [
                144.967313,
                -37.819938
              ],
              [
                144.967336,
                -37.819936
              ],
              [
                144.96734,
                -37.819934
              ],
              [
                144.967344,
                -37.819933
              ],
              [
                144.967353,
                -37.81993
              ],
              [
                144.967496,
                -37.819899
              ],
              [
                144.967641,
                -37.819877
              ],
              [
                144.967865,
                -37.819848
              ],
              [
                144.96809,
                -37.819823
              ],
              [
                144.968291,
                -37.819805
              ],
              [
                144.968276,
                -37.819725
              ],
              [
                144.968275,
                -37.819723
              ],
              [
                144.968272,
                -37.819724
              ],
              [
                144.968271,
                -37.819722
              ],
              [
                144.96826,
                -37.819698
              ],
              [
                144.968253,
                -37.819696
              ],
              [
                144.968209,
                -37.819686
              ],
              [
                144.968067,
                -37.819695
              ],
              [
                144.968032,
                -37.819697
              ],
              [
                144.967964,
                -37.819701
              ],
              [
                144.967964,
                -37.819699
              ],
              [
                144.967872,
                -37.819705
              ],
              [
                144.967872,
                -37.819707
              ],
              [
                144.967864,
                -37.819707
              ],
              [
                144.967864,
                -37.819705
              ],
              [
                144.967818,
                -37.819708
              ],
              [
                144.967818,
                -37.81971
              ],
              [
                144.96781,
                -37.819711
              ],
              [
                144.967809,
                -37.819708
              ],
              [
                144.967792,
                -37.819709
              ],
              [
                144.967718,
                -37.819713
              ],
              [
                144.967718,
                -37.819716
              ],
              [
                144.96771,
                -37.819716
              ],
              [
                144.96771,
                -37.819714
              ],
              [
                144.967664,
                -37.819717
              ],
              [
                144.967664,
                -37.819719
              ],
              [
                144.967656,
                -37.819719
              ],
              [
                144.967656,
                -37.819717
              ],
              [
                144.967565,
                -37.819722
              ],
              [
                144.967565,
                -37.819725
              ],
              [
                144.967556,
                -37.819725
              ],
              [
                144.967556,
                -37.819723
              ],
              [
                144.96751,
                -37.819725
              ],
              [
                144.96751,
                -37.819728
              ],
              [
                144.967502,
                -37.819728
              ],
              [
                144.967501,
                -37.819726
              ],
              [
                144.96748,
                -37.819727
              ],
              [
                144.967411,
                -37.819731
              ],
              [
                144.967411,
                -37.819733
              ],
              [
                144.967401,
                -37.819733
              ],
              [
                144.967401,
                -37.819731
              ],
              [
                144.967309,
                -37.819738
              ],
              [
                144.96731,
                -37.81974
              ],
              [
                144.967301,
                -37.819741
              ],
              [
                144.967301,
                -37.819739
              ],
              [
                144.967242,
                -37.819745
              ],
              [
                144.967211,
                -37.819748
              ],
              [
                144.967211,
                -37.81975
              ],
              [
                144.967201,
                -37.819751
              ],
              [
                144.967201,
                -37.819749
              ],
              [
                144.967197,
                -37.819749
              ],
              [
                144.967111,
                -37.819759
              ],
              [
                144.967112,
                -37.819761
              ],
              [
                144.967101,
                -37.819762
              ],
              [
                144.9671,
                -37.81976
              ],
              [
                144.96704,
                -37.819766
              ],
              [
                144.967012,
                -37.81977
              ],
              [
                144.967012,
                -37.819772
              ],
              [
                144.967002,
                -37.819773
              ],
              [
                144.967001,
                -37.819769
              ],
              [
                144.967039,
                -37.819764
              ],
              [
                144.967113,
                -37.819756
              ],
              [
                144.967197,
                -37.819747
              ],
              [
                144.967242,
                -37.819742
              ],
              [
                144.967301,
                -37.819736
              ],
              [
                144.967402,
                -37.819729
              ],
              [
                144.96748,
                -37.819725
              ],
              [
                144.967561,
                -37.81972
              ],
              [
                144.967657,
                -37.819715
              ],
              [
                144.967717,
                -37.819711
              ],
              [
                144.967792,
                -37.819707
              ],
              [
                144.967872,
                -37.819702
              ],
              [
                144.967961,
                -37.819697
              ],
              [
                144.968022,
                -37.819693
              ],
              [
                144.968021,
                -37.819693
              ],
              [
                144.96802,
                -37.819691
              ],
              [
                144.96802,
                -37.819689
              ],
              [
                144.968019,
                -37.819688
              ],
              [
                144.968017,
                -37.819662
              ],
              [
                144.967976,
                -37.819664
              ],
              [
                144.967912,
                -37.819668
              ],
              [
                144.967825,
                -37.819673
              ],
              [
                144.967768,
                -37.819677
              ],
              [
                144.967672,
                -37.819682
              ],
              [
                144.967608,
                -37.819686
              ],
              [
                144.967509,
                -37.819692
              ],
              [
                144.967389,
                -37.819698
              ],
              [
                144.967367,
                -37.819699
              ],
              [
                144.967318,
                -37.819704
              ],
              [
                144.967261,
                -37.819709
              ],
              [
                144.967137,
                -37.819722
              ],
              [
                144.967062,
                -37.819731
              ],
              [
                144.966982,
                -37.81974
              ],
              [
                144.966947,
                -37.819744
              ],
              [
                144.966951,
                -37.819761
              ],
              [
                144.966922,
                -37.819765
              ],
              [
                144.966919,
                -37.819747
              ],
              [
                144.966812,
                -37.81976
              ],
              [
                144.96678,
                -37.819764
              ],
              [
                144.966699,
                -37.819775
              ],
              [
                144.966702,
                -37.819792
              ],
              [
                144.966601,
                -37.819805
              ],
              [
                144.966597,
                -37.819788
              ],
              [
                144.966511,
                -37.819801
              ],
              [
                144.966514,
                -37.819817
              ],
              [
                144.966484,
                -37.819822
              ],
              [
                144.96648,
                -37.819805
              ],
              [
                144.966298,
                -37.81983
              ],
              [
                144.966105,
                -37.819859
              ],
              [
                144.96594,
                -37.819886
              ],
              [
                144.965945,
                -37.819904
              ],
              [
                144.965917,
                -37.819909
              ],
              [
                144.965912,
                -37.81989
              ],
              [
                144.965883,
                -37.819895
              ],
              [
                144.965739,
                -37.819919
              ],
              [
                144.965745,
                -37.819936
              ],
              [
                144.965716,
                -37.819941
              ],
              [
                144.965711,
                -37.819924
              ],
              [
                144.965658,
                -37.819932
              ],
              [
                144.965474,
                -37.819965
              ],
              [
                144.965184,
                -37.82002
              ],
              [
                144.965085,
                -37.82004
              ],
              [
                144.965093,
                -37.82006
              ],
              [
                144.965103,
                -37.820084
              ],
              [
                144.965123,
                -37.820136
              ],
              [
                144.965118,
                -37.820137
              ],
              [
                144.965099,
                -37.820092
              ],
              [
                144.965079,
                -37.820041
              ],
              [
                144.965002,
                -37.820056
              ],
              [
                144.964999,
                -37.820057
              ],
              [
                144.965013,
                -37.820109
              ],
              [
                144.965024,
                -37.820155
              ],
              [
                144.965018,
                -37.820156
              ],
              [
                144.965005,
                -37.820105
              ],
              [
                144.964999,
                -37.82008
              ],
              [
                144.964993,
                -37.820058
              ],
              [
                144.96445,
                -37.820175
              ],
              [
                144.964432,
                -37.820179
              ],
              [
                144.964118,
                -37.820247
              ],
              [
                144.964112,
                -37.820258
              ],
              [
                144.964114,
                -37.820258
              ],
              [
                144.964112,
                -37.820262
              ],
              [
                144.96411,
                -37.820261
              ],
              [
                144.964107,
                -37.820266
              ],
              [
                144.964109,
                -37.820267
              ],
              [
                144.964107,
                -37.82027
              ],
              [
                144.964105,
                -37.820269
              ],
              [
                144.964102,
                -37.820274
              ],
              [
                144.964104,
                -37.820275
              ],
              [
                144.964102,
                -37.820278
              ],
              [
                144.9641,
                -37.820277
              ],
              [
                144.964097,
                -37.820282
              ],
              [
                144.964099,
                -37.820283
              ],
              [
                144.964097,
                -37.820286
              ],
              [
                144.964095,
                -37.820285
              ],
              [
                144.964092,
                -37.82029
              ],
              [
                144.964094,
                -37.820291
              ],
              [
                144.964092,
                -37.820294
              ],
              [
                144.96409,
                -37.820293
              ],
              [
                144.964084,
                -37.820304
              ],
              [
                144.964093,
                -37.820328
              ],
              [
                144.964088,
                -37.820329
              ],
              [
                144.9639,
                -37.82038
              ],
              [
                144.963896,
                -37.820381
              ],
              [
                144.963879,
                -37.820343
              ],
              [
                144.963877,
                -37.820344
              ],
              [
                144.963875,
                -37.820339
              ],
              [
                144.963878,
                -37.820339
              ],
              [
                144.963876,
                -37.820335
              ],
              [
                144.963874,
                -37.820335
              ],
              [
                144.963872,
                -37.820331
              ],
              [
                144.963874,
                -37.820331
              ],
              [
                144.963872,
                -37.820326
              ],
              [
                144.96387,
                -37.820327
              ],
              [
                144.963868,
                -37.820322
              ],
              [
                144.96387,
                -37.820322
              ],
              [
                144.963868,
                -37.820317
              ],
              [
                144.963866,
                -37.820318
              ],
              [
                144.963864,
                -37.820314
              ],
              [
                144.963867,
                -37.820313
              ],
              [
                144.963865,
                -37.820309
              ],
              [
                144.963862,
                -37.820309
              ],
              [
                144.963861,
                -37.820305
              ],
              [
                144.963863,
                -37.820305
              ],
              [
                144.963862,
                -37.820302
              ],
              [
                144.963053,
                -37.820483
              ],
              [
                144.962771,
                -37.820547
              ],
              [
                144.962571,
                -37.820593
              ],
              [
                144.962441,
                -37.820623
              ],
              [
                144.962369,
                -37.820639
              ],
              [
                144.962021,
                -37.820718
              ],
              [
                144.962017,
                -37.820719
              ],
              [
                144.961965,
                -37.820764
              ]
            ],
            [
              [
                144.962448,
                -37.820673
              ],
              [
                144.962568,
                -37.820646
              ],
              [
                144.963117,
                -37.82052
              ],
              [
                144.963123,
                -37.820537
              ],
              [
                144.96313,
                -37.820554
              ],
              [
                144.963125,
                -37.820555
              ],
              [
                144.963113,
                -37.820525
              ],
              [
                144.963082,
                -37.820532
              ],
              [
                144.963081,
                -37.82053
              ],
              [
                144.962994,
                -37.82055
              ],
              [
                144.962995,
                -37.820552
              ],
              [
                144.962985,
                -37.820555
              ],
              [
                144.962984,
                -37.820552
              ],
              [
                144.962895,
                -37.820573
              ],
              [
                144.962896,
                -37.820575
              ],
              [
                144.962885,
                -37.820578
              ],
              [
                144.962884,
                -37.820575
              ],
              [
                144.962797,
                -37.820596
              ],
              [
                144.962798,
                -37.820598
              ],
              [
                144.962788,
                -37.8206
              ],
              [
                144.962787,
                -37.820598
              ],
              [
                144.962698,
                -37.820618
              ],
              [
                144.962699,
                -37.82062
              ],
              [
                144.962689,
                -37.820623
              ],
              [
                144.962689,
                -37.820621
              ],
              [
                144.962601,
                -37.820641
              ],
              [
                144.962602,
                -37.820643
              ],
              [
                144.96245,
                -37.820678
              ],
              [
                144.962448,
                -37.820673
              ]
            ],
            [
              [
                144.963157,
                -37.820511
              ],
              [
                144.963615,
                -37.820407
              ],
              [
                144.963673,
                -37.820394
              ],
              [
                144.963748,
                -37.820378
              ],
              [
                144.963745,
                -37.820368
              ],
              [
                144.963749,
                -37.820378
              ],
              [
                144.96375,
                -37.820383
              ],
              [
                144.963675,
                -37.820399
              ],
              [
                144.963674,
                -37.820397
              ],
              [
                144.963615,
                -37.820409
              ],
              [
                144.963584,
                -37.820416
              ],
              [
                144.963585,
                -37.820419
              ],
              [
                144.963575,
                -37.820421
              ],
              [
                144.963574,
                -37.820419
              ],
              [
                144.963486,
                -37.820439
              ],
              [
                144.963487,
                -37.820441
              ],
              [
                144.963477,
                -37.820443
              ],
              [
                144.963476,
                -37.820441
              ],
              [
                144.963388,
                -37.820461
              ],
              [
                144.963389,
                -37.820463
              ],
              [
                144.963378,
                -37.820465
              ],
              [
                144.963377,
                -37.820463
              ],
              [
                144.96329,
                -37.820483
              ],
              [
                144.963291,
                -37.820485
              ],
              [
                144.963282,
                -37.820487
              ],
              [
                144.963281,
                -37.820485
              ],
              [
                144.963193,
                -37.820505
              ],
              [
                144.963194,
                -37.820507
              ],
              [
                144.963164,
                -37.820514
              ],
              [
                144.963175,
                -37.820544
              ],
              [
                144.96317,
                -37.820545
              ],
              [
                144.963163,
                -37.820528
              ],
              [
                144.963157,
                -37.820511
              ]
            ],
            [
              [
                144.963191,
                -37.820524
              ],
              [
                144.963191,
                -37.820522
              ],
              [
                144.963281,
                -37.820501
              ],
              [
                144.963565,
                -37.820438
              ],
              [
                144.963756,
                -37.820395
              ],
              [
                144.963757,
                -37.820398
              ],
              [
                144.963709,
                -37.820409
              ],
              [
                144.963191,
                -37.820524
              ]
            ],
            [
              [
                144.963192,
                -37.820526
              ],
              [
                144.963553,
                -37.820446
              ],
              [
                144.963755,
                -37.820401
              ],
              [
                144.963782,
                -37.820473
              ],
              [
                144.963227,
                -37.820622
              ],
              [
                144.963192,
                -37.820526
              ]
            ],
            [
              [
                144.963575,
                -37.820388
              ],
              [
                144.963843,
                -37.82033
              ],
              [
                144.963882,
                -37.820422
              ],
              [
                144.963892,
                -37.820446
              ],
              [
                144.963893,
                -37.820449
              ],
              [
                144.963888,
                -37.82045
              ],
              [
                144.963886,
                -37.820446
              ],
              [
                144.963839,
                -37.820335
              ],
              [
                144.963741,
                -37.820356
              ],
              [
                144.963577,
                -37.820393
              ],
              [
                144.963575,
                -37.820388
              ]
            ],
            [
              [
                144.963907,
                -37.820407
              ],
              [
                144.963911,
                -37.820406
              ],
              [
                144.963926,
                -37.82044
              ],
              [
                144.963921,
                -37.820441
              ],
              [
                144.96392,
                -37.820439
              ],
              [
                144.96391,
                -37.820415
              ],
              [
                144.963907,
                -37.820407
              ]
            ],
            [
              [
                144.964099,
                -37.820354
              ],
              [
                144.964104,
                -37.820353
              ],
              [
                144.96411,
                -37.820365
              ],
              [
                144.96412,
                -37.820387
              ],
              [
                144.964115,
                -37.820389
              ],
              [
                144.964114,
                -37.820387
              ],
              [
                144.964099,
                -37.820354
              ]
            ],
            [
              [
                144.964132,
                -37.820346
              ],
              [
                144.964169,
                -37.820287
              ],
              [
                144.964216,
                -37.820277
              ],
              [
                144.964903,
                -37.820129
              ],
              [
                144.964905,
                -37.820133
              ],
              [
                144.964893,
                -37.820136
              ],
              [
                144.964892,
                -37.820133
              ],
              [
                144.964805,
                -37.820152
              ],
              [
                144.964806,
                -37.820154
              ],
              [
                144.964795,
                -37.820157
              ],
              [
                144.964794,
                -37.820155
              ],
              [
                144.964706,
                -37.820174
              ],
              [
                144.964707,
                -37.820176
              ],
              [
                144.964696,
                -37.820178
              ],
              [
                144.964695,
                -37.820176
              ],
              [
                144.964612,
                -37.820194
              ],
              [
                144.964613,
                -37.820196
              ],
              [
                144.964602,
                -37.820199
              ],
              [
                144.964601,
                -37.820196
              ],
              [
                144.964513,
                -37.820215
              ],
              [
                144.964514,
                -37.820218
              ],
              [
                144.964503,
                -37.82022
              ],
              [
                144.964502,
                -37.820218
              ],
              [
                144.964414,
                -37.820237
              ],
              [
                144.964415,
                -37.820239
              ],
              [
                144.964404,
                -37.820241
              ],
              [
                144.964403,
                -37.820239
              ],
              [
                144.964316,
                -37.820258
              ],
              [
                144.964317,
                -37.82026
              ],
              [
                144.964305,
                -37.820263
              ],
              [
                144.964305,
                -37.82026
              ],
              [
                144.964217,
                -37.820279
              ],
              [
                144.964218,
                -37.820282
              ],
              [
                144.964174,
                -37.820291
              ],
              [
                144.964138,
                -37.820347
              ],
              [
                144.964152,
                -37.820379
              ],
              [
                144.964151,
                -37.820379
              ],
              [
                144.964146,
                -37.82038
              ],
              [
                144.964145,
                -37.820378
              ],
              [
                144.964137,
                -37.820358
              ],
              [
                144.964132,
                -37.820346
              ]
            ],
            [
              [
                144.964697,
                -37.820145
              ],
              [
                144.964961,
                -37.820088
              ],
              [
                144.964969,
                -37.820112
              ],
              [
                144.964971,
                -37.82012
              ],
              [
                144.964966,
                -37.820121
              ],
              [
                144.964957,
                -37.820094
              ],
              [
                144.964896,
                -37.820107
              ],
              [
                144.964698,
                -37.820149
              ],
              [
                144.964697,
                -37.820145
              ]
            ],
            [
              [
                144.96513,
                -37.820053
              ],
              [
                144.965395,
                -37.820003
              ],
              [
                144.965397,
                -37.820007
              ],
              [
                144.965199,
                -37.820045
              ],
              [
                144.965137,
                -37.820057
              ],
              [
                144.965145,
                -37.820079
              ],
              [
                144.965139,
                -37.82008
              ],
              [
                144.96513,
                -37.820053
              ]
            ],
            [
              [
                144.965205,
                -37.820067
              ],
              [
                144.965267,
                -37.820055
              ],
              [
                144.965321,
                -37.820045
              ],
              [
                144.965397,
                -37.82003
              ],
              [
                144.965458,
                -37.820019
              ],
              [
                144.965521,
                -37.820008
              ],
              [
                144.965572,
                -37.819999
              ],
              [
                144.965664,
                -37.819982
              ],
              [
                144.965803,
                -37.819957
              ],
              [
                144.965834,
                -37.819952
              ],
              [
                144.965841,
                -37.819979
              ],
              [
                144.965843,
                -37.819988
              ],
              [
                144.965838,
                -37.819989
              ],
              [
                144.96583,
                -37.819957
              ],
              [
                144.965804,
                -37.819962
              ],
              [
                144.965804,
                -37.819959
              ],
              [
                144.965711,
                -37.819976
              ],
              [
                144.965712,
                -37.819978
              ],
              [
                144.965702,
                -37.81998
              ],
              [
                144.965701,
                -37.819977
              ],
              [
                144.965614,
                -37.819993
              ],
              [
                144.965615,
                -37.819995
              ],
              [
                144.965604,
                -37.819997
              ],
              [
                144.965603,
                -37.819996
              ],
              [
                144.965603,
                -37.819995
              ],
              [
                144.965514,
                -37.820011
              ],
              [
                144.965515,
                -37.820014
              ],
              [
                144.965504,
                -37.820016
              ],
              [
                144.965503,
                -37.820013
              ],
              [
                144.965414,
                -37.820029
              ],
              [
                144.965415,
                -37.820032
              ],
              [
                144.965404,
                -37.820034
              ],
              [
                144.965403,
                -37.820031
              ],
              [
                144.965316,
                -37.820048
              ],
              [
                144.965317,
                -37.82005
              ],
              [
                144.965305,
                -37.820052
              ],
              [
                144.965304,
                -37.82005
              ],
              [
                144.965267,
                -37.820057
              ],
              [
                144.965217,
                -37.820067
              ],
              [
                144.965218,
                -37.820069
              ],
              [
                144.965206,
                -37.820071
              ],
              [
                144.965205,
                -37.820067
              ]
            ],
            [
              [
                144.965879,
                -37.819945
              ],
              [
                144.965911,
                -37.81994
              ],
              [
                144.965992,
                -37.819927
              ],
              [
                144.966099,
                -37.81991
              ],
              [
                144.96618,
                -37.819897
              ],
              [
                144.966289,
                -37.819881
              ],
              [
                144.966402,
                -37.819864
              ],
              [
                144.966436,
                -37.819859
              ],
              [
                144.966442,
                -37.819889
              ],
              [
                144.966443,
                -37.819895
              ],
              [
                144.966437,
                -37.819896
              ],
              [
                144.966431,
                -37.819864
              ],
              [
                144.966403,
                -37.819868
              ],
              [
                144.966403,
                -37.819866
              ],
              [
                144.966312,
                -37.81988
              ],
              [
                144.966312,
                -37.819882
              ],
              [
                144.966303,
                -37.819883
              ],
              [
                144.966302,
                -37.819881
              ],
              [
                144.966212,
                -37.819895
              ],
              [
                144.966213,
                -37.819897
              ],
              [
                144.966201,
                -37.819899
              ],
              [
                144.966201,
                -37.819896
              ],
              [
                144.96618,
                -37.8199
              ],
              [
                144.966111,
                -37.81991
              ],
              [
                144.966112,
                -37.819912
              ],
              [
                144.966102,
                -37.819914
              ],
              [
                144.966102,
                -37.819912
              ],
              [
                144.966011,
                -37.819926
              ],
              [
                144.966012,
                -37.819928
              ],
              [
                144.966002,
                -37.81993
              ],
              [
                144.966002,
                -37.819928
              ],
              [
                144.965911,
                -37.819942
              ],
              [
                144.965912,
                -37.819944
              ],
              [
                144.965885,
                -37.819948
              ],
              [
                144.965894,
                -37.819979
              ],
              [
                144.965888,
                -37.81998
              ],
              [
                144.965886,
                -37.819971
              ],
              [
                144.96588,
                -37.819949
              ],
              [
                144.965879,
                -37.819945
              ]
            ],
            [
              [
                144.966481,
                -37.819854
              ],
              [
                144.966514,
                -37.819849
              ],
              [
                144.966561,
                -37.819843
              ],
              [
                144.966596,
                -37.819838
              ],
              [
                144.966642,
                -37.819832
              ],
              [
                144.966692,
                -37.819825
              ],
              [
                144.966732,
                -37.81982
              ],
              [
                144.966801,
                -37.81981
              ],
              [
                144.966838,
                -37.819806
              ],
              [
                144.966845,
                -37.819842
              ],
              [
                144.966839,
                -37.819843
              ],
              [
                144.966833,
                -37.819811
              ],
              [
                144.966802,
                -37.819814
              ],
              [
                144.966801,
                -37.819812
              ],
              [
                144.966714,
                -37.819824
              ],
              [
                144.966715,
                -37.819827
              ],
              [
                144.966705,
                -37.819828
              ],
              [
                144.966705,
                -37.819826
              ],
              [
                144.966692,
                -37.819827
              ],
              [
                144.966642,
                -37.819834
              ],
              [
                144.966616,
                -37.819838
              ],
              [
                144.966616,
                -37.81984
              ],
              [
                144.966605,
                -37.819842
              ],
              [
                144.966605,
                -37.819839
              ],
              [
                144.966561,
                -37.819845
              ],
              [
                144.966514,
                -37.819852
              ],
              [
                144.966515,
                -37.819853
              ],
              [
                144.966487,
                -37.819857
              ],
              [
                144.966493,
                -37.819889
              ],
              [
                144.966487,
                -37.81989
              ],
              [
                144.966481,
                -37.819854
              ]
            ],
            [
              [
                144.966883,
                -37.8198
              ],
              [
                144.966915,
                -37.819796
              ],
              [
                144.967,
                -37.819785
              ],
              [
                144.96711,
                -37.819774
              ],
              [
                144.967222,
                -37.819762
              ],
              [
                144.967312,
                -37.819754
              ],
              [
                144.967313,
                -37.819758
              ],
              [
                144.967222,
                -37.819766
              ],
              [
                144.967197,
                -37.819769
              ],
              [
                144.967149,
                -37.819774
              ],
              [
                144.967001,
                -37.819789
              ],
              [
                144.967001,
                -37.819787
              ],
              [
                144.966916,
                -37.819798
              ],
              [
                144.966916,
                -37.819801
              ],
              [
                144.966889,
                -37.819804
              ],
              [
                144.96689,
                -37.819807
              ],
              [
                144.966895,
                -37.819835
              ],
              [
                144.966889,
                -37.819836
              ],
              [
                144.966884,
                -37.819804
              ],
              [
                144.966883,
                -37.8198
              ]
            ]
          ],
          [
            [
              [
                144.966602,
                -37.819785
              ],
              [
                144.966606,
                -37.819801
              ],
              [
                144.966695,
                -37.819789
              ],
              [
                144.966691,
                -37.819771
              ],
              [
                144.966602,
                -37.819782
              ],
              [
                144.966602,
                -37.819785
              ]
            ]
          ]
        ]
      }
    }
  ]
}