{
  "type": "FeatureCollection",
  "features": [
    {
      "type": "Feature",
      "properties": {
        "name": "polygon75"
      },
      "geometry": {
        "type": "MultiPolygon",
        "coordinates": [
          [
            [
              [
                144.977968,
                -37.814353
              ],
              [
                144.977969,
                -37.814353
              ],
              [
                144.977969,
                -37.814351
              ],
              [
                144.97797,
                -37.814351
              ],
              [
                144.97797,
                -37.81435
              ],
              [
                144.977971,
                -37.814349
              ],
              [
                144.977971,
                -37.814348
              ],
              [
                144.977972,
                -37.814348
              ],
              [
                144.977972,
                -37.814347
              ],
              [
                144.977973,
                -37.814347
              ],
              [
                144.977973,
                -37.814346
              ],
              [
                144.977974,
                -37.814346
              ],
              [
                144.977974,
                -37.814345
              ],
              [
                144.977975,
                -37.814344
              ],
              [
                144.977975,
                -37.814343
              ],
              [
                144.977976,
                -37.814343
              ],
              [
                144.977976,
                -37.814342
              ],
              [
                144.977977,
                -37.814342
              ],
              [
                144.977977,
                -37.814341
              ],
              [
                144.977978,
                -37.814341
              ],
              [
                144.977981,
                -37.814338
              ],
              [
                144.977981,
                -37.814337
              ],
              [
                144.977983,
                -37.814337
              ],
              [
                144.977983,
                -37.814336
              ],
              [
                144.977984,
                -37.814336
              ],
              [
                144.977984,
                -37.814335
              ],
              [
                144.977985,
                -37.814335
              ],
              [
                144.977986,
                -37.814334
              ],
              [
                144.977987,
                -37.814334
              ],
              [
                144.977987,
                -37.814333
              ],
              [
                144.977988,
                -37.814333
              ],
              [
                144.977989,
                -37.814332
              ],
              [
                144.97799,
                -37.814332
              ],
              [
                144.977991,
                -37.814331
              ],
              [
                144.977992,
                -37.814331
              ],
              [
                144.977992,
                -37.81433
              ],
              [
                144.977994,
                -37.81433
              ],
              [
                144.977995,
                -37.814329
              ],
              [
                144.977996,
                -37.814329
              ],
              [
                144.977997,
                -37.814328
              ],
              [
                144.977998,
                -37.814328
              ],
              [
                144.977998,
                -37.814327
              ],
              [
                144.978001,
                -37.814327
              ],
              [
                144.978001,
                -37.814326
              ],
              [
                144.978003,
                -37.814326
              ],
              [
                144.978004,
                -37.814325
              ],
              [
                144.978007,
                -37.814325
              ],
              [
                144.978007,
                -37.814324
              ],
              [
                144.978011,
                -37.814324
              ],
              [
                144.978011,
                -37.814323
              ],
              [
                144.978016,
                -37.814323
              ],
              [
                144.978017,
                -37.814322
              ],
              [
                144.97804,
                -37.814322
              ],
              [
                144.978043,
                -37.814321
              ],
              [
                144.978125,
                -37.814321
              ],
              [
                144.978126,
                -37.814322
              ],
              [
                144.978148,
                -37.814322
              ],
              [
                144.978149,
                -37.814323
              ],
              [
                144.978162,
                -37.814323
              ],
              [
                144.978163,
                -37.814324
              ],
              [
                144.978176,
                -37.814324
              ],
              [
                144.97818,
                -37.814325
              ],
              [
                144.978189,
                -37.814325
              ],
              [
                144.978193,
                -37.814326
              ],
              [
                144.978201,
                -37.814326
              ],
              [
                144.978205,
                -37.814327
              ],
              [
                144.978214,
                -37.814327
              ],
              [
                144.978218,
                -37.814328
              ],
              [
                144.978227,
                -37.814328
              ],
              [
                144.978231,
                -37.814329
              ],
              [
                144.978239,
                -37.814329
              ],
              [
                144.978243,
                -37.81433
              ],
              [
                144.978252,
                -37.81433
              ],
              [
                144.978256,
                -37.814331
              ],
              [
                144.978264,
                -37.814331
              ],
              [
                144.978269,
                -37.814332
              ],
              [
                144.978277,
                -37.814332
              ],
              [
                144.978279,
                -37.814333
              ],
              [
                144.978289,
                -37.814333
              ],
              [
                144.97829,
                -37.814334
              ],
              [
                144.978299,
                -37.814334
              ],
              [
                144.9783,
                -37.814335
              ],
              [
                144.978309,
                -37.814335
              ],
              [
                144.97831,
                -37.814336
              ],
              [
                144.978317,
                -37.814336
              ],
              [
                144.978319,
                -37.814337
              ],
              [
                144.978324,
                -37.814337
              ],
              [
                144.978327,
                -37.814338
              ],
              [
                144.978332,
                -37.814338
              ],
              [
                144.978334,
                -37.814339
              ],
              [
                144.978338,
                -37.814339
              ],
              [
                144.978341,
                -37.81434
              ],
              [
                144.978345,
                -37.81434
              ],
              [
                144.978347,
                -37.814341
              ],
              [
                144.978352,
                -37.814341
              ],
              [
                144.978353,
                -37.814342
              ],
              [
                144.978359,
                -37.814342
              ],
              [
                144.978361,
                -37.814343
              ],
              [
                144.978364,
                -37.814343
              ],
              [
                144.978366,
                -37.814344
              ],
              [
                144.978371,
                -37.814344
              ],
              [
                144.978373,
                -37.814345
              ],
              [
                144.978376,
                -37.814345
              ],
              [
                144.978378,
                -37.814346
              ],
              [
                144.978381,
                -37.814346
              ],
              [
                144.978384,
                -37.814347
              ],
              [
                144.978388,
                -37.814347
              ],
              [
                144.978389,
                -37.814348
              ],
              [
                144.978391,
                -37.814348
              ],
              [
                144.978394,
                -37.814349
              ],
              [
                144.978397,
                -37.814349
              ],
              [
                144.978401,
                -37.81435
              ],
              [
                144.978404,
                -37.81435
              ],
              [
                144.978406,
                -37.814351
              ],
              [
                144.978407,
                -37.814351
              ],
              [
                144.97841,
                -37.814352
              ],
              [
                144.978413,
                -37.814352
              ],
              [
                144.978416,
                -37.814353
              ],
              [
                144.978417,
                -37.814353
              ],
              [
                144.97842,
                -37.814354
              ],
              [
                144.978423,
                -37.814354
              ],
              [
                144.978426,
                -37.814355
              ],
              [
                144.978429,
                -37.814355
              ],
              [
                144.978431,
                -37.814356
              ],
              [
                144.978434,
                -37.814356
              ],
              [
                144.978436,
                -37.814357
              ],
              [
                144.978439,
                -37.814357
              ],
              [
                144.978445,
                -37.814359
              ],
              [
                144.978449,
                -37.81436
              ],
              [
                144.978452,
                -37.81436
              ],
              [
                144.978458,
                -37.814362
              ],
              [
                144.978461,
                -37.814362
              ],
              [
                144.978463,
                -37.814363
              ],
              [
                144.978465,
                -37.814363
              ],
              [
                144.978468,
                -37.814364
              ],
              [
                144.978471,
                -37.814364
              ],
              [
                144.978472,
                -37.814365
              ],
              [
                144.978476,
                -37.814365
              ],
              [
                144.978477,
                -37.814366
              ],
              [
                144.97848,
                -37.814366
              ],
              [
                144.978481,
                -37.814367
              ],
              [
                144.978483,
                -37.814367
              ],
              [
                144.978484,
                -37.814368
              ],
              [
                144.978487,
                -37.814368
              ],
              [
                144.978489,
                -37.814369
              ],
              [
                144.978492,
                -37.814369
              ],
              [
                144.978493,
                -37.81437
              ],
              [
                144.978495,
                -37.81437
              ],
              [
                144.978496,
                -37.814371
              ],
              [
                144.978499,
                -37.814371
              ],
              [
                144.9785,
                -37.814372
              ],
              [
                144.978503,
                -37.814372
              ],
              [
                144.978503,
                -37.814373
              ],
              [
                144.978506,
                -37.814373
              ],
              [
                144.978507,
                -37.814374
              ],
              [
                144.978509,
                -37.814374
              ],
              [
                144.97851,
                -37.814375
              ],
              [
                144.978514,
                -37.814375
              ],
              [
                144.978517,
                -37.814376
              ],
              [
                144.978519,
                -37.814377
              ],
              [
                144.978525,
                -37.814379
              ],
              [
                144.978527,
                -37.81438
              ],
              [
                144.978531,
                -37.814381
              ],
              [
                144.978537,
                -37.814382
              ],
              [
                144.978539,
                -37.814383
              ],
              [
                144.978543,
                -37.814384
              ],
              [
                144.978545,
                -37.814385
              ],
              [
                144.978548,
                -37.814386
              ],
              [
                144.978553,
                -37.814387
              ],
              [
                144.978554,
                -37.814388
              ],
              [
                144.978556,
                -37.814388
              ],
              [
                144.97856,
                -37.81439
              ],
              [
                144.978566,
                -37.814391
              ],
              [
                144.978572,
                -37.814393
              ],
              [
                144.978577,
                -37.814395
              ],
              [
                144.978579,
                -37.814395
              ],
              [
                144.978583,
                -37.814397
              ],
              [
                144.978585,
                -37.814397
              ],
              [
                144.978589,
                -37.814398
              ],
              [
                144.978595,
                -37.8144
              ],
              [
                144.9786,
                -37.814402
              ],
              [
                144.978609,
                -37.814405
              ],
              [
                144.978612,
                -37.814405
              ],
              [
                144.978618,
                -37.814407
              ],
              [
                144.97862,
                -37.814408
              ],
              [
                144.978628,
                -37.81441
              ],
              [
                144.978629,
                -37.814411
              ],
              [
                144.978631,
                -37.814412
              ],
              [
                144.978635,
                -37.814413
              ],
              [
                144.978641,
                -37.814415
              ],
              [
                144.978647,
                -37.814416
              ],
              [
                144.978652,
                -37.814418
              ],
              [
                144.978673,
                -37.814425
              ],
              [
                144.978676,
                -37.814425
              ],
              [
                144.978681,
                -37.814427
              ],
              [
                144.978682,
                -37.814428
              ],
              [
                144.978684,
                -37.814428
              ],
              [
                144.978685,
                -37.814429
              ],
              [
                144.978687,
                -37.814429
              ],
              [
                144.978689,
                -37.81443
              ],
              [
                144.978691,
                -37.81443
              ],
              [
                144.978692,
                -37.814431
              ],
              [
                144.978693,
                -37.814431
              ],
              [
                144.978695,
                -37.814432
              ],
              [
                144.978697,
                -37.814432
              ],
              [
                144.978698,
                -37.814433
              ],
              [
                144.9787,
                -37.814434
              ],
              [
                144.978702,
                -37.814434
              ],
              [
                144.978704,
                -37.814435
              ],
              [
                144.978705,
                -37.814435
              ],
              [
                144.978706,
                -37.814436
              ],
              [
                144.978708,
                -37.814436
              ],
              [
                144.978708,
                -37.814437
              ],
              [
                144.97871,
                -37.814437
              ],
              [
                144.978711,
                -37.814438
              ],
              [
                144.978713,
                -37.814438
              ],
              [
                144.978715,
                -37.814439
              ],
              [
                144.978716,
                -37.814439
              ],
              [
                144.978718,
                -37.814441
              ],
              [
                144.978721,
                -37.814441
              ],
              [
                144.978721,
                -37.814442
              ],
              [
                144.978723,
                -37.814442
              ],
              [
                144.978724,
                -37.814443
              ],
              [
                144.978726,
                -37.814444
              ],
              [
                144.978728,
                -37.814444
              ],
              [
                144.978729,
                -37.814445
              ],
              [
                144.97873,
                -37.814445
              ],
              [
                144.978732,
                -37.814446
              ],
              [
                144.978733,
                -37.814447
              ],
              [
                144.978735,
                -37.814448
              ],
              [
                144.978739,
                -37.814449
              ],
              [
                144.978742,
                -37.814451
              ],
              [
                144.978744,
                -37.814451
              ],
              [
                144.978746,
                -37.814452
              ],
              [
                144.978749,
                -37.814454
              ],
              [
                144.978753,
                -37.814455
              ],
              [
                144.978756,
                -37.814457
              ],
              [
                144.97876,
                -37.814458
              ],
              [
                144.978762,
                -37.814459
              ],
              [
                144.978763,
                -37.81446
              ],
              [
                144.978767,
                -37.814461
              ],
              [
                144.97877,
                -37.814463
              ],
              [
                144.978772,
                -37.814464
              ],
              [
                144.978773,
                -37.814464
              ],
              [
                144.978779,
                -37.814467
              ],
              [
                144.97878,
                -37.814468
              ],
              [
                144.978784,
                -37.814469
              ],
              [
                144.978787,
                -37.814471
              ],
              [
                144.978791,
                -37.814472
              ],
              [
                144.978793,
                -37.814474
              ],
              [
                144.978794,
                -37.814474
              ],
              [
                144.978797,
                -37.814476
              ],
              [
                144.9788,
                -37.814477
              ],
              [
                144.978801,
                -37.814477
              ],
              [
                144.978802,
                -37.814478
              ],
              [
                144.97881,
                -37.814482
              ],
              [
                144.978811,
                -37.814482
              ],
              [
                144.978813,
                -37.814483
              ],
              [
                144.978814,
                -37.814484
              ],
              [
                144.978817,
                -37.814485
              ],
              [
                144.978818,
                -37.814486
              ],
              [
                144.978821,
                -37.814487
              ],
              [
                144.978822,
                -37.814487
              ],
              [
                144.978825,
                -37.814489
              ],
              [
                144.978828,
                -37.81449
              ],
              [
                144.978834,
                -37.814494
              ],
              [
                144.978836,
                -37.814494
              ],
              [
                144.978836,
                -37.814495
              ],
              [
                144.978838,
                -37.814495
              ],
              [
                144.978838,
                -37.814496
              ],
              [
                144.978839,
                -37.814496
              ],
              [
                144.97884,
                -37.814497
              ],
              [
                144.978841,
                -37.814497
              ],
              [
                144.978841,
                -37.814498
              ],
              [
                144.978842,
                -37.814498
              ],
              [
                144.978842,
                -37.814499
              ],
              [
                144.978843,
                -37.814499
              ],
              [
                144.978843,
                -37.8145
              ],
              [
                144.978844,
                -37.8145
              ],
              [
                144.978844,
                -37.814501
              ],
              [
                144.978845,
                -37.814501
              ],
              [
                144.978845,
                -37.814502
              ],
              [
                144.978846,
                -37.814503
              ],
              [
                144.978846,
                -37.814504
              ],
              [
                144.978847,
                -37.814504
              ],
              [
                144.978847,
                -37.814506
              ],
              [
                144.978848,
                -37.814507
              ],
              [
                144.978848,
                -37.814517
              ],
              [
                144.978847,
                -37.814518
              ],
              [
                144.978847,
                -37.81452
              ],
              [
                144.978846,
                -37.81452
              ],
              [
                144.978846,
                -37.814521
              ],
              [
                144.978845,
                -37.814521
              ],
              [
                144.978845,
                -37.814522767123286
              ],
              [
                144.97891275555554,
                -37.814481
              ],
              [
                144.978911,
                -37.814481
              ],
              [
                144.978911,
                -37.814482
              ],
              [
                144.978909,
                -37.814482
              ],
              [
                144.978908,
                -37.814483
              ],
              [
                144.978905,
                -37.814483
              ],
              [
                144.978905,
                -37.814484
              ],
              [
                144.978902,
                -37.814484
              ],
              [
                144.978901,
                -37.814485
              ],
              [
                144.978894,
                -37.814485
              ],
              [
                144.978893,
                -37.814486
              ],
              [
                144.978888,
                -37.814486
              ],
              [
                144.978887,
                -37.814485
              ],
              [
                144.97888,
                -37.814485
              ],
              [
                144.97888,
                -37.814484
              ],
              [
                144.978876,
                -37.814484
              ],
              [
                144.978875,
                -37.814483
              ],
              [
                144.978873,
                -37.814483
              ],
              [
                144.978873,
                -37.814482
              ],
              [
                144.978871,
                -37.814482
              ],
              [
                144.97887,
                -37.814481
              ],
              [
                144.978868,
                -37.814481
              ],
              [
                144.978868,
                -37.81448
              ],
              [
                144.978867,
                -37.81448
              ],
              [
                144.978865,
                -37.814479
              ],
              [
                144.978864,
                -37.814479
              ],
              [
                144.978864,
                -37.814478
              ],
              [
                144.97886,
                -37.814476
              ],
              [
                144.978859,
                -37.814476
              ],
              [
                144.978858,
                -37.814475
              ],
              [
                144.978857,
                -37.814475
              ],
              [
                144.978855,
                -37.814474
              ],
              [
                144.978854,
                -37.814473
              ],
              [
                144.978853,
                -37.814473
              ],
              [
                144.978852,
                -37.814472
              ],
              [
                144.97885,
                -37.814471
              ],
              [
                144.978849,
                -37.814471
              ],
              [
                144.978848,
                -37.81447
              ],
              [
                144.978846,
                -37.81447
              ],
              [
                144.978845,
                -37.814469
              ],
              [
                144.978841,
                -37.814467
              ],
              [
                144.97884,
                -37.814466
              ],
              [
                144.978836,
                -37.814464
              ],
              [
                144.978835,
                -37.814464
              ],
              [
                144.978833,
                -37.814463
              ],
              [
                144.978832,
                -37.814462
              ],
              [
                144.978831,
                -37.814462
              ],
              [
                144.978829,
                -37.814461
              ],
              [
                144.978828,
                -37.81446
              ],
              [
                144.978826,
                -37.81446
              ],
              [
                144.978825,
                -37.814459
              ],
              [
                144.978824,
                -37.814459
              ],
              [
                144.978822,
                -37.814458
              ],
              [
                144.978821,
                -37.814457
              ],
              [
                144.978819,
                -37.814456
              ],
              [
                144.978818,
                -37.814456
              ],
              [
                144.978817,
                -37.814455
              ],
              [
                144.978816,
                -37.814455
              ],
              [
                144.978814,
                -37.814454
              ],
              [
                144.978813,
                -37.814453
              ],
              [
                144.978811,
                -37.814453
              ],
              [
                144.97881,
                -37.814452
              ],
              [
                144.978809,
                -37.814452
              ],
              [
                144.978809,
                -37.814451
              ],
              [
                144.978807,
                -37.814451
              ],
              [
                144.978803,
                -37.814449
              ],
              [
                144.978802,
                -37.814449
              ],
              [
                144.978802,
                -37.814448
              ],
              [
                144.978801,
                -37.814448
              ],
              [
                144.9788,
                -37.814447
              ],
              [
                144.978798,
                -37.814447
              ],
              [
                144.978797,
                -37.814446
              ],
              [
                144.978796,
                -37.814446
              ],
              [
                144.978795,
                -37.814445
              ],
              [
                144.978794,
                -37.814445
              ],
              [
                144.978793,
                -37.814444
              ],
              [
                144.978792,
                -37.814444
              ],
              [
                144.978791,
                -37.814443
              ],
              [
                144.978789,
                -37.814443
              ],
              [
                144.978789,
                -37.814442
              ],
              [
                144.978787,
                -37.814442
              ],
              [
                144.978786,
                -37.814441
              ],
              [
                144.978784,
                -37.81444
              ],
              [
                144.978782,
                -37.81444
              ],
              [
                144.978782,
                -37.814439
              ],
              [
                144.97878,
                -37.814439
              ],
              [
                144.978779,
                -37.814438
              ],
              [
                144.978775,
                -37.814436
              ],
              [
                144.978773,
                -37.814436
              ],
              [
                144.978772,
                -37.814435
              ],
              [
                144.97877,
                -37.814434
              ],
              [
                144.978769,
                -37.814434
              ],
              [
                144.978768,
                -37.814433
              ],
              [
                144.978766,
                -37.814433
              ],
              [
                144.978764,
                -37.814432
              ],
              [
                144.978763,
                -37.814431
              ],
              [
                144.978762,
                -37.814431
              ],
              [
                144.978759,
                -37.81443
              ],
              [
                144.978758,
                -37.814429
              ],
              [
                144.978757,
                -37.814429
              ],
              [
                144.978753,
                -37.814427
              ],
              [
                144.97875,
                -37.814426
              ],
              [
                144.978746,
                -37.814424
              ],
              [
                144.978743,
                -37.814423
              ],
              [
                144.978737,
                -37.81442
              ],
              [
                144.978735,
                -37.81442
              ],
              [
                144.978734,
                -37.814419
              ],
              [
                144.978732,
                -37.814419
              ],
              [
                144.97873,
                -37.814418
              ],
              [
                144.978727,
                -37.814417
              ],
              [
                144.978725,
                -37.814416
              ],
              [
                144.978724,
                -37.814416
              ],
              [
                144.978722,
                -37.814414
              ],
              [
                144.97872,
                -37.814414
              ],
              [
                144.978719,
                -37.814413
              ],
              [
                144.978717,
                -37.814413
              ],
              [
                144.978716,
                -37.814412
              ],
              [
                144.978713,
                -37.814411
              ],
              [
                144.978711,
                -37.81441
              ],
              [
                144.978709,
                -37.81441
              ],
              [
                144.978709,
                -37.814409
              ],
              [
                144.978706,
                -37.814409
              ],
              [
                144.9787,
                -37.814406
              ],
              [
                144.978699,
                -37.814406
              ],
              [
                144.978695,
                -37.814404
              ],
              [
                144.978692,
                -37.814403
              ],
              [
                144.97869,
                -37.814403
              ],
              [
                144.978689,
                -37.814402
              ],
              [
                144.978688,
                -37.814402
              ],
              [
                144.978685,
                -37.814401
              ],
              [
                144.978681,
                -37.814399
              ],
              [
                144.978678,
                -37.814398
              ],
              [
                144.978676,
                -37.814397
              ],
              [
                144.978673,
                -37.814397
              ],
              [
                144.978673,
                -37.814396
              ],
              [
                144.978671,
                -37.814396
              ],
              [
                144.97867,
                -37.814395
              ],
              [
                144.978669,
                -37.814395
              ],
              [
                144.978666,
                -37.814394
              ],
              [
                144.978665,
                -37.814394
              ],
              [
                144.978664,
                -37.814393
              ],
              [
                144.978662,
                -37.814393
              ],
              [
                144.978659,
                -37.814392
              ],
              [
                144.978657,
                -37.814391
              ],
              [
                144.978654,
                -37.81439
              ],
              [
                144.97865,
                -37.814388
              ],
              [
                144.978647,
                -37.814388
              ],
              [
                144.978646,
                -37.814387
              ],
              [
                144.978645,
                -37.814387
              ],
              [
                144.978643,
                -37.814386
              ],
              [
                144.97864,
                -37.814385
              ],
              [
                144.978638,
                -37.814385
              ],
              [
                144.978636,
                -37.814384
              ],
              [
                144.978635,
                -37.814384
              ],
              [
                144.978629,
                -37.814381
              ],
              [
                144.978628,
                -37.814381
              ],
              [
                144.978627,
                -37.81438
              ],
              [
                144.978626,
                -37.81438
              ],
              [
                144.978625,
                -37.814379
              ],
              [
                144.978624,
                -37.814379
              ],
              [
                144.978623,
                -37.814378
              ],
              [
                144.978622,
                -37.814378
              ],
              [
                144.978622,
                -37.814377
              ],
              [
                144.978621,
                -37.814377
              ],
              [
                144.97862,
                -37.814376
              ],
              [
                144.978619,
                -37.814376
              ],
              [
                144.978619,
                -37.814375
              ],
              [
                144.978618,
                -37.814375
              ],
              [
                144.978618,
                -37.814374
              ],
              [
                144.978617,
                -37.814374
              ],
              [
                144.978617,
                -37.814373
              ],
              [
                144.978616,
                -37.814373
              ],
              [
                144.978612,
                -37.814369
              ],
              [
                144.978611,
                -37.814369
              ],
              [
                144.97861,
                -37.814368
              ],
              [
                144.97861,
                -37.814367
              ],
              [
                144.978608,
                -37.814365
              ],
              [
                144.978608,
                -37.814364
              ],
              [
                144.978605,
                -37.814361
              ],
              [
                144.978605,
                -37.81436
              ],
              [
                144.978604,
                -37.81436
              ],
              [
                144.978604,
                -37.814359
              ],
              [
                144.978602,
                -37.814357
              ],
              [
                144.978602,
                -37.814356
              ],
              [
                144.978601,
                -37.814355
              ],
              [
                144.978601,
                -37.814354
              ],
              [
                144.9786,
                -37.814353
              ],
              [
                144.9786,
                -37.814351
              ],
              [
                144.978599,
                -37.81435
              ],
              [
                144.978599,
                -37.814349
              ],
              [
                144.978598,
                -37.814348
              ],
              [
                144.978598,
                -37.814345
              ],
              [
                144.978597,
                -37.814344
              ],
              [
                144.978597,
                -37.814339
              ],
              [
                144.978596,
                -37.814339
              ],
              [
                144.978596,
                -37.814328
              ],
              [
                144.978597,
                -37.814327
              ],
              [
                144.978597,
                -37.814323
              ],
              [
                144.978598,
                -37.814322
              ],
              [
                144.978598,
                -37.814319
              ],
              [
                144.978599,
                -37.814318
              ],
              [
                144.978599,
                -37.814316
              ],
              [
                144.9786,
                -37.814316
              ],
              [
                144.9786,
                -37.814314
              ],
              [
                144.978601,
                -37.814313
              ],
              [
                144.978601,
                -37.814312
              ],
              [
                144.978602,
                -37.814312
              ],
              [
                144.978602,
                -37.81431
              ],
              [
                144.978603,
                -37.814309
              ],
              [
                144.978603,
                -37.814308
              ],
              [
                144.978604,
                -37.814308
              ],
              [
                144.978604,
                -37.814307
              ],
              [
                144.978605,
                -37.814306
              ],
              [
                144.978605,
                -37.814305
              ],
              [
                144.978606,
                -37.814305
              ],
              [
                144.978606,
                -37.814304
              ],
              [
                144.978608,
                -37.814302
              ],
              [
                144.978608,
                -37.814301
              ],
              [
                144.978609,
                -37.814301
              ],
              [
                144.978609,
                -37.8143
              ],
              [
                144.97861,
                -37.8143
              ],
              [
                144.978611,
                -37.814299
              ],
              [
                144.978611,
                -37.814298
              ],
              [
                144.978612,
                -37.814297
              ],
              [
                144.978613,
                -37.814297
              ],
              [
                144.978613,
                -37.814296
              ],
              [
                144.978614,
                -37.814296
              ],
              [
                144.978616,
                -37.814294
              ],
              [
                144.978616,
                -37.814293
              ],
              [
                144.978617,
                -37.814293
              ],
              [
                144.978619,
                -37.814291
              ],
              [
                144.97862,
                -37.814291
              ],
              [
                144.978622,
                -37.814289
              ],
              [
                144.978623,
                -37.814289
              ],
              [
                144.978625,
                -37.814287
              ],
              [
                144.978626,
                -37.814287
              ],
              [
                144.978627,
                -37.814286
              ],
              [
                144.978628,
                -37.814286
              ],
              [
                144.978629,
                -37.814285
              ],
              [
                144.97863,
                -37.814285
              ],
              [
                144.97863,
                -37.814284
              ],
              [
                144.978632,
                -37.814284
              ],
              [
                144.978633,
                -37.814283
              ],
              [
                144.978639,
                -37.81428
              ],
              [
                144.978639,
                -37.814279
              ],
              [
                144.978641,
                -37.814278
              ],
              [
                144.978648,
                -37.814271
              ],
              [
                144.978648,
                -37.81427
              ],
              [
                144.978649,
                -37.814269
              ],
              [
                144.978651,
                -37.814265
              ],
              [
                144.978669,
                -37.814181
              ],
              [
                144.978707,
                -37.814007
              ],
              [
                144.978708,
                -37.814006
              ],
              [
                144.978708,
                -37.814004
              ],
              [
                144.978709,
                -37.814003
              ],
              [
                144.978709,
                -37.814
              ],
              [
                144.97871,
                -37.814
              ],
              [
                144.97871,
                -37.813988
              ],
              [
                144.978709,
                -37.813988
              ],
              [
                144.978709,
                -37.813986
              ],
              [
                144.978708,
                -37.813985
              ],
              [
                144.978708,
                -37.813983
              ],
              [
                144.978707,
                -37.813983
              ],
              [
                144.978707,
                -37.813981
              ],
              [
                144.978706,
                -37.813981
              ],
              [
                144.978706,
                -37.813979
              ],
              [
                144.978705,
                -37.813979
              ],
              [
                144.978705,
                -37.813977
              ],
              [
                144.978704,
                -37.813977
              ],
              [
                144.978704,
                -37.813975
              ],
              [
                144.978703,
                -37.813974
              ],
              [
                144.978703,
                -37.813972
              ],
              [
                144.978702,
                -37.813972
              ],
              [
                144.978702,
                -37.813969
              ],
              [
                144.978701,
                -37.813969
              ],
              [
                144.978701,
                -37.813967
              ],
              [
                144.9787,
                -37.813966
              ],
              [
                144.9787,
                -37.813963
              ],
              [
                144.978699,
                -37.813963
              ],
              [
                144.978699,
                -37.813959
              ],
              [
                144.978698,
                -37.813958
              ],
              [
                144.978699,
                -37.813958
              ],
              [
                144.978699,
                -37.813955
              ],
              [
                144.9787,
                -37.813955
              ],
              [
                144.9787,
                -37.813954
              ],
              [
                144.978701,
                -37.813954
              ],
              [
                144.978701,
                -37.813953
              ],
              [
                144.978702,
                -37.813953
              ],
              [
                144.978702,
                -37.813952
              ],
              [
                144.978703,
                -37.813952
              ],
              [
                144.978703,
                -37.813951
              ],
              [
                144.978704,
                -37.813951
              ],
              [
                144.978704,
                -37.81395
              ],
              [
                144.978705,
                -37.81395
              ],
              [
                144.978705,
                -37.813949
              ],
              [
                144.978706,
                -37.813949
              ],
              [
                144.978706,
                -37.813948
              ],
              [
                144.978707,
                -37.813948
              ],
              [
                144.978707,
                -37.813947
              ],
              [
                144.978708,
                -37.813947
              ],
              [
                144.978708,
                -37.813946
              ],
              [
                144.978709,
                -37.813946
              ],
              [
                144.97871,
                -37.813945
              ],
              [
                144.97871,
                -37.813944
              ],
              [
                144.978711,
                -37.813944
              ],
              [
                144.978713,
                -37.813942
              ],
              [
                144.97872,
                -37.8139
              ],
              [
                144.978721,
                -37.813893
              ],
              [
                144.978722,
                -37.813893
              ],
              [
                144.978722,
                -37.813892
              ],
              [
                144.978725,
                -37.813885
              ],
              [
                144.978725,
                -37.813879
              ],
              [
                144.978724,
                -37.813873
              ],
              [
                144.978724,
                -37.813869
              ],
              [
                144.978723,
                -37.813868
              ],
              [
                144.97872,
                -37.813862
              ],
              [
                144.97872,
                -37.81386
              ],
              [
                144.978718,
                -37.813858
              ],
              [
                144.978718,
                -37.813857
              ],
              [
                144.978717,
                -37.813857
              ],
              [
                144.978717,
                -37.813855
              ],
              [
                144.978716,
                -37.813855
              ],
              [
                144.978716,
                -37.813854
              ],
              [
                144.978715,
                -37.813853
              ],
              [
                144.978712,
                -37.813847
              ],
              [
                144.978711,
                -37.813846
              ],
              [
                144.97871,
                -37.813846
              ],
              [
                144.978708,
                -37.813842
              ],
              [
                144.978707,
                -37.813841
              ],
              [
                144.978706,
                -37.813841
              ],
              [
                144.978705,
                -37.813839
              ],
              [
                144.978697,
                -37.813831
              ],
              [
                144.978697,
                -37.81383
              ],
              [
                144.978696,
                -37.81383
              ],
              [
                144.978694,
                -37.813828
              ],
              [
                144.978692,
                -37.813827
              ],
              [
                144.978692,
                -37.813826
              ],
              [
                144.97869,
                -37.813825
              ],
              [
                144.978687,
                -37.813822
              ],
              [
                144.978681,
                -37.813819
              ],
              [
                144.978681,
                -37.813818
              ],
              [
                144.978675,
                -37.813815
              ],
              [
                144.978673,
                -37.813813
              ],
              [
                144.978667,
                -37.81381
              ],
              [
                144.978666,
                -37.813809
              ],
              [
                144.978665,
                -37.813809
              ],
              [
                144.978661,
                -37.813807
              ],
              [
                144.97866,
                -37.813807
              ],
              [
                144.978659,
                -37.813806
              ],
              [
                144.978656,
                -37.813805
              ],
              [
                144.97865,
                -37.813802
              ],
              [
                144.978644,
                -37.8138
              ],
              [
                144.978643,
                -37.8138
              ],
              [
                144.978639,
                -37.813798
              ],
              [
                144.978636,
                -37.813798
              ],
              [
                144.978634,
                -37.813797
              ],
              [
                144.978633,
                -37.813797
              ],
              [
                144.978627,
                -37.813795
              ],
              [
                144.978624,
                -37.813795
              ],
              [
                144.978622,
                -37.813794
              ],
              [
                144.978621,
                -37.813794
              ],
              [
                144.978618,
                -37.813793
              ],
              [
                144.978615,
                -37.813793
              ],
              [
                144.978612,
                -37.813792
              ],
              [
                144.978606,
                -37.813792
              ],
              [
                144.978605,
                -37.813791
              ],
              [
                144.978597,
                -37.813791
              ],
              [
                144.978596,
                -37.81379
              ],
              [
                144.978564,
                -37.81379
              ],
              [
                144.978561,
                -37.813791
              ],
              [
                144.978554,
                -37.813791
              ],
              [
                144.978551,
                -37.813792
              ],
              [
                144.978549,
                -37.813792
              ],
              [
                144.978546,
                -37.813793
              ],
              [
                144.978544,
                -37.813793
              ],
              [
                144.978543,
                -37.813794
              ],
              [
                144.978539,
                -37.813794
              ],
              [
                144.978537,
                -37.813795
              ],
              [
                144.978534,
                -37.813796
              ],
              [
                144.978532,
                -37.813796
              ],
              [
                144.978529,
                -37.813797
              ],
              [
                144.978528,
                -37.813798
              ],
              [
                144.978527,
                -37.813798
              ],
              [
                144.978523,
                -37.8138
              ],
              [
                144.97852,
                -37.813801
              ],
              [
                144.978518,
                -37.813802
              ],
              [
                144.978517,
                -37.813802
              ],
              [
                144.978516,
                -37.813803
              ],
              [
                144.97851,
                -37.813806
              ],
              [
                144.978507,
                -37.813807
              ],
              [
                144.978506,
                -37.813808
              ],
              [
                144.978505,
                -37.813808
              ],
              [
                144.978503,
                -37.813809
              ],
              [
                144.978502,
                -37.813811
              ],
              [
                144.978501,
                -37.813811
              ],
              [
                144.9785,
                -37.813812
              ],
              [
                144.978499,
                -37.813812
              ],
              [
                144.978497,
                -37.813814
              ],
              [
                144.978496,
                -37.813814
              ],
              [
                144.978496,
                -37.813815
              ],
              [
                144.978495,
                -37.813816
              ],
              [
                144.978493,
                -37.813817
              ],
              [
                144.978492,
                -37.813818
              ],
              [
                144.97849,
                -37.813819
              ],
              [
                144.978489,
                -37.813821
              ],
              [
                144.978488,
                -37.813822
              ],
              [
                144.978487,
                -37.813822
              ],
              [
                144.978486,
                -37.813823
              ],
              [
                144.978485,
                -37.813825
              ],
              [
                144.978483,
                -37.813826
              ],
              [
                144.978482,
                -37.813827
              ],
              [
                144.978482,
                -37.813828
              ],
              [
                144.978479,
                -37.813831
              ],
              [
                144.978479,
                -37.813832
              ],
              [
                144.978478,
                -37.813833
              ],
              [
                144.978477,
                -37.813833
              ],
              [
                144.978477,
                -37.813834
              ],
              [
                144.978476,
                -37.813835
              ],
              [
                144.978476,
                -37.813836
              ],
              [
                144.978475,
                -37.813836
              ],
              [
                144.978474,
                -37.813838
              ],
              [
                144.978474,
                -37.813839
              ],
              [
                144.978473,
                -37.813841
              ],
              [
                144.978472,
                -37.813842
              ],
              [
                144.97847,
                -37.813846
              ],
              [
                144.978469,
                -37.813847
              ],
              [
                144.978469,
                -37.813849
              ],
              [
                144.978468,
                -37.81385
              ],
              [
                144.978468,
                -37.813852
              ],
              [
                144.978467,
                -37.813854
              ],
              [
                144.978467,
                -37.813855
              ],
              [
                144.978466,
                -37.813856
              ],
              [
                144.978466,
                -37.813859
              ],
              [
                144.978465,
                -37.813861
              ],
              [
                144.978465,
                -37.813865
              ],
              [
                144.978464,
                -37.813866
              ],
              [
                144.978464,
                -37.813887
              ],
              [
                144.978465,
                -37.813888
              ],
              [
                144.978465,
                -37.813892
              ],
              [
                144.978466,
                -37.813894
              ],
              [
                144.978466,
                -37.813896
              ],
              [
                144.978467,
                -37.813898
              ],
              [
                144.978467,
                -37.813899
              ],
              [
                144.978468,
                -37.813901
              ],
              [
                144.978468,
                -37.813903
              ],
              [
                144.978469,
                -37.813905
              ],
              [
                144.97847,
                -37.813905
              ],
              [
                144.97847,
                -37.813906
              ],
              [
                144.978471,
                -37.813907
              ],
              [
                144.978471,
                -37.813908
              ],
              [
                144.978473,
                -37.813907
              ],
              [
                144.978478,
                -37.813913
              ],
              [
                144.978469,
                -37.813917
              ],
              [
                144.978468,
                -37.813915
              ],
              [
                144.978468,
                -37.81392
              ],
              [
                144.978467,
                -37.81392
              ],
              [
                144.978467,
                -37.813924
              ],
              [
                144.978466,
                -37.813924
              ],
              [
                144.978466,
                -37.813927
              ],
              [
                144.978465,
                -37.813927
              ],
              [
                144.978465,
                -37.813929
              ],
              [
                144.978464,
                -37.813929
              ],
              [
                144.978464,
                -37.813931
              ],
              [
                144.978463,
                -37.813931
              ],
              [
                144.978463,
                -37.813933
              ],
              [
                144.978462,
                -37.813933
              ],
              [
                144.978462,
                -37.813935
              ],
              [
                144.978461,
                -37.813935
              ],
              [
                144.978461,
                -37.813936
              ],
              [
                144.97846,
                -37.813936
              ],
              [
                144.97846,
                -37.813938
              ],
              [
                144.978459,
                -37.813938
              ],
              [
                144.978458,
                -37.813939
              ],
              [
                144.978458,
                -37.81394
              ],
              [
                144.978456,
                -37.81394
              ],
              [
                144.978456,
                -37.813941
              ],
              [
                144.978455,
                -37.813941
              ],
              [
                144.978455,
                -37.813942
              ],
              [
                144.978453,
                -37.813942
              ],
              [
                144.978452,
                -37.813943
              ],
              [
                144.978451,
                -37.813943
              ],
              [
                144.978451,
                -37.813944
              ],
              [
                144.978449,
                -37.813944
              ],
              [
                144.978449,
                -37.813945
              ],
              [
                144.978447,
                -37.813945
              ],
              [
                144.978447,
                -37.813946
              ],
              [
                144.978446,
                -37.813946
              ],
              [
                144.978444,
                -37.813948
              ],
              [
                144.978443,
                -37.813948
              ],
              [
                144.978443,
                -37.813949
              ],
              [
                144.978442,
                -37.813949
              ],
              [
                144.978442,
                -37.81395
              ],
              [
                144.978441,
                -37.81395
              ],
              [
                144.978441,
                -37.813951
              ],
              [
                144.97844,
                -37.813951
              ],
              [
                144.97844,
                -37.813952
              ],
              [
                144.978439,
                -37.813952
              ],
              [
                144.978439,
                -37.813954
              ],
              [
                144.978438,
                -37.813954
              ],
              [
                144.978438,
                -37.813955
              ],
              [
                144.978437,
                -37.813956
              ],
              [
                144.978437,
                -37.813958
              ],
              [
                144.978436,
                -37.813958
              ],
              [
                144.978436,
                -37.813961
              ],
              [
                144.978435,
                -37.813961
              ],
              [
                144.978435,
                -37.813967
              ],
              [
                144.978434,
                -37.813967
              ],
              [
                144.978417,
                -37.814053
              ],
              [
                144.978411,
                -37.81408
              ],
              [
                144.978411,
                -37.814082
              ],
              [
                144.97841,
                -37.814084
              ],
              [
                144.97841,
                -37.814088
              ],
              [
                144.978409,
                -37.814089
              ],
              [
                144.978409,
                -37.814091
              ],
              [
                144.978408,
                -37.814093
              ],
              [
                144.978408,
                -37.814098
              ],
              [
                144.978407,
                -37.814098
              ],
              [
                144.978407,
                -37.814102
              ],
              [
                144.978406,
                -37.814104
              ],
              [
                144.978406,
                -37.814107
              ],
              [
                144.978405,
                -37.814108
              ],
              [
                144.978405,
                -37.814111
              ],
              [
                144.978404,
                -37.814113
              ],
              [
                144.978404,
                -37.814116
              ],
              [
                144.978403,
                -37.814118
              ],
              [
                144.978403,
                -37.814121
              ],
              [
                144.978402,
                -37.814122
              ],
              [
                144.978402,
                -37.814127
              ],
              [
                144.978401,
                -37.814128
              ],
              [
                144.978401,
                -37.814131
              ],
              [
                144.9784,
                -37.814132
              ],
              [
                144.9784,
                -37.814136
              ],
              [
                144.978399,
                -37.814137
              ],
              [
                144.978399,
                -37.814141
              ],
              [
                144.978398,
                -37.814142
              ],
              [
                144.978398,
                -37.814146
              ],
              [
                144.978397,
                -37.814148
              ],
              [
                144.978397,
                -37.814151
              ],
              [
                144.978396,
                -37.814152
              ],
              [
                144.978396,
                -37.814156
              ],
              [
                144.978395,
                -37.814157
              ],
              [
                144.978395,
                -37.814161
              ],
              [
                144.978394,
                -37.814161
              ],
              [
                144.978394,
                -37.814166
              ],
              [
                144.978393,
                -37.814167
              ],
              [
                144.978393,
                -37.81417
              ],
              [
                144.978392,
                -37.814171
              ],
              [
                144.978392,
                -37.814175
              ],
              [
                144.978391,
                -37.814176
              ],
              [
                144.978391,
                -37.81418
              ],
              [
                144.97839,
                -37.814181
              ],
              [
                144.97839,
                -37.814185
              ],
              [
                144.978389,
                -37.814187
              ],
              [
                144.978389,
                -37.81419
              ],
              [
                144.978388,
                -37.814191
              ],
              [
                144.978388,
                -37.814196
              ],
              [
                144.978387,
                -37.814197
              ],
              [
                144.978387,
                -37.814201
              ],
              [
                144.978386,
                -37.814202
              ],
              [
                144.978386,
                -37.814205
              ],
              [
                144.978385,
                -37.814206
              ],
              [
                144.978385,
                -37.814211
              ],
              [
                144.978384,
                -37.814211
              ],
              [
                144.978384,
                -37.814218
              ],
              [
                144.978383,
                -37.814218
              ],
              [
                144.978383,
                -37.814228
              ],
              [
                144.978384,
                -37.814229
              ],
              [
                144.978384,
                -37.814233
              ],
              [
                144.978385,
                -37.814233
              ],
              [
                144.978385,
                -37.814236
              ],
              [
                144.978386,
                -37.814236
              ],
              [
                144.978386,
                -37.814239
              ],
              [
                144.978387,
                -37.814239
              ],
              [
                144.978387,
                -37.814242
              ],
              [
                144.978388,
                -37.814242
              ],
              [
                144.978388,
                -37.814245
              ],
              [
                144.978389,
                -37.814246
              ],
              [
                144.978389,
                -37.814248
              ],
              [
                144.97839,
                -37.814249
              ],
              [
                144.97839,
                -37.814252
              ],
              [
                144.978391,
                -37.814252
              ],
              [
                144.978391,
                -37.814256
              ],
              [
                144.978392,
                -37.814256
              ],
              [
                144.978392,
                -37.81426
              ],
              [
                144.978393,
                -37.814261
              ],
              [
                144.978393,
                -37.814265
              ],
              [
                144.978394,
                -37.814265
              ],
              [
                144.978394,
                -37.81427
              ],
              [
                144.978395,
                -37.81427
              ],
              [
                144.978395,
                -37.814276
              ],
              [
                144.978396,
                -37.814277
              ],
              [
                144.978396,
                -37.814285
              ],
              [
                144.978397,
                -37.814286
              ],
              [
                144.978397,
                -37.814291
              ],
              [
                144.978396,
                -37.814292
              ],
              [
                144.978396,
                -37.814296
              ],
              [
                144.978395,
                -37.814297
              ],
              [
                144.978395,
                -37.814299
              ],
              [
                144.978394,
                -37.814299
              ],
              [
                144.978394,
                -37.814301
              ],
              [
                144.978393,
                -37.814301
              ],
              [
                144.978393,
                -37.814302
              ],
              [
                144.978391,
                -37.814304
              ],
              [
                144.978391,
                -37.814305
              ],
              [
                144.97839,
                -37.814305
              ],
              [
                144.97839,
                -37.814306
              ],
              [
                144.978389,
                -37.814306
              ],
              [
                144.978388,
                -37.814307
              ],
              [
                144.978388,
                -37.814308
              ],
              [
                144.978387,
                -37.814308
              ],
              [
                144.978387,
                -37.814309
              ],
              [
                144.978386,
                -37.814309
              ],
              [
                144.978385,
                -37.81431
              ],
              [
                144.978384,
                -37.81431
              ],
              [
                144.978384,
                -37.814311
              ],
              [
                144.978383,
                -37.814311
              ],
              [
                144.978382,
                -37.814312
              ],
              [
                144.97838,
                -37.814312
              ],
              [
                144.97838,
                -37.814313
              ],
              [
                144.978379,
                -37.814313
              ],
              [
                144.978378,
                -37.814314
              ],
              [
                144.978376,
                -37.814314
              ],
              [
                144.978375,
                -37.814315
              ],
              [
                144.978371,
                -37.814315
              ],
              [
                144.978371,
                -37.814316
              ],
              [
                144.978347,
                -37.814316
              ],
              [
                144.978346,
                -37.814315
              ],
              [
                144.97833,
                -37.814315
              ],
              [
                144.97833,
                -37.814314
              ],
              [
                144.97832,
                -37.814314
              ],
              [
                144.978318,
                -37.814313
              ],
              [
                144.978306,
                -37.814313
              ],
              [
                144.978305,
                -37.814312
              ],
              [
                144.978295,
                -37.814312
              ],
              [
                144.978294,
                -37.814311
              ],
              [
                144.978285,
                -37.814311
              ],
              [
                144.978283,
                -37.81431
              ],
              [
                144.978274,
                -37.81431
              ],
              [
                144.978272,
                -37.814309
              ],
              [
                144.978265,
                -37.814309
              ],
              [
                144.978262,
                -37.814308
              ],
              [
                144.978256,
                -37.814308
              ],
              [
                144.978252,
                -37.814307
              ],
              [
                144.978246,
                -37.814307
              ],
              [
                144.978242,
                -37.814306
              ],
              [
                144.978233,
                -37.814306
              ],
              [
                144.978229,
                -37.814305
              ],
              [
                144.978223,
                -37.814305
              ],
              [
                144.978219,
                -37.814304
              ],
              [
                144.978213,
                -37.814304
              ],
              [
                144.97821,
                -37.814303
              ],
              [
                144.978203,
                -37.814303
              ],
              [
                144.9782,
                -37.814302
              ],
              [
                144.978193,
                -37.814302
              ],
              [
                144.97819,
                -37.814301
              ],
              [
                144.97818,
                -37.814301
              ],
              [
                144.978179,
                -37.8143
              ],
              [
                144.978168,
                -37.8143
              ],
              [
                144.978167,
                -37.814299
              ],
              [
                144.978154,
                -37.814299
              ],
              [
                144.978153,
                -37.814298
              ],
              [
                144.978128,
                -37.814298
              ],
              [
                144.978127,
                -37.814297
              ],
              [
                144.97804,
                -37.814297
              ],
              [
                144.978037,
                -37.814298
              ],
              [
                144.978027,
                -37.814298
              ],
              [
                144.978027,
                -37.814297
              ],
              [
                144.978022,
                -37.814297
              ],
              [
                144.978021,
                -37.814296
              ],
              [
                144.978018,
                -37.814296
              ],
              [
                144.978017,
                -37.814295
              ],
              [
                144.978015,
                -37.814295
              ],
              [
                144.978014,
                -37.814294
              ],
              [
                144.978012,
                -37.814294
              ],
              [
                144.978012,
                -37.814293
              ],
              [
                144.97801,
                -37.814293
              ],
              [
                144.978009,
                -37.814292
              ],
              [
                144.978008,
                -37.814292
              ],
              [
                144.978008,
                -37.814291
              ],
              [
                144.978006,
                -37.814291
              ],
              [
                144.978006,
                -37.81429
              ],
              [
                144.978005,
                -37.81429
              ],
              [
                144.978004,
                -37.814289
              ],
              [
                144.978003,
                -37.814289
              ],
              [
                144.978003,
                -37.814288
              ],
              [
                144.978002,
                -37.814288
              ],
              [
                144.978001,
                -37.814287
              ],
              [
                144.978,
                -37.814287
              ],
              [
                144.978,
                -37.814286
              ],
              [
                144.977999,
                -37.814286
              ],
              [
                144.977999,
                -37.814285
              ],
              [
                144.977998,
                -37.814285
              ],
              [
                144.977998,
                -37.814284
              ],
              [
                144.977997,
                -37.814284
              ],
              [
                144.977997,
                -37.814283
              ],
              [
                144.977996,
                -37.814283
              ],
              [
                144.977996,
                -37.814282
              ],
              [
                144.977995,
                -37.814282
              ],
              [
                144.977995,
                -37.814281
              ],
              [
                144.977994,
                -37.814281
              ],
              [
                144.977994,
                -37.81428
              ],
              [
                144.977993,
                -37.814279
              ],
              [
                144.977993,
                -37.814278
              ],
              [
                144.977992,
                -37.814278
              ],
              [
                144.977992,
                -37.814276
              ],
              [
                144.977991,
                -37.814276
              ],
              [
                144.977991,
                -37.814274
              ],
              [
                144.97799,
                -37.814274
              ],
              [
                144.97799,
                -37.814273
              ],
              [
                144.977989,
                -37.814272
              ],
              [
                144.977989,
                -37.81427
              ],
              [
                144.977988,
                -37.814269
              ],
              [
                144.977988,
                -37.814265
              ],
              [
                144.977987,
                -37.814264
              ],
              [
                144.977987,
                -37.814259
              ],
              [
                144.977968,
                -37.814353
              ]
            ]
          ],
          [
            [
              [
                144.978843,
                -37.814524
              ],
              [
                144.978844,
                -37.814524
              ],
              [
                144.978844,
                -37.81452338356164
              ],
              [
                144.978843,
                -37.814524
              ]
            ]
          ],
          [
            [
              [
                144.978844,
                -37.81452338356164
              ],
              [
                144.97884462222223,
                -37.814523
              ],
              [
                144.978844,
                -37.814523
              ],
              [
                144.978844,
                -37.81452338356164
              ]
            ]
          ],
          [
            [
              [
                144.97884462222223,
                -37.814523
              ],
              [
                144.978845,
                -37.814523
              ],
              [
                144.978845,
                -37.814522767123286
              ],
              [
                144.97884462222223,
                -37.814523
              ]
            ]
          ],
          [
            [
              [
                144.97891275555554,
                -37.814481
              ],
              [
                144.978913,
                -37.814481
              ],
              [
                144.978913,
                -37.81448084931506
              ],
              [
                144.97891275555554,
                -37.814481
              ]
            ]
          ],
          [
            [
              [
                144.978913,
                -37.81448084931506
              ],
              [
                144.97891437777776,
                -37.81448
              ],
              [
                144.978913,
                -37.81448
              ],
              [
                144.978913,
                -37.81448084931506
              ]
            ]
          ],
          [
            [
              [
                144.97891437777776,
                -37.81448
              ],
              [
                144.978915,
                -37.81448
              ],
              [
                144.978915,
                -37.81447961643835
              ],
              [
                144.97891437777776,
                -37.81448
              ]
            ]
          ],
          [
            [
              [
                144.978915,
                -37.81447961643835
              ],
              [
                144.978916,
                -37.814479
              ],
              [
                144.978915,
                -37.814479
              ],
              [
                144.978915,
                -37.81447961643835
              ]
            ]
          ]
        ]
      }
    }
  ]
}