{
  "type": "FeatureCollection",
  "features": [
    {
      "type": "Feature",
      "properties": {
        "name": "polygon1"
      },
      "geometry": {
        "type": "MultiPolygon",
        "coordinates": [
          [
            [
              [
                144.9629,
                -37.806789
              ],
              [
                144.962995,
                -37.8068
              ],
              [
                144.962996,
                -37.806801
              ],
              [
                144.963,
                -37.806801
              ],
              [
                144.963041,
                -37.806806
              ],
              [
                144.96413,
                -37.806925
              ],
              [
                144.964176,
                -37.80693
              ],
              [
                144.964217,
                -37.806935
              ],
              [
                144.964222,
                -37.806935
              ],
              [
                144.964319,
                -37.806946
              ],
              [
                144.964321,
                -37.806942
              ],
              [
                144.964325,
                -37.806932
              ],
              [
                144.964327,
                -37.806919
              ],
              [
                144.964327,
                -37.806918
              ],
              [
                144.964328,
                -37.806917
              ],
              [
                144.964328,
                -37.806916
              ],
              [
                144.964329,
                -37.806915
              ],
              [
                144.96433,
                -37.806915
              ],
              [
                144.96433,
                -37.806914
              ],
              [
                144.964331,
                -37.806914
              ],
              [
                144.964332,
                -37.806913
              ],
              [
                144.964337,
                -37.806913
              ],
              [
                144.96437,
                -37.806917
              ],
              [
                144.964371,
                -37.806918
              ],
              [
                144.964374,
                -37.806918
              ],
              [
                144.964375,
                -37.806919
              ],
              [
                144.964376,
                -37.806919
              ],
              [
                144.964378,
                -37.806921
              ],
              [
                144.964379,
                -37.806921
              ],
              [
                144.96438,
                -37.806922
              ],
              [
                144.96438,
                -37.806923
              ],
              [
                144.964381,
                -37.806924
              ],
              [
                144.964381,
                -37.806926
              ],
              [
                144.964382,
                -37.806926
              ],
              [
                144.964382,
                -37.80693
              ],
              [
                144.964379,
                -37.806953
              ],
              [
                144.964471,
                -37.806963
              ],
              [
                144.964473,
                -37.806961
              ],
              [
                144.964478,
                -37.806959
              ],
              [
                144.964483,
                -37.806956
              ],
              [
                144.964488,
                -37.806954
              ],
              [
                144.964493,
                -37.806951
              ],
              [
                144.964503,
                -37.806947
              ],
              [
                144.964509,
                -37.806946
              ],
              [
                144.964514,
                -37.806944
              ],
              [
                144.96452,
                -37.806943
              ],
              [
                144.964525,
                -37.806942
              ],
              [
                144.964543,
                -37.806939
              ],
              [
                144.964554,
                -37.806939
              ],
              [
                144.96456,
                -37.806938
              ],
              [
                144.964566,
                -37.806939
              ],
              [
                144.964578,
                -37.806939
              ],
              [
                144.964583,
                -37.80694
              ],
              [
                144.964587,
                -37.80694
              ],
              [
                144.964858,
                -37.806969
              ],
              [
                144.964903,
                -37.806974
              ],
              [
                144.96533,
                -37.807022
              ],
              [
                144.965657,
                -37.807059
              ],
              [
                144.965663,
                -37.807059
              ],
              [
                144.965666,
                -37.80706
              ],
              [
                144.965669,
                -37.807062
              ],
              [
                144.96567,
                -37.807062
              ],
              [
                144.965673,
                -37.807063
              ],
              [
                144.965676,
                -37.807065
              ],
              [
                144.965679,
                -37.807066
              ],
              [
                144.96568,
                -37.807066
              ],
              [
                144.965682,
                -37.807068
              ],
              [
                144.965683,
                -37.807068
              ],
              [
                144.965685,
                -37.80707
              ],
              [
                144.965688,
                -37.807072
              ],
              [
                144.965688,
                -37.807073
              ],
              [
                144.96569,
                -37.807075
              ],
              [
                144.965691,
                -37.807075
              ],
              [
                144.965695,
                -37.807079
              ],
              [
                144.965695,
                -37.80708
              ],
              [
                144.965697,
                -37.807082
              ],
              [
                144.965698,
                -37.807085
              ],
              [
                144.9657,
                -37.807088
              ],
              [
                144.965701,
                -37.80709
              ],
              [
                144.965701,
                -37.807091
              ],
              [
                144.965702,
                -37.807093
              ],
              [
                144.965702,
                -37.807094
              ],
              [
                144.965703,
                -37.807096
              ],
              [
                144.965703,
                -37.8071
              ],
              [
                144.965704,
                -37.807101
              ],
              [
                144.965847,
                -37.807118
              ],
              [
                144.965848,
                -37.807118
              ],
              [
                144.965849,
                -37.807117
              ],
              [
                144.965856,
                -37.807117
              ],
              [
                144.965857,
                -37.807118
              ],
              [
                144.965858,
                -37.807118
              ],
              [
                144.965859,
                -37.807119
              ],
              [
                144.96586,
                -37.807119
              ],
              [
                144.965961,
                -37.807131
              ],
              [
                144.965961,
                -37.80713
              ],
              [
                144.965962,
                -37.807128
              ],
              [
                144.965962,
                -37.807126
              ],
              [
                144.965963,
                -37.807124
              ],
              [
                144.965965,
                -37.807122
              ],
              [
                144.965967,
                -37.807118
              ],
              [
                144.965969,
                -37.807116
              ],
              [
                144.96597,
                -37.807114
              ],
              [
                144.965972,
                -37.807112
              ],
              [
                144.965974,
                -37.807111
              ],
              [
                144.965976,
                -37.807109
              ],
              [
                144.965978,
                -37.807108
              ],
              [
                144.965981,
                -37.807106
              ],
              [
                144.965985,
                -37.807104
              ],
              [
                144.965988,
                -37.807103
              ],
              [
                144.96599,
                -37.807102
              ],
              [
                144.965996,
                -37.8071
              ],
              [
                144.965998,
                -37.8071
              ],
              [
                144.966001,
                -37.807099
              ],
              [
                144.966004,
                -37.807099
              ],
              [
                144.966007,
                -37.807098
              ],
              [
                144.966011,
                -37.807098
              ],
              [
                144.966028,
                -37.806996
              ],
              [
                144.966026,
                -37.806994
              ],
              [
                144.966026,
                -37.806993
              ],
              [
                144.966025,
                -37.80699290087463
              ],
              [
                144.966025,
                -37.80699
              ],
              [
                144.966026,
                -37.806989
              ],
              [
                144.966026,
                -37.806988
              ],
              [
                144.966027,
                -37.806988
              ],
              [
                144.966027,
                -37.806987
              ],
              [
                144.966029,
                -37.806987
              ],
              [
                144.966029,
                -37.806986
              ],
              [
                144.96603,
                -37.806986
              ],
              [
                144.966046,
                -37.806896
              ],
              [
                144.966044,
                -37.806895
              ],
              [
                144.966041,
                -37.806895
              ],
              [
                144.966026,
                -37.80689
              ],
              [
                144.966024,
                -37.806889
              ],
              [
                144.966021,
                -37.806887
              ],
              [
                144.966019,
                -37.806886
              ],
              [
                144.966017,
                -37.806884
              ],
              [
                144.966015,
                -37.806883
              ],
              [
                144.966011,
                -37.806879
              ],
              [
                144.96601,
                -37.806877
              ],
              [
                144.966008,
                -37.806875
              ],
              [
                144.966006,
                -37.806871
              ],
              [
                144.966006,
                -37.806869
              ],
              [
                144.966005,
                -37.806867
              ],
              [
                144.966005,
                -37.806865
              ],
              [
                144.966004,
                -37.806863
              ],
              [
                144.966005,
                -37.806861
              ],
              [
                144.966005,
                -37.806856
              ],
              [
                144.965959,
                -37.806851
              ],
              [
                144.965898,
                -37.806845
              ],
              [
                144.965877,
                -37.806843
              ],
              [
                144.965875,
                -37.806844
              ],
              [
                144.965868,
                -37.806844
              ],
              [
                144.965867,
                -37.806843
              ],
              [
                144.965866,
                -37.806843
              ],
              [
                144.965865,
                -37.806842
              ],
              [
                144.965864,
                -37.806842
              ],
              [
                144.965754,
                -37.806831
              ],
              [
                144.965751,
                -37.80683
              ],
              [
                144.965746,
                -37.80683
              ],
              [
                144.965712,
                -37.806827
              ],
              [
                144.965209,
                -37.806769
              ],
              [
                144.965191,
                -37.806767
              ],
              [
                144.965189,
                -37.806767
              ],
              [
                144.96514,
                -37.806762
              ],
              [
                144.965095,
                -37.806757
              ],
              [
                144.965092,
                -37.806756
              ],
              [
                144.96509,
                -37.806756
              ],
              [
                144.965072,
                -37.806754
              ],
              [
                144.964567,
                -37.806697
              ],
              [
                144.964528,
                -37.806693
              ],
              [
                144.964527,
                -37.806692
              ],
              [
                144.964523,
                -37.806692
              ],
              [
                144.964424,
                -37.806682
              ],
              [
                144.96442,
                -37.806708
              ],
              [
                144.96442,
                -37.806709
              ],
              [
                144.964418,
                -37.806711
              ],
              [
                144.964418,
                -37.806712
              ],
              [
                144.964417,
                -37.806712
              ],
              [
                144.964416,
                -37.806713
              ],
              [
                144.964412,
                -37.806713
              ],
              [
                144.964364,
                -37.806708
              ],
              [
                144.964363,
                -37.806708
              ],
              [
                144.964362,
                -37.806707
              ],
              [
                144.964361,
                -37.806707
              ],
              [
                144.964359,
                -37.806705
              ],
              [
                144.964359,
                -37.806704
              ],
              [
                144.964358,
                -37.806703
              ],
              [
                144.964358,
                -37.806702
              ],
              [
                144.964363,
                -37.806676
              ],
              [
                144.964267,
                -37.806666
              ],
              [
                144.964265,
                -37.806666
              ],
              [
                144.964226,
                -37.806662
              ],
              [
                144.963417,
                -37.806571
              ],
              [
                144.963371,
                -37.806565
              ],
              [
                144.963086,
                -37.806533
              ],
              [
                144.963046,
                -37.806529
              ],
              [
                144.963043,
                -37.806529
              ],
              [
                144.963041,
                -37.806528
              ],
              [
                144.963003,
                -37.806524
              ],
              [
                144.962947,
                -37.806518
              ],
              [
                144.9629,
                -37.806789
              ]
            ],
            [
              [
                144.963064,
                -37.806663
              ],
              [
                144.963064,
                -37.806658
              ],
              [
                144.963065,
                -37.806658
              ],
              [
                144.963065,
                -37.806656
              ],
              [
                144.963066,
                -37.806656
              ],
              [
                144.96306616666666,
                -37.806655
              ],
              [
                144.963068,
                -37.806655
              ],
              [
                144.963068,
                -37.806654
              ],
              [
                144.963072,
                -37.806654
              ],
              [
                144.963426,
                -37.806695
              ],
              [
                144.963587,
                -37.806713
              ],
              [
                144.963617,
                -37.806716
              ],
              [
                144.963708,
                -37.806726
              ],
              [
                144.963737,
                -37.806729
              ],
              [
                144.963827,
                -37.806738
              ],
              [
                144.963858,
                -37.806742
              ],
              [
                144.963919,
                -37.806755
              ],
              [
                144.964004,
                -37.806772
              ],
              [
                144.964005,
                -37.806772
              ],
              [
                144.964005,
                -37.806773
              ],
              [
                144.964173,
                -37.806791
              ],
              [
                144.964179,
                -37.806791
              ],
              [
                144.96418,
                -37.806792
              ],
              [
                144.964184,
                -37.806792
              ],
              [
                144.96419,
                -37.806794
              ],
              [
                144.964193,
                -37.806794
              ],
              [
                144.964194,
                -37.806795
              ],
              [
                144.964195,
                -37.806795
              ],
              [
                144.964196,
                -37.806796
              ],
              [
                144.964196,
                -37.806797
              ],
              [
                144.964197,
                -37.806797
              ],
              [
                144.964197,
                -37.806801
              ],
              [
                144.964196,
                -37.806801
              ],
              [
                144.964196,
                -37.806802
              ],
              [
                144.964195,
                -37.806803
              ],
              [
                144.964194,
                -37.806803
              ],
              [
                144.964194,
                -37.806804
              ],
              [
                144.964187,
                -37.806804
              ],
              [
                144.964175,
                -37.806802
              ],
              [
                144.963994,
                -37.806782
              ],
              [
                144.963853,
                -37.806768
              ],
              [
                144.963823,
                -37.806764
              ],
              [
                144.963732,
                -37.806755
              ],
              [
                144.963703,
                -37.806752
              ],
              [
                144.963613,
                -37.806742
              ],
              [
                144.963582,
                -37.806739
              ],
              [
                144.963433,
                -37.806707
              ],
              [
                144.963431,
                -37.806707
              ],
              [
                144.963397,
                -37.806703
              ],
              [
                144.963187,
                -37.806679
              ],
              [
                144.96307,
                -37.806666
              ],
              [
                144.963067,
                -37.806666
              ],
              [
                144.963067,
                -37.806665
              ],
              [
                144.963066,
                -37.806665
              ],
              [
                144.963065,
                -37.806664
              ],
              [
                144.963065,
                -37.806663
              ],
              [
                144.963064,
                -37.806663
              ]
            ],
            [
              [
                144.964548,
                -37.806829
              ],
              [
                144.964548,
                -37.806824
              ],
              [
                144.964549,
                -37.806824
              ],
              [
                144.964549,
                -37.806823
              ],
              [
                144.96455,
                -37.806823
              ],
              [
                144.96455,
                -37.806822
              ],
              [
                144.964551,
                -37.806822
              ],
              [
                144.964552,
                -37.806821
              ],
              [
                144.964555,
                -37.806821
              ],
              [
                144.964719,
                -37.806839
              ],
              [
                144.964845,
                -37.806853
              ],
              [
                144.964894,
                -37.806859
              ],
              [
                144.964922,
                -37.806862
              ],
              [
                144.965015,
                -37.806872
              ],
              [
                144.965044,
                -37.806875
              ],
              [
                144.965133,
                -37.806897
              ],
              [
                144.965497,
                -37.806937
              ],
              [
                144.965653,
                -37.806954
              ],
              [
                144.965677,
                -37.806956
              ],
              [
                144.965679,
                -37.806956
              ],
              [
                144.96568,
                -37.806957
              ],
              [
                144.965682,
                -37.806957
              ],
              [
                144.965682,
                -37.806958
              ],
              [
                144.965683,
                -37.806958
              ],
              [
                144.965683,
                -37.806959
              ],
              [
                144.965684,
                -37.806959099125365
              ],
              [
                144.965684,
                -37.80696
              ],
              [
                144.965685,
                -37.806961
              ],
              [
                144.965685,
                -37.806964
              ],
              [
                144.965684,
                -37.806964
              ],
              [
                144.965684,
                -37.806966
              ],
              [
                144.965683,
                -37.806966
              ],
              [
                144.965681,
                -37.806968
              ],
              [
                144.965679,
                -37.806968
              ],
              [
                144.965678,
                -37.806969
              ],
              [
                144.965676,
                -37.806969
              ],
              [
                144.965651,
                -37.806966
              ],
              [
                144.965477,
                -37.806947
              ],
              [
                144.96504,
                -37.806899
              ],
              [
                144.96501,
                -37.806896
              ],
              [
                144.964918,
                -37.806886
              ],
              [
                144.96489,
                -37.806883
              ],
              [
                144.96474,
                -37.806853
              ],
              [
                144.964732,
                -37.806852
              ],
              [
                144.964554,
                -37.806832
              ],
              [
                144.964551,
                -37.806832
              ],
              [
                144.964551,
                -37.806831
              ],
              [
                144.96455,
                -37.806830906779666
              ],
              [
                144.96455,
                -37.80683
              ],
              [
                144.964549,
                -37.80683
              ],
              [
                144.964549,
                -37.806829
              ],
              [
                144.964548,
                -37.806829
              ]
            ]
          ],
          [
            [
              [
                144.963066,
                -37.806663
              ],
              [
                144.963067,
                -37.806663
              ],
              [
                144.963067,
                -37.806664
              ],
              [
                144.963069,
                -37.806664
              ],
              [
                144.963069,
                -37.806665
              ],
              [
                144.96307,
                -37.806665
              ],
              [
                144.963085,
                -37.806666
              ],
              [
                144.963187,
                -37.806678
              ],
              [
                144.963398,
                -37.806701
              ],
              [
                144.963431,
                -37.806705
              ],
              [
                144.963432,
                -37.806705
              ],
              [
                144.963434,
                -37.806706
              ],
              [
                144.963435,
                -37.806698
              ],
              [
                144.963425,
                -37.806697
              ],
              [
                144.963089,
                -37.806658
              ],
              [
                144.963072,
                -37.806656
              ],
              [
                144.963068,
                -37.806656
              ],
              [
                144.963067,
                -37.806657
              ],
              [
                144.963067,
                -37.806658
              ],
              [
                144.963066,
                -37.806658
              ],
              [
                144.963066,
                -37.806663
              ]
            ]
          ]
        ]
      }
    }
  ]
}