{
  "type": "FeatureCollection",
  "features": [
    {
      "type": "Feature",
      "properties": {
        "name": "polygon48"
      },
      "geometry": {
        "type": "MultiPolygon",
        "coordinates": [
          [
            [
              [
                144.957131,
                -37.801912
              ],
              [
                144.958019,
                -37.803854
              ],
              [
                144.958032,
                -37.803885
              ],
              [
                144.958034,
                -37.803887
              ],
              [
                144.958035,
                -37.80389
              ],
              [
                144.958058,
                -37.803892
              ],
              [
                144.95806,
                -37.803893
              ],
              [
                144.958066,
                -37.803893
              ],
              [
                144.95807,
                -37.803892
              ],
              [
                144.958073,
                -37.803892
              ],
              [
                144.958073,
                -37.803891
              ],
              [
                144.958075,
                -37.803891
              ],
              [
                144.958079,
                -37.803889
              ],
              [
                144.95808,
                -37.803889
              ],
              [
                144.958081,
                -37.803888
              ],
              [
                144.958082,
                -37.803888
              ],
              [
                144.958083,
                -37.803887
              ],
              [
                144.958084,
                -37.803887
              ],
              [
                144.958085,
                -37.803886
              ],
              [
                144.958086,
                -37.803886
              ],
              [
                144.95809,
                -37.803882
              ],
              [
                144.958091,
                -37.803882
              ],
              [
                144.958093,
                -37.803878
              ],
              [
                144.958094,
                -37.803877
              ],
              [
                144.958094,
                -37.803876
              ],
              [
                144.958095,
                -37.803875
              ],
              [
                144.958097,
                -37.803871
              ],
              [
                144.958097,
                -37.803863
              ],
              [
                144.958244,
                -37.803879
              ],
              [
                144.958251,
                -37.803894
              ],
              [
                144.958256,
                -37.803905
              ],
              [
                144.958257,
                -37.803906
              ],
              [
                144.958257,
                -37.803907
              ],
              [
                144.95826,
                -37.80391
              ],
              [
                144.95826,
                -37.803911
              ],
              [
                144.958261,
                -37.803911
              ],
              [
                144.958261,
                -37.803912
              ],
              [
                144.958262,
                -37.803912
              ],
              [
                144.958263,
                -37.803913
              ],
              [
                144.958264,
                -37.803913
              ],
              [
                144.958266,
                -37.803915
              ],
              [
                144.958268,
                -37.803915
              ],
              [
                144.958269,
                -37.803916
              ],
              [
                144.958272,
                -37.803916
              ],
              [
                144.958273,
                -37.803917
              ],
              [
                144.958283,
                -37.803917
              ],
              [
                144.958284,
                -37.803916
              ],
              [
                144.958286,
                -37.803916
              ],
              [
                144.958292,
                -37.803914
              ],
              [
                144.958293,
                -37.803914
              ],
              [
                144.958294,
                -37.803913
              ],
              [
                144.958296,
                -37.803913
              ],
              [
                144.958297,
                -37.803912
              ],
              [
                144.958298,
                -37.803912
              ],
              [
                144.958298,
                -37.803911
              ],
              [
                144.958299,
                -37.803911
              ],
              [
                144.958301,
                -37.803909
              ],
              [
                144.958302,
                -37.803909
              ],
              [
                144.958302,
                -37.803908
              ],
              [
                144.958303,
                -37.803908
              ],
              [
                144.958304,
                -37.803907
              ],
              [
                144.958304,
                -37.803906
              ],
              [
                144.958305,
                -37.803905
              ],
              [
                144.958305,
                -37.803904
              ],
              [
                144.958306,
                -37.803904
              ],
              [
                144.958306,
                -37.803902
              ],
              [
                144.958307,
                -37.803901
              ],
              [
                144.958307,
                -37.803896
              ],
              [
                144.958306,
                -37.803896
              ],
              [
                144.958305,
                -37.803892
              ],
              [
                144.958302,
                -37.803885
              ],
              [
                144.958366,
                -37.803892
              ],
              [
                144.958353,
                -37.803863
              ],
              [
                144.958011,
                -37.80312
              ],
              [
                144.957752,
                -37.802558
              ],
              [
                144.957645,
                -37.802324
              ],
              [
                144.957566,
                -37.802153
              ],
              [
                144.957559,
                -37.802138
              ],
              [
                144.957558,
                -37.802139
              ],
              [
                144.957557,
                -37.802136
              ],
              [
                144.957472,
                -37.801953
              ],
              [
                144.957457,
                -37.80192
              ],
              [
                144.957456,
                -37.801919
              ],
              [
                144.957455,
                -37.801919
              ],
              [
                144.957368,
                -37.801909
              ],
              [
                144.957366,
                -37.801909
              ],
              [
                144.957365,
                -37.80191
              ],
              [
                144.957363,
                -37.80191
              ],
              [
                144.957362,
                -37.801911
              ],
              [
                144.957361,
                -37.801911
              ],
              [
                144.95736,
                -37.801912
              ],
              [
                144.95736,
                -37.801918
              ],
              [
                144.957361,
                -37.801918
              ],
              [
                144.957381,
                -37.801942
              ],
              [
                144.957293,
                -37.801932
              ],
              [
                144.957206,
                -37.801921
              ],
              [
                144.957208,
                -37.801925
              ],
              [
                144.957209,
                -37.801925
              ],
              [
                144.957209,
                -37.801926
              ],
              [
                144.957213,
                -37.801933
              ],
              [
                144.95721,
                -37.801934
              ],
              [
                144.957214,
                -37.801942
              ],
              [
                144.957253,
                -37.802027
              ],
              [
                144.957249,
                -37.802028
              ],
              [
                144.957211,
                -37.801943
              ],
              [
                144.957201,
                -37.801923
              ],
              [
                144.957199,
                -37.80192
              ],
              [
                144.957131,
                -37.801912
              ]
            ],
            [
              [
                144.957483,
                -37.80221578947369
              ],
              [
                144.957483,
                -37.802215
              ],
              [
                144.957484,
                -37.802214
              ],
              [
                144.957484,
                -37.802213
              ],
              [
                144.957485,
                -37.802213
              ],
              [
                144.957485,
                -37.802212
              ],
              [
                144.957486,
                -37.802212
              ],
              [
                144.957486,
                -37.802211
              ],
              [
                144.957487,
                -37.802211
              ],
              [
                144.957501,
                -37.802206
              ],
              [
                144.957502,
                -37.802206
              ],
              [
                144.957502,
                -37.802205
              ],
              [
                144.957506,
                -37.802205
              ],
              [
                144.957506,
                -37.802206
              ],
              [
                144.957508,
                -37.802206
              ],
              [
                144.95751,
                -37.802208
              ],
              [
                144.957508,
                -37.802209
              ],
              [
                144.957506,
                -37.802207
              ],
              [
                144.957502,
                -37.802207
              ],
              [
                144.957488,
                -37.802212
              ],
              [
                144.957488,
                -37.802213
              ],
              [
                144.957487,
                -37.802213
              ],
              [
                144.957487,
                -37.802214
              ],
              [
                144.957486,
                -37.802214
              ],
              [
                144.957486,
                -37.802217
              ],
              [
                144.957484,
                -37.802218
              ],
              [
                144.957483,
                -37.80221578947369
              ]
            ],
            [
              [
                144.957696,
                -37.802628
              ],
              [
                144.9577,
                -37.802626
              ],
              [
                144.957701,
                -37.802626
              ],
              [
                144.957705,
                -37.802624
              ],
              [
                144.95771,
                -37.802619
              ],
              [
                144.957711,
                -37.802619
              ],
              [
                144.957712,
                -37.802615
              ],
              [
                144.957713,
                -37.802615
              ],
              [
                144.957713,
                -37.802614
              ],
              [
                144.957747,
                -37.802689
              ],
              [
                144.957745,
                -37.802688
              ],
              [
                144.957742,
                -37.802688
              ],
              [
                144.957741,
                -37.802687
              ],
              [
                144.957733,
                -37.802687
              ],
              [
                144.957732,
                -37.802688
              ],
              [
                144.957729,
                -37.802688
              ],
              [
                144.957724,
                -37.80269
              ],
              [
                144.957696,
                -37.802628
              ]
            ],
            [
              [
                144.957854,
                -37.802972
              ],
              [
                144.957859,
                -37.80297
              ],
              [
                144.957861,
                -37.80297
              ],
              [
                144.957862,
                -37.802969
              ],
              [
                144.957863,
                -37.802969
              ],
              [
                144.957864,
                -37.802968
              ],
              [
                144.957865,
                -37.802968
              ],
              [
                144.957867,
                -37.802966
              ],
              [
                144.957868,
                -37.802966
              ],
              [
                144.957868,
                -37.802965
              ],
              [
                144.95787,
                -37.802963
              ],
              [
                144.95787,
                -37.802962
              ],
              [
                144.957871,
                -37.802962
              ],
              [
                144.957872,
                -37.802961
              ],
              [
                144.957872,
                -37.802959
              ],
              [
                144.957873,
                -37.802958
              ],
              [
                144.957873,
                -37.802956
              ],
              [
                144.957913,
                -37.80304
              ],
              [
                144.957909,
                -37.803037
              ],
              [
                144.957907,
                -37.803036
              ],
              [
                144.957904,
                -37.803035
              ],
              [
                144.957899,
                -37.803033
              ],
              [
                144.957891,
                -37.803032
              ],
              [
                144.957885,
                -37.803033
              ],
              [
                144.957882,
                -37.803034
              ],
              [
                144.957854,
                -37.802972
              ]
            ]
          ],
          [
            [
              [
                144.95755,
                -37.801963
              ],
              [
                144.957638,
                -37.802154
              ],
              [
                144.957832,
                -37.802576
              ],
              [
                144.958052,
                -37.803054
              ],
              [
                144.958441,
                -37.8039
              ],
              [
                144.958504,
                -37.803907
              ],
              [
                144.958517,
                -37.803935
              ],
              [
                144.958517,
                -37.803936
              ],
              [
                144.958518,
                -37.803936
              ],
              [
                144.958522,
                -37.803939
              ],
              [
                144.958526,
                -37.803941
              ],
              [
                144.958527,
                -37.803941
              ],
              [
                144.958533,
                -37.803943
              ],
              [
                144.958538,
                -37.803944
              ],
              [
                144.958551,
                -37.803944
              ],
              [
                144.958551,
                -37.803943
              ],
              [
                144.958552,
                -37.803943
              ],
              [
                144.958557,
                -37.803941
              ],
              [
                144.958558,
                -37.803941
              ],
              [
                144.958561,
                -37.803937
              ],
              [
                144.958563,
                -37.803933
              ],
              [
                144.958564,
                -37.80393
              ],
              [
                144.958565,
                -37.803926
              ],
              [
                144.958565,
                -37.803921
              ],
              [
                144.958562,
                -37.803913
              ],
              [
                144.958704,
                -37.803928
              ],
              [
                144.958698,
                -37.803916
              ],
              [
                144.9587,
                -37.803916
              ],
              [
                144.958703,
                -37.803915
              ],
              [
                144.958702,
                -37.803912
              ],
              [
                144.958766,
                -37.803894
              ],
              [
                144.958523,
                -37.803367
              ],
              [
                144.958517,
                -37.803355
              ],
              [
                144.958051,
                -37.802344
              ],
              [
                144.957985,
                -37.802201
              ],
              [
                144.957894,
                -37.802004
              ],
              [
                144.957868,
                -37.801947
              ],
              [
                144.957866,
                -37.801943
              ],
              [
                144.957852,
                -37.801942
              ],
              [
                144.957837,
                -37.801942
              ],
              [
                144.957829,
                -37.801944
              ],
              [
                144.957829,
                -37.801945
              ],
              [
                144.957817,
                -37.801949
              ],
              [
                144.957816,
                -37.801949
              ],
              [
                144.957811,
                -37.801952
              ],
              [
                144.95781,
                -37.801953
              ],
              [
                144.957806,
                -37.801956
              ],
              [
                144.9578,
                -37.801962
              ],
              [
                144.9578,
                -37.801963
              ],
              [
                144.957796,
                -37.801968
              ],
              [
                144.957796,
                -37.801969
              ],
              [
                144.957793,
                -37.801975
              ],
              [
                144.957791,
                -37.80198
              ],
              [
                144.957791,
                -37.801992
              ],
              [
                144.95767,
                -37.801977
              ],
              [
                144.957655,
                -37.801944
              ],
              [
                144.957653,
                -37.801944
              ],
              [
                144.957652,
                -37.801945
              ],
              [
                144.95765,
                -37.801945
              ],
              [
                144.957648,
                -37.801943
              ],
              [
                144.957646,
                -37.801943
              ],
              [
                144.957644,
                -37.801941
              ],
              [
                144.957641,
                -37.801941
              ],
              [
                144.95764,
                -37.80194
              ],
              [
                144.957627,
                -37.80194
              ],
              [
                144.957625,
                -37.801941
              ],
              [
                144.957624,
                -37.801941
              ],
              [
                144.957623,
                -37.801942
              ],
              [
                144.957621,
                -37.801942
              ],
              [
                144.95762,
                -37.801943
              ],
              [
                144.957619,
                -37.801943
              ],
              [
                144.957613,
                -37.801949
              ],
              [
                144.957613,
                -37.80195
              ],
              [
                144.957612,
                -37.801951
              ],
              [
                144.957612,
                -37.801953
              ],
              [
                144.95761,
                -37.801954
              ],
              [
                144.957608,
                -37.801954
              ],
              [
                144.957615,
                -37.801971
              ],
              [
                144.95755,
                -37.801963
              ]
            ],
            [
              [
                144.957662,
                -37.802067
              ],
              [
                144.957664,
                -37.802066
              ],
              [
                144.957665,
                -37.802067
              ],
              [
                144.957666,
                -37.802067
              ],
              [
                144.957667,
                -37.802068
              ],
              [
                144.957669,
                -37.802067
              ],
              [
                144.957698,
                -37.802059
              ],
              [
                144.9577,
                -37.802058
              ],
              [
                144.9577,
                -37.802055
              ],
              [
                144.957701,
                -37.802054
              ],
              [
                144.957703,
                -37.802054
              ],
              [
                144.957703,
                -37.802057
              ],
              [
                144.957702,
                -37.802057
              ],
              [
                144.957702,
                -37.802059
              ],
              [
                144.957701,
                -37.802059
              ],
              [
                144.957699,
                -37.80206
              ],
              [
                144.957699,
                -37.802061
              ],
              [
                144.95767,
                -37.802069
              ],
              [
                144.957664,
                -37.802069
              ],
              [
                144.957664,
                -37.802068
              ],
              [
                144.9576624512195,
                -37.802068
              ],
              [
                144.957662,
                -37.802067
              ]
            ],
            [
              [
                144.957703,
                -37.802053
              ],
              [
                144.957705,
                -37.802053
              ],
              [
                144.957728,
                -37.802103
              ],
              [
                144.957744,
                -37.802137
              ],
              [
                144.957742,
                -37.802137
              ],
              [
                144.957703,
                -37.802053
              ]
            ],
            [
              [
                144.95804942222222,
                -37.80291
              ],
              [
                144.958051,
                -37.80291
              ],
              [
                144.958052,
                -37.802911
              ],
              [
                144.958053,
                -37.802911
              ],
              [
                144.958055,
                -37.802912
              ],
              [
                144.958066,
                -37.802912
              ],
              [
                144.958067,
                -37.802911
              ],
              [
                144.95807,
                -37.802911
              ],
              [
                144.958072,
                -37.80291
              ],
              [
                144.958087,
                -37.802942
              ],
              [
                144.958101,
                -37.802973
              ],
              [
                144.958098,
                -37.802974
              ],
              [
                144.958097,
                -37.802974
              ],
              [
                144.958096,
                -37.802975
              ],
              [
                144.958095,
                -37.802975
              ],
              [
                144.958094,
                -37.802976
              ],
              [
                144.958092,
                -37.802977
              ],
              [
                144.958091,
                -37.802977
              ],
              [
                144.958091,
                -37.802978
              ],
              [
                144.95809,
                -37.802978
              ],
              [
                144.958089,
                -37.802979
              ],
              [
                144.958089,
                -37.80298
              ],
              [
                144.958088,
                -37.802981
              ],
              [
                144.958087,
                -37.802981
              ],
              [
                144.958087,
                -37.802982
              ],
              [
                144.958086,
                -37.802983
              ],
              [
                144.958086,
                -37.802984
              ],
              [
                144.958085,
                -37.802985
              ],
              [
                144.958085,
                -37.802987
              ],
              [
                144.958084,
                -37.802988
              ],
              [
                144.958068,
                -37.802954
              ],
              [
                144.95804942222222,
                -37.80291
              ]
            ]
          ]
        ]
      }
    }
  ]
}