{
  "type": "FeatureCollection",
  "features": [
    {
      "type": "Feature",
      "properties": {
        "name": "polygon67"
      },
      "geometry": {
        "type": "MultiPolygon",
        "coordinates": [
          [
            [
              [
                144.970631,
                -37.811913
              ],
              [
                144.970632,
                -37.811915
              ],
              [
                144.970639,
                -37.811928
              ],
              [
                144.970647,
                -37.811938
              ],
              [
                144.970658,
                -37.811943
              ],
              [
                144.970666,
                -37.811946
              ],
              [
                144.970676,
                -37.811948
              ],
              [
                144.970682,
                -37.811949
              ],
              [
                144.970691,
                -37.811949
              ],
              [
                144.970693,
                -37.811953
              ],
              [
                144.970717,
                -37.812009
              ],
              [
                144.970912,
                -37.811952
              ],
              [
                144.971359,
                -37.811821
              ],
              [
                144.971773,
                -37.8117
              ],
              [
                144.972091,
                -37.811607
              ],
              [
                144.97209,
                -37.811605
              ],
              [
                144.972434,
                -37.811505
              ],
              [
                144.972435,
                -37.811506
              ],
              [
                144.972533,
                -37.811477
              ],
              [
                144.972813,
                -37.811394
              ],
              [
                144.972835,
                -37.811385
              ],
              [
                144.972856,
                -37.811375
              ],
              [
                144.972864,
                -37.811369
              ],
              [
                144.972842,
                -37.811321
              ],
              [
                144.972841,
                -37.811319
              ],
              [
                144.97284,
                -37.811316
              ],
              [
                144.972821,
                -37.811276
              ],
              [
                144.972177,
                -37.811463
              ],
              [
                144.972175,
                -37.811463
              ],
              [
                144.972174,
                -37.811464
              ],
              [
                144.972139,
                -37.811474
              ],
              [
                144.972136,
                -37.811475
              ],
              [
                144.972135,
                -37.811475
              ],
              [
                144.972129,
                -37.811477
              ],
              [
                144.97161,
                -37.811627
              ],
              [
                144.971606,
                -37.811628
              ],
              [
                144.971607,
                -37.81163
              ],
              [
                144.971604,
                -37.811631
              ],
              [
                144.971599,
                -37.811632
              ],
              [
                144.971598,
                -37.811631
              ],
              [
                144.971561,
                -37.811641
              ],
              [
                144.971556,
                -37.811643
              ],
              [
                144.97155,
                -37.811645
              ],
              [
                144.97129,
                -37.811719
              ],
              [
                144.971285,
                -37.811721
              ],
              [
                144.971282,
                -37.811722
              ],
              [
                144.971277,
                -37.811723
              ],
              [
                144.97124,
                -37.811734
              ],
              [
                144.971231,
                -37.811737
              ],
              [
                144.97067,
                -37.811901
              ],
              [
                144.970638,
                -37.811911
              ],
              [
                144.970631,
                -37.811913
              ]
            ]
          ],
          [
            [
              [
                144.970738,
                -37.812059
              ],
              [
                144.970762,
                -37.812113
              ],
              [
                144.970762,
                -37.812115
              ],
              [
                144.970764,
                -37.812118
              ],
              [
                144.970781,
                -37.812159
              ],
              [
                144.971207,
                -37.812033
              ],
              [
                144.971227,
                -37.812028
              ],
              [
                144.971553,
                -37.811935
              ],
              [
                144.971586,
                -37.811925
              ],
              [
                144.971587,
                -37.811925
              ],
              [
                144.971589,
                -37.811924
              ],
              [
                144.97159,
                -37.811924
              ],
              [
                144.971652,
                -37.811904
              ],
              [
                144.971655,
                -37.811903
              ],
              [
                144.971666,
                -37.8119
              ],
              [
                144.972053,
                -37.811788
              ],
              [
                144.97206,
                -37.811786
              ],
              [
                144.972063,
                -37.811786
              ],
              [
                144.972066,
                -37.811785
              ],
              [
                144.972108,
                -37.811772
              ],
              [
                144.972111,
                -37.811771
              ],
              [
                144.972112,
                -37.811771
              ],
              [
                144.97247,
                -37.811668
              ],
              [
                144.972474,
                -37.811667
              ],
              [
                144.972476,
                -37.811666
              ],
              [
                144.972528,
                -37.811651
              ],
              [
                144.972532,
                -37.81165
              ],
              [
                144.972535,
                -37.811649
              ],
              [
                144.97294,
                -37.811532
              ],
              [
                144.972919,
                -37.811487
              ],
              [
                144.972917,
                -37.811484
              ],
              [
                144.972916,
                -37.811482
              ],
              [
                144.972891,
                -37.811426
              ],
              [
                144.972877,
                -37.811431
              ],
              [
                144.972805,
                -37.811454
              ],
              [
                144.972798,
                -37.811456
              ],
              [
                144.972799,
                -37.811459
              ],
              [
                144.9728,
                -37.81146
              ],
              [
                144.972698,
                -37.811486
              ],
              [
                144.972454,
                -37.811558
              ],
              [
                144.972453,
                -37.811557
              ],
              [
                144.972287,
                -37.811606
              ],
              [
                144.971912,
                -37.811715
              ],
              [
                144.971557,
                -37.811819
              ],
              [
                144.971161,
                -37.811935
              ],
              [
                144.970738,
                -37.812059
              ]
            ]
          ]
        ]
      }
    }
  ]
}