{
  "type": "FeatureCollection",
  "features": [
    {
      "type": "Feature",
      "properties": {
        "name": "polygon34"
      },
      "geometry": {
        "type": "Polygon",
        "coordinates": [
          [
            [
              144.942896,
              -37.812945
            ],
            [
              144.942922,
              -37.812976
            ],
            [
              144.942936,
              -37.812993
            ],
            [
              144.943573,
              -37.813353
            ],
            [
              144.943583,
              -37.813358
            ],
            [
              144.943584,
              -37.813358
            ],
            [
              144.943586,
              -37.813359
            ],
            [
              144.943596,
              -37.813345
            ],
            [
              144.94365,
              -37.813381
            ],
            [
              144.943647,
              -37.813385
            ],
            [
              144.943649,
              -37.813386
            ],
            [
              144.94365,
              -37.813387
            ],
            [
              144.943651,
              -37.813387
            ],
            [
              144.943665,
              -37.813398
            ],
            [
              144.943669,
              -37.813418
            ],
            [
              144.943739,
              -37.813469
            ],
            [
              144.943807,
              -37.813522
            ],
            [
              144.943822,
              -37.813534
            ],
            [
              144.943872,
              -37.813577
            ],
            [
              144.943904,
              -37.813606
            ],
            [
              144.943921,
              -37.81362
            ],
            [
              144.943936,
              -37.813634
            ],
            [
              144.943996,
              -37.813692
            ],
            [
              144.944054,
              -37.813752
            ],
            [
              144.94406,
              -37.813758
            ],
            [
              144.944073,
              -37.813772
            ],
            [
              144.94411,
              -37.813813
            ],
            [
              144.944163,
              -37.813876
            ],
            [
              144.944213,
              -37.81394
            ],
            [
              144.944234,
              -37.813969
            ],
            [
              144.944257,
              -37.814
            ],
            [
              144.944298,
              -37.814061
            ],
            [
              144.944298,
              -37.814062
            ],
            [
              144.944311,
              -37.814082
            ],
            [
              144.944326,
              -37.814107
            ],
            [
              144.94433,
              -37.814112
            ],
            [
              144.944341,
              -37.814131
            ],
            [
              144.944346,
              -37.814139
            ],
            [
              144.944366,
              -37.814174
            ],
            [
              144.944354,
              -37.814213
            ],
            [
              144.944362,
              -37.81423
            ],
            [
              144.944376,
              -37.814226
            ],
            [
              144.944414,
              -37.814312
            ],
            [
              144.944436,
              -37.81436
            ],
            [
              144.944437,
              -37.814363
            ],
            [
              144.944451,
              -37.814393
            ],
            [
              144.944494,
              -37.814492
            ],
            [
              144.944492,
              -37.8145
            ],
            [
              144.944509,
              -37.814539
            ],
            [
              144.944517,
              -37.814543
            ],
            [
              144.944533,
              -37.81458
            ],
            [
              144.944538,
              -37.814589
            ],
            [
              144.944549,
              -37.814614
            ],
            [
              144.944589,
              -37.814704
            ],
            [
              144.944629,
              -37.814796
            ],
            [
              144.944675,
              -37.814899
            ],
            [
              144.94471,
              -37.814889
            ],
            [
              144.944689,
              -37.814843
            ],
            [
              144.944668,
              -37.814849
            ],
            [
              144.944657,
              -37.814824
            ],
            [
              144.944677,
              -37.814818
            ],
            [
              144.944646,
              -37.814749
            ],
            [
              144.944625,
              -37.814755
            ],
            [
              144.944614,
              -37.814729
            ],
            [
              144.944635,
              -37.814724
            ],
            [
              144.944604,
              -37.814656
            ],
            [
              144.944584,
              -37.814662
            ],
            [
              144.944573,
              -37.814636
            ],
            [
              144.944593,
              -37.81463
            ],
            [
              144.944562,
              -37.814563
            ],
            [
              144.944543,
              -37.814568
            ],
            [
              144.944532,
              -37.814542
            ],
            [
              144.944551,
              -37.814537
            ],
            [
              144.94452,
              -37.814469
            ],
            [
              144.944502,
              -37.814474
            ],
            [
              144.944491,
              -37.814449
            ],
            [
              144.944509,
              -37.814444
            ],
            [
              144.944478,
              -37.814376
            ],
            [
              144.944461,
              -37.814381
            ],
            [
              144.944449,
              -37.814356
            ],
            [
              144.944467,
              -37.814351
            ],
            [
              144.944468,
              -37.814354
            ],
            [
              144.944471,
              -37.814353
            ],
            [
              144.944678,
              -37.814812
            ],
            [
              144.944707,
              -37.814804
            ],
            [
              144.944666,
              -37.814714
            ],
            [
              144.944584,
              -37.814527
            ],
            [
              144.944503,
              -37.814344
            ],
            [
              144.944506,
              -37.814343
            ],
            [
              144.944505,
              -37.81434
            ],
            [
              144.944522,
              -37.814336
            ],
            [
              144.944533,
              -37.814361
            ],
            [
              144.944516,
              -37.814365
            ],
            [
              144.944546,
              -37.814434
            ],
            [
              144.944563,
              -37.814429
            ],
            [
              144.944574,
              -37.814454
            ],
            [
              144.944557,
              -37.814459
            ],
            [
              144.944586,
              -37.814526
            ],
            [
              144.944586,
              -37.814527
            ],
            [
              144.944604,
              -37.814522
            ],
            [
              144.944615,
              -37.814548
            ],
            [
              144.944598,
              -37.814553
            ],
            [
              144.944628,
              -37.814621
            ],
            [
              144.944645,
              -37.814616
            ],
            [
              144.944656,
              -37.814642
            ],
            [
              144.944639,
              -37.814646
            ],
            [
              144.944668,
              -37.814714
            ],
            [
              144.944669,
              -37.814714
            ],
            [
              144.944686,
              -37.814709
            ],
            [
              144.944698,
              -37.814734
            ],
            [
              144.94468,
              -37.814739
            ],
            [
              144.944711,
              -37.814807
            ],
            [
              144.944728,
              -37.814802
            ],
            [
              144.944739,
              -37.814828
            ],
            [
              144.944723,
              -37.814833
            ],
            [
              144.944771,
              -37.814937
            ],
            [
              144.944775,
              -37.814936
            ],
            [
              144.94479,
              -37.814932
            ],
            [
              144.944789,
              -37.81493
            ],
            [
              144.944792,
              -37.814929
            ],
            [
              144.944796,
              -37.814929
            ],
            [
              144.944879,
              -37.814905
            ],
            [
              144.944856,
              -37.814849
            ],
            [
              144.944855,
              -37.814849
            ],
            [
              144.94484,
              -37.814816
            ],
            [
              144.944827,
              -37.814786
            ],
            [
              144.944814,
              -37.814746
            ],
            [
              144.944514,
              -37.814066
            ],
            [
              144.944475,
              -37.813986
            ],
            [
              144.94446,
              -37.81396
            ],
            [
              144.944459,
              -37.813961
            ],
            [
              144.944457,
              -37.813961
            ],
            [
              144.944432,
              -37.813918
            ],
            [
              144.944373,
              -37.813826
            ],
            [
              144.944321,
              -37.813753
            ],
            [
              144.944263,
              -37.813687
            ],
            [
              144.944207,
              -37.813622
            ],
            [
              144.944209,
              -37.813621
            ],
            [
              144.944216,
              -37.813618
            ],
            [
              144.944152,
              -37.81355
            ],
            [
              144.944149,
              -37.813547
            ],
            [
              144.944002,
              -37.813425
            ],
            [
              144.943884,
              -37.813326
            ],
            [
              144.943764,
              -37.813248
            ],
            [
              144.943378,
              -37.813024
            ],
            [
              144.943212,
              -37.81293
            ],
            [
              144.943206,
              -37.812926
            ],
            [
              144.943168,
              -37.812913
            ],
            [
              144.943141,
              -37.81292
            ],
            [
              144.943029,
              -37.812946
            ],
            [
              144.943024,
              -37.812947
            ],
            [
              144.943018,
              -37.812948
            ],
            [
              144.942995,
              -37.812943
            ],
            [
              144.942974,
              -37.81294
            ],
            [
              144.942951,
              -37.812938
            ],
            [
              144.942942,
              -37.812938
            ],
            [
              144.942929,
              -37.812939
            ],
            [
              144.942928,
              -37.81294
            ],
            [
              144.942912,
              -37.812942
            ],
            [
              144.942896,
              -37.812945
            ]
          ],
          [
            [
              144.943238,
              -37.813084
            ],
            [
              144.943248,
              -37.813074
            ],
            [
              144.943261,
              -37.813082
            ],
            [
              144.943262,
              -37.813082
            ],
            [
              144.943275,
              -37.81309
            ],
            [
              144.943266,
              -37.8131
            ],
            [
              144.943238,
              -37.813084
            ]
          ],
          [
            [
              144.943329,
              -37.813136
            ],
            [
              144.943338,
              -37.813126
            ],
            [
              144.943366,
              -37.813142
            ],
            [
              144.943357,
              -37.813152
            ],
            [
              144.943329,
              -37.813136
            ]
          ],
          [
            [
              144.943422,
              -37.813189
            ],
            [
              144.94343,
              -37.813179
            ],
            [
              144.943458,
              -37.813195
            ],
            [
              144.943449,
              -37.813205
            ],
            [
              144.943422,
              -37.813189
            ]
          ],
          [
            [
              144.943508,
              -37.813238
            ],
            [
              144.943517,
              -37.813228
            ],
            [
              144.943545,
              -37.813244
            ],
            [
              144.943536,
              -37.813254
            ],
            [
              144.943534,
              -37.813253
            ],
            [
              144.943508,
              -37.813238
            ]
          ],
          [
            [
              144.944321,
              -37.814035
            ],
            [
              144.944353,
              -37.814023
            ],
            [
              144.944355,
              -37.814026
            ],
            [
              144.944363,
              -37.81404
            ],
            [
              144.944364,
              -37.814042
            ],
            [
              144.944372,
              -37.814055
            ],
            [
              144.944373,
              -37.814056
            ],
            [
              144.944379,
              -37.814067
            ],
            [
              144.94438,
              -37.814069
            ],
            [
              144.944385,
              -37.814078
            ],
            [
              144.944387,
              -37.814082
            ],
            [
              144.94439,
              -37.814087
            ],
            [
              144.944391,
              -37.81409
            ],
            [
              144.944396,
              -37.8141
            ],
            [
              144.944396,
              -37.814102
            ],
            [
              144.944398,
              -37.814106
            ],
            [
              144.944365,
              -37.814117
            ],
            [
              144.944363,
              -37.814112
            ],
            [
              144.944359,
              -37.814104
            ],
            [
              144.944357,
              -37.814099
            ],
            [
              144.944356,
              -37.814097
            ],
            [
              144.944354,
              -37.814092
            ],
            [
              144.944353,
              -37.814091
            ],
            [
              144.944352,
              -37.814089
            ],
            [
              144.944347,
              -37.81408
            ],
            [
              144.94434,
              -37.814066
            ],
            [
              144.944332,
              -37.814054
            ],
            [
              144.944331,
              -37.814052
            ],
            [
              144.944323,
              -37.814038
            ],
            [
              144.944321,
              -37.814035
            ]
          ],
          [
            [
              144.944367,
              -37.81417
            ],
            [
              144.944384,
              -37.814165
            ],
            [
              144.944395,
              -37.814191
            ],
            [
              144.944378,
              -37.814196
            ],
            [
              144.944367,
              -37.81417
            ]
          ],
          [
            [
              144.944375,
              -37.814139
            ],
            [
              144.944409,
              -37.81413
            ],
            [
              144.944412,
              -37.814136
            ],
            [
              144.944413,
              -37.81414
            ],
            [
              144.94442,
              -37.814154
            ],
            [
              144.944421,
              -37.814157
            ],
            [
              144.944425,
              -37.814166
            ],
            [
              144.944426,
              -37.814168
            ],
            [
              144.94443,
              -37.814178
            ],
            [
              144.944431,
              -37.814181
            ],
            [
              144.944438,
              -37.814195
            ],
            [
              144.944444,
              -37.81421
            ],
            [
              144.944445,
              -37.814213
            ],
            [
              144.944412,
              -37.814222
            ],
            [
              144.944411,
              -37.81422
            ],
            [
              144.944404,
              -37.814205
            ],
            [
              144.944403,
              -37.814203
            ],
            [
              144.944398,
              -37.81419
            ],
            [
              144.944396,
              -37.814187
            ],
            [
              144.944392,
              -37.814177
            ],
            [
              144.944391,
              -37.814175
            ],
            [
              144.944387,
              -37.814166
            ],
            [
              144.944386,
              -37.814164
            ],
            [
              144.944386,
              -37.814163
            ],
            [
              144.944383,
              -37.814158
            ],
            [
              144.944382,
              -37.814155
            ],
            [
              144.94438,
              -37.814151
            ],
            [
              144.94438,
              -37.814149
            ],
            [
              144.944375,
              -37.814139
            ]
          ],
          [
            [
              144.944406,
              -37.81426
            ],
            [
              144.944424,
              -37.814255
            ],
            [
              144.944435,
              -37.81428
            ],
            [
              144.944418,
              -37.814285
            ],
            [
              144.944406,
              -37.81426
            ]
          ],
          [
            [
              144.944422,
              -37.814153
            ],
            [
              144.944439,
              -37.814149
            ],
            [
              144.944451,
              -37.814176
            ],
            [
              144.94448,
              -37.814239
            ],
            [
              144.944491,
              -37.814265
            ],
            [
              144.944492,
              -37.814265
            ],
            [
              144.944474,
              -37.81427
            ],
            [
              144.944462,
              -37.814244
            ],
            [
              144.944434,
              -37.81418
            ],
            [
              144.944422,
              -37.814153
            ]
          ]
        ]
      }
    }
  ]
}