{
  "type": "FeatureCollection",
  "features": [
    {
      "type": "Feature",
      "properties": {
        "name": "polygon177"
      },
      "geometry": {
        "type": "Polygon",
        "coordinates": [
          [
            [
              144.955598,
              -37.809587
            ],
            [
              144.955629,
              -37.809657
            ],
            [
              144.95563,
              -37.809656
            ],
            [
              144.955633,
              -37.809655
            ],
            [
              144.956442,
              -37.809422
            ],
            [
              144.956446,
              -37.809421
            ],
            [
              144.95645,
              -37.809421
            ],
            [
              144.956661,
              -37.809445
            ],
            [
              144.957266,
              -37.809512
            ],
            [
              144.957444,
              -37.809532
            ],
            [
              144.957457,
              -37.809459
            ],
            [
              144.957344,
              -37.809446
            ],
            [
              144.957342,
              -37.809446
            ],
            [
              144.957342,
              -37.809445
            ],
            [
              144.957341,
              -37.809445
            ],
            [
              144.95734,
              -37.809444
            ],
            [
              144.95734,
              -37.809443
            ],
            [
              144.957339,
              -37.809443
            ],
            [
              144.957339,
              -37.809441
            ],
            [
              144.957349,
              -37.809386
            ],
            [
              144.957359,
              -37.809332
            ],
            [
              144.95736,
              -37.809331
            ],
            [
              144.95736,
              -37.80933
            ],
            [
              144.957361,
              -37.80933
            ],
            [
              144.957361,
              -37.809329
            ],
            [
              144.957362,
              -37.809329
            ],
            [
              144.957363,
              -37.809328
            ],
            [
              144.957366,
              -37.809328
            ],
            [
              144.957475,
              -37.809341
            ],
            [
              144.957477,
              -37.809341
            ],
            [
              144.95749,
              -37.809266
            ],
            [
              144.957479,
              -37.809265
            ],
            [
              144.957479,
              -37.809266
            ],
            [
              144.955645,
              -37.809062
            ],
            [
              144.955632,
              -37.809134
            ],
            [
              144.955636,
              -37.809134
            ],
            [
              144.955711,
              -37.809142
            ],
            [
              144.955717,
              -37.809144
            ],
            [
              144.955717,
              -37.809145
            ],
            [
              144.955718,
              -37.809145
            ],
            [
              144.955718,
              -37.809146
            ],
            [
              144.955719,
              -37.809146
            ],
            [
              144.955799,
              -37.809155
            ],
            [
              144.955918,
              -37.809168
            ],
            [
              144.955996,
              -37.809177
            ],
            [
              144.956119,
              -37.80919
            ],
            [
              144.956196,
              -37.809199
            ],
            [
              144.956315,
              -37.809212
            ],
            [
              144.956397,
              -37.809221
            ],
            [
              144.956466,
              -37.809229
            ],
            [
              144.95647,
              -37.809229
            ],
            [
              144.95646,
              -37.809286
            ],
            [
              144.95645,
              -37.809344
            ],
            [
              144.956047,
              -37.809457
            ],
            [
              144.955943,
              -37.809486
            ],
            [
              144.955856,
              -37.80951
            ],
            [
              144.955852,
              -37.809511
            ],
            [
              144.955729,
              -37.809546
            ],
            [
              144.955727,
              -37.809546
            ],
            [
              144.955643,
              -37.80957
            ],
            [
              144.955643,
              -37.809571
            ],
            [
              144.955642,
              -37.809572
            ],
            [
              144.955642,
              -37.809573
            ],
            [
              144.955641,
              -37.809574
            ],
            [
              144.95564,
              -37.809574
            ],
            [
              144.95564,
              -37.809575
            ],
            [
              144.955639,
              -37.809575
            ],
            [
              144.955638,
              -37.809576
            ],
            [
              144.955637,
              -37.809576
            ],
            [
              144.955604,
              -37.809585
            ],
            [
              144.955603,
              -37.809586
            ],
            [
              144.9556,
              -37.809586
            ],
            [
              144.955598,
              -37.809587
            ]
          ]
        ]
      }
    }
  ]
}