{
  "type": "FeatureCollection",
  "features": [
    {
      "type": "Feature",
      "properties": {
        "name": "polygon61"
      },
      "geometry": {
        "type": "Polygon",
        "coordinates": [
          [
            [
              144.941563,
              -37.813493
            ],
            [
              144.942042,
              -37.813805
            ],
            [
              144.942042,
              -37.813811
            ],
            [
              144.942044,
              -37.81381
            ],
            [
              144.942047,
              -37.813809
            ],
            [
              144.942048,
              -37.813809
            ],
            [
              144.942174,
              -37.813761
            ],
            [
              144.942177,
              -37.81376
            ],
            [
              144.942179,
              -37.813759
            ],
            [
              144.942251,
              -37.813731
            ],
            [
              144.941767,
              -37.813416
            ],
            [
              144.941744,
              -37.813424
            ],
            [
              144.94174,
              -37.813426
            ],
            [
              144.941668,
              -37.813453
            ],
            [
              144.941664,
              -37.813455
            ],
            [
              144.941563,
              -37.813493
            ]
          ]
        ]
      }
    }
  ]
}