{
  "type": "FeatureCollection",
  "features": [
    {
      "type": "Feature",
      "properties": {
        "name": "polygon19"
      },
      "geometry": {
        "type": "Polygon",
        "coordinates": [
          [
            [
              144.985809,
              -37.811758
            ],
            [
              144.985823,
              -37.81176
            ],
            [
              144.985831,
              -37.811759
            ],
            [
              144.985836,
              -37.811758
            ],
            [
              144.985844,
              -37.811753
            ],
            [
              144.985849,
              -37.81175
            ],
            [
              144.985854,
              -37.811742
            ],
            [
              144.985856,
              -37.811737
            ],
            [
              144.985857,
              -37.81173
            ],
            [
              144.98594,
              -37.811738
            ],
            [
              144.98594,
              -37.811739
            ],
            [
              144.985941,
              -37.811742
            ],
            [
              144.985943,
              -37.811743
            ],
            [
              144.985946,
              -37.811744
            ],
            [
              144.986015,
              -37.811752
            ],
            [
              144.986019,
              -37.811752
            ],
            [
              144.986022,
              -37.811751
            ],
            [
              144.986023,
              -37.811748
            ],
            [
              144.986023,
              -37.811747
            ],
            [
              144.986107,
              -37.811756
            ],
            [
              144.986105,
              -37.811762
            ],
            [
              144.986104,
              -37.811771
            ],
            [
              144.986104,
              -37.811776
            ],
            [
              144.986106,
              -37.811781
            ],
            [
              144.986109,
              -37.811786
            ],
            [
              144.986116,
              -37.811791
            ],
            [
              144.986123,
              -37.811793
            ],
            [
              144.986134,
              -37.811795
            ],
            [
              144.986143,
              -37.811796
            ],
            [
              144.986143,
              -37.811794
            ],
            [
              144.986144,
              -37.811792
            ],
            [
              144.986147,
              -37.811793
            ],
            [
              144.986152,
              -37.811761
            ],
            [
              144.98615,
              -37.811761
            ],
            [
              144.98615,
              -37.81176
            ],
            [
              144.986163,
              -37.81168
            ],
            [
              144.98619,
              -37.811522
            ],
            [
              144.986253,
              -37.811149
            ],
            [
              144.98629,
              -37.810932
            ],
            [
              144.986303,
              -37.810857
            ],
            [
              144.986306,
              -37.810857
            ],
            [
              144.986307,
              -37.810856
            ],
            [
              144.986311,
              -37.810827
            ],
            [
              144.986312,
              -37.810826
            ],
            [
              144.986312,
              -37.810822
            ],
            [
              144.986328,
              -37.810732
            ],
            [
              144.986327,
              -37.810731
            ],
            [
              144.986328,
              -37.810727
            ],
            [
              144.98599,
              -37.810687
            ],
            [
              144.98599,
              -37.810689
            ],
            [
              144.985988,
              -37.810693
            ],
            [
              144.985987,
              -37.810694
            ],
            [
              144.985971,
              -37.810787
            ],
            [
              144.98597,
              -37.810788
            ],
            [
              144.98597,
              -37.81079
            ],
            [
              144.985965,
              -37.810819
            ],
            [
              144.985816,
              -37.811725
            ],
            [
              144.98581,
              -37.811754
            ],
            [
              144.98581,
              -37.811756
            ],
            [
              144.985809,
              -37.811758
            ]
          ],
          [
            [
              144.985856,
              -37.811615
            ],
            [
              144.985859,
              -37.811601
            ],
            [
              144.985873,
              -37.811602
            ],
            [
              144.985871,
              -37.811617
            ],
            [
              144.985856,
              -37.811615
            ]
          ],
          [
            [
              144.985873,
              -37.811513
            ],
            [
              144.985876,
              -37.811499
            ],
            [
              144.98589,
              -37.8115
            ],
            [
              144.985888,
              -37.811514
            ],
            [
              144.985873,
              -37.811513
            ]
          ],
          [
            [
              144.985933,
              -37.811156
            ],
            [
              144.985936,
              -37.811141
            ],
            [
              144.98595,
              -37.811143
            ],
            [
              144.985948,
              -37.811157
            ],
            [
              144.985933,
              -37.811156
            ]
          ],
          [
            [
              144.985945,
              -37.811082
            ],
            [
              144.985948,
              -37.811068
            ],
            [
              144.985962,
              -37.811069
            ],
            [
              144.98596,
              -37.811084
            ],
            [
              144.985945,
              -37.811082
            ]
          ],
          [
            [
              144.985956,
              -37.81102
            ],
            [
              144.985958,
              -37.811005
            ],
            [
              144.985973,
              -37.811007
            ],
            [
              144.98597,
              -37.811021
            ],
            [
              144.985956,
              -37.81102
            ]
          ]
        ]
      }
    }
  ]
}