{
    "type": "FeatureCollection",
    "generator": "JOSM",
    "features": [
        {
            "type": "Feature",
            "properties": {
                "name": "polygon25",
                "type": "multipolygon"
            },
            "geometry": {
                "type": "MultiPolygon",
                "coordinates": [
                    [
                        [
                            [
                                144.96212300000,
                                -37.80146300000
                            ],
                            [
                                144.96216000000,
                                -37.80146800000
                            ],
                            [
                                144.96216300000,
                                -37.80146800000
                            ],
                            [
                                144.96217800000,
                                -37.80146900000
                            ],
                            [
                                144.96226600000,
                                -37.80147900000
                            ],
                            [
                                144.96231400000,
                                -37.80148400000
                            ],
                            [
                                144.96241900000,
                                -37.80149600000
                            ],
                            [
                                144.96242400000,
                                -37.80149700000
                            ],
                            [
                                144.96246100000,
                                -37.80150100000
                            ],
                            [
                                144.96250200000,
                                -37.80126700000
                            ],
                            [
                                144.96250400000,
                                -37.80125500000
                            ],
                            [
                                144.96252800000,
                                -37.80112000000
                            ],
                            [
                                144.96253000000,
                                -37.80110900000
                            ],
                            [
                                144.96255500000,
                                -37.80096500000
                            ],
                            [
                                144.96255600000,
                                -37.80096000000
                            ],
                            [
                                144.96255600000,
                                -37.80095800000
                            ],
                            [
                                144.96255900000,
                                -37.80094000000
                            ],
                            [
                                144.96256000000,
                                -37.80093700000
                            ],
                            [
                                144.96256300000,
                                -37.80092100000
                            ],
                            [
                                144.96256300000,
                                -37.80092000000
                            ],
                            [
                                144.96265200000,
                                -37.80041600000
                            ],
                            [
                                144.96261100000,
                                -37.80041100000
                            ],
                            [
                                144.96260800000,
                                -37.80041100000
                            ],
                            [
                                144.96260500000,
                                -37.80041000000
                            ],
                            [
                                144.96259300000,
                                -37.80040900000
                            ],
                            [
                                144.96251000000,
                                -37.80040000000
                            ],
                            [
                                144.96244900000,
                                -37.80039300000
                            ],
                            [
                                144.96235600000,
                                -37.80038300000
                            ],
                            [
                                144.96235400000,
                                -37.80039500000
                            ],
                            [
                                144.96235100000,
                                -37.80039500000
                            ],
                            [
                                144.96234800000,
                                -37.80039400000
                            ],
                            [
                                144.96235000000,
                                -37.80038300000
                            ],
                            [
                                144.96231200000,
                                -37.80037800000
                            ],
                            [
                                144.96222600000,
                                -37.80087400000
                            ],
                            [
                                144.96222500000,
                                -37.80087700000
                            ],
                            [
                                144.96221800000,
                                -37.80091900000
                            ],
                            [
                                144.96221700000,
                                -37.80092300000
                            ],
                            [
                                144.96221700000,
                                -37.80092400000
                            ],
                            [
                                144.96221600000,
                                -37.80092700000
                            ],
                            [
                                144.96217400000,
                                -37.80117000000
                            ],
                            [
                                144.96217400000,
                                -37.80117300000
                            ],
                            [
                                144.96217100000,
                                -37.80118600000
                            ],
                            [
                                144.96217100000,
                                -37.80118900000
                            ],
                            [
                                144.96217000000,
                                -37.80119100000
                            ],
                            [
                                144.96216800000,
                                -37.80120200000
                            ],
                            [
                                144.96216800000,
                                -37.80120400000
                            ],
                            [
                                144.96212300000,
                                -37.80146300000
                            ]
                        ],
                        [
                            [
                                144.96220100000,
                                -37.80116000000
                            ],
                            [
                                144.96220400000,
                                -37.80114600000
                            ],
                            [
                                144.96221700000,
                                -37.80114700000
                            ],
                            [
                                144.96221500000,
                                -37.80116200000
                            ],
                            [
                                144.96220100000,
                                -37.80116000000
                            ]
                        ],
                        [
                            [
                                144.96221200000,
                                -37.80109800000
                            ],
                            [
                                144.96221400000,
                                -37.80108300000
                            ],
                            [
                                144.96222800000,
                                -37.80108500000
                            ],
                            [
                                144.96222500000,
                                -37.80109900000
                            ],
                            [
                                144.96221200000,
                                -37.80109800000
                            ]
                        ],
                        [
                            [
                                144.96223000000,
                                -37.80099400000
                            ],
                            [
                                144.96223200000,
                                -37.80098000000
                            ],
                            [
                                144.96224600000,
                                -37.80098200000
                            ],
                            [
                                144.96224300000,
                                -37.80099600000
                            ],
                            [
                                144.96223000000,
                                -37.80099400000
                            ]
                        ],
                        [
                            [
                                144.96226200000,
                                -37.80080200000
                            ],
                            [
                                144.96226500000,
                                -37.80078800000
                            ],
                            [
                                144.96227800000,
                                -37.80079000000
                            ],
                            [
                                144.96227600000,
                                -37.80080400000
                            ],
                            [
                                144.96226200000,
                                -37.80080200000
                            ]
                        ],
                        [
                            [
                                144.96227900000,
                                -37.80069100000
                            ],
                            [
                                144.96228100000,
                                -37.80067500000
                            ],
                            [
                                144.96229800000,
                                -37.80067700000
                            ],
                            [
                                144.96229500000,
                                -37.80069300000
                            ],
                            [
                                144.96227900000,
                                -37.80069100000
                            ]
                        ],
                        [
                            [
                                144.96229000000,
                                -37.80062700000
                            ],
                            [
                                144.96229300000,
                                -37.80061000000
                            ],
                            [
                                144.96231000000,
                                -37.80061200000
                            ],
                            [
                                144.96230700000,
                                -37.80062800000
                            ],
                            [
                                144.96229000000,
                                -37.80062700000
                            ]
                        ],
                        [
                            [
                                144.96229700000,
                                -37.80131000000
                            ],
                            [
                                144.96229700000,
                                -37.80130800000
                            ],
                            [
                                144.96230000000,
                                -37.80129100000
                            ],
                            [
                                144.96230000000,
                                -37.80129000000
                            ],
                            [
                                144.96230300000,
                                -37.80128700000
                            ],
                            [
                                144.96230500000,
                                -37.80128700000
                            ],
                            [
                                144.96230600000,
                                -37.80128600000
                            ],
                            [
                                144.96230800000,
                                -37.80128600000
                            ],
                            [
                                144.96233100000,
                                -37.80128900000
                            ],
                            [
                                144.96234200000,
                                -37.80129000000
                            ],
                            [
                                144.96234300000,
                                -37.80129000000
                            ],
                            [
                                144.96234400000,
                                -37.80129100000
                            ],
                            [
                                144.96234500000,
                                -37.80129100000
                            ],
                            [
                                144.96234700000,
                                -37.80129300000
                            ],
                            [
                                144.96234700000,
                                -37.80129600000
                            ],
                            [
                                144.96234500000,
                                -37.80131300000
                            ],
                            [
                                144.96234400000,
                                -37.80131400000
                            ],
                            [
                                144.96234400000,
                                -37.80131500000
                            ],
                            [
                                144.96234300000,
                                -37.80131600000
                            ],
                            [
                                144.96234200000,
                                -37.80131600000
                            ],
                            [
                                144.96234100000,
                                -37.80131700000
                            ],
                            [
                                144.96234000000,
                                -37.80131700000
                            ],
                            [
                                144.96233900000,
                                -37.80131800000
                            ],
                            [
                                144.96233700000,
                                -37.80131800000
                            ],
                            [
                                144.96232600000,
                                -37.80131700000
                            ],
                            [
                                144.96230300000,
                                -37.80131400000
                            ],
                            [
                                144.96230100000,
                                -37.80131400000
                            ],
                            [
                                144.96229900000,
                                -37.80131200000
                            ],
                            [
                                144.96229800000,
                                -37.80131200000
                            ],
                            [
                                144.96229800000,
                                -37.80131100000
                            ],
                            [
                                144.96229700000,
                                -37.80131000000
                            ]
                        ],
                        [
                            [
                                144.96231100000,
                                -37.80050700000
                            ],
                            [
                                144.96231400000,
                                -37.80049100000
                            ],
                            [
                                144.96233100000,
                                -37.80049300000
                            ],
                            [
                                144.96232800000,
                                -37.80050900000
                            ],
                            [
                                144.96231100000,
                                -37.80050700000
                            ]
                        ],
                        [
                            [
                                144.96232500000,
                                -37.80114700000
                            ],
                            [
                                144.96232500000,
                                -37.80114500000
                            ],
                            [
                                144.96232800000,
                                -37.80112900000
                            ],
                            [
                                144.96232900000,
                                -37.80112800000
                            ],
                            [
                                144.96232900000,
                                -37.80112600000
                            ],
                            [
                                144.96233000000,
                                -37.80112600000
                            ],
                            [
                                144.96233200000,
                                -37.80112400000
                            ],
                            [
                                144.96233600000,
                                -37.80112400000
                            ],
                            [
                                144.96234500000,
                                -37.80112500000
                            ],
                            [
                                144.96235800000,
                                -37.80112600000
                            ],
                            [
                                144.96236100000,
                                -37.80112700000
                            ],
                            [
                                144.96237000000,
                                -37.80112700000
                            ],
                            [
                                144.96237100000,
                                -37.80112800000
                            ],
                            [
                                144.96237300000,
                                -37.80112800000
                            ],
                            [
                                144.96237400000,
                                -37.80112900000
                            ],
                            [
                                144.96237400000,
                                -37.80113000000
                            ],
                            [
                                144.96237500000,
                                -37.80113000000
                            ],
                            [
                                144.96237500000,
                                -37.80113200000
                            ],
                            [
                                144.96237600000,
                                -37.80113300000
                            ],
                            [
                                144.96237600000,
                                -37.80113400000
                            ],
                            [
                                144.96237300000,
                                -37.80115000000
                            ],
                            [
                                144.96237200000,
                                -37.80115100000
                            ],
                            [
                                144.96237200000,
                                -37.80115200000
                            ],
                            [
                                144.96237000000,
                                -37.80115400000
                            ],
                            [
                                144.96236800000,
                                -37.80115500000
                            ],
                            [
                                144.96236500000,
                                -37.80115500000
                            ],
                            [
                                144.96235300000,
                                -37.80115400000
                            ],
                            [
                                144.96233100000,
                                -37.80115200000
                            ],
                            [
                                144.96233000000,
                                -37.80115100000
                            ],
                            [
                                144.96232800000,
                                -37.80115100000
                            ],
                            [
                                144.96232700000,
                                -37.80115000000
                            ],
                            [
                                144.96232700000,
                                -37.80114900000
                            ],
                            [
                                144.96232600000,
                                -37.80114900000
                            ],
                            [
                                144.96232600000,
                                -37.80114800000
                            ],
                            [
                                144.96232500000,
                                -37.80114700000
                            ]
                        ],
                        [
                            [
                                144.96235600000,
                                -37.80098500000
                            ],
                            [
                                144.96235600000,
                                -37.80098200000
                            ],
                            [
                                144.96235900000,
                                -37.80096500000
                            ],
                            [
                                144.96235900000,
                                -37.80096400000
                            ],
                            [
                                144.96236200000,
                                -37.80096100000
                            ],
                            [
                                144.96236600000,
                                -37.80096100000
                            ],
                            [
                                144.96237600000,
                                -37.80096200000
                            ],
                            [
                                144.96237800000,
                                -37.80096200000
                            ],
                            [
                                144.96238500000,
                                -37.80096300000
                            ],
                            [
                                144.96240000000,
                                -37.80096400000
                            ],
                            [
                                144.96240100000,
                                -37.80096400000
                            ],
                            [
                                144.96240200000,
                                -37.80096500000
                            ],
                            [
                                144.96240300000,
                                -37.80096500000
                            ],
                            [
                                144.96240400000,
                                -37.80096600000
                            ],
                            [
                                144.96240500000,
                                -37.80096600000
                            ],
                            [
                                144.96240500000,
                                -37.80096700000
                            ],
                            [
                                144.96240600000,
                                -37.80096800000
                            ],
                            [
                                144.96240600000,
                                -37.80097000000
                            ],
                            [
                                144.96240300000,
                                -37.80098700000
                            ],
                            [
                                144.96240300000,
                                -37.80098900000
                            ],
                            [
                                144.96240200000,
                                -37.80099000000
                            ],
                            [
                                144.96240100000,
                                -37.80099000000
                            ],
                            [
                                144.96239900000,
                                -37.80099200000
                            ],
                            [
                                144.96239500000,
                                -37.80099200000
                            ],
                            [
                                144.96238600000,
                                -37.80099100000
                            ],
                            [
                                144.96238100000,
                                -37.80099000000
                            ],
                            [
                                144.96237300000,
                                -37.80099000000
                            ],
                            [
                                144.96237000000,
                                -37.80098900000
                            ],
                            [
                                144.96236200000,
                                -37.80098800000
                            ],
                            [
                                144.96236000000,
                                -37.80098800000
                            ],
                            [
                                144.96235900000,
                                -37.80098700000
                            ],
                            [
                                144.96235800000,
                                -37.80098700000
                            ],
                            [
                                144.96235700000,
                                -37.80098600000
                            ],
                            [
                                144.96235700000,
                                -37.80098500000
                            ],
                            [
                                144.96235600000,
                                -37.80098500000
                            ]
                        ],
                        [
                            [
                                144.96238700000,
                                -37.80079600000
                            ],
                            [
                                144.96238700000,
                                -37.80079400000
                            ],
                            [
                                144.96239000000,
                                -37.80077700000
                            ],
                            [
                                144.96239000000,
                                -37.80077600000
                            ],
                            [
                                144.96239300000,
                                -37.80077300000
                            ],
                            [
                                144.96239500000,
                                -37.80077300000
                            ],
                            [
                                144.96239600000,
                                -37.80077200000
                            ],
                            [
                                144.96239800000,
                                -37.80077200000
                            ],
                            [
                                144.96240400000,
                                -37.80077300000
                            ],
                            [
                                144.96241600000,
                                -37.80077400000
                            ],
                            [
                                144.96242700000,
                                -37.80077500000
                            ],
                            [
                                144.96243100000,
                                -37.80077600000
                            ],
                            [
                                144.96243400000,
                                -37.80077600000
                            ],
                            [
                                144.96243400000,
                                -37.80077700000
                            ],
                            [
                                144.96243500000,
                                -37.80077700000
                            ],
                            [
                                144.96243700000,
                                -37.80077900000
                            ],
                            [
                                144.96243700000,
                                -37.80078200000
                            ],
                            [
                                144.96243400000,
                                -37.80079900000
                            ],
                            [
                                144.96243400000,
                                -37.80080100000
                            ],
                            [
                                144.96243300000,
                                -37.80080100000
                            ],
                            [
                                144.96243300000,
                                -37.80080200000
                            ],
                            [
                                144.96243200000,
                                -37.80080300000
                            ],
                            [
                                144.96243000000,
                                -37.80080300000
                            ],
                            [
                                144.96242900000,
                                -37.80080400000
                            ],
                            [
                                144.96242700000,
                                -37.80080400000
                            ],
                            [
                                144.96241200000,
                                -37.80080200000
                            ],
                            [
                                144.96239300000,
                                -37.80080000000
                            ],
                            [
                                144.96239100000,
                                -37.80080000000
                            ],
                            [
                                144.96239000000,
                                -37.80079900000
                            ],
                            [
                                144.96238900000,
                                -37.80079900000
                            ],
                            [
                                144.96238900000,
                                -37.80079800000
                            ],
                            [
                                144.96238800000,
                                -37.80079700000
                            ],
                            [
                                144.96238800000,
                                -37.80079600000
                            ],
                            [
                                144.96238700000,
                                -37.80079600000
                            ]
                        ],
                        [
                            [
                                144.96242000000,
                                -37.80060800000
                            ],
                            [
                                144.96242000000,
                                -37.80060600000
                            ],
                            [
                                144.96242300000,
                                -37.80058900000
                            ],
                            [
                                144.96242300000,
                                -37.80058800000
                            ],
                            [
                                144.96242400000,
                                -37.80058700000
                            ],
                            [
                                144.96242400000,
                                -37.80058600000
                            ],
                            [
                                144.96242500000,
                                -37.80058600000
                            ],
                            [
                                144.96242600000,
                                -37.80058500000
                            ],
                            [
                                144.96242700000,
                                -37.80058500000
                            ],
                            [
                                144.96242800000,
                                -37.80058400000
                            ],
                            [
                                144.96243000000,
                                -37.80058400000
                            ],
                            [
                                144.96244800000,
                                -37.80058600000
                            ],
                            [
                                144.96246400000,
                                -37.80058800000
                            ],
                            [
                                144.96246600000,
                                -37.80058800000
                            ],
                            [
                                144.96246700000,
                                -37.80058900000
                            ],
                            [
                                144.96246800000,
                                -37.80058900000
                            ],
                            [
                                144.96246900000,
                                -37.80059000000
                            ],
                            [
                                144.96246900000,
                                -37.80059100000
                            ],
                            [
                                144.96247000000,
                                -37.80059100000
                            ],
                            [
                                144.96247000000,
                                -37.80059400000
                            ],
                            [
                                144.96246700000,
                                -37.80061100000
                            ],
                            [
                                144.96246700000,
                                -37.80061200000
                            ],
                            [
                                144.96246400000,
                                -37.80061500000
                            ],
                            [
                                144.96245900000,
                                -37.80061500000
                            ],
                            [
                                144.96244600000,
                                -37.80061400000
                            ],
                            [
                                144.96244300000,
                                -37.80061400000
                            ],
                            [
                                144.96243600000,
                                -37.80061300000
                            ],
                            [
                                144.96242600000,
                                -37.80061200000
                            ],
                            [
                                144.96242500000,
                                -37.80061200000
                            ],
                            [
                                144.96242400000,
                                -37.80061100000
                            ],
                            [
                                144.96242300000,
                                -37.80061100000
                            ],
                            [
                                144.96242200000,
                                -37.80061000000
                            ],
                            [
                                144.96242100000,
                                -37.80061000000
                            ],
                            [
                                144.96242100000,
                                -37.80060900000
                            ],
                            [
                                144.96242000000,
                                -37.80060800000
                            ]
                        ],
                        [
                            [
                                144.96243300000,
                                -37.80143900000
                            ],
                            [
                                144.96243700000,
                                -37.80142000000
                            ],
                            [
                                144.96245000000,
                                -37.80142200000
                            ],
                            [
                                144.96244700000,
                                -37.80144000000
                            ],
                            [
                                144.96243300000,
                                -37.80143900000
                            ]
                        ],
                        [
                            [
                                144.96245700000,
                                -37.80130000000
                            ],
                            [
                                144.96246000000,
                                -37.80128600000
                            ],
                            [
                                144.96247300000,
                                -37.80128700000
                            ],
                            [
                                144.96247100000,
                                -37.80130200000
                            ],
                            [
                                144.96245700000,
                                -37.80130000000
                            ]
                        ],
                        [
                            [
                                144.96247000000,
                                -37.80122900000
                            ],
                            [
                                144.96247200000,
                                -37.80121400000
                            ],
                            [
                                144.96248600000,
                                -37.80121500000
                            ],
                            [
                                144.96248300000,
                                -37.80123000000
                            ],
                            [
                                144.96247000000,
                                -37.80122900000
                            ]
                        ],
                        [
                            [
                                144.96248200000,
                                -37.80115800000
                            ],
                            [
                                144.96248500000,
                                -37.80114300000
                            ],
                            [
                                144.96249800000,
                                -37.80114500000
                            ],
                            [
                                144.96249600000,
                                -37.80115900000
                            ],
                            [
                                144.96248200000,
                                -37.80115800000
                            ]
                        ],
                        [
                            [
                                144.96249500000,
                                -37.80108100000
                            ],
                            [
                                144.96249800000,
                                -37.80106700000
                            ],
                            [
                                144.96251200000,
                                -37.80106800000
                            ],
                            [
                                144.96250900000,
                                -37.80108300000
                            ],
                            [
                                144.96249500000,
                                -37.80108100000
                            ]
                        ],
                        [
                            [
                                144.96250800000,
                                -37.80101100000
                            ],
                            [
                                144.96251000000,
                                -37.80099600000
                            ],
                            [
                                144.96252400000,
                                -37.80099800000
                            ],
                            [
                                144.96252100000,
                                -37.80101300000
                            ],
                            [
                                144.96250800000,
                                -37.80101100000
                            ]
                        ],
                        [
                            [
                                144.96253700000,
                                -37.80083700000
                            ],
                            [
                                144.96254000000,
                                -37.80082200000
                            ],
                            [
                                144.96255300000,
                                -37.80082300000
                            ],
                            [
                                144.96255100000,
                                -37.80083800000
                            ],
                            [
                                144.96253700000,
                                -37.80083700000
                            ]
                        ],
                        [
                            [
                                144.96256000000,
                                -37.80070700000
                            ],
                            [
                                144.96256200000,
                                -37.80069200000
                            ],
                            [
                                144.96257600000,
                                -37.80069300000
                            ],
                            [
                                144.96257300000,
                                -37.80070800000
                            ],
                            [
                                144.96256000000,
                                -37.80070700000
                            ]
                        ],
                        [
                            [
                                144.96257100000,
                                -37.80063900000
                            ],
                            [
                                144.96257400000,
                                -37.80062500000
                            ],
                            [
                                144.96258700000,
                                -37.80062600000
                            ],
                            [
                                144.96258500000,
                                -37.80064100000
                            ],
                            [
                                144.96257100000,
                                -37.80063900000
                            ]
                        ],
                        [
                            [
                                144.96259500000,
                                -37.80049900000
                            ],
                            [
                                144.96259800000,
                                -37.80048500000
                            ],
                            [
                                144.96261100000,
                                -37.80048600000
                            ],
                            [
                                144.96260900000,
                                -37.80050100000
                            ],
                            [
                                144.96259500000,
                                -37.80049900000
                            ]
                        ]
                    ]
                ]
            }
        }
    ]
}