{
  "type": "FeatureCollection",
  "features": [
    {
      "type": "Feature",
      "properties": {
        "name": "polygon2"
      },
      "geometry": {
        "type": "MultiPolygon",
        "coordinates": [
          [
            [
              [
                144.965712,
                -37.806827
              ],
              [
                144.965746,
                -37.80683
              ],
              [
                144.965751,
                -37.80683
              ],
              [
                144.965754,
                -37.806831
              ],
              [
                144.965864,
                -37.806842
              ],
              [
                144.965864,
                -37.806841
              ],
              [
                144.965863,
                -37.806841
              ],
              [
                144.965863,
                -37.806835
              ],
              [
                144.965912,
                -37.806554
              ],
              [
                144.965912,
                -37.806553
              ],
              [
                144.965913,
                -37.806552
              ],
              [
                144.965914,
                -37.80655
              ],
              [
                144.965916,
                -37.806548
              ],
              [
                144.965917,
                -37.806548
              ],
              [
                144.96592,
                -37.806547
              ],
              [
                144.965924,
                -37.806547
              ],
              [
                144.965927,
                -37.806548
              ],
              [
                144.965928,
                -37.806548
              ],
              [
                144.965928,
                -37.806549
              ],
              [
                144.965929,
                -37.80655
              ],
              [
                144.96593,
                -37.80655
              ],
              [
                144.96593,
                -37.806552
              ],
              [
                144.965931,
                -37.806553
              ],
              [
                144.965931,
                -37.806555
              ],
              [
                144.965924,
                -37.806593
              ],
              [
                144.96588,
                -37.806838
              ],
              [
                144.96588,
                -37.80684
              ],
              [
                144.965877,
                -37.806843
              ],
              [
                144.965898,
                -37.806845
              ],
              [
                144.965959,
                -37.806851
              ],
              [
                144.966005,
                -37.806856
              ],
              [
                144.96601,
                -37.806856
              ],
              [
                144.966052,
                -37.80686
              ],
              [
                144.966282,
                -37.805532
              ],
              [
                144.966282,
                -37.80553
              ],
              [
                144.966284,
                -37.805515
              ],
              [
                144.966284,
                -37.805513
              ],
              [
                144.966285,
                -37.805503
              ],
              [
                144.966286,
                -37.805498
              ],
              [
                144.966286,
                -37.805496
              ],
              [
                144.966366,
                -37.805049
              ],
              [
                144.966372,
                -37.805018
              ],
              [
                144.966372,
                -37.805014
              ],
              [
                144.96636,
                -37.805014
              ],
              [
                144.966356,
                -37.805015
              ],
              [
                144.966355,
                -37.805015
              ],
              [
                144.966349,
                -37.805016
              ],
              [
                144.966343,
                -37.805018
              ],
              [
                144.966342,
                -37.805018
              ],
              [
                144.966338,
                -37.805021
              ],
              [
                144.966337,
                -37.805021
              ],
              [
                144.966329,
                -37.805027
              ],
              [
                144.966328,
                -37.805028
              ],
              [
                144.966325,
                -37.805032
              ],
              [
                144.966322,
                -37.805038
              ],
              [
                144.966321,
                -37.805038
              ],
              [
                144.966319,
                -37.805044
              ],
              [
                144.966319,
                -37.805045
              ],
              [
                144.9662,
                -37.80503319834711
              ],
              [
                144.9662,
                -37.805034
              ],
              [
                144.966201,
                -37.805034
              ],
              [
                144.966203,
                -37.805036
              ],
              [
                144.966203,
                -37.805037
              ],
              [
                144.966204,
                -37.80504
              ],
              [
                144.966029,
                -37.80606
              ],
              [
                144.966026,
                -37.806064
              ],
              [
                144.966026,
                -37.806065
              ],
              [
                144.966025,
                -37.806065
              ],
              [
                144.966021,
                -37.806067
              ],
              [
                144.966015,
                -37.806067
              ],
              [
                144.966013,
                -37.806066
              ],
              [
                144.966009,
                -37.806066
              ],
              [
                144.966005,
                -37.806062
              ],
              [
                144.966005,
                -37.806061
              ],
              [
                144.966004,
                -37.806055
              ],
              [
                144.966004,
                -37.806054
              ],
              [
                144.966182,
                -37.805037
              ],
              [
                144.966184,
                -37.805034
              ],
              [
                144.966188,
                -37.805032
              ],
              [
                144.966063,
                -37.805019
              ],
              [
                144.966058,
                -37.805019
              ],
              [
                144.966058,
                -37.805016
              ],
              [
                144.96606,
                -37.805006
              ],
              [
                144.966059,
                -37.804999
              ],
              [
                144.966059,
                -37.804996
              ],
              [
                144.966055,
                -37.804991
              ],
              [
                144.96605,
                -37.804987
              ],
              [
                144.966044,
                -37.804985
              ],
              [
                144.966036,
                -37.804983
              ],
              [
                144.96603,
                -37.804982
              ],
              [
                144.966024,
                -37.805016
              ],
              [
                144.965843,
                -37.806051
              ],
              [
                144.965842,
                -37.806061
              ],
              [
                144.965841,
                -37.806063
              ],
              [
                144.965841,
                -37.806066
              ],
              [
                144.965833,
                -37.806113
              ],
              [
                144.965832,
                -37.806116
              ],
              [
                144.965828,
                -37.80614
              ],
              [
                144.965712,
                -37.806827
              ]
            ],
            [
              [
                144.965754,
                -37.806685
              ],
              [
                144.965759,
                -37.806656
              ],
              [
                144.965776,
                -37.806658
              ],
              [
                144.965771,
                -37.806687
              ],
              [
                144.965754,
                -37.806685
              ]
            ],
            [
              [
                144.96578,
                -37.806556
              ],
              [
                144.965782,
                -37.806543
              ],
              [
                144.965795,
                -37.806544
              ],
              [
                144.965793,
                -37.806558
              ],
              [
                144.96578,
                -37.806556
              ]
            ],
            [
              [
                144.965818,
                -37.806316
              ],
              [
                144.965823,
                -37.806287
              ],
              [
                144.965839,
                -37.806289
              ],
              [
                144.965834,
                -37.806318
              ],
              [
                144.965818,
                -37.806316
              ]
            ],
            [
              [
                144.965844,
                -37.806189
              ],
              [
                144.965847,
                -37.806175
              ],
              [
                144.965859,
                -37.806177
              ],
              [
                144.965856,
                -37.80619
              ],
              [
                144.965844,
                -37.806189
              ]
            ],
            [
              [
                144.965859,
                -37.806177
              ],
              [
                144.965867,
                -37.806128
              ],
              [
                144.965865,
                -37.806141
              ],
              [
                144.965859,
                -37.806177
              ]
            ],
            [
              [
                144.965867,
                -37.806141
              ],
              [
                144.965869,
                -37.806128
              ],
              [
                144.96587,
                -37.806122
              ],
              [
                144.965881,
                -37.806059
              ],
              [
                144.965867,
                -37.806141
              ]
            ],
            [
              [
                144.965875,
                -37.806012
              ],
              [
                144.965877,
                -37.805998
              ],
              [
                144.965889,
                -37.806
              ],
              [
                144.965886,
                -37.806013
              ],
              [
                144.965875,
                -37.806012
              ]
            ],
            [
              [
                144.965902,
                -37.805857
              ],
              [
                144.965904,
                -37.805844
              ],
              [
                144.965915,
                -37.805845
              ],
              [
                144.965913,
                -37.805859
              ],
              [
                144.965902,
                -37.805857
              ]
            ],
            [
              [
                144.965921,
                -37.805742
              ],
              [
                144.965924,
                -37.805728
              ],
              [
                144.965935,
                -37.80573
              ],
              [
                144.965933,
                -37.805743
              ],
              [
                144.965921,
                -37.805742
              ]
            ],
            [
              [
                144.965925,
                -37.806524
              ],
              [
                144.965925,
                -37.806523
              ],
              [
                144.965944,
                -37.806409
              ],
              [
                144.965985,
                -37.806167
              ],
              [
                144.965986,
                -37.806166
              ],
              [
                144.965987,
                -37.806163
              ],
              [
                144.96599,
                -37.80616
              ],
              [
                144.965991,
                -37.80616
              ],
              [
                144.965994,
                -37.806159
              ],
              [
                144.965994,
                -37.806158
              ],
              [
                144.965998,
                -37.806158
              ],
              [
                144.966001,
                -37.806159
              ],
              [
                144.966004,
                -37.806161
              ],
              [
                144.966007,
                -37.806164
              ],
              [
                144.966008,
                -37.806167
              ],
              [
                144.966008,
                -37.80617
              ],
              [
                144.965966,
                -37.80641
              ],
              [
                144.965946,
                -37.806526
              ],
              [
                144.965945,
                -37.806529
              ],
              [
                144.965944,
                -37.806529
              ],
              [
                144.965941,
                -37.806531
              ],
              [
                144.965931,
                -37.806531
              ],
              [
                144.965931,
                -37.80653
              ],
              [
                144.965929,
                -37.806529
              ],
              [
                144.965928,
                -37.806529
              ],
              [
                144.965926,
                -37.806526
              ],
              [
                144.965925,
                -37.806524
              ]
            ],
            [
              [
                144.965945,
                -37.805608
              ],
              [
                144.965947,
                -37.805594
              ],
              [
                144.965958,
                -37.805596
              ],
              [
                144.965956,
                -37.805609
              ],
              [
                144.965945,
                -37.805608
              ]
            ],
            [
              [
                144.965973,
                -37.805444
              ],
              [
                144.965975,
                -37.805431
              ],
              [
                144.965987,
                -37.805432
              ],
              [
                144.965984,
                -37.805445
              ],
              [
                144.965973,
                -37.805444
              ]
            ],
            [
              [
                144.965994,
                -37.805324
              ],
              [
                144.965996,
                -37.805311
              ],
              [
                144.966007,
                -37.805312
              ],
              [
                144.966005,
                -37.805325
              ],
              [
                144.965994,
                -37.805324
              ]
            ],
            [
              [
                144.966021,
                -37.805168
              ],
              [
                144.966023,
                -37.805154
              ],
              [
                144.966034,
                -37.805155
              ],
              [
                144.966032,
                -37.805169
              ],
              [
                144.966021,
                -37.805168
              ]
            ],
            [
              [
                144.96604037021802,
                -37.806681041135334
              ],
              [
                144.96604349238996,
                -37.80666305470999
              ],
              [
                144.966061,
                -37.806665
              ],
              [
                144.966058,
                -37.806683
              ],
              [
                144.96604037021802,
                -37.806681041135334
              ]
            ],
            [
              [
                144.96605826229506,
                -37.80657796721326
              ],
              [
                144.96606657536267,
                -37.80653007671503
              ],
              [
                144.966081,
                -37.806532
              ],
              [
                144.966078,
                -37.806548
              ],
              [
                144.966064,
                -37.806546
              ],
              [
                144.96605826229506,
                -37.80657796721326
              ]
            ],
            [
              [
                144.9660884499631,
                -37.80640405999508
              ],
              [
                144.96609123501617,
                -37.80638801566774
              ],
              [
                144.966106,
                -37.806389
              ],
              [
                144.966103,
                -37.806406
              ],
              [
                144.9660884499631,
                -37.80640405999508
              ]
            ],
            [
              [
                144.9661203999996,
                -37.806220000002284
              ],
              [
                144.96614401923088,
                -37.80608393269162
              ],
              [
                144.966129,
                -37.806172
              ],
              [
                144.966145,
                -37.806174
              ],
              [
                144.966142,
                -37.80619
              ],
              [
                144.966126,
                -37.806188
              ],
              [
                144.9661203999996,
                -37.806220000002284
              ]
            ],
            [
              [
                144.96615112171133,
                -37.80604301622818
              ],
              [
                144.96618705599627,
                -37.80583600349976
              ],
              [
                144.966203,
                -37.805837
              ],
              [
                144.9662,
                -37.805856
              ],
              [
                144.966184,
                -37.805854
              ],
              [
                144.966154,
                -37.806027
              ],
              [
                144.966169,
                -37.806029
              ],
              [
                144.966166,
                -37.806045
              ],
              [
                144.96615112171133,
                -37.80604301622818
              ]
            ],
            [
              [
                144.96619884210472,
                -37.805768105266374
              ],
              [
                144.96624,
                -37.805531
              ],
              [
                144.966204,
                -37.805739
              ],
              [
                144.966217,
                -37.80574
              ],
              [
                144.966215,
                -37.805752
              ],
              [
                144.966202,
                -37.80575
              ],
              [
                144.96619884210472,
                -37.805768105266374
              ]
            ]
          ],
          [
            [
              [
                144.966198,
                -37.805033
              ],
              [
                144.9662,
                -37.80503319834711
              ],
              [
                144.9662,
                -37.805033
              ],
              [
                144.966198,
                -37.805033
              ]
            ]
          ]
        ]
      }
    }
  ]
}