{
  "type": "FeatureCollection",
  "features": [
    {
      "type": "Feature",
      "properties": {
        "name": "polygon35"
      },
      "geometry": {
        "type": "Polygon",
        "coordinates": [
          [
            [
              144.9417,
              -37.815
            ],
            [
              144.941717,
              -37.81503
            ],
            [
              144.941719,
              -37.815033
            ],
            [
              144.941722,
              -37.815039
            ],
            [
              144.941726,
              -37.815046
            ],
            [
              144.941745,
              -37.815039
            ],
            [
              144.941749,
              -37.815037
            ],
            [
              144.941752,
              -37.815036
            ],
            [
              144.941753,
              -37.815036
            ],
            [
              144.941756,
              -37.815035
            ],
            [
              144.941762,
              -37.815044
            ],
            [
              144.941855,
              -37.815009
            ],
            [
              144.941873,
              -37.815038
            ],
            [
              144.942136,
              -37.814938
            ],
            [
              144.94213,
              -37.814929
            ],
            [
              144.942132,
              -37.814928
            ],
            [
              144.942122,
              -37.81491
            ],
            [
              144.942203,
              -37.814879
            ],
            [
              144.942215,
              -37.814897
            ],
            [
              144.94222,
              -37.814905
            ],
            [
              144.942438,
              -37.814823
            ],
            [
              144.942439,
              -37.814825
            ],
            [
              144.942461,
              -37.814817
            ],
            [
              144.94246,
              -37.814814
            ],
            [
              144.942661,
              -37.814738
            ],
            [
              144.94265,
              -37.814721
            ],
            [
              144.94267,
              -37.814713
            ],
            [
              144.942664,
              -37.814703
            ],
            [
              144.942863,
              -37.814627
            ],
            [
              144.942879,
              -37.814654
            ],
            [
              144.943238,
              -37.814518
            ],
            [
              144.943837,
              -37.814289
            ],
            [
              144.943838,
              -37.814289
            ],
            [
              144.944075,
              -37.814198
            ],
            [
              144.944161,
              -37.814165
            ],
            [
              144.944163,
              -37.814169
            ],
            [
              144.944226,
              -37.814145
            ],
            [
              144.944201,
              -37.814102
            ],
            [
              144.944205,
              -37.814101
            ],
            [
              144.94421,
              -37.814099
            ],
            [
              144.944213,
              -37.814097
            ],
            [
              144.944236,
              -37.814088
            ],
            [
              144.944214,
              -37.814051
            ],
            [
              144.94421,
              -37.814044
            ],
            [
              144.944209,
              -37.814045
            ],
            [
              144.944209,
              -37.814044
            ],
            [
              144.944173,
              -37.814058
            ],
            [
              144.94416,
              -37.814037
            ],
            [
              144.944083,
              -37.814067
            ],
            [
              144.944076,
              -37.814055
            ],
            [
              144.944004,
              -37.814076
            ],
            [
              144.944002,
              -37.814072
            ],
            [
              144.944195,
              -37.814016
            ],
            [
              144.944183,
              -37.813988
            ],
            [
              144.944168,
              -37.813957
            ],
            [
              144.943686,
              -37.81414
            ],
            [
              144.943655,
              -37.814151
            ],
            [
              144.943625,
              -37.814162
            ],
            [
              144.943622,
              -37.814163
            ],
            [
              144.943618,
              -37.814164
            ],
            [
              144.943615,
              -37.814165
            ],
            [
              144.943601,
              -37.814169
            ],
            [
              144.943573,
              -37.814175
            ],
            [
              144.943561,
              -37.814178
            ],
            [
              144.943549,
              -37.81418
            ],
            [
              144.943536,
              -37.814182
            ],
            [
              144.943514,
              -37.814185
            ],
            [
              144.943468,
              -37.814187
            ],
            [
              144.943439,
              -37.814187
            ],
            [
              144.943434,
              -37.814186
            ],
            [
              144.943429,
              -37.814186
            ],
            [
              144.943415,
              -37.814185
            ],
            [
              144.943389,
              -37.814183
            ],
            [
              144.943375,
              -37.814181
            ],
            [
              144.943362,
              -37.814179
            ],
            [
              144.943348,
              -37.814177
            ],
            [
              144.943315,
              -37.81417
            ],
            [
              144.943311,
              -37.814169
            ],
            [
              144.94327,
              -37.814157
            ],
            [
              144.943264,
              -37.814155
            ],
            [
              144.943242,
              -37.814147
            ],
            [
              144.94324,
              -37.814146
            ],
            [
              144.943218,
              -37.814137
            ],
            [
              144.943206,
              -37.814132
            ],
            [
              144.943174,
              -37.814116
            ],
            [
              144.943181,
              -37.814107
            ],
            [
              144.943187,
              -37.814098
            ],
            [
              144.943109,
              -37.814128
            ],
            [
              144.943104,
              -37.814119
            ],
            [
              144.943087,
              -37.814142
            ],
            [
              144.943084,
              -37.814147
            ],
            [
              144.943082,
              -37.814149
            ],
            [
              144.943081,
              -37.814151
            ],
            [
              144.943092,
              -37.814146
            ],
            [
              144.943094,
              -37.81415
            ],
            [
              144.943099,
              -37.814148
            ],
            [
              144.943116,
              -37.814175
            ],
            [
              144.943098,
              -37.814182
            ],
            [
              144.943052,
              -37.8142
            ],
            [
              144.943049,
              -37.814195
            ],
            [
              144.943045,
              -37.814196
            ],
            [
              144.943043,
              -37.814192
            ],
            [
              144.94304,
              -37.814189
            ],
            [
              144.943034,
              -37.814193
            ],
            [
              144.943013,
              -37.814205
            ],
            [
              144.942999,
              -37.814211
            ],
            [
              144.942993,
              -37.814214
            ],
            [
              144.942986,
              -37.814216
            ],
            [
              144.94298,
              -37.814218
            ],
            [
              144.94297,
              -37.814221
            ],
            [
              144.94296,
              -37.814223
            ],
            [
              144.942949,
              -37.814226
            ],
            [
              144.942939,
              -37.814227
            ],
            [
              144.942928,
              -37.814229
            ],
            [
              144.942918,
              -37.814229
            ],
            [
              144.942922,
              -37.814236
            ],
            [
              144.942927,
              -37.814234
            ],
            [
              144.942931,
              -37.814241
            ],
            [
              144.942926,
              -37.814243
            ],
            [
              144.942928,
              -37.814247
            ],
            [
              144.942921,
              -37.814249
            ],
            [
              144.942887,
              -37.814262
            ],
            [
              144.942877,
              -37.814266
            ],
            [
              144.942872,
              -37.814258
            ],
            [
              144.942867,
              -37.81426
            ],
            [
              144.942856,
              -37.814241
            ],
            [
              144.942861,
              -37.814239
            ],
            [
              144.942859,
              -37.814237
            ],
            [
              144.942864,
              -37.814235
            ],
            [
              144.94286,
              -37.814228
            ],
            [
              144.942865,
              -37.814227
            ],
            [
              144.942857,
              -37.814225
            ],
            [
              144.942848,
              -37.814224
            ],
            [
              144.942832,
              -37.81422
            ],
            [
              144.942825,
              -37.814217
            ],
            [
              144.942817,
              -37.814215
            ],
            [
              144.942829,
              -37.814234
            ],
            [
              144.942788,
              -37.81425
            ],
            [
              144.942716,
              -37.814277
            ],
            [
              144.942713,
              -37.814273
            ],
            [
              144.942695,
              -37.81428
            ],
            [
              144.942723,
              -37.814325
            ],
            [
              144.942739,
              -37.814353
            ],
            [
              144.94275,
              -37.814371
            ],
            [
              144.942802,
              -37.814457
            ],
            [
              144.942801,
              -37.814459
            ],
            [
              144.942738,
              -37.814483
            ],
            [
              144.942355,
              -37.814626
            ],
            [
              144.94232,
              -37.81464
            ],
            [
              144.941867,
              -37.814812
            ],
            [
              144.941886,
              -37.814843
            ],
            [
              144.941881,
              -37.814845
            ],
            [
              144.941883,
              -37.814848
            ],
            [
              144.941891,
              -37.814862
            ],
            [
              144.941878,
              -37.814867
            ],
            [
              144.941881,
              -37.814871
            ],
            [
              144.941843,
              -37.814886
            ],
            [
              144.94186,
              -37.814914
            ],
            [
              144.941806,
              -37.814935
            ],
            [
              144.941777,
              -37.814888
            ],
            [
              144.941766,
              -37.814893
            ],
            [
              144.941775,
              -37.814909
            ],
            [
              144.941754,
              -37.814917
            ],
            [
              144.941784,
              -37.814968
            ],
            [
              144.941729,
              -37.814989
            ],
            [
              144.941724,
              -37.814991
            ],
            [
              144.941722,
              -37.814992
            ],
            [
              144.941718,
              -37.814993
            ],
            [
              144.9417,
              -37.815
            ]
          ],
          [
            [
              144.941936,
              -37.814824
            ],
            [
              144.941938,
              -37.814823
            ],
            [
              144.94194,
              -37.814826
            ],
            [
              144.941944,
              -37.814833
            ],
            [
              144.941962,
              -37.814827
            ],
            [
              144.941957,
              -37.81482
            ],
            [
              144.941955,
              -37.814816
            ],
            [
              144.941957,
              -37.814816
            ],
            [
              144.941967,
              -37.814831
            ],
            [
              144.941965,
              -37.814831
            ],
            [
              144.941947,
              -37.814838
            ],
            [
              144.941945,
              -37.814839
            ],
            [
              144.941938,
              -37.814827
            ],
            [
              144.941936,
              -37.814824
            ]
          ],
          [
            [
              144.941954,
              -37.814855
            ],
            [
              144.941976,
              -37.814847
            ],
            [
              144.941981,
              -37.814854
            ],
            [
              144.941986,
              -37.814864
            ],
            [
              144.941965,
              -37.814872
            ],
            [
              144.941959,
              -37.814863
            ],
            [
              144.941954,
              -37.814855
            ]
          ],
          [
            [
              144.942048,
              -37.814819
            ],
            [
              144.942068,
              -37.814812
            ],
            [
              144.942059,
              -37.814797
            ],
            [
              144.942061,
              -37.814796
            ],
            [
              144.942062,
              -37.814798
            ],
            [
              144.94207,
              -37.814811
            ],
            [
              144.94208,
              -37.814828
            ],
            [
              144.942083,
              -37.814833
            ],
            [
              144.942106,
              -37.814824
            ],
            [
              144.942093,
              -37.814805
            ],
            [
              144.942096,
              -37.814804
            ],
            [
              144.942099,
              -37.814808
            ],
            [
              144.94211,
              -37.814826
            ],
            [
              144.942113,
              -37.814831
            ],
            [
              144.942072,
              -37.814846
            ],
            [
              144.942065,
              -37.814834
            ],
            [
              144.942059,
              -37.814836
            ],
            [
              144.942053,
              -37.814827
            ],
            [
              144.942048,
              -37.814819
            ]
          ],
          [
            [
              144.942062,
              -37.81478
            ],
            [
              144.942064,
              -37.814779
            ],
            [
              144.942089,
              -37.81482
            ],
            [
              144.942087,
              -37.814821
            ],
            [
              144.942071,
              -37.814794
            ],
            [
              144.942062,
              -37.81478
            ]
          ],
          [
            [
              144.942112,
              -37.814761
            ],
            [
              144.942114,
              -37.81476
            ],
            [
              144.942123,
              -37.814775
            ],
            [
              144.942139,
              -37.814801
            ],
            [
              144.942137,
              -37.814802
            ],
            [
              144.942112,
              -37.814761
            ]
          ],
          [
            [
              144.942118,
              -37.814795
            ],
            [
              144.94212,
              -37.814795
            ],
            [
              144.942131,
              -37.814814
            ],
            [
              144.942155,
              -37.814805
            ],
            [
              144.942152,
              -37.814801
            ],
            [
              144.942141,
              -37.814783
            ],
            [
              144.942133,
              -37.814771
            ],
            [
              144.942132,
              -37.814769
            ],
            [
              144.942134,
              -37.814768
            ],
            [
              144.942143,
              -37.814783
            ],
            [
              144.942163,
              -37.814775
            ],
            [
              144.942167,
              -37.814782
            ],
            [
              144.942173,
              -37.814792
            ],
            [
              144.942167,
              -37.814795
            ],
            [
              144.942174,
              -37.814807
            ],
            [
              144.942133,
              -37.814823
            ],
            [
              144.942131,
              -37.814818
            ],
            [
              144.942121,
              -37.8148
            ],
            [
              144.942118,
              -37.814795
            ]
          ],
          [
            [
              144.942216,
              -37.814717
            ],
            [
              144.942218,
              -37.814716
            ],
            [
              144.94222,
              -37.81472
            ],
            [
              144.942224,
              -37.814727
            ],
            [
              144.942242,
              -37.81472
            ],
            [
              144.942237,
              -37.814713
            ],
            [
              144.942235,
              -37.81471
            ],
            [
              144.942237,
              -37.814709
            ],
            [
              144.942247,
              -37.814724
            ],
            [
              144.942245,
              -37.814725
            ],
            [
              144.942227,
              -37.814731
            ],
            [
              144.942225,
              -37.814732
            ],
            [
              144.942218,
              -37.81472
            ],
            [
              144.942216,
              -37.814717
            ]
          ],
          [
            [
              144.942253,
              -37.814782
            ],
            [
              144.942376,
              -37.814727
            ],
            [
              144.942377,
              -37.814728
            ],
            [
              144.942378,
              -37.814728
            ],
            [
              144.942365,
              -37.814734
            ],
            [
              144.942255,
              -37.814784
            ],
            [
              144.942253,
              -37.814782
            ]
          ],
          [
            [
              144.942324,
              -37.814664
            ],
            [
              144.942336,
              -37.814659
            ],
            [
              144.942341,
              -37.814667
            ],
            [
              144.942371,
              -37.814717
            ],
            [
              144.942358,
              -37.814722
            ],
            [
              144.942332,
              -37.814677
            ],
            [
              144.94233,
              -37.814673
            ],
            [
              144.942324,
              -37.814664
            ]
          ],
          [
            [
              144.942365,
              -37.814649
            ],
            [
              144.942367,
              -37.814648
            ],
            [
              144.942376,
              -37.814644
            ],
            [
              144.942378,
              -37.814643
            ],
            [
              144.942381,
              -37.814649
            ],
            [
              144.942383,
              -37.814652
            ],
            [
              144.942384,
              -37.814654
            ],
            [
              144.942386,
              -37.814656
            ],
            [
              144.942413,
              -37.814701
            ],
            [
              144.9424,
              -37.814706
            ],
            [
              144.942372,
              -37.814661
            ],
            [
              144.942365,
              -37.814649
            ]
          ],
          [
            [
              144.942404,
              -37.814716
            ],
            [
              144.942535,
              -37.814674
            ],
            [
              144.942537,
              -37.814677
            ],
            [
              144.942429,
              -37.814712
            ],
            [
              144.942422,
              -37.814714
            ],
            [
              144.942406,
              -37.814719
            ],
            [
              144.942405,
              -37.814718
            ],
            [
              144.942404,
              -37.814716
            ]
          ],
          [
            [
              144.942427,
              -37.814686
            ],
            [
              144.942429,
              -37.814686
            ],
            [
              144.942435,
              -37.814683
            ],
            [
              144.9425,
              -37.814658
            ],
            [
              144.942494,
              -37.814649
            ],
            [
              144.942516,
              -37.814641
            ],
            [
              144.94252,
              -37.814648
            ],
            [
              144.942526,
              -37.814658
            ],
            [
              144.942505,
              -37.814666
            ],
            [
              144.942432,
              -37.814694
            ],
            [
              144.942427,
              -37.814686
            ]
          ],
          [
            [
              144.942475,
              -37.814618
            ],
            [
              144.942478,
              -37.814617
            ],
            [
              144.942495,
              -37.814611
            ],
            [
              144.942496,
              -37.81461
            ],
            [
              144.942497,
              -37.81461
            ],
            [
              144.942499,
              -37.814613
            ],
            [
              144.942506,
              -37.814625
            ],
            [
              144.942504,
              -37.814626
            ],
            [
              144.942487,
              -37.814632
            ],
            [
              144.942485,
              -37.814633
            ],
            [
              144.942475,
              -37.814618
            ]
          ],
          [
            [
              144.942588,
              -37.814613
            ],
            [
              144.942607,
              -37.814606
            ],
            [
              144.942599,
              -37.814591
            ],
            [
              144.9426,
              -37.814591
            ],
            [
              144.942601,
              -37.814592
            ],
            [
              144.942611,
              -37.814588
            ],
            [
              144.942603,
              -37.814574
            ],
            [
              144.942602,
              -37.814573
            ],
            [
              144.942604,
              -37.814572
            ],
            [
              144.942605,
              -37.814572
            ],
            [
              144.942605,
              -37.814573
            ],
            [
              144.942651,
              -37.814555
            ],
            [
              144.942649,
              -37.814552
            ],
            [
              144.942755,
              -37.814512
            ],
            [
              144.942754,
              -37.81451
            ],
            [
              144.942797,
              -37.814494
            ],
            [
              144.9428,
              -37.814499
            ],
            [
              144.942757,
              -37.814515
            ],
            [
              144.942778,
              -37.814549
            ],
            [
              144.942801,
              -37.81454
            ],
            [
              144.942815,
              -37.814534
            ],
            [
              144.94282,
              -37.814532
            ],
            [
              144.942823,
              -37.814537
            ],
            [
              144.942781,
              -37.814553
            ],
            [
              144.942778,
              -37.81455
            ],
            [
              144.942707,
              -37.814576
            ],
            [
              144.942713,
              -37.814587
            ],
            [
              144.942707,
              -37.81459
            ],
            [
              144.942714,
              -37.814602
            ],
            [
              144.942676,
              -37.814616
            ],
            [
              144.942674,
              -37.814617
            ],
            [
              144.94267,
              -37.81461
            ],
            [
              144.942648,
              -37.814618
            ],
            [
              144.942648,
              -37.814619
            ],
            [
              144.942652,
              -37.814625
            ],
            [
              144.942613,
              -37.81464
            ],
            [
              144.942605,
              -37.814628
            ],
            [
              144.942598,
              -37.81463
            ],
            [
              144.942592,
              -37.81462
            ],
            [
              144.942588,
              -37.814613
            ]
          ],
          [
            [
              144.942834,
              -37.814472
            ],
            [
              144.942843,
              -37.814469
            ],
            [
              144.942841,
              -37.814465
            ],
            [
              144.942851,
              -37.814461
            ],
            [
              144.942852,
              -37.81446
            ],
            [
              144.942855,
              -37.814459
            ],
            [
              144.942853,
              -37.814455
            ],
            [
              144.942892,
              -37.81444
            ],
            [
              144.942889,
              -37.814436
            ],
            [
              144.942858,
              -37.814447
            ],
            [
              144.942855,
              -37.814443
            ],
            [
              144.94285,
              -37.814445
            ],
            [
              144.942845,
              -37.814435
            ],
            [
              144.942839,
              -37.814437
            ],
            [
              144.942837,
              -37.814433
            ],
            [
              144.942852,
              -37.814427
            ],
            [
              144.942849,
              -37.814423
            ],
            [
              144.942855,
              -37.81442
            ],
            [
              144.942851,
              -37.814414
            ],
            [
              144.942865,
              -37.814409
            ],
            [
              144.942861,
              -37.814402
            ],
            [
              144.942876,
              -37.814396
            ],
            [
              144.942897,
              -37.814388
            ],
            [
              144.942899,
              -37.814393
            ],
            [
              144.942905,
              -37.81439
            ],
            [
              144.942909,
              -37.814396
            ],
            [
              144.942914,
              -37.814394
            ],
            [
              144.942916,
              -37.814398
            ],
            [
              144.942926,
              -37.814395
            ],
            [
              144.942931,
              -37.814404
            ],
            [
              144.942936,
              -37.814412
            ],
            [
              144.94294,
              -37.814419
            ],
            [
              144.942926,
              -37.814424
            ],
            [
              144.942936,
              -37.814441
            ],
            [
              144.942938,
              -37.814441
            ],
            [
              144.942955,
              -37.814434
            ],
            [
              144.942967,
              -37.814456
            ],
            [
              144.94297,
              -37.81446
            ],
            [
              144.942962,
              -37.814464
            ],
            [
              144.942916,
              -37.814481
            ],
            [
              144.942913,
              -37.814476
            ],
            [
              144.942866,
              -37.814494
            ],
            [
              144.942864,
              -37.81449
            ],
            [
              144.942853,
              -37.814494
            ],
            [
              144.94285,
              -37.814489
            ],
            [
              144.942845,
              -37.814491
            ],
            [
              144.942834,
              -37.814472
            ]
          ],
          [
            [
              144.942859,
              -37.814515
            ],
            [
              144.942864,
              -37.814513
            ],
            [
              144.942908,
              -37.814496
            ],
            [
              144.94291,
              -37.8145
            ],
            [
              144.942917,
              -37.814498
            ],
            [
              144.94292,
              -37.814502
            ],
            [
              144.942932,
              -37.814497
            ],
            [
              144.942935,
              -37.814502
            ],
            [
              144.942956,
              -37.814494
            ],
            [
              144.942959,
              -37.814499
            ],
            [
              144.942963,
              -37.814504
            ],
            [
              144.942941,
              -37.814512
            ],
            [
              144.942942,
              -37.814514
            ],
            [
              144.942923,
              -37.814521
            ],
            [
              144.942922,
              -37.81452
            ],
            [
              144.942874,
              -37.814538
            ],
            [
              144.94287,
              -37.814532
            ],
            [
              144.942861,
              -37.814518
            ],
            [
              144.942859,
              -37.814515
            ]
          ],
          [
            [
              144.942912,
              -37.81429
            ],
            [
              144.942919,
              -37.814287
            ],
            [
              144.942928,
              -37.814303
            ],
            [
              144.942927,
              -37.814304
            ],
            [
              144.942921,
              -37.814306
            ],
            [
              144.942912,
              -37.81429
            ]
          ],
          [
            [
              144.94293,
              -37.814291
            ],
            [
              144.942962,
              -37.814279
            ],
            [
              144.943025,
              -37.814255
            ],
            [
              144.943033,
              -37.814269
            ],
            [
              144.943081,
              -37.81425
            ],
            [
              144.943083,
              -37.814253
            ],
            [
              144.943093,
              -37.81427
            ],
            [
              144.943107,
              -37.814265
            ],
            [
              144.943143,
              -37.814325
            ],
            [
              144.943156,
              -37.81432
            ],
            [
              144.943163,
              -37.814331
            ],
            [
              144.943038,
              -37.814379
            ],
            [
              144.943017,
              -37.814343
            ],
            [
              144.942984,
              -37.814355
            ],
            [
              144.94295,
              -37.8143
            ],
            [
              144.942938,
              -37.814305
            ],
            [
              144.94293,
              -37.814291
            ]
          ],
          [
            [
              144.942939,
              -37.81431
            ],
            [
              144.942946,
              -37.814307
            ],
            [
              144.942965,
              -37.814339
            ],
            [
              144.942964,
              -37.81434
            ],
            [
              144.942952,
              -37.814344
            ],
            [
              144.942944,
              -37.814331
            ],
            [
              144.94295,
              -37.814328
            ],
            [
              144.942939,
              -37.81431
            ]
          ],
          [
            [
              144.94296,
              -37.814414
            ],
            [
              144.942979,
              -37.814407
            ],
            [
              144.942981,
              -37.814411
            ],
            [
              144.942986,
              -37.814409
            ],
            [
              144.942989,
              -37.814414
            ],
            [
              144.942995,
              -37.814412
            ],
            [
              144.943001,
              -37.814421
            ],
            [
              144.943005,
              -37.814419
            ],
            [
              144.943016,
              -37.814437
            ],
            [
              144.943005,
              -37.814441
            ],
            [
              144.943014,
              -37.814456
            ],
            [
              144.943006,
              -37.814459
            ],
            [
              144.943009,
              -37.814464
            ],
            [
              144.942994,
              -37.81447
            ],
            [
              144.942978,
              -37.814444
            ],
            [
              144.942967,
              -37.814426
            ],
            [
              144.942964,
              -37.814421
            ],
            [
              144.94296,
              -37.814414
            ]
          ],
          [
            [
              144.942999,
              -37.814358
            ],
            [
              144.943012,
              -37.814353
            ],
            [
              144.943022,
              -37.814368
            ],
            [
              144.943008,
              -37.814373
            ],
            [
              144.942999,
              -37.814358
            ]
          ],
          [
            [
              144.943028,
              -37.814246
            ],
            [
              144.943035,
              -37.814243
            ],
            [
              144.943044,
              -37.814257
            ],
            [
              144.943037,
              -37.81426
            ],
            [
              144.943028,
              -37.814246
            ]
          ],
          [
            [
              144.943042,
              -37.814391
            ],
            [
              144.94306,
              -37.814384
            ],
            [
              144.943056,
              -37.814378
            ],
            [
              144.943067,
              -37.814374
            ],
            [
              144.943068,
              -37.814376
            ],
            [
              144.943074,
              -37.814374
            ],
            [
              144.943075,
              -37.814376
            ],
            [
              144.943079,
              -37.814374
            ],
            [
              144.943086,
              -37.814384
            ],
            [
              144.943086,
              -37.814385
            ],
            [
              144.943096,
              -37.814402
            ],
            [
              144.943081,
              -37.814408
            ],
            [
              144.943083,
              -37.814412
            ],
            [
              144.943076,
              -37.814414
            ],
            [
              144.94307,
              -37.814417
            ],
            [
              144.943059,
              -37.814399
            ],
            [
              144.943054,
              -37.814401
            ],
            [
              144.94305,
              -37.814394
            ],
            [
              144.943045,
              -37.814396
            ],
            [
              144.943042,
              -37.814391
            ]
          ],
          [
            [
              144.943074,
              -37.814238
            ],
            [
              144.943102,
              -37.814228
            ],
            [
              144.943112,
              -37.814224
            ],
            [
              144.943119,
              -37.814236
            ],
            [
              144.943122,
              -37.814241
            ],
            [
              144.943137,
              -37.814235
            ],
            [
              144.94314,
              -37.81424
            ],
            [
              144.943146,
              -37.814238
            ],
            [
              144.94315,
              -37.814245
            ],
            [
              144.943156,
              -37.814243
            ],
            [
              144.943168,
              -37.814262
            ],
            [
              144.943157,
              -37.814267
            ],
            [
              144.943159,
              -37.814271
            ],
            [
              144.94314,
              -37.814278
            ],
            [
              144.943127,
              -37.814283
            ],
            [
              144.943126,
              -37.814283
            ],
            [
              144.943118,
              -37.814271
            ],
            [
              144.943118,
              -37.814268
            ],
            [
              144.943114,
              -37.814262
            ],
            [
              144.943115,
              -37.814262
            ],
            [
              144.943113,
              -37.814258
            ],
            [
              144.94311,
              -37.814254
            ],
            [
              144.943096,
              -37.81426
            ],
            [
              144.943089,
              -37.814248
            ],
            [
              144.943085,
              -37.814249
            ],
            [
              144.943081,
              -37.814243
            ],
            [
              144.943078,
              -37.814244
            ],
            [
              144.943074,
              -37.814238
            ]
          ],
          [
            [
              144.943092,
              -37.814366
            ],
            [
              144.943094,
              -37.814365
            ],
            [
              144.943099,
              -37.814363
            ],
            [
              144.943098,
              -37.814362
            ],
            [
              144.943107,
              -37.814359
            ],
            [
              144.943117,
              -37.814376
            ],
            [
              144.943119,
              -37.814376
            ],
            [
              144.94313,
              -37.814394
            ],
            [
              144.943124,
              -37.814396
            ],
            [
              144.943122,
              -37.814393
            ],
            [
              144.943119,
              -37.814394
            ],
            [
              144.943118,
              -37.814392
            ],
            [
              144.94311,
              -37.814395
            ],
            [
              144.943096,
              -37.814372
            ],
            [
              144.943092,
              -37.814366
            ]
          ],
          [
            [
              144.943135,
              -37.814298
            ],
            [
              144.943136,
              -37.814297
            ],
            [
              144.943143,
              -37.814295
            ],
            [
              144.943148,
              -37.814302
            ],
            [
              144.943154,
              -37.8143
            ],
            [
              144.943161,
              -37.814311
            ],
            [
              144.943146,
              -37.814316
            ],
            [
              144.943135,
              -37.814298
            ]
          ],
          [
            [
              144.943149,
              -37.814373
            ],
            [
              144.943158,
              -37.81437
            ],
            [
              144.943151,
              -37.81436
            ],
            [
              144.943158,
              -37.814357
            ],
            [
              144.943156,
              -37.814353
            ],
            [
              144.943164,
              -37.81435
            ],
            [
              144.943162,
              -37.814346
            ],
            [
              144.943174,
              -37.814341
            ],
            [
              144.943176,
              -37.814345
            ],
            [
              144.943191,
              -37.81434
            ],
            [
              144.943188,
              -37.814336
            ],
            [
              144.9432,
              -37.814331
            ],
            [
              144.943196,
              -37.814325
            ],
            [
              144.943204,
              -37.814322
            ],
            [
              144.943221,
              -37.814349
            ],
            [
              144.943215,
              -37.814351
            ],
            [
              144.943218,
              -37.814355
            ],
            [
              144.94322,
              -37.814359
            ],
            [
              144.9432,
              -37.814367
            ],
            [
              144.943196,
              -37.814369
            ],
            [
              144.943195,
              -37.814369
            ],
            [
              144.943164,
              -37.814381
            ],
            [
              144.943162,
              -37.814377
            ],
            [
              144.943153,
              -37.81438
            ],
            [
              144.943149,
              -37.814373
            ]
          ],
          [
            [
              144.94315,
              -37.81418
            ],
            [
              144.943198,
              -37.814162
            ],
            [
              144.943202,
              -37.814168
            ],
            [
              144.943212,
              -37.814165
            ],
            [
              144.943215,
              -37.814169
            ],
            [
              144.943209,
              -37.814172
            ],
            [
              144.943213,
              -37.814178
            ],
            [
              144.943219,
              -37.814176
            ],
            [
              144.943222,
              -37.81418
            ],
            [
              144.943228,
              -37.814178
            ],
            [
              144.94323,
              -37.814182
            ],
            [
              144.94324,
              -37.814178
            ],
            [
              144.943243,
              -37.814183
            ],
            [
              144.943221,
              -37.814191
            ],
            [
              144.943224,
              -37.814196
            ],
            [
              144.943212,
              -37.814201
            ],
            [
              144.943192,
              -37.814208
            ],
            [
              144.94319,
              -37.814204
            ],
            [
              144.94318,
              -37.814208
            ],
            [
              144.943174,
              -37.814197
            ],
            [
              144.943168,
              -37.814199
            ],
            [
              144.943164,
              -37.814194
            ],
            [
              144.943171,
              -37.814191
            ],
            [
              144.943169,
              -37.814188
            ],
            [
              144.943166,
              -37.814183
            ],
            [
              144.943154,
              -37.814188
            ],
            [
              144.94315,
              -37.81418
            ]
          ],
          [
            [
              144.943364,
              -37.814283
            ],
            [
              144.943373,
              -37.814279
            ],
            [
              144.943369,
              -37.814271
            ],
            [
              144.943374,
              -37.814269
            ],
            [
              144.94337,
              -37.814263
            ],
            [
              144.943379,
              -37.81426
            ],
            [
              144.943377,
              -37.814256
            ],
            [
              144.943429,
              -37.814236
            ],
            [
              144.943432,
              -37.814241
            ],
            [
              144.943444,
              -37.814236
            ],
            [
              144.943447,
              -37.814241
            ],
            [
              144.943459,
              -37.814237
            ],
            [
              144.943461,
              -37.814241
            ],
            [
              144.943456,
              -37.814243
            ],
            [
              144.943458,
              -37.814247
            ],
            [
              144.943464,
              -37.814245
            ],
            [
              144.943468,
              -37.814252
            ],
            [
              144.943481,
              -37.814247
            ],
            [
              144.943484,
              -37.814252
            ],
            [
              144.943462,
              -37.814261
            ],
            [
              144.943465,
              -37.814266
            ],
            [
              144.943435,
              -37.814278
            ],
            [
              144.943415,
              -37.814285
            ],
            [
              144.943412,
              -37.814286
            ],
            [
              144.943408,
              -37.814288
            ],
            [
              144.943417,
              -37.814303
            ],
            [
              144.943416,
              -37.814303
            ],
            [
              144.943418,
              -37.814306
            ],
            [
              144.943386,
              -37.814318
            ],
            [
              144.943382,
              -37.814312
            ],
            [
              144.943386,
              -37.814311
            ],
            [
              144.943383,
              -37.814305
            ],
            [
              144.943386,
              -37.814304
            ],
            [
              144.943378,
              -37.814291
            ],
            [
              144.943376,
              -37.814292
            ],
            [
              144.943375,
              -37.81429
            ],
            [
              144.94337,
              -37.814292
            ],
            [
              144.943367,
              -37.814288
            ],
            [
              144.943364,
              -37.814283
            ]
          ],
          [
            [
              144.943523,
              -37.814262
            ],
            [
              144.943562,
              -37.814247
            ],
            [
              144.943628,
              -37.814222
            ],
            [
              144.943638,
              -37.81424
            ],
            [
              144.943622,
              -37.814247
            ],
            [
              144.943621,
              -37.814245
            ],
            [
              144.943599,
              -37.814253
            ],
            [
              144.9436,
              -37.814255
            ],
            [
              144.943561,
              -37.81427
            ],
            [
              144.943558,
              -37.814265
            ],
            [
              144.943563,
              -37.814263
            ],
            [
              144.94356,
              -37.814259
            ],
            [
              144.943546,
              -37.814264
            ],
            [
              144.943541,
              -37.814266
            ],
            [
              144.943538,
              -37.814262
            ],
            [
              144.943526,
              -37.814266
            ],
            [
              144.943523,
              -37.814262
            ]
          ],
          [
            [
              144.943721,
              -37.814194
            ],
            [
              144.94397,
              -37.814099
            ],
            [
              144.943998,
              -37.814088
            ],
            [
              144.943999,
              -37.81409
            ],
            [
              144.944065,
              -37.814071
            ],
            [
              144.944067,
              -37.814073
            ],
            [
              144.944003,
              -37.814097
            ],
            [
              144.943976,
              -37.814108
            ],
            [
              144.943725,
              -37.814204
            ],
            [
              144.943721,
              -37.814194
            ]
          ]
        ]
      }
    }
  ]
}