{
  "type": "FeatureCollection",
  "features": [
    {
      "type": "Feature",
      "properties": {
        "name": "polygon152"
      },
      "geometry": {
        "type": "MultiPolygon",
        "coordinates": [
          [
            [
              [
                144.963209,
                -37.808667
              ],
              [
                144.96338,
                -37.80903
              ],
              [
                144.963437,
                -37.809014
              ],
              [
                144.963443,
                -37.809012
              ],
              [
                144.963453,
                -37.809034
              ],
              [
                144.963459,
                -37.809045
              ],
              [
                144.963459,
                -37.809047
              ],
              [
                144.96346,
                -37.809048
              ],
              [
                144.963459,
                -37.80905
              ],
              [
                144.963459,
                -37.809052
              ],
              [
                144.963458,
                -37.809053
              ],
              [
                144.963457,
                -37.809055
              ],
              [
                144.963456,
                -37.809056
              ],
              [
                144.963454,
                -37.809057
              ],
              [
                144.963453,
                -37.809058
              ],
              [
                144.963451,
                -37.809059
              ],
              [
                144.963394,
                -37.809075
              ],
              [
                144.96341,
                -37.809111
              ],
              [
                144.96343,
                -37.809105
              ],
              [
                144.963436,
                -37.809103
              ],
              [
                144.963437,
                -37.809102
              ],
              [
                144.963444,
                -37.809101
              ],
              [
                144.963452,
                -37.8091
              ],
              [
                144.963455,
                -37.809101
              ],
              [
                144.963459,
                -37.809101
              ],
              [
                144.963464,
                -37.809102
              ],
              [
                144.963467,
                -37.809102
              ],
              [
                144.963472,
                -37.809104
              ],
              [
                144.96348,
                -37.809108
              ],
              [
                144.963486,
                -37.809112
              ],
              [
                144.96349,
                -37.809117
              ],
              [
                144.963491,
                -37.809118
              ],
              [
                144.963493,
                -37.809121
              ],
              [
                144.963494,
                -37.809122
              ],
              [
                144.963488,
                -37.809124
              ],
              [
                144.963431,
                -37.809141
              ],
              [
                144.963597,
                -37.809521
              ],
              [
                144.963665,
                -37.809502
              ],
              [
                144.963668,
                -37.809501
              ],
              [
                144.96367,
                -37.8095
              ],
              [
                144.963671,
                -37.809502
              ],
              [
                144.963672,
                -37.809505
              ],
              [
                144.963672,
                -37.809512
              ],
              [
                144.963671,
                -37.809516
              ],
              [
                144.96367,
                -37.809521
              ],
              [
                144.963667,
                -37.809527
              ],
              [
                144.963663,
                -37.809532
              ],
              [
                144.963658,
                -37.809536
              ],
              [
                144.96365,
                -37.80954
              ],
              [
                144.963641,
                -37.809544
              ],
              [
                144.963618,
                -37.809551
              ],
              [
                144.963613,
                -37.809553
              ],
              [
                144.963613,
                -37.809554
              ],
              [
                144.963642,
                -37.809612
              ],
              [
                144.963651,
                -37.809606
              ],
              [
                144.963666,
                -37.809594
              ],
              [
                144.963677,
                -37.809584
              ],
              [
                144.96369,
                -37.80957
              ],
              [
                144.963698,
                -37.809558
              ],
              [
                144.963703,
                -37.809549
              ],
              [
                144.963708,
                -37.809538
              ],
              [
                144.963712,
                -37.809529
              ],
              [
                144.963715,
                -37.80952
              ],
              [
                144.963717,
                -37.809507
              ],
              [
                144.963719,
                -37.809492
              ],
              [
                144.963719,
                -37.809486
              ],
              [
                144.963717,
                -37.809469
              ],
              [
                144.963714,
                -37.809453
              ],
              [
                144.963711,
                -37.809443
              ],
              [
                144.963705,
                -37.809425
              ],
              [
                144.963699,
                -37.809411
              ],
              [
                144.963653,
                -37.809309
              ],
              [
                144.963556,
                -37.809099
              ],
              [
                144.963517,
                -37.809016
              ],
              [
                144.963433,
                -37.808833
              ],
              [
                144.963339,
                -37.80863
              ],
              [
                144.963276,
                -37.808648
              ],
              [
                144.963273,
                -37.808649
              ],
              [
                144.963269,
                -37.80865
              ],
              [
                144.96327,
                -37.808651
              ],
              [
                144.963278,
                -37.808658
              ],
              [
                144.963284,
                -37.808665
              ],
              [
                144.963286,
                -37.808669
              ],
              [
                144.963287,
                -37.80867
              ],
              [
                144.963288,
                -37.808672
              ],
              [
                144.963288,
                -37.808673
              ],
              [
                144.963286,
                -37.808673
              ],
              [
                144.963283,
                -37.808674
              ],
              [
                144.963279,
                -37.808668
              ],
              [
                144.963273,
                -37.808661
              ],
              [
                144.963267,
                -37.808655
              ],
              [
                144.963266,
                -37.808655
              ],
              [
                144.963262,
                -37.808652
              ],
              [
                144.963209,
                -37.808667
              ]
            ]
          ],
          [
            [
              [
                144.963408,
                -37.80861
              ],
              [
                144.963425,
                -37.808646
              ],
              [
                144.96351,
                -37.80883
              ],
              [
                144.963575,
                -37.808972
              ],
              [
                144.963586,
                -37.808996
              ],
              [
                144.963625,
                -37.809079
              ],
              [
                144.963637,
                -37.8091
              ],
              [
                144.963782,
                -37.809415
              ],
              [
                144.963801,
                -37.809462
              ],
              [
                144.963847,
                -37.809561
              ],
              [
                144.963896,
                -37.809547
              ],
              [
                144.96397,
                -37.809525
              ],
              [
                144.963939,
                -37.809458
              ],
              [
                144.963938,
                -37.809456
              ],
              [
                144.963936,
                -37.809454
              ],
              [
                144.963923,
                -37.809426
              ],
              [
                144.963747,
                -37.809043
              ],
              [
                144.963709,
                -37.80896
              ],
              [
                144.963698,
                -37.808937
              ],
              [
                144.963531,
                -37.808574
              ],
              [
                144.963462,
                -37.808594
              ],
              [
                144.963459,
                -37.808595
              ],
              [
                144.963457,
                -37.808596
              ],
              [
                144.963408,
                -37.80861
              ]
            ],
            [
              [
                144.963656,
                -37.809016
              ],
              [
                144.963687,
                -37.809007
              ],
              [
                144.963698,
                -37.809032
              ],
              [
                144.963668,
                -37.809041
              ],
              [
                144.963656,
                -37.809016
              ]
            ],
            [
              [
                144.96372,
                -37.809155
              ],
              [
                144.963751,
                -37.809147
              ],
              [
                144.963763,
                -37.809172
              ],
              [
                144.963732,
                -37.809181
              ],
              [
                144.96372,
                -37.809155
              ]
            ],
            [
              [
                144.96379,
                -37.809308
              ],
              [
                144.963821,
                -37.809299
              ],
              [
                144.963833,
                -37.809324
              ],
              [
                144.963802,
                -37.809333
              ],
              [
                144.96379,
                -37.809308
              ]
            ]
          ]
        ]
      }
    }
  ]
}