{
  "type": "FeatureCollection",
  "features": [
    {
      "type": "Feature",
      "properties": {
        "name": "polygon95"
      },
      "geometry": {
        "type": "Polygon",
        "coordinates": [
          [
            [
              144.960093,
              -37.814062
            ],
            [
              144.960094,
              -37.814064
            ],
            [
              144.960096,
              -37.814067
            ],
            [
              144.960102,
              -37.814078
            ],
            [
              144.960106,
              -37.814088
            ],
            [
              144.960467,
              -37.814888
            ],
            [
              144.960487,
              -37.814931
            ],
            [
              144.960488,
              -37.814934
            ],
            [
              144.960489,
              -37.814936
            ],
            [
              144.960514,
              -37.814991
            ],
            [
              144.960674,
              -37.814944
            ],
            [
              144.960835,
              -37.814898
            ],
            [
              144.960807,
              -37.814842
            ],
            [
              144.960806,
              -37.814839
            ],
            [
              144.960785,
              -37.814796
            ],
            [
              144.960427,
              -37.814013
            ],
            [
              144.960419,
              -37.813996
            ],
            [
              144.960414,
              -37.813984
            ],
            [
              144.960406,
              -37.813968
            ],
            [
              144.960405,
              -37.813965
            ],
            [
              144.960404,
              -37.813963
            ],
            [
              144.960396,
              -37.813966
            ],
            [
              144.960388,
              -37.813968
            ],
            [
              144.960385,
              -37.81397
            ],
            [
              144.960382,
              -37.813971
            ],
            [
              144.960379,
              -37.813973
            ],
            [
              144.960373,
              -37.813979
            ],
            [
              144.960372,
              -37.813982
            ],
            [
              144.960372,
              -37.813991
            ],
            [
              144.96038,
              -37.814007
            ],
            [
              144.96026,
              -37.814043
            ],
            [
              144.960139,
              -37.814079
            ],
            [
              144.960133,
              -37.814067
            ],
            [
              144.96013,
              -37.81406
            ],
            [
              144.960129,
              -37.814059
            ],
            [
              144.960129,
              -37.814058
            ],
            [
              144.960128,
              -37.814057
            ],
            [
              144.960126,
              -37.814056
            ],
            [
              144.960125,
              -37.814056
            ],
            [
              144.960124,
              -37.814055
            ],
            [
              144.960118,
              -37.814055
            ],
            [
              144.960117,
              -37.814056
            ],
            [
              144.960108,
              -37.814058
            ],
            [
              144.960098,
              -37.814061
            ],
            [
              144.960093,
              -37.814062
            ]
          ],
          [
            [
              144.960197,
              -37.81425
            ],
            [
              144.96021,
              -37.814246
            ],
            [
              144.960217,
              -37.81426
            ],
            [
              144.960203,
              -37.814264
            ],
            [
              144.960197,
              -37.81425
            ]
          ],
          [
            [
              144.960232,
              -37.814325
            ],
            [
              144.960245,
              -37.814321
            ],
            [
              144.96025,
              -37.814334
            ],
            [
              144.960238,
              -37.814338
            ],
            [
              144.960232,
              -37.814325
            ]
          ],
          [
            [
              144.96027,
              -37.814412
            ],
            [
              144.960284,
              -37.814407
            ],
            [
              144.960291,
              -37.814422
            ],
            [
              144.960277,
              -37.814426
            ],
            [
              144.96027,
              -37.814412
            ]
          ],
          [
            [
              144.960349,
              -37.814581
            ],
            [
              144.960361,
              -37.814577
            ],
            [
              144.960362,
              -37.814577
            ],
            [
              144.960369,
              -37.814594
            ],
            [
              144.960369,
              -37.814595
            ],
            [
              144.960357,
              -37.814598
            ],
            [
              144.960349,
              -37.814581
            ]
          ],
          [
            [
              144.960392,
              -37.814676
            ],
            [
              144.960404,
              -37.814673
            ],
            [
              144.960406,
              -37.814674
            ],
            [
              144.960412,
              -37.814687
            ],
            [
              144.960412,
              -37.814689
            ],
            [
              144.960399,
              -37.814692
            ],
            [
              144.960392,
              -37.814676
            ]
          ],
          [
            [
              144.960437,
              -37.814774
            ],
            [
              144.960449,
              -37.814771
            ],
            [
              144.96045,
              -37.814771
            ],
            [
              144.960451,
              -37.814772
            ],
            [
              144.960455,
              -37.814781
            ],
            [
              144.960455,
              -37.814784
            ],
            [
              144.960443,
              -37.814787
            ],
            [
              144.960437,
              -37.814774
            ]
          ]
        ]
      }
    }
  ]
}