{
  "type": "FeatureCollection",
  "features": [
    {
      "type": "Feature",
      "properties": {
        "name": "polygon172"
      },
      "geometry": {
        "type": "MultiPolygon",
        "coordinates": [
          [
            [
              [
                144.959725,
                -37.807161
              ],
              [
                144.959736,
                -37.807185
              ],
              [
                144.959783,
                -37.807172
              ],
              [
                144.959784,
                -37.807172
              ],
              [
                144.959785,
                -37.807171
              ],
              [
                144.959792,
                -37.807171
              ],
              [
                144.959793,
                -37.807172
              ],
              [
                144.959796,
                -37.807172
              ],
              [
                144.959796,
                -37.807173
              ],
              [
                144.959797,
                -37.807173
              ],
              [
                144.959798,
                -37.807174
              ],
              [
                144.959799,
                -37.807174
              ],
              [
                144.959799,
                -37.807175
              ],
              [
                144.9598,
                -37.807175
              ],
              [
                144.959802,
                -37.807177
              ],
              [
                144.959802,
                -37.807178
              ],
              [
                144.959803,
                -37.807178
              ],
              [
                144.959803,
                -37.807179
              ],
              [
                144.959824,
                -37.807225
              ],
              [
                144.959825,
                -37.807228
              ],
              [
                144.959823,
                -37.807228
              ],
              [
                144.95982,
                -37.807229
              ],
              [
                144.959818,
                -37.807226
              ],
              [
                144.95976,
                -37.807242
              ],
              [
                144.959841,
                -37.807418
              ],
              [
                144.959975,
                -37.807712
              ],
              [
                144.959976,
                -37.807714
              ],
              [
                144.959983,
                -37.80773
              ],
              [
                144.959989,
                -37.807742
              ],
              [
                144.959989,
                -37.807743
              ],
              [
                144.95999,
                -37.807745
              ],
              [
                144.960154,
                -37.808103
              ],
              [
                144.960211,
                -37.808085
              ],
              [
                144.960217,
                -37.808083
              ],
              [
                144.960217,
                -37.808085
              ],
              [
                144.960218,
                -37.808086
              ],
              [
                144.960219,
                -37.808091
              ],
              [
                144.960219,
                -37.808092
              ],
              [
                144.960218,
                -37.808098
              ],
              [
                144.960218,
                -37.808099
              ],
              [
                144.960216,
                -37.808105
              ],
              [
                144.960215,
                -37.808106
              ],
              [
                144.960212,
                -37.808111
              ],
              [
                144.960205,
                -37.808118
              ],
              [
                144.960204,
                -37.808118
              ],
              [
                144.960204,
                -37.808119
              ],
              [
                144.960197,
                -37.808123
              ],
              [
                144.960196,
                -37.808123
              ],
              [
                144.960189,
                -37.808126
              ],
              [
                144.960167,
                -37.808132
              ],
              [
                144.9602,
                -37.808204
              ],
              [
                144.960246,
                -37.80819
              ],
              [
                144.960253,
                -37.80819
              ],
              [
                144.960254,
                -37.808191
              ],
              [
                144.960255,
                -37.808191
              ],
              [
                144.960257,
                -37.808193
              ],
              [
                144.960257,
                -37.808194
              ],
              [
                144.960258,
                -37.808194
              ],
              [
                144.960258,
                -37.808195
              ],
              [
                144.960265,
                -37.808211
              ],
              [
                144.960343,
                -37.808189
              ],
              [
                144.960321,
                -37.808141
              ],
              [
                144.960284,
                -37.808061
              ],
              [
                144.959891,
                -37.807206
              ],
              [
                144.959852,
                -37.80712
              ],
              [
                144.959725,
                -37.807161
              ]
            ]
          ],
          [
            [
              [
                144.959915,
                -37.807103
              ],
              [
                144.959955,
                -37.807189
              ],
              [
                144.959976,
                -37.807236
              ],
              [
                144.960346,
                -37.808041
              ],
              [
                144.960359,
                -37.808068
              ],
              [
                144.960406,
                -37.808171
              ],
              [
                144.960485,
                -37.808148
              ],
              [
                144.960477,
                -37.808129
              ],
              [
                144.960476,
                -37.808129
              ],
              [
                144.960476,
                -37.808126
              ],
              [
                144.960477,
                -37.808126
              ],
              [
                144.960477,
                -37.808125
              ],
              [
                144.960478,
                -37.808125
              ],
              [
                144.960478,
                -37.808124
              ],
              [
                144.960479,
                -37.808124
              ],
              [
                144.960479,
                -37.808123
              ],
              [
                144.96048,
                -37.808123
              ],
              [
                144.960524,
                -37.80811
              ],
              [
                144.960491,
                -37.808038
              ],
              [
                144.960472,
                -37.808044
              ],
              [
                144.960468,
                -37.808044
              ],
              [
                144.960465,
                -37.808045
              ],
              [
                144.960454,
                -37.808045
              ],
              [
                144.960451,
                -37.808044
              ],
              [
                144.960447,
                -37.808044
              ],
              [
                144.960445,
                -37.808043
              ],
              [
                144.960444,
                -37.808043
              ],
              [
                144.960435,
                -37.80804
              ],
              [
                144.960433,
                -37.808038
              ],
              [
                144.960432,
                -37.808038
              ],
              [
                144.96043,
                -37.808037
              ],
              [
                144.960429,
                -37.808037
              ],
              [
                144.960425,
                -37.808033
              ],
              [
                144.960424,
                -37.808033
              ],
              [
                144.960416,
                -37.808025
              ],
              [
                144.960415,
                -37.808023
              ],
              [
                144.960414,
                -37.808022
              ],
              [
                144.960413,
                -37.80802
              ],
              [
                144.960415,
                -37.808019
              ],
              [
                144.960419,
                -37.808018
              ],
              [
                144.960474,
                -37.808
              ],
              [
                144.960184,
                -37.807368
              ],
              [
                144.960086,
                -37.807154
              ],
              [
                144.960033,
                -37.807168
              ],
              [
                144.960032,
                -37.807167
              ],
              [
                144.960034,
                -37.807157
              ],
              [
                144.960036,
                -37.807152
              ],
              [
                144.960039,
                -37.807148
              ],
              [
                144.960043,
                -37.807144
              ],
              [
                144.960044,
                -37.807144
              ],
              [
                144.960048,
                -37.80714
              ],
              [
                144.960054,
                -37.807138
              ],
              [
                144.96006,
                -37.807135
              ],
              [
                144.960075,
                -37.807131
              ],
              [
                144.960074,
                -37.807128
              ],
              [
                144.960073,
                -37.807126
              ],
              [
                144.960046,
                -37.807067
              ],
              [
                144.959915,
                -37.807103
              ]
            ],
            [
              [
                144.960074,
                -37.807262
              ],
              [
                144.960091,
                -37.807257
              ],
              [
                144.960097,
                -37.80727
              ],
              [
                144.96008,
                -37.807275
              ],
              [
                144.960074,
                -37.807262
              ]
            ],
            [
              [
                144.960118,
                -37.807359
              ],
              [
                144.960135,
                -37.807354
              ],
              [
                144.960141,
                -37.807368
              ],
              [
                144.960124,
                -37.807373
              ],
              [
                144.960118,
                -37.807359
              ]
            ]
          ]
        ]
      }
    }
  ]
}