{
  "type": "FeatureCollection",
  "features": [
    {
      "type": "Feature",
      "properties": {
        "name": "polygon139"
      },
      "geometry": {
        "type": "MultiPolygon",
        "coordinates": [
          [
            [
              [
                144.953582,
                -37.818219
              ],
              [
                144.953938,
                -37.818988
              ],
              [
                144.953948,
                -37.819011
              ],
              [
                144.95395,
                -37.819015
              ],
              [
                144.953952,
                -37.819018
              ],
              [
                144.953985,
                -37.819091
              ],
              [
                144.954114,
                -37.819053
              ],
              [
                144.954074,
                -37.818966
              ],
              [
                144.954065,
                -37.818951
              ],
              [
                144.954001,
                -37.818834
              ],
              [
                144.953988,
                -37.818807
              ],
              [
                144.953986,
                -37.818808
              ],
              [
                144.953733,
                -37.81826
              ],
              [
                144.953734,
                -37.818259
              ],
              [
                144.953713,
                -37.818214
              ],
              [
                144.953702,
                -37.818184
              ],
              [
                144.953607,
                -37.818212
              ],
              [
                144.953604,
                -37.818212
              ],
              [
                144.953601,
                -37.818213
              ],
              [
                144.953582,
                -37.818219
              ]
            ]
          ],
          [
            [
              [
                144.953767,
                -37.818165
              ],
              [
                144.953778,
                -37.818196
              ],
              [
                144.953784,
                -37.81821
              ],
              [
                144.953786,
                -37.818209
              ],
              [
                144.9538,
                -37.818243
              ],
              [
                144.953907,
                -37.818472
              ],
              [
                144.95405,
                -37.818781
              ],
              [
                144.954067,
                -37.818815
              ],
              [
                144.954066,
                -37.818815
              ],
              [
                144.954112,
                -37.81889
              ],
              [
                144.954131,
                -37.818932
              ],
              [
                144.954178,
                -37.819034
              ],
              [
                144.954313,
                -37.818996
              ],
              [
                144.954295,
                -37.818956
              ],
              [
                144.95429,
                -37.818957
              ],
              [
                144.954284,
                -37.818956
              ],
              [
                144.954279,
                -37.818956
              ],
              [
                144.954274,
                -37.818955
              ],
              [
                144.954268,
                -37.818954
              ],
              [
                144.954263,
                -37.818953
              ],
              [
                144.954259,
                -37.818951
              ],
              [
                144.954254,
                -37.818948
              ],
              [
                144.95425,
                -37.818946
              ],
              [
                144.954242,
                -37.81894
              ],
              [
                144.954239,
                -37.818937
              ],
              [
                144.954233,
                -37.818929
              ],
              [
                144.954231,
                -37.818925
              ],
              [
                144.954222,
                -37.818905
              ],
              [
                144.954224,
                -37.818904
              ],
              [
                144.954227,
                -37.818903
              ],
              [
                144.95423,
                -37.818903
              ],
              [
                144.954266,
                -37.818892
              ],
              [
                144.954109,
                -37.818552
              ],
              [
                144.954104,
                -37.818543
              ],
              [
                144.954102,
                -37.818539
              ],
              [
                144.954075,
                -37.818481
              ],
              [
                144.954055,
                -37.818487
              ],
              [
                144.954055,
                -37.818485
              ],
              [
                144.954054,
                -37.818483
              ],
              [
                144.954073,
                -37.818478
              ],
              [
                144.954067,
                -37.818465
              ],
              [
                144.953986,
                -37.818295
              ],
              [
                144.953906,
                -37.818125
              ],
              [
                144.953893,
                -37.818096
              ],
              [
                144.953888,
                -37.818085
              ],
              [
                144.953887,
                -37.818086
              ],
              [
                144.953881,
                -37.81809
              ],
              [
                144.953876,
                -37.818095
              ],
              [
                144.953872,
                -37.818101
              ],
              [
                144.953869,
                -37.818107
              ],
              [
                144.953867,
                -37.818113
              ],
              [
                144.953867,
                -37.81812
              ],
              [
                144.953868,
                -37.818125
              ],
              [
                144.953868,
                -37.818126
              ],
              [
                144.95387,
                -37.818133
              ],
              [
                144.953883,
                -37.818161
              ],
              [
                144.953882,
                -37.818162
              ],
              [
                144.95388,
                -37.818162
              ],
              [
                144.953878,
                -37.818163
              ],
              [
                144.953877,
                -37.818163
              ],
              [
                144.953865,
                -37.818136
              ],
              [
                144.953767,
                -37.818165
              ]
            ]
          ]
        ]
      }
    }
  ]
}