{
  "type": "FeatureCollection",
  "features": [
    {
      "type": "Feature",
      "properties": {
        "name": "polygon12"
      },
      "geometry": {
        "type": "Polygon",
        "coordinates": [
          [
            [
              144.977671,
              -37.812663
            ],
            [
              144.977673,
              -37.812663
            ],
            [
              144.977679,
              -37.812664
            ],
            [
              144.977684,
              -37.812666
            ],
            [
              144.97769,
              -37.812668
            ],
            [
              144.977691,
              -37.812668
            ],
            [
              144.977698,
              -37.812673
            ],
            [
              144.977699,
              -37.812674
            ],
            [
              144.977705,
              -37.812681
            ],
            [
              144.977711,
              -37.812691
            ],
            [
              144.977711,
              -37.812692
            ],
            [
              144.977712,
              -37.812692
            ],
            [
              144.977712,
              -37.812704
            ],
            [
              144.977721,
              -37.812705
            ],
            [
              144.97769,
              -37.812893
            ],
            [
              144.977779,
              -37.812903
            ],
            [
              144.977815,
              -37.812689
            ],
            [
              144.977815,
              -37.812687
            ],
            [
              144.977818,
              -37.812684
            ],
            [
              144.97782,
              -37.812684
            ],
            [
              144.977822,
              -37.812683
            ],
            [
              144.977844,
              -37.812685
            ],
            [
              144.977865,
              -37.812688
            ],
            [
              144.977867,
              -37.812688
            ],
            [
              144.977869,
              -37.812689
            ],
            [
              144.977871,
              -37.812691
            ],
            [
              144.977871,
              -37.812694
            ],
            [
              144.977835,
              -37.812909
            ],
            [
              144.977924,
              -37.812918
            ],
            [
              144.977936,
              -37.81292
            ],
            [
              144.977938,
              -37.81292
            ],
            [
              144.97796,
              -37.812922
            ],
            [
              144.978026,
              -37.812527
            ],
            [
              144.978092,
              -37.812136
            ],
            [
              144.978092,
              -37.812133
            ],
            [
              144.978107,
              -37.812135
            ],
            [
              144.978115,
              -37.812089
            ],
            [
              144.9781,
              -37.812087
            ],
            [
              144.9781,
              -37.812085
            ],
            [
              144.978105,
              -37.812054
            ],
            [
              144.978083,
              -37.812052
            ],
            [
              144.978081,
              -37.812051
            ],
            [
              144.97807,
              -37.81205
            ],
            [
              144.97798,
              -37.81204
            ],
            [
              144.977976,
              -37.812061
            ],
            [
              144.977975,
              -37.812064
            ],
            [
              144.977973,
              -37.812066
            ],
            [
              144.977972,
              -37.812066
            ],
            [
              144.97797,
              -37.812067
            ],
            [
              144.977968,
              -37.812067
            ],
            [
              144.977948,
              -37.812065
            ],
            [
              144.977927,
              -37.812062
            ],
            [
              144.977925,
              -37.812062
            ],
            [
              144.977923,
              -37.812061
            ],
            [
              144.977922,
              -37.812061
            ],
            [
              144.977921,
              -37.812059
            ],
            [
              144.977919,
              -37.812057
            ],
            [
              144.977919,
              -37.812055
            ],
            [
              144.97792,
              -37.812054
            ],
            [
              144.977923,
              -37.812034
            ],
            [
              144.977826,
              -37.812024
            ],
            [
              144.977823,
              -37.812024
            ],
            [
              144.977821,
              -37.812023
            ],
            [
              144.977819,
              -37.812033
            ],
            [
              144.977818,
              -37.812036
            ],
            [
              144.977817,
              -37.81204
            ],
            [
              144.977814,
              -37.812043
            ],
            [
              144.97781,
              -37.812046
            ],
            [
              144.977805,
              -37.812048
            ],
            [
              144.977798,
              -37.812049
            ],
            [
              144.977778,
              -37.812046
            ],
            [
              144.977772,
              -37.812046
            ],
            [
              144.977772,
              -37.81205
            ],
            [
              144.977777,
              -37.81205
            ],
            [
              144.977768,
              -37.812105
            ],
            [
              144.977796,
              -37.812108
            ],
            [
              144.977798,
              -37.812108
            ],
            [
              144.977799,
              -37.812109
            ],
            [
              144.9778,
              -37.812109
            ],
            [
              144.9778,
              -37.81211
            ],
            [
              144.977802,
              -37.812112
            ],
            [
              144.977802,
              -37.812114
            ],
            [
              144.977801,
              -37.812119
            ],
            [
              144.977801,
              -37.81212
            ],
            [
              144.977797,
              -37.812124
            ],
            [
              144.977793,
              -37.812124
            ],
            [
              144.977765,
              -37.812121
            ],
            [
              144.977755,
              -37.812177
            ],
            [
              144.977766,
              -37.81218
            ],
            [
              144.977777,
              -37.812185
            ],
            [
              144.977785,
              -37.812191
            ],
            [
              144.97779,
              -37.812199
            ],
            [
              144.977794,
              -37.81221
            ],
            [
              144.977792,
              -37.812226
            ],
            [
              144.977738,
              -37.812549
            ],
            [
              144.977737,
              -37.812552
            ],
            [
              144.977735,
              -37.812557
            ],
            [
              144.977732,
              -37.812562
            ],
            [
              144.977723,
              -37.812571
            ],
            [
              144.977713,
              -37.812576
            ],
            [
              144.977701,
              -37.812578
            ],
            [
              144.977697,
              -37.812579
            ],
            [
              144.977687,
              -37.812578
            ],
            [
              144.977686,
              -37.812578
            ],
            [
              144.977671,
              -37.812663
            ]
          ]
        ]
      }
    }
  ]
}