{
  "type": "FeatureCollection",
  "features": [
    {
      "type": "Feature",
      "properties": {
        "name": "polygon199"
      },
      "geometry": {
        "type": "MultiPolygon",
        "coordinates": [
          [
            [
              [
                144.96263,
                -37.807412
              ],
              [
                144.962632,
                -37.807415
              ],
              [
                144.962633,
                -37.807417
              ],
              [
                144.962666,
                -37.80749
              ],
              [
                144.962697,
                -37.807481
              ],
              [
                144.962703,
                -37.807481
              ],
              [
                144.962703,
                -37.807482
              ],
              [
                144.962704,
                -37.807482
              ],
              [
                144.962704,
                -37.807483
              ],
              [
                144.962705,
                -37.807483
              ],
              [
                144.962705,
                -37.807484
              ],
              [
                144.962713,
                -37.807503
              ],
              [
                144.962808,
                -37.807475
              ],
              [
                144.962758,
                -37.807367
              ],
              [
                144.962746,
                -37.807342
              ],
              [
                144.96273,
                -37.807311
              ],
              [
                144.962652,
                -37.807139
              ],
              [
                144.962649,
                -37.807155
              ],
              [
                144.962639,
                -37.807202
              ],
              [
                144.962637,
                -37.807227
              ],
              [
                144.962636,
                -37.807244
              ],
              [
                144.962636,
                -37.80727
              ],
              [
                144.962638,
                -37.807292
              ],
              [
                144.962642,
                -37.807321
              ],
              [
                144.962647,
                -37.807347
              ],
              [
                144.962655,
                -37.807373
              ],
              [
                144.962656,
                -37.807377
              ],
              [
                144.962656,
                -37.807382
              ],
              [
                144.962654,
                -37.80739
              ],
              [
                144.96265,
                -37.807398
              ],
              [
                144.962647,
                -37.807402
              ],
              [
                144.962635,
                -37.807411
              ],
              [
                144.96263,
                -37.807412
              ]
            ]
          ],
          [
            [
              [
                144.962681,
                -37.80703
              ],
              [
                144.962743,
                -37.807165
              ],
              [
                144.962759,
                -37.8072
              ],
              [
                144.962762,
                -37.807185
              ],
              [
                144.962768,
                -37.807143
              ],
              [
                144.962776,
                -37.807092
              ],
              [
                144.962823,
                -37.80684
              ],
              [
                144.962834,
                -37.806781
              ],
              [
                144.96273,
                -37.806771
              ],
              [
                144.962727,
                -37.80677
              ],
              [
                144.962723,
                -37.80677
              ],
              [
                144.962681,
                -37.80703
              ]
            ]
          ],
          [
            [
              [
                144.96283,
                -37.807234
              ],
              [
                144.962832,
                -37.807256
              ],
              [
                144.962836,
                -37.807285
              ],
              [
                144.962842,
                -37.807311
              ],
              [
                144.962842,
                -37.807314
              ],
              [
                144.962847,
                -37.807333
              ],
              [
                144.96286,
                -37.807373
              ],
              [
                144.962878,
                -37.807429
              ],
              [
                144.962886,
                -37.807452
              ],
              [
                144.962974,
                -37.807426
              ],
              [
                144.962967,
                -37.807411
              ],
              [
                144.962967,
                -37.807409
              ],
              [
                144.962966,
                -37.807409
              ],
              [
                144.962966,
                -37.807407
              ],
              [
                144.962967,
                -37.807407
              ],
              [
                144.962967,
                -37.807404
              ],
              [
                144.962968,
                -37.807404
              ],
              [
                144.962968,
                -37.807403
              ],
              [
                144.962969,
                -37.807403
              ],
              [
                144.962969,
                -37.807402
              ],
              [
                144.96297,
                -37.807401
              ],
              [
                144.962971,
                -37.807401
              ],
              [
                144.962971,
                -37.8074
              ],
              [
                144.962974,
                -37.8074
              ],
              [
                144.962993,
                -37.807394
              ],
              [
                144.962946,
                -37.807284
              ],
              [
                144.962954,
                -37.807282
              ],
              [
                144.962957,
                -37.807281
              ],
              [
                144.963003,
                -37.807267
              ],
              [
                144.962954,
                -37.807241
              ],
              [
                144.963041,
                -37.806806
              ],
              [
                144.963,
                -37.806801
              ],
              [
                144.962996,
                -37.806801
              ],
              [
                144.962995,
                -37.8068
              ],
              [
                144.9629,
                -37.806789
              ],
              [
                144.962887,
                -37.806864
              ],
              [
                144.962845,
                -37.807097
              ],
              [
                144.962839,
                -37.807133
              ],
              [
                144.962833,
                -37.807165
              ],
              [
                144.962831,
                -37.80719
              ],
              [
                144.96283,
                -37.807207
              ],
              [
                144.96283,
                -37.807234
              ]
            ]
          ]
        ]
      }
    }
  ]
}