{
  "type": "FeatureCollection",
  "features": [
    {
      "type": "Feature",
      "properties": {
        "name": "polygon16"
      },
      "geometry": {
        "type": "MultiPolygon",
        "coordinates": [
          [
            [
              [
                144.956726,
                -37.818183
              ],
              [
                144.956749,
                -37.81823
              ],
              [
                144.956744,
                -37.818231
              ],
              [
                144.956734,
                -37.81823
              ],
              [
                144.956733,
                -37.818229
              ],
              [
                144.956732,
                -37.818232
              ],
              [
                144.956731,
                -37.818234
              ],
              [
                144.956731,
                -37.818235
              ],
              [
                144.956733,
                -37.818235
              ],
              [
                144.956744,
                -37.818236
              ],
              [
                144.956745,
                -37.818236
              ],
              [
                144.956751,
                -37.818235
              ],
              [
                144.956777,
                -37.81829
              ],
              [
                144.95894,
                -37.81767
              ],
              [
                144.958914,
                -37.817616
              ],
              [
                144.958912,
                -37.817612
              ],
              [
                144.958897,
                -37.817616
              ],
              [
                144.958879,
                -37.817577
              ],
              [
                144.95861,
                -37.817652
              ],
              [
                144.957896,
                -37.817853
              ],
              [
                144.957894,
                -37.817854
              ],
              [
                144.957893,
                -37.817854
              ],
              [
                144.95789,
                -37.817855
              ],
              [
                144.957888,
                -37.817856
              ],
              [
                144.957886,
                -37.817856
              ],
              [
                144.957885,
                -37.817857
              ],
              [
                144.957884,
                -37.817857
              ],
              [
                144.957834,
                -37.817871
              ],
              [
                144.957832,
                -37.817871
              ],
              [
                144.957831,
                -37.817872
              ],
              [
                144.957829,
                -37.817872
              ],
              [
                144.957828,
                -37.817873
              ],
              [
                144.957822,
                -37.817874
              ],
              [
                144.957268,
                -37.81803
              ],
              [
                144.956726,
                -37.818183
              ]
            ],
            [
              [
                144.956841,
                -37.818187
              ],
              [
                144.956859,
                -37.818182
              ],
              [
                144.956866,
                -37.818197
              ],
              [
                144.956848,
                -37.818203
              ],
              [
                144.956841,
                -37.818187
              ]
            ],
            [
              [
                144.956985,
                -37.818146
              ],
              [
                144.957009,
                -37.818139
              ],
              [
                144.957016,
                -37.818155
              ],
              [
                144.956992,
                -37.818161
              ],
              [
                144.956985,
                -37.818146
              ]
            ],
            [
              [
                144.957178,
                -37.818091
              ],
              [
                144.957201,
                -37.818084
              ],
              [
                144.957208,
                -37.8181
              ],
              [
                144.957185,
                -37.818106
              ],
              [
                144.957178,
                -37.818091
              ]
            ],
            [
              [
                144.957297,
                -37.818061
              ],
              [
                144.957321,
                -37.818055
              ],
              [
                144.957326,
                -37.818066
              ],
              [
                144.957302,
                -37.818073
              ],
              [
                144.957297,
                -37.818061
              ]
            ],
            [
              [
                144.957425,
                -37.818024
              ],
              [
                144.957449,
                -37.818018
              ],
              [
                144.957454,
                -37.818029
              ],
              [
                144.95743,
                -37.818036
              ],
              [
                144.957425,
                -37.818024
              ]
            ],
            [
              [
                144.957527,
                -37.817995
              ],
              [
                144.95755,
                -37.817989
              ],
              [
                144.957555,
                -37.818
              ],
              [
                144.957532,
                -37.818007
              ],
              [
                144.957527,
                -37.817995
              ]
            ],
            [
              [
                144.957644,
                -37.817962
              ],
              [
                144.957668,
                -37.817955
              ],
              [
                144.957672,
                -37.817965
              ],
              [
                144.957673,
                -37.817966
              ],
              [
                144.957649,
                -37.817973
              ],
              [
                144.957644,
                -37.817962
              ]
            ],
            [
              [
                144.957794,
                -37.817919
              ],
              [
                144.957817,
                -37.817912
              ],
              [
                144.957822,
                -37.817923
              ],
              [
                144.957799,
                -37.81793
              ],
              [
                144.957798,
                -37.817927
              ],
              [
                144.957794,
                -37.817919
              ]
            ],
            [
              [
                144.95785,
                -37.817916
              ],
              [
                144.957851,
                -37.817915
              ],
              [
                144.957851,
                -37.817916
              ],
              [
                144.95785,
                -37.817916
              ]
            ],
            [
              [
                144.957851,
                -37.817914
              ],
              [
                144.957852,
                -37.817913
              ],
              [
                144.957852,
                -37.817914
              ],
              [
                144.957851,
                -37.817914
              ]
            ],
            [
              [
                144.957908,
                -37.817881
              ],
              [
                144.957939,
                -37.817873
              ],
              [
                144.957946,
                -37.817888
              ],
              [
                144.957919,
                -37.817896
              ],
              [
                144.957915,
                -37.817896
              ],
              [
                144.957915,
                -37.817895
              ],
              [
                144.957914,
                -37.817895
              ],
              [
                144.957908,
                -37.817881
              ]
            ],
            [
              [
                144.958142,
                -37.817819
              ],
              [
                144.95817,
                -37.817811
              ],
              [
                144.958176,
                -37.817823
              ],
              [
                144.958147,
                -37.817831
              ],
              [
                144.958142,
                -37.817819
              ]
            ],
            [
              [
                144.958248,
                -37.817789
              ],
              [
                144.958272,
                -37.817782
              ],
              [
                144.958277,
                -37.817794
              ],
              [
                144.958254,
                -37.8178
              ],
              [
                144.958248,
                -37.817789
              ]
            ],
            [
              [
                144.95838,
                -37.817746
              ],
              [
                144.958409,
                -37.817738
              ],
              [
                144.958416,
                -37.817754
              ],
              [
                144.958387,
                -37.817762
              ],
              [
                144.95838,
                -37.817746
              ]
            ],
            [
              [
                144.958537,
                -37.817706
              ],
              [
                144.958566,
                -37.817698
              ],
              [
                144.958571,
                -37.817709
              ],
              [
                144.958542,
                -37.817718
              ],
              [
                144.958537,
                -37.817706
              ]
            ]
          ],
          [
            [
              [
                144.9568,
                -37.81834
              ],
              [
                144.956827,
                -37.818396
              ],
              [
                144.956829,
                -37.8184
              ],
              [
                144.956847,
                -37.818438
              ],
              [
                144.959011,
                -37.81782
              ],
              [
                144.958992,
                -37.81778
              ],
              [
                144.958988,
                -37.81778
              ],
              [
                144.958983,
                -37.817781
              ],
              [
                144.958974,
                -37.817783
              ],
              [
                144.958972,
                -37.817783
              ],
              [
                144.95897,
                -37.817779
              ],
              [
                144.958972,
                -37.817778
              ],
              [
                144.958981,
                -37.817776
              ],
              [
                144.958987,
                -37.817775
              ],
              [
                144.95899,
                -37.817775
              ],
              [
                144.958964,
                -37.81772
              ],
              [
                144.958808,
                -37.817764
              ],
              [
                144.958231,
                -37.817929
              ],
              [
                144.957141,
                -37.818241
              ],
              [
                144.9568,
                -37.81834
              ]
            ]
          ]
        ]
      }
    }
  ]
}