{
  "type": "FeatureCollection",
  "features": [
    {
      "type": "Feature",
      "properties": {
        "name": "polygon36"
      },
      "geometry": {
        "type": "Polygon",
        "coordinates": [
          [
            [
              144.950066,
              -37.805569
            ],
            [
              144.950067,
              -37.805569
            ],
            [
              144.950067,
              -37.805571
            ],
            [
              144.950068,
              -37.805571
            ],
            [
              144.950068,
              -37.805572
            ],
            [
              144.950069,
              -37.805572
            ],
            [
              144.95007,
              -37.805573
            ],
            [
              144.950071,
              -37.805573
            ],
            [
              144.950072,
              -37.805574
            ],
            [
              144.950074,
              -37.805574
            ],
            [
              144.950117,
              -37.805579
            ],
            [
              144.950119,
              -37.805579
            ],
            [
              144.950119,
              -37.80558
            ],
            [
              144.95012,
              -37.80558
            ],
            [
              144.95012,
              -37.805581
            ],
            [
              144.950121,
              -37.805581
            ],
            [
              144.950121,
              -37.805586
            ],
            [
              144.95012,
              -37.805586
            ],
            [
              144.95012,
              -37.805587
            ],
            [
              144.950085,
              -37.805611
            ],
            [
              144.950083,
              -37.805613
            ],
            [
              144.950083,
              -37.805614
            ],
            [
              144.950082,
              -37.805615
            ],
            [
              144.950082,
              -37.805617
            ],
            [
              144.950083,
              -37.805618
            ],
            [
              144.950083,
              -37.80562
            ],
            [
              144.950084,
              -37.80562
            ],
            [
              144.950084,
              -37.805621
            ],
            [
              144.950085,
              -37.805621
            ],
            [
              144.950248,
              -37.805755
            ],
            [
              144.950249,
              -37.805755
            ],
            [
              144.95025,
              -37.805756
            ],
            [
              144.950251,
              -37.805756
            ],
            [
              144.950252,
              -37.805757
            ],
            [
              144.950259,
              -37.805757
            ],
            [
              144.950259,
              -37.805756
            ],
            [
              144.950261,
              -37.805756
            ],
            [
              144.950261,
              -37.805755
            ],
            [
              144.950294,
              -37.805731
            ],
            [
              144.950296,
              -37.805731
            ],
            [
              144.9503,
              -37.805735
            ],
            [
              144.950301,
              -37.805735
            ],
            [
              144.950301,
              -37.805736
            ],
            [
              144.9503,
              -37.805736
            ],
            [
              144.950251,
              -37.805773
            ],
            [
              144.950253,
              -37.805774
            ],
            [
              144.950302,
              -37.805738
            ],
            [
              144.950302,
              -37.805737
            ],
            [
              144.950303,
              -37.805737
            ],
            [
              144.950303,
              -37.805734
            ],
            [
              144.950302,
              -37.805734
            ],
            [
              144.950297,
              -37.80573
            ],
            [
              144.9503,
              -37.805732
            ],
            [
              144.950348,
              -37.805696
            ],
            [
              144.950349,
              -37.805697
            ],
            [
              144.95035,
              -37.805697
            ],
            [
              144.950351,
              -37.805698
            ],
            [
              144.950355,
              -37.805698
            ],
            [
              144.950355,
              -37.805697
            ],
            [
              144.950356,
              -37.805697
            ],
            [
              144.950511,
              -37.805581
            ],
            [
              144.950511,
              -37.80558
            ],
            [
              144.950512,
              -37.80558
            ],
            [
              144.950512,
              -37.805579
            ],
            [
              144.950525,
              -37.805501
            ],
            [
              144.950525,
              -37.805497
            ],
            [
              144.950523,
              -37.805495
            ],
            [
              144.950522,
              -37.805495
            ],
            [
              144.950521,
              -37.805494
            ],
            [
              144.950517,
              -37.805494
            ],
            [
              144.950519,
              -37.805483
            ],
            [
              144.950521,
              -37.805483
            ],
            [
              144.950522,
              -37.805484
            ],
            [
              144.950523,
              -37.805484
            ],
            [
              144.950524,
              -37.805483
            ],
            [
              144.950526,
              -37.805483
            ],
            [
              144.950528,
              -37.805481
            ],
            [
              144.950528,
              -37.80548
            ],
            [
              144.950529,
              -37.80548
            ],
            [
              144.950529,
              -37.805479
            ],
            [
              144.950539,
              -37.805414
            ],
            [
              144.950539,
              -37.805412
            ],
            [
              144.950538,
              -37.805412
            ],
            [
              144.950538,
              -37.805411
            ],
            [
              144.950537,
              -37.805411
            ],
            [
              144.950457,
              -37.805402
            ],
            [
              144.950437,
              -37.80540009523809
            ],
            [
              144.950437,
              -37.8054
            ],
            [
              144.950436,
              -37.8054
            ],
            [
              144.950348,
              -37.80539
            ],
            [
              144.950078,
              -37.805357
            ],
            [
              144.950078,
              -37.80536
            ],
            [
              144.950154,
              -37.805368
            ],
            [
              144.950087,
              -37.805361
            ],
            [
              144.950087,
              -37.805363
            ],
            [
              144.950102,
              -37.805364
            ],
            [
              144.9500992307692,
              -37.805376
            ],
            [
              144.950099,
              -37.805376
            ],
            [
              144.950099,
              -37.805377
            ],
            [
              144.950066,
              -37.805566
            ],
            [
              144.950066,
              -37.805569
            ]
          ],
          [
            [
              144.950109,
              -37.805372
            ],
            [
              144.950153,
              -37.805377
            ],
            [
              144.950152,
              -37.805377
            ],
            [
              144.950109,
              -37.805372
            ]
          ],
          [
            [
              144.950252,
              -37.805755
            ],
            [
              144.950291,
              -37.805726
            ],
            [
              144.950342,
              -37.805688
            ],
            [
              144.950287,
              -37.805729
            ],
            [
              144.950252,
              -37.805755
            ]
          ],
          [
            [
              144.950342,
              -37.805688
            ],
            [
              144.950346,
              -37.805691
            ],
            [
              144.950345,
              -37.805691
            ],
            [
              144.950342,
              -37.805688
            ]
          ],
          [
            [
              144.95038,
              -37.805544
            ],
            [
              144.950496,
              -37.805557
            ],
            [
              144.950495,
              -37.805557
            ],
            [
              144.95038,
              -37.805544
            ]
          ]
        ]
      }
    }
  ]
}