{
  "type": "FeatureCollection",
  "features": [
    {
      "type": "Feature",
      "properties": {
        "name": "polygon42"
      },
      "geometry": {
        "type": "Polygon",
        "coordinates": [
          [
            [
              144.961947,
              -37.811211
            ],
            [
              144.961952,
              -37.811221
            ],
            [
              144.961953,
              -37.811224
            ],
            [
              144.961982,
              -37.811281
            ],
            [
              144.961975,
              -37.811283
            ],
            [
              144.961976,
              -37.811285
            ],
            [
              144.961976,
              -37.811287
            ],
            [
              144.961984,
              -37.811285
            ],
            [
              144.961991,
              -37.811299
            ],
            [
              144.962008,
              -37.811294
            ],
            [
              144.962845,
              -37.811048
            ],
            [
              144.962847,
              -37.811047
            ],
            [
              144.962873,
              -37.811039
            ],
            [
              144.962875,
              -37.811039
            ],
            [
              144.962954,
              -37.811015
            ],
            [
              144.963316,
              -37.810909
            ],
            [
              144.963489,
              -37.810858
            ],
            [
              144.96385,
              -37.810751
            ],
            [
              144.963854,
              -37.81075
            ],
            [
              144.963856,
              -37.810749
            ],
            [
              144.963904,
              -37.810734
            ],
            [
              144.963907,
              -37.810734
            ],
            [
              144.964121,
              -37.810671
            ],
            [
              144.964133,
              -37.810667
            ],
            [
              144.964129,
              -37.810657
            ],
            [
              144.964128,
              -37.810655
            ],
            [
              144.964127,
              -37.810652
            ],
            [
              144.964117,
              -37.810631
            ],
            [
              144.964108,
              -37.810611
            ],
            [
              144.964107,
              -37.810608
            ],
            [
              144.964106,
              -37.810606
            ],
            [
              144.964105,
              -37.810605
            ],
            [
              144.964094,
              -37.81058
            ],
            [
              144.963815,
              -37.810662
            ],
            [
              144.963662,
              -37.810707
            ],
            [
              144.96366,
              -37.810708
            ],
            [
              144.963632,
              -37.810716
            ],
            [
              144.963623,
              -37.810719
            ],
            [
              144.963621,
              -37.810719
            ],
            [
              144.963617,
              -37.81072
            ],
            [
              144.963541,
              -37.810743
            ],
            [
              144.963275,
              -37.810821
            ],
            [
              144.962913,
              -37.810927
            ],
            [
              144.961947,
              -37.811211
            ]
          ],
          [
            [
              144.962874,
              -37.811013
            ],
            [
              144.962888,
              -37.811006
            ],
            [
              144.962877,
              -37.811012
            ],
            [
              144.962874,
              -37.811013
            ]
          ]
        ]
      }
    }
  ]
}