{
  "type": "FeatureCollection",
  "features": [
    {
      "type": "Feature",
      "properties": {
        "name": "polygon211"
      },
      "geometry": {
        "type": "MultiPolygon",
        "coordinates": [
          [
            [
              [
                144.960008,
                -37.806983
              ],
              [
                144.960017,
                -37.807004
              ],
              [
                144.960018,
                -37.807006
              ],
              [
                144.960019,
                -37.807009
              ],
              [
                144.960046,
                -37.807067
              ],
              [
                144.960073,
                -37.807126
              ],
              [
                144.960074,
                -37.807128
              ],
              [
                144.960075,
                -37.807131
              ],
              [
                144.96006,
                -37.807135
              ],
              [
                144.960054,
                -37.807138
              ],
              [
                144.960048,
                -37.80714
              ],
              [
                144.960044,
                -37.807144
              ],
              [
                144.960043,
                -37.807144
              ],
              [
                144.960039,
                -37.807148
              ],
              [
                144.960036,
                -37.807152
              ],
              [
                144.960034,
                -37.807157
              ],
              [
                144.960032,
                -37.807167
              ],
              [
                144.960033,
                -37.807168
              ],
              [
                144.960086,
                -37.807154
              ],
              [
                144.960373,
                -37.80707
              ],
              [
                144.960868,
                -37.806925
              ],
              [
                144.960874,
                -37.806924
              ],
              [
                144.961164,
                -37.806839
              ],
              [
                144.961772,
                -37.806662
              ],
              [
                144.961758,
                -37.806638
              ],
              [
                144.961762,
                -37.806637
              ],
              [
                144.961779,
                -37.806632
              ],
              [
                144.961773,
                -37.806631
              ],
              [
                144.961761,
                -37.806635
              ],
              [
                144.961757,
                -37.806636
              ],
              [
                144.961753,
                -37.806629
              ],
              [
                144.961751,
                -37.806626
              ],
              [
                144.96175,
                -37.806623
              ],
              [
                144.961729,
                -37.806621
              ],
              [
                144.961666,
                -37.806614
              ],
              [
                144.961652,
                -37.806612
              ],
              [
                144.96164,
                -37.806611
              ],
              [
                144.961606,
                -37.806607
              ],
              [
                144.961584,
                -37.806605
              ],
              [
                144.961571,
                -37.806603
              ],
              [
                144.961551,
                -37.806601
              ],
              [
                144.961549,
                -37.806601
              ],
              [
                144.961548,
                -37.806602
              ],
              [
                144.961546,
                -37.806602
              ],
              [
                144.961545,
                -37.806603
              ],
              [
                144.961543,
                -37.806603
              ],
              [
                144.961542,
                -37.806604
              ],
              [
                144.961541,
                -37.806604
              ],
              [
                144.96154,
                -37.806605
              ],
              [
                144.961539,
                -37.806605
              ],
              [
                144.961537,
                -37.806607
              ],
              [
                144.961536,
                -37.806607
              ],
              [
                144.961535,
                -37.806608
              ],
              [
                144.961535,
                -37.806609
              ],
              [
                144.961534,
                -37.806609
              ],
              [
                144.961532,
                -37.806611
              ],
              [
                144.961532,
                -37.806612
              ],
              [
                144.961531,
                -37.806612
              ],
              [
                144.961531,
                -37.806613
              ],
              [
                144.961529,
                -37.806615
              ],
              [
                144.961529,
                -37.806616
              ],
              [
                144.961528,
                -37.806617
              ],
              [
                144.961528,
                -37.806619
              ],
              [
                144.961527,
                -37.80662
              ],
              [
                144.961527,
                -37.806634
              ],
              [
                144.961413,
                -37.80662111304348
              ],
              [
                144.961413,
                -37.806623
              ],
              [
                144.961412,
                -37.806625
              ],
              [
                144.961404,
                -37.806639
              ],
              [
                144.961397,
                -37.806648
              ],
              [
                144.961389,
                -37.806657
              ],
              [
                144.961377,
                -37.806667
              ],
              [
                144.961366,
                -37.806675
              ],
              [
                144.961354,
                -37.806681
              ],
              [
                144.961341,
                -37.806687
              ],
              [
                144.961337,
                -37.806687
              ],
              [
                144.961337,
                -37.806686
              ],
              [
                144.961336,
                -37.806686
              ],
              [
                144.961336,
                -37.806684
              ],
              [
                144.961337,
                -37.806684
              ],
              [
                144.961342,
                -37.806678
              ],
              [
                144.961353,
                -37.806667
              ],
              [
                144.961357,
                -37.806662
              ],
              [
                144.96136,
                -37.806658
              ],
              [
                144.961364,
                -37.806653
              ],
              [
                144.961372,
                -37.806637
              ],
              [
                144.961379,
                -37.806622
              ],
              [
                144.96138,
                -37.806619
              ],
              [
                144.96138,
                -37.806618
              ],
              [
                144.96139,
                -37.806618
              ],
              [
                144.961264,
                -37.806604
              ],
              [
                144.961263,
                -37.80661
              ],
              [
                144.96126,
                -37.806609
              ],
              [
                144.961257,
                -37.806609
              ],
              [
                144.961258,
                -37.806604
              ],
              [
                144.961221,
                -37.806599
              ],
              [
                144.961195,
                -37.806597
              ],
              [
                144.961209,
                -37.806606
              ],
              [
                144.961211,
                -37.806623
              ],
              [
                144.9612,
                -37.806634
              ],
              [
                144.9602,
                -37.806927
              ],
              [
                144.960008,
                -37.806983
              ]
            ],
            [
              [
                144.960054,
                -37.806978
              ],
              [
                144.960096,
                -37.806966
              ],
              [
                144.960102,
                -37.806978
              ],
              [
                144.960103,
                -37.806979
              ],
              [
                144.960077,
                -37.806987
              ],
              [
                144.960077,
                -37.806986
              ],
              [
                144.96006,
                -37.806991
              ],
              [
                144.960054,
                -37.806978
              ]
            ],
            [
              [
                144.960176,
                -37.806946
              ],
              [
                144.960202,
                -37.806938
              ],
              [
                144.960215,
                -37.806967
              ],
              [
                144.960215,
                -37.806969
              ],
              [
                144.9602144,
                -37.8069696
              ],
              [
                144.960213,
                -37.80697
              ],
              [
                144.96019,
                -37.806977
              ],
              [
                144.960176,
                -37.806946
              ]
            ],
            [
              [
                144.96025,
                -37.80708
              ],
              [
                144.960272,
                -37.807074
              ],
              [
                144.960277,
                -37.807085
              ],
              [
                144.960256,
                -37.807092
              ],
              [
                144.96025,
                -37.80708
              ]
            ],
            [
              [
                144.960406,
                -37.806877
              ],
              [
                144.960438,
                -37.806868
              ],
              [
                144.960453,
                -37.8069
              ],
              [
                144.960421,
                -37.806909
              ],
              [
                144.960406,
                -37.806877
              ]
            ],
            [
              [
                144.960596,
                -37.806823
              ],
              [
                144.960628,
                -37.806813
              ],
              [
                144.960642,
                -37.806844
              ],
              [
                144.960611,
                -37.806853
              ],
              [
                144.960596,
                -37.806823
              ]
            ],
            [
              [
                144.960679,
                -37.806955
              ],
              [
                144.9607,
                -37.806949
              ],
              [
                144.960706,
                -37.806961
              ],
              [
                144.960685,
                -37.806967
              ],
              [
                144.960679,
                -37.806955
              ]
            ],
            [
              [
                144.960732,
                -37.806783
              ],
              [
                144.960764,
                -37.806773
              ],
              [
                144.960778,
                -37.806804
              ],
              [
                144.960746,
                -37.806813
              ],
              [
                144.960732,
                -37.806783
              ]
            ],
            [
              [
                144.960951,
                -37.806728
              ],
              [
                144.960983,
                -37.806719
              ],
              [
                144.960994,
                -37.806741
              ],
              [
                144.960962,
                -37.80675
              ],
              [
                144.960951,
                -37.806728
              ]
            ]
          ],
          [
            [
              [
                144.961338,
                -37.806686
              ],
              [
                144.96134,
                -37.806686
              ],
              [
                144.961353,
                -37.80668
              ],
              [
                144.961365,
                -37.806674
              ],
              [
                144.961376,
                -37.806666
              ],
              [
                144.961388,
                -37.806656
              ],
              [
                144.961396,
                -37.806647
              ],
              [
                144.961402,
                -37.806639
              ],
              [
                144.96141,
                -37.806625
              ],
              [
                144.961411,
                -37.806623
              ],
              [
                144.961411,
                -37.806622
              ],
              [
                144.961382,
                -37.806619
              ],
              [
                144.961381,
                -37.806619
              ],
              [
                144.96138,
                -37.806622
              ],
              [
                144.961374,
                -37.806637
              ],
              [
                144.961368,
                -37.806649
              ],
              [
                144.961365,
                -37.806654
              ],
              [
                144.961362,
                -37.806658
              ],
              [
                144.961358,
                -37.806663
              ],
              [
                144.961355,
                -37.806667
              ],
              [
                144.961351,
                -37.806671
              ],
              [
                144.961344,
                -37.806679
              ],
              [
                144.961338,
                -37.806684
              ],
              [
                144.961338,
                -37.806686
              ]
            ]
          ],
          [
            [
              [
                144.961412,
                -37.806621
              ],
              [
                144.961413,
                -37.80662111304348
              ],
              [
                144.961413,
                -37.806621
              ],
              [
                144.961412,
                -37.806621
              ]
            ]
          ]
        ]
      }
    }
  ]
}