{
  "type": "FeatureCollection",
  "features": [
    {
      "type": "Feature",
      "properties": {
        "name": "polygon30"
      },
      "geometry": {
        "type": "MultiPolygon",
        "coordinates": [
          [
            [
              [
                144.959663,
                -37.818441
              ],
              [
                144.959683,
                -37.818484
              ],
              [
                144.959685,
                -37.81849
              ],
              [
                144.959712,
                -37.818546
              ],
              [
                144.959716,
                -37.818546
              ],
              [
                144.959739,
                -37.818545
              ],
              [
                144.959767,
                -37.818541
              ],
              [
                144.959791,
                -37.818535
              ],
              [
                144.959928,
                -37.818495
              ],
              [
                144.959997,
                -37.818475
              ],
              [
                144.960228,
                -37.818408
              ],
              [
                144.960273,
                -37.818395
              ],
              [
                144.960444,
                -37.818346
              ],
              [
                144.960469,
                -37.81834
              ],
              [
                144.960471,
                -37.81834
              ],
              [
                144.960498,
                -37.818336
              ],
              [
                144.960499,
                -37.818336
              ],
              [
                144.960526,
                -37.818335
              ],
              [
                144.960527,
                -37.818335
              ],
              [
                144.960554,
                -37.818337
              ],
              [
                144.960555,
                -37.818337
              ],
              [
                144.960582,
                -37.818342
              ],
              [
                144.960608,
                -37.818349
              ],
              [
                144.960609,
                -37.818349
              ],
              [
                144.960633,
                -37.818359
              ],
              [
                144.960634,
                -37.818359
              ],
              [
                144.960645,
                -37.818365
              ],
              [
                144.960657,
                -37.818371
              ],
              [
                144.960667,
                -37.818377
              ],
              [
                144.960775,
                -37.81832
              ],
              [
                144.96078,
                -37.81832
              ],
              [
                144.960778,
                -37.818316
              ],
              [
                144.960779,
                -37.818315
              ],
              [
                144.960779,
                -37.818311
              ],
              [
                144.96078,
                -37.81831
              ],
              [
                144.96078,
                -37.818309
              ],
              [
                144.960781,
                -37.818309
              ],
              [
                144.960781,
                -37.818308
              ],
              [
                144.960783,
                -37.818308
              ],
              [
                144.960783,
                -37.818307
              ],
              [
                144.960784,
                -37.818307
              ],
              [
                144.960785,
                -37.818308
              ],
              [
                144.960814,
                -37.8183
              ],
              [
                144.960822,
                -37.818316
              ],
              [
                144.961012,
                -37.818263
              ],
              [
                144.961064,
                -37.818247
              ],
              [
                144.961448,
                -37.818135
              ],
              [
                144.961451,
                -37.818135
              ],
              [
                144.961511,
                -37.818117
              ],
              [
                144.961514,
                -37.818116
              ],
              [
                144.961518,
                -37.818115
              ],
              [
                144.961896,
                -37.818004
              ],
              [
                144.961884,
                -37.817974
              ],
              [
                144.961883,
                -37.817971
              ],
              [
                144.961882,
                -37.817969
              ],
              [
                144.961866,
                -37.81793
              ],
              [
                144.961856,
                -37.817933
              ],
              [
                144.961856,
                -37.817931
              ],
              [
                144.961855,
                -37.817928
              ],
              [
                144.961861,
                -37.817926
              ],
              [
                144.961853,
                -37.817907
              ],
              [
                144.96184,
                -37.817911
              ],
              [
                144.961566,
                -37.817991
              ],
              [
                144.961563,
                -37.817992
              ],
              [
                144.961534,
                -37.818
              ],
              [
                144.96153,
                -37.817991
              ],
              [
                144.961524,
                -37.817993
              ],
              [
                144.961489,
                -37.818003
              ],
              [
                144.961338,
                -37.818047
              ],
              [
                144.961336,
                -37.818048
              ],
              [
                144.96134,
                -37.818057
              ],
              [
                144.961305,
                -37.818067
              ],
              [
                144.961303,
                -37.818068
              ],
              [
                144.961302,
                -37.818068
              ],
              [
                144.961209,
                -37.818095
              ],
              [
                144.961205,
                -37.818087
              ],
              [
                144.961065,
                -37.818128
              ],
              [
                144.961062,
                -37.818129
              ],
              [
                144.961025,
                -37.818139
              ],
              [
                144.961029,
                -37.818147
              ],
              [
                144.960992,
                -37.818158
              ],
              [
                144.960988,
                -37.818151
              ],
              [
                144.960985,
                -37.818152
              ],
              [
                144.960774,
                -37.818213
              ],
              [
                144.960785,
                -37.818238
              ],
              [
                144.960787,
                -37.818242
              ],
              [
                144.960779,
                -37.818245
              ],
              [
                144.960774,
                -37.818246
              ],
              [
                144.960755,
                -37.818246
              ],
              [
                144.960755,
                -37.818245
              ],
              [
                144.960754,
                -37.818245
              ],
              [
                144.960749,
                -37.818243
              ],
              [
                144.960743,
                -37.81824
              ],
              [
                144.960743,
                -37.818239
              ],
              [
                144.960742,
                -37.818239
              ],
              [
                144.960738,
                -37.818236
              ],
              [
                144.960738,
                -37.818235
              ],
              [
                144.960737,
                -37.818235
              ],
              [
                144.960734,
                -37.81823
              ],
              [
                144.960734,
                -37.818229
              ],
              [
                144.960727,
                -37.818215
              ],
              [
                144.960591,
                -37.818218
              ],
              [
                144.960587,
                -37.818208
              ],
              [
                144.96061,
                -37.818201
              ],
              [
                144.960612,
                -37.818201
              ],
              [
                144.960613,
                -37.8182
              ],
              [
                144.960614,
                -37.818198
              ],
              [
                144.960614,
                -37.818195
              ],
              [
                144.960613,
                -37.818193
              ],
              [
                144.960583,
                -37.818127
              ],
              [
                144.960581,
                -37.818125
              ],
              [
                144.960576,
                -37.818125
              ],
              [
                144.960572,
                -37.818126
              ],
              [
                144.960573,
                -37.818128
              ],
              [
                144.960577,
                -37.818127
              ],
              [
                144.960579,
                -37.818127
              ],
              [
                144.960581,
                -37.818129
              ],
              [
                144.960594,
                -37.818158
              ],
              [
                144.960594,
                -37.818161
              ],
              [
                144.960592,
                -37.818163
              ],
              [
                144.96059,
                -37.818164
              ],
              [
                144.96059,
                -37.818165
              ],
              [
                144.960593,
                -37.818171
              ],
              [
                144.960548,
                -37.818184
              ],
              [
                144.960545,
                -37.818185
              ],
              [
                144.960452,
                -37.818212
              ],
              [
                144.960449,
                -37.818213
              ],
              [
                144.960447,
                -37.818214
              ],
              [
                144.960417,
                -37.818222
              ],
              [
                144.959663,
                -37.818441
              ]
            ]
          ],
          [
            [
              [
                144.959739,
                -37.818605
              ],
              [
                144.959756,
                -37.818642
              ],
              [
                144.959757,
                -37.818644
              ],
              [
                144.959758,
                -37.818647
              ],
              [
                144.959769,
                -37.818671
              ],
              [
                144.959997,
                -37.818604
              ],
              [
                144.960192,
                -37.818548
              ],
              [
                144.960518,
                -37.818453
              ],
              [
                144.960507,
                -37.818427
              ],
              [
                144.960505,
                -37.818425
              ],
              [
                144.960505,
                -37.818422
              ],
              [
                144.960518,
                -37.818422
              ],
              [
                144.960521,
                -37.818423
              ],
              [
                144.960528,
                -37.818424
              ],
              [
                144.960531,
                -37.818425
              ],
              [
                144.960536,
                -37.818426
              ],
              [
                144.960537,
                -37.818426
              ],
              [
                144.96054,
                -37.818428
              ],
              [
                144.960545,
                -37.81843
              ],
              [
                144.960546,
                -37.81843
              ],
              [
                144.960552,
                -37.818434
              ],
              [
                144.960553,
                -37.818435
              ],
              [
                144.960589,
                -37.818417
              ],
              [
                144.960588,
                -37.818416
              ],
              [
                144.960565,
                -37.818408
              ],
              [
                144.96054,
                -37.818401
              ],
              [
                144.960514,
                -37.818398
              ],
              [
                144.960494,
                -37.818397
              ],
              [
                144.960488,
                -37.818397
              ],
              [
                144.960462,
                -37.818399
              ],
              [
                144.960437,
                -37.818403
              ],
              [
                144.960412,
                -37.81841
              ],
              [
                144.96025,
                -37.818458
              ],
              [
                144.960019,
                -37.818526
              ],
              [
                144.959789,
                -37.818594
              ],
              [
                144.959788,
                -37.818594
              ],
              [
                144.959757,
                -37.818602
              ],
              [
                144.959739,
                -37.818605
              ]
            ],
            [
              [
                144.960261,
                -37.818498
              ],
              [
                144.960281,
                -37.818492
              ],
              [
                144.960286,
                -37.818503
              ],
              [
                144.960266,
                -37.818509
              ],
              [
                144.960261,
                -37.818498
              ]
            ],
            [
              [
                144.960453,
                -37.818441
              ],
              [
                144.960468,
                -37.818436
              ],
              [
                144.960468,
                -37.818437
              ],
              [
                144.960473,
                -37.818447
              ],
              [
                144.960458,
                -37.818452
              ],
              [
                144.960453,
                -37.818441
              ]
            ]
          ]
        ]
      }
    }
  ]
}