{
  "type": "FeatureCollection",
  "features": [
    {
      "type": "Feature",
      "properties": {
        "name": "polygon76"
      },
      "geometry": {
        "type": "Polygon",
        "coordinates": [
          [
            [
              144.954712,
              -37.814568
            ],
            [
              144.954714,
              -37.814572
            ],
            [
              144.954727,
              -37.8146
            ],
            [
              144.954833,
              -37.81483
            ],
            [
              144.954836,
              -37.814837
            ],
            [
              144.954837,
              -37.814838
            ],
            [
              144.954848,
              -37.814862
            ],
            [
              144.95485,
              -37.814866
            ],
            [
              144.955101,
              -37.815411
            ],
            [
              144.955104,
              -37.81542
            ],
            [
              144.955106,
              -37.815422
            ],
            [
              144.955107,
              -37.815424
            ],
            [
              144.955133,
              -37.815481
            ],
            [
              144.955138,
              -37.815481
            ],
            [
              144.955145,
              -37.81548
            ],
            [
              144.955151,
              -37.81548
            ],
            [
              144.955157,
              -37.815481
            ],
            [
              144.955163,
              -37.815483
            ],
            [
              144.955167,
              -37.815484
            ],
            [
              144.955294,
              -37.81545
            ],
            [
              144.95542,
              -37.815415
            ],
            [
              144.95542,
              -37.815407
            ],
            [
              144.955423,
              -37.815403
            ],
            [
              144.955427,
              -37.8154
            ],
            [
              144.95543,
              -37.815398
            ],
            [
              144.955436,
              -37.815395
            ],
            [
              144.955456,
              -37.81539
            ],
            [
              144.95543,
              -37.815333
            ],
            [
              144.955429,
              -37.815331
            ],
            [
              144.955428,
              -37.815328
            ],
            [
              144.955421,
              -37.815315
            ],
            [
              144.955051,
              -37.814512
            ],
            [
              144.955036,
              -37.81448
            ],
            [
              144.955034,
              -37.814477
            ],
            [
              144.955033,
              -37.814475
            ],
            [
              144.955027,
              -37.814478
            ],
            [
              144.955022,
              -37.814482
            ],
            [
              144.955018,
              -37.814486
            ],
            [
              144.955014,
              -37.814492
            ],
            [
              144.95501,
              -37.814499
            ],
            [
              144.955009,
              -37.814505
            ],
            [
              144.955008,
              -37.814512
            ],
            [
              144.955008,
              -37.814519
            ],
            [
              144.95501,
              -37.814523
            ],
            [
              144.954888,
              -37.814556
            ],
            [
              144.954767,
              -37.814589
            ],
            [
              144.95476,
              -37.814582
            ],
            [
              144.954752,
              -37.814576
            ],
            [
              144.954751,
              -37.814576
            ],
            [
              144.954744,
              -37.814572
            ],
            [
              144.954743,
              -37.814572
            ],
            [
              144.954735,
              -37.814569
            ],
            [
              144.954734,
              -37.814569
            ],
            [
              144.954728,
              -37.814567
            ],
            [
              144.954717,
              -37.814567
            ],
            [
              144.954712,
              -37.814568
            ]
          ],
          [
            [
              144.955016,
              -37.814523
            ],
            [
              144.955046,
              -37.814587
            ],
            [
              144.955062,
              -37.814583
            ],
            [
              144.955073,
              -37.814608
            ],
            [
              144.95505704595124,
              -37.81461198851219
            ],
            [
              144.955016,
              -37.814523
            ]
          ],
          [
            [
              144.95508103250208,
              -37.81466399187448
            ],
            [
              144.955097,
              -37.81466
            ],
            [
              144.955109,
              -37.814685
            ],
            [
              144.955093,
              -37.814689
            ],
            [
              144.955385,
              -37.815323
            ],
            [
              144.95508103250208,
              -37.81466399187448
            ]
          ],
          [
            [
              144.955229,
              -37.815326
            ],
            [
              144.955229,
              -37.815325
            ],
            [
              144.95523,
              -37.815325
            ],
            [
              144.95523,
              -37.815323
            ],
            [
              144.955232,
              -37.815321
            ],
            [
              144.955233,
              -37.815321
            ],
            [
              144.955233,
              -37.81532
            ],
            [
              144.955234,
              -37.81532
            ],
            [
              144.955248,
              -37.815316
            ],
            [
              144.955254,
              -37.815316
            ],
            [
              144.955254,
              -37.815317
            ],
            [
              144.955256,
              -37.815317
            ],
            [
              144.955256,
              -37.815318
            ],
            [
              144.955257,
              -37.815318
            ],
            [
              144.955257,
              -37.815319
            ],
            [
              144.955265,
              -37.815336
            ],
            [
              144.955239,
              -37.815347
            ],
            [
              144.955237,
              -37.815342
            ],
            [
              144.95523,
              -37.815327
            ],
            [
              144.95523,
              -37.815326
            ],
            [
              144.955229,
              -37.815326
            ]
          ]
        ]
      }
    }
  ]
}