{
  "type": "FeatureCollection",
  "features": [
    {
      "type": "Feature",
      "properties": {
        "name": "polygon70"
      },
      "geometry": {
        "type": "Polygon",
        "coordinates": [
          [
            [
              144.972062,
              -37.814925
            ],
            [
              144.972073,
              -37.81495
            ],
            [
              144.972074,
              -37.814953
            ],
            [
              144.972075,
              -37.814955
            ],
            [
              144.972096,
              -37.815002
            ],
            [
              144.972098,
              -37.815006
            ],
            [
              144.972107,
              -37.815025
            ],
            [
              144.973644,
              -37.814573
            ],
            [
              144.973649,
              -37.814584
            ],
            [
              144.973805,
              -37.814537
            ],
            [
              144.973814,
              -37.814535
            ],
            [
              144.973817,
              -37.814534
            ],
            [
              144.973873,
              -37.814517
            ],
            [
              144.973875,
              -37.814521
            ],
            [
              144.973878,
              -37.81452
            ],
            [
              144.974263,
              -37.814408
            ],
            [
              144.97433,
              -37.814388
            ],
            [
              144.974333,
              -37.814388
            ],
            [
              144.974335,
              -37.814387
            ],
            [
              144.974331,
              -37.814372
            ],
            [
              144.974329,
              -37.814369
            ],
            [
              144.974323,
              -37.814363
            ],
            [
              144.974315,
              -37.814359
            ],
            [
              144.974305,
              -37.814357
            ],
            [
              144.974296,
              -37.814357
            ],
            [
              144.974291,
              -37.814358
            ],
            [
              144.974246,
              -37.814371
            ],
            [
              144.974223,
              -37.814325
            ],
            [
              144.974233,
              -37.814322
            ],
            [
              144.974231,
              -37.814318
            ],
            [
              144.974231,
              -37.814317
            ],
            [
              144.974221,
              -37.81432
            ],
            [
              144.974211,
              -37.814298
            ],
            [
              144.973835,
              -37.814407
            ],
            [
              144.973832,
              -37.814408
            ],
            [
              144.973838,
              -37.814421
            ],
            [
              144.97379,
              -37.814435
            ],
            [
              144.973787,
              -37.814436
            ],
            [
              144.973786,
              -37.814436
            ],
            [
              144.973576,
              -37.814497
            ],
            [
              144.973571,
              -37.814486
            ],
            [
              144.972409,
              -37.814824
            ],
            [
              144.972406,
              -37.814825
            ],
            [
              144.972062,
              -37.814925
            ]
          ],
          [
            [
              144.972115,
              -37.815001
            ],
            [
              144.972126,
              -37.814998
            ],
            [
              144.97213,
              -37.815007
            ],
            [
              144.972119,
              -37.81501
            ],
            [
              144.972115,
              -37.815001
            ]
          ],
          [
            [
              144.972216,
              -37.814972
            ],
            [
              144.972227,
              -37.814969
            ],
            [
              144.972231,
              -37.814977
            ],
            [
              144.97222,
              -37.81498
            ],
            [
              144.972216,
              -37.814972
            ]
          ],
          [
            [
              144.972269,
              -37.814883
            ],
            [
              144.972285,
              -37.814879
            ],
            [
              144.97228890425532,
              -37.81488680851064
            ],
            [
              144.97227278896884,
              -37.81489152517985
            ],
            [
              144.972269,
              -37.814883
            ]
          ],
          [
            [
              144.972317,
              -37.814942
            ],
            [
              144.972328,
              -37.814939
            ],
            [
              144.972332,
              -37.814947
            ],
            [
              144.972321,
              -37.81495
            ],
            [
              144.972317,
              -37.814942
            ]
          ],
          [
            [
              144.97236,
              -37.814857
            ],
            [
              144.972376,
              -37.814852
            ],
            [
              144.972379,
              -37.81486
            ],
            [
              144.972401,
              -37.814854
            ],
            [
              144.9723639255319,
              -37.81486485106383
            ],
            [
              144.97236,
              -37.814857
            ]
          ],
          [
            [
              144.972418,
              -37.814912
            ],
            [
              144.972429,
              -37.814909
            ],
            [
              144.972433,
              -37.814918
            ],
            [
              144.972422,
              -37.814921
            ],
            [
              144.972418,
              -37.814912
            ]
          ],
          [
            [
              144.97252,
              -37.814883
            ],
            [
              144.97253,
              -37.81488
            ],
            [
              144.972534,
              -37.814888
            ],
            [
              144.972524,
              -37.814891
            ],
            [
              144.97252,
              -37.814883
            ]
          ],
          [
            [
              144.972621,
              -37.814853
            ],
            [
              144.972631,
              -37.81485
            ],
            [
              144.972635,
              -37.814858
            ],
            [
              144.972625,
              -37.814862
            ],
            [
              144.972621,
              -37.814853
            ]
          ],
          [
            [
              144.972722,
              -37.814823
            ],
            [
              144.972733,
              -37.81482
            ],
            [
              144.972737,
              -37.814829
            ],
            [
              144.972726,
              -37.814832
            ],
            [
              144.972722,
              -37.814823
            ]
          ],
          [
            [
              144.972823,
              -37.814794
            ],
            [
              144.972834,
              -37.814791
            ],
            [
              144.972838,
              -37.814799
            ],
            [
              144.972827,
              -37.814802
            ],
            [
              144.972823,
              -37.814794
            ]
          ],
          [
            [
              144.973025,
              -37.814735
            ],
            [
              144.973036,
              -37.814731
            ],
            [
              144.97304,
              -37.81474
            ],
            [
              144.973029,
              -37.814743
            ],
            [
              144.973025,
              -37.814735
            ]
          ],
          [
            [
              144.973126,
              -37.814705
            ],
            [
              144.973137,
              -37.814702
            ],
            [
              144.973141,
              -37.81471
            ],
            [
              144.97313,
              -37.814713
            ],
            [
              144.973126,
              -37.814705
            ]
          ],
          [
            [
              144.973227,
              -37.814675
            ],
            [
              144.973238,
              -37.814672
            ],
            [
              144.973242,
              -37.814681
            ],
            [
              144.973231,
              -37.814684
            ],
            [
              144.973227,
              -37.814675
            ]
          ],
          [
            [
              144.973231,
              -37.814595
            ],
            [
              144.973235,
              -37.814596
            ],
            [
              144.973268,
              -37.814587
            ],
            [
              144.973274,
              -37.814599
            ],
            [
              144.973399,
              -37.814562
            ],
            [
              144.973393,
              -37.814549
            ],
            [
              144.973425,
              -37.81454
            ],
            [
              144.973425,
              -37.814542
            ],
            [
              144.973424,
              -37.814545
            ],
            [
              144.973422,
              -37.814547
            ],
            [
              144.973421,
              -37.81455
            ],
            [
              144.973415,
              -37.814556
            ],
            [
              144.973412,
              -37.814557
            ],
            [
              144.97341,
              -37.814559
            ],
            [
              144.973404,
              -37.814561
            ],
            [
              144.973259,
              -37.814604
            ],
            [
              144.973256,
              -37.814604
            ],
            [
              144.973231,
              -37.814595
            ]
          ],
          [
            [
              144.973299,
              -37.814654
            ],
            [
              144.97331,
              -37.814651
            ],
            [
              144.973314,
              -37.81466
            ],
            [
              144.973303,
              -37.814663
            ],
            [
              144.973299,
              -37.814654
            ]
          ],
          [
            [
              144.973372,
              -37.814628
            ],
            [
              144.973372,
              -37.814627
            ],
            [
              144.973374,
              -37.814627
            ],
            [
              144.973502,
              -37.814589
            ],
            [
              144.973508,
              -37.814587
            ],
            [
              144.973509,
              -37.81459
            ],
            [
              144.973373,
              -37.81463
            ],
            [
              144.973372,
              -37.814628
            ]
          ],
          [
            [
              144.973404,
              -37.814561
            ],
            [
              144.97342950000015,
              -37.81455365909086
            ],
            [
              144.973419,
              -37.814557
            ],
            [
              144.973404,
              -37.814561
            ]
          ],
          [
            [
              144.973527,
              -37.814587
            ],
            [
              144.973538,
              -37.814584
            ],
            [
              144.973542,
              -37.814593
            ],
            [
              144.973531,
              -37.814596
            ],
            [
              144.973527,
              -37.814587
            ]
          ],
          [
            [
              144.973628,
              -37.814558
            ],
            [
              144.973639,
              -37.814555
            ],
            [
              144.973643,
              -37.814563
            ],
            [
              144.973632,
              -37.814566
            ],
            [
              144.973628,
              -37.814558
            ]
          ],
          [
            [
              144.973731,
              -37.814528
            ],
            [
              144.973741,
              -37.814525
            ],
            [
              144.973745,
              -37.814533
            ],
            [
              144.973735,
              -37.814536
            ],
            [
              144.973731,
              -37.814528
            ]
          ],
          [
            [
              144.973934,
              -37.814468
            ],
            [
              144.973944,
              -37.814465
            ],
            [
              144.973948,
              -37.814473
            ],
            [
              144.973938,
              -37.814477
            ],
            [
              144.973934,
              -37.814468
            ]
          ],
          [
            [
              144.974035,
              -37.814439
            ],
            [
              144.974046,
              -37.814435
            ],
            [
              144.97405,
              -37.814444
            ],
            [
              144.974039,
              -37.814447
            ],
            [
              144.974035,
              -37.814439
            ]
          ],
          [
            [
              144.974136,
              -37.814409
            ],
            [
              144.974147,
              -37.814406
            ],
            [
              144.974151,
              -37.814414
            ],
            [
              144.97414,
              -37.814417
            ],
            [
              144.974136,
              -37.814409
            ]
          ],
          [
            [
              144.974147,
              -37.814406
            ],
            [
              144.974237,
              -37.814379
            ],
            [
              144.9742400720721,
              -37.81437816216216
            ],
            [
              144.974244,
              -37.814387
            ],
            [
              144.974228,
              -37.814392
            ],
            [
              144.974224,
              -37.814383
            ],
            [
              144.974147,
              -37.814406
            ]
          ]
        ]
      }
    }
  ]
}