{
  "type": "FeatureCollection",
  "features": [
    {
      "type": "Feature",
      "properties": {
        "name": "polygon15"
      },
      "geometry": {
        "type": "Polygon",
        "coordinates": [
          [
            [
              144.981668,
              -37.818648
            ],
            [
              144.981733,
              -37.818655
            ],
            [
              144.981744,
              -37.818655
            ],
            [
              144.981756,
              -37.818652
            ],
            [
              144.981767,
              -37.818649
            ],
            [
              144.981777,
              -37.818645
            ],
            [
              144.981788,
              -37.818639
            ],
            [
              144.98179,
              -37.818638
            ],
            [
              144.981796,
              -37.818632
            ],
            [
              144.981806,
              -37.818621
            ],
            [
              144.981813,
              -37.81861
            ],
            [
              144.981817,
              -37.818601
            ],
            [
              144.981819,
              -37.818589
            ],
            [
              144.981823,
              -37.818566
            ],
            [
              144.981829,
              -37.818534
            ],
            [
              144.981865,
              -37.818327
            ],
            [
              144.981904,
              -37.818112
            ],
            [
              144.981938,
              -37.817913
            ],
            [
              144.98198,
              -37.817658
            ],
            [
              144.98202,
              -37.817429
            ],
            [
              144.982068,
              -37.817147
            ],
            [
              144.982099,
              -37.816969
            ],
            [
              144.98211,
              -37.816905
            ],
            [
              144.982101,
              -37.816906
            ],
            [
              144.982087,
              -37.816905
            ],
            [
              144.982068,
              -37.816903
            ],
            [
              144.982065,
              -37.816918
            ],
            [
              144.982065,
              -37.81692
            ],
            [
              144.982064,
              -37.816921
            ],
            [
              144.982062,
              -37.816922
            ],
            [
              144.982059,
              -37.816923
            ],
            [
              144.982051,
              -37.816922
            ],
            [
              144.98205,
              -37.816922
            ],
            [
              144.982047,
              -37.816921
            ],
            [
              144.982046,
              -37.81692
            ],
            [
              144.982045,
              -37.816918
            ],
            [
              144.982045,
              -37.816916
            ],
            [
              144.982048,
              -37.816902
            ],
            [
              144.982012,
              -37.816899
            ],
            [
              144.982015,
              -37.816881
            ],
            [
              144.982005,
              -37.81688
            ],
            [
              144.982001,
              -37.816899
            ],
            [
              144.981998,
              -37.816899
            ],
            [
              144.981977,
              -37.816897
            ],
            [
              144.981687,
              -37.818537
            ],
            [
              144.981685,
              -37.81855
            ],
            [
              144.981704,
              -37.818552
            ],
            [
              144.981708,
              -37.818552
            ],
            [
              144.981708,
              -37.818551
            ],
            [
              144.98171,
              -37.818551
            ],
            [
              144.98171,
              -37.81855
            ],
            [
              144.981711,
              -37.81855
            ],
            [
              144.981711,
              -37.818548
            ],
            [
              144.981713,
              -37.818539
            ],
            [
              144.981716,
              -37.81854
            ],
            [
              144.981719,
              -37.81854
            ],
            [
              144.981718,
              -37.818549
            ],
            [
              144.981717,
              -37.818549
            ],
            [
              144.981717,
              -37.818551
            ],
            [
              144.981716,
              -37.818551
            ],
            [
              144.981716,
              -37.818553
            ],
            [
              144.981715,
              -37.818553
            ],
            [
              144.981715,
              -37.818554
            ],
            [
              144.981714,
              -37.818554
            ],
            [
              144.981714,
              -37.818555
            ],
            [
              144.981712,
              -37.818555
            ],
            [
              144.981712,
              -37.818556
            ],
            [
              144.981709,
              -37.818556
            ],
            [
              144.981709,
              -37.818557
            ],
            [
              144.981704,
              -37.818557
            ],
            [
              144.981684,
              -37.818555
            ],
            [
              144.981668,
              -37.818648
            ]
          ]
        ]
      }
    }
  ]
}