{
  "type": "FeatureCollection",
  "features": [
    {
      "type": "Feature",
      "properties": {
        "name": "polygon85"
      },
      "geometry": {
        "type": "MultiPolygon",
        "coordinates": [
          [
            [
              [
                144.957613,
                -37.814774
              ],
              [
                144.957614,
                -37.814776
              ],
              [
                144.957614,
                -37.814777
              ],
              [
                144.957615,
                -37.814779
              ],
              [
                144.957623,
                -37.814799
              ],
              [
                144.957626,
                -37.814806
              ],
              [
                144.957983,
                -37.815598
              ],
              [
                144.958004,
                -37.815643
              ],
              [
                144.958005,
                -37.815645
              ],
              [
                144.958006,
                -37.815648
              ],
              [
                144.958032,
                -37.815702
              ],
              [
                144.958168,
                -37.815663
              ],
              [
                144.958121,
                -37.815561
              ],
              [
                144.957755,
                -37.814762
              ],
              [
                144.957663,
                -37.814788
              ],
              [
                144.95766,
                -37.814781
              ],
              [
                144.95766,
                -37.81478
              ],
              [
                144.957657,
                -37.814777
              ],
              [
                144.957657,
                -37.814776
              ],
              [
                144.957656,
                -37.814776
              ],
              [
                144.957656,
                -37.814775
              ],
              [
                144.957655,
                -37.814775
              ],
              [
                144.957654,
                -37.814774
              ],
              [
                144.957653,
                -37.814774
              ],
              [
                144.957651,
                -37.814772
              ],
              [
                144.95765,
                -37.814772
              ],
              [
                144.957649,
                -37.814771
              ],
              [
                144.957648,
                -37.814771
              ],
              [
                144.957647,
                -37.81477
              ],
              [
                144.957644,
                -37.81477
              ],
              [
                144.957644,
                -37.814769
              ],
              [
                144.95763,
                -37.814769
              ],
              [
                144.957629,
                -37.81477
              ],
              [
                144.957613,
                -37.814774
              ]
            ]
          ],
          [
            [
              [
                144.957822,
                -37.814742
              ],
              [
                144.958189,
                -37.815543
              ],
              [
                144.958236,
                -37.815644
              ],
              [
                144.958358,
                -37.815609
              ],
              [
                144.958333,
                -37.815554
              ],
              [
                144.958332,
                -37.815552
              ],
              [
                144.958331,
                -37.815549
              ],
              [
                144.958312,
                -37.81551
              ],
              [
                144.958137,
                -37.815129
              ],
              [
                144.958137,
                -37.815127
              ],
              [
                144.958136,
                -37.815127
              ],
              [
                144.958118,
                -37.815084
              ],
              [
                144.958114,
                -37.815076
              ],
              [
                144.957944,
                -37.814708
              ],
              [
                144.957936,
                -37.814688
              ],
              [
                144.957935,
                -37.814686
              ],
              [
                144.957935,
                -37.814684
              ],
              [
                144.957932,
                -37.814684
              ],
              [
                144.957931,
                -37.814685
              ],
              [
                144.957929,
                -37.814686
              ],
              [
                144.957927,
                -37.814686
              ],
              [
                144.957925,
                -37.814687
              ],
              [
                144.957924,
                -37.814688
              ],
              [
                144.957922,
                -37.814689
              ],
              [
                144.957921,
                -37.81469
              ],
              [
                144.957919,
                -37.814691
              ],
              [
                144.957918,
                -37.814692
              ],
              [
                144.957916,
                -37.814693
              ],
              [
                144.957913,
                -37.814696
              ],
              [
                144.957912,
                -37.814698
              ],
              [
                144.957909,
                -37.814701
              ],
              [
                144.957908,
                -37.814703
              ],
              [
                144.957907,
                -37.814704
              ],
              [
                144.957907,
                -37.814706
              ],
              [
                144.957906,
                -37.814708
              ],
              [
                144.957905,
                -37.814709
              ],
              [
                144.957905,
                -37.814714
              ],
              [
                144.957904,
                -37.814716
              ],
              [
                144.957904,
                -37.814717
              ],
              [
                144.957905,
                -37.814718
              ],
              [
                144.957905,
                -37.814719
              ],
              [
                144.957822,
                -37.814742
              ]
            ],
            [
              [
                144.957935,
                -37.814776
              ],
              [
                144.957948,
                -37.814773
              ],
              [
                144.957955,
                -37.814787
              ],
              [
                144.957942,
                -37.81479
              ],
              [
                144.957935,
                -37.814776
              ]
            ],
            [
              [
                144.95798,
                -37.814876
              ],
              [
                144.957995,
                -37.814871
              ],
              [
                144.958002,
                -37.814885
              ],
              [
                144.957987,
                -37.814889
              ],
              [
                144.95798,
                -37.814876
              ]
            ],
            [
              [
                144.95802,
                -37.814963
              ],
              [
                144.958035,
                -37.814959
              ],
              [
                144.958041,
                -37.814972
              ],
              [
                144.958026,
                -37.814977
              ],
              [
                144.95802,
                -37.814963
              ]
            ],
            [
              [
                144.958138,
                -37.815221
              ],
              [
                144.958153,
                -37.815217
              ],
              [
                144.958159,
                -37.815231
              ],
              [
                144.958144,
                -37.815235
              ],
              [
                144.958138,
                -37.815221
              ]
            ],
            [
              [
                144.958187,
                -37.815328
              ],
              [
                144.958202,
                -37.815324
              ],
              [
                144.958208,
                -37.815337
              ],
              [
                144.958194,
                -37.815341
              ],
              [
                144.958187,
                -37.815328
              ]
            ]
          ]
        ]
      }
    }
  ]
}