{
  "type": "FeatureCollection",
  "features": [
    {
      "type": "Feature",
      "properties": {
        "name": "polygon15"
      },
      "geometry": {
        "type": "MultiPolygon",
        "coordinates": [
          [
            [
              [
                144.953642,
                -37.798926
              ],
              [
                144.953702,
                -37.798975
              ],
              [
                144.953761,
                -37.798929
              ],
              [
                144.953762,
                -37.798928
              ],
              [
                144.953764,
                -37.798928
              ],
              [
                144.953764,
                -37.798927
              ],
              [
                144.953767,
                -37.798927
              ],
              [
                144.953767,
                -37.798928
              ],
              [
                144.95377,
                -37.798928
              ],
              [
                144.95377,
                -37.798929
              ],
              [
                144.953821,
                -37.798969
              ],
              [
                144.953821,
                -37.79897
              ],
              [
                144.953822,
                -37.79897
              ],
              [
                144.953822,
                -37.798972
              ],
              [
                144.953823,
                -37.798972
              ],
              [
                144.953823,
                -37.798974
              ],
              [
                144.953822,
                -37.798975
              ],
              [
                144.953822,
                -37.798976
              ],
              [
                144.953821,
                -37.798976
              ],
              [
                144.953821,
                -37.798977
              ],
              [
                144.953762,
                -37.799023
              ],
              [
                144.953821,
                -37.799071
              ],
              [
                144.953833,
                -37.799061
              ],
              [
                144.953869,
                -37.799032
              ],
              [
                144.953871,
                -37.799031
              ],
              [
                144.953872,
                -37.79903
              ],
              [
                144.953873,
                -37.79903
              ],
              [
                144.953874,
                -37.799029
              ],
              [
                144.953875,
                -37.799029
              ],
              [
                144.953876,
                -37.799028
              ],
              [
                144.953879,
                -37.799028
              ],
              [
                144.953879,
                -37.799027
              ],
              [
                144.953892,
                -37.799027
              ],
              [
                144.953892,
                -37.799028
              ],
              [
                144.953895,
                -37.799028
              ],
              [
                144.953896,
                -37.799029
              ],
              [
                144.953897,
                -37.799029
              ],
              [
                144.953898,
                -37.79903
              ],
              [
                144.953899,
                -37.79903
              ],
              [
                144.9539,
                -37.799031
              ],
              [
                144.953902,
                -37.799032
              ],
              [
                144.953906,
                -37.799035
              ],
              [
                144.953904,
                -37.799037
              ],
              [
                144.953901,
                -37.799038
              ],
              [
                144.953898,
                -37.799036
              ],
              [
                144.953896,
                -37.799034
              ],
              [
                144.953894,
                -37.799034
              ],
              [
                144.953893,
                -37.799033
              ],
              [
                144.953892,
                -37.799033
              ],
              [
                144.953891,
                -37.799032
              ],
              [
                144.95388,
                -37.799032
              ],
              [
                144.953879,
                -37.799033
              ],
              [
                144.953877,
                -37.799033
              ],
              [
                144.953876,
                -37.799034
              ],
              [
                144.953875,
                -37.799034
              ],
              [
                144.953873,
                -37.799036
              ],
              [
                144.953837,
                -37.799065
              ],
              [
                144.953825,
                -37.799074
              ],
              [
                144.953853,
                -37.799097
              ],
              [
                144.954225,
                -37.799394
              ],
              [
                144.954234,
                -37.799401
              ],
              [
                144.954237,
                -37.799403
              ],
              [
                144.954239,
                -37.799405
              ],
              [
                144.954285,
                -37.799442
              ],
              [
                144.954287,
                -37.799443
              ],
              [
                144.95429,
                -37.799445
              ],
              [
                144.954299,
                -37.799453
              ],
              [
                144.954603,
                -37.799697
              ],
              [
                144.954666,
                -37.799748
              ],
              [
                144.954695,
                -37.799771
              ],
              [
                144.95472,
                -37.799751
              ],
              [
                144.954724,
                -37.799755
              ],
              [
                144.9547,
                -37.799774
              ],
              [
                144.954781,
                -37.799837
              ],
              [
                144.954829,
                -37.799799
              ],
              [
                144.95483,
                -37.799798
              ],
              [
                144.954832,
                -37.799798
              ],
              [
                144.954834,
                -37.799797
              ],
              [
                144.954841,
                -37.799797
              ],
              [
                144.954842,
                -37.799798
              ],
              [
                144.954844,
                -37.799798
              ],
              [
                144.954846,
                -37.7998
              ],
              [
                144.955021,
                -37.799679
              ],
              [
                144.95486,
                -37.79955
              ],
              [
                144.95481,
                -37.79951
              ],
              [
                144.954419,
                -37.7992
              ],
              [
                144.954242,
                -37.799058
              ],
              [
                144.954073,
                -37.798923
              ],
              [
                144.953907,
                -37.798791
              ],
              [
                144.953831,
                -37.79873
              ],
              [
                144.953784,
                -37.798767
              ],
              [
                144.953856,
                -37.798824
              ],
              [
                144.954026,
                -37.79896
              ],
              [
                144.954022,
                -37.798963
              ],
              [
                144.954002,
                -37.798947
              ],
              [
                144.953853,
                -37.798827
              ],
              [
                144.95378,
                -37.79877
              ],
              [
                144.953779,
                -37.798771
              ],
              [
                144.95375,
                -37.798794
              ],
              [
                144.953748,
                -37.798795
              ],
              [
                144.953746,
                -37.798797
              ],
              [
                144.953684,
                -37.798847
              ],
              [
                144.953712,
                -37.798869
              ],
              [
                144.953697,
                -37.798881
              ],
              [
                144.953696,
                -37.798883
              ],
              [
                144.953693,
                -37.798885
              ],
              [
                144.953642,
                -37.798926
              ]
            ],
            [
              [
                144.953875,
                -37.799076
              ],
              [
                144.953904,
                -37.799053
              ],
              [
                144.953909,
                -37.799053
              ],
              [
                144.953918,
                -37.799052
              ],
              [
                144.953948,
                -37.799076
              ],
              [
                144.953927,
                -37.799092
              ],
              [
                144.953911,
                -37.799104
              ],
              [
                144.953878,
                -37.799078
              ],
              [
                144.953877,
                -37.799078
              ],
              [
                144.953875,
                -37.799076
              ]
            ],
            [
              [
                144.953941,
                -37.799128
              ],
              [
                144.953977,
                -37.799099
              ],
              [
                144.954034,
                -37.799144
              ],
              [
                144.954089,
                -37.799188
              ],
              [
                144.954052,
                -37.799217
              ],
              [
                144.953941,
                -37.799128
              ]
            ],
            [
              [
                144.954076,
                -37.799236
              ],
              [
                144.954113,
                -37.799207
              ],
              [
                144.954295,
                -37.799353
              ],
              [
                144.954259,
                -37.799382
              ],
              [
                144.95425,
                -37.799375
              ],
              [
                144.954076,
                -37.799236
              ]
            ],
            [
              [
                144.954314,
                -37.799426
              ],
              [
                144.95432,
                -37.799422
              ],
              [
                144.954334,
                -37.799411
              ],
              [
                144.95435,
                -37.799398
              ],
              [
                144.954352,
                -37.799398
              ],
              [
                144.954506,
                -37.799521
              ],
              [
                144.954665,
                -37.799648
              ],
              [
                144.95463,
                -37.799676
              ],
              [
                144.954314,
                -37.799426
              ]
            ]
          ],
          [
            [
              [
                144.953878,
                -37.798693
              ],
              [
                144.954073,
                -37.798849
              ],
              [
                144.954119,
                -37.798886
              ],
              [
                144.954309,
                -37.799037
              ],
              [
                144.954471,
                -37.799166
              ],
              [
                144.954901,
                -37.799509
              ],
              [
                144.95507,
                -37.799644
              ],
              [
                144.955303,
                -37.79948
              ],
              [
                144.955248,
                -37.799435
              ],
              [
                144.955246,
                -37.799434
              ],
              [
                144.955242,
                -37.79943
              ],
              [
                144.955186,
                -37.799386
              ],
              [
                144.95517,
                -37.799384
              ],
              [
                144.955168,
                -37.799384
              ],
              [
                144.955167,
                -37.799383
              ],
              [
                144.955166,
                -37.799383
              ],
              [
                144.955166,
                -37.799382
              ],
              [
                144.955165,
                -37.799382
              ],
              [
                144.955165,
                -37.799381
              ],
              [
                144.955164,
                -37.799381
              ],
              [
                144.955164,
                -37.799375
              ],
              [
                144.955165,
                -37.799369
              ],
              [
                144.955098,
                -37.799315
              ],
              [
                144.955094,
                -37.799312
              ],
              [
                144.954339,
                -37.798712
              ],
              [
                144.954096,
                -37.798519
              ],
              [
                144.954072,
                -37.798539
              ],
              [
                144.954182,
                -37.798627
              ],
              [
                144.954303,
                -37.798724
              ],
              [
                144.954269,
                -37.798755
              ],
              [
                144.95411,
                -37.798629
              ],
              [
                144.954035,
                -37.798568
              ],
              [
                144.954032,
                -37.79857
              ],
              [
                144.954023,
                -37.798577
              ],
              [
                144.953961,
                -37.798627
              ],
              [
                144.953959,
                -37.798629
              ],
              [
                144.953957,
                -37.79863
              ],
              [
                144.953928,
                -37.798652
              ],
              [
                144.953927,
                -37.798654
              ],
              [
                144.953924,
                -37.798656
              ],
              [
                144.953878,
                -37.798693
              ]
            ],
            [
              [
                144.954393,
                -37.798854
              ],
              [
                144.954411,
                -37.798842
              ],
              [
                144.954434,
                -37.798828
              ],
              [
                144.954976,
                -37.79926
              ],
              [
                144.954938,
                -37.79929
              ],
              [
                144.954936,
                -37.799287
              ],
              [
                144.954702,
                -37.799101
              ],
              [
                144.954697,
                -37.799097
              ],
              [
                144.954521,
                -37.798984
              ],
              [
                144.95452,
                -37.798984
              ],
              [
                144.95452,
                -37.79898
              ],
              [
                144.954522,
                -37.798978
              ],
              [
                144.954531,
                -37.79897
              ],
              [
                144.954532,
                -37.79897
              ],
              [
                144.954532,
                -37.798966
              ],
              [
                144.954531,
                -37.798966
              ],
              [
                144.954521,
                -37.798957
              ],
              [
                144.954393,
                -37.798854
              ]
            ]
          ]
        ]
      }
    }
  ]
}