{
  "type": "FeatureCollection",
  "features": [
    {
      "type": "Feature",
      "properties": {
        "name": "polygon147"
      },
      "geometry": {
        "type": "MultiPolygon",
        "coordinates": [
          [
            [
              [
                144.958264,
                -37.810074
              ],
              [
                144.958265,
                -37.810076
              ],
              [
                144.958266,
                -37.810079
              ],
              [
                144.958275,
                -37.8101
              ],
              [
                144.958358,
                -37.81028
              ],
              [
                144.958417,
                -37.810406
              ],
              [
                144.958476,
                -37.810533
              ],
              [
                144.958674,
                -37.810958
              ],
              [
                144.958712,
                -37.810947
              ],
              [
                144.958714,
                -37.810952
              ],
              [
                144.958716,
                -37.810956
              ],
              [
                144.958717,
                -37.81096
              ],
              [
                144.958717,
                -37.810961
              ],
              [
                144.958716,
                -37.810966
              ],
              [
                144.958714,
                -37.810971
              ],
              [
                144.958709,
                -37.810978
              ],
              [
                144.958705,
                -37.810982
              ],
              [
                144.958698,
                -37.810987
              ],
              [
                144.958689,
                -37.81099
              ],
              [
                144.958689,
                -37.810991
              ],
              [
                144.958691,
                -37.810995
              ],
              [
                144.958724,
                -37.811063
              ],
              [
                144.958884,
                -37.811017
              ],
              [
                144.958888,
                -37.811015
              ],
              [
                144.959047,
                -37.810969
              ],
              [
                144.959016,
                -37.810901
              ],
              [
                144.959016,
                -37.8109
              ],
              [
                144.959014,
                -37.810896
              ],
              [
                144.959005,
                -37.810899
              ],
              [
                144.958998,
                -37.810899
              ],
              [
                144.958992,
                -37.810898
              ],
              [
                144.958985,
                -37.810897
              ],
              [
                144.958978,
                -37.810893
              ],
              [
                144.958971,
                -37.810888
              ],
              [
                144.958966,
                -37.810882
              ],
              [
                144.958962,
                -37.810873
              ],
              [
                144.958998,
                -37.810862
              ],
              [
                144.958915,
                -37.810682
              ],
              [
                144.958915,
                -37.810681
              ],
              [
                144.958914,
                -37.810679
              ],
              [
                144.958914,
                -37.810678
              ],
              [
                144.958894,
                -37.810637
              ],
              [
                144.958894,
                -37.810636
              ],
              [
                144.958893,
                -37.810634
              ],
              [
                144.958892,
                -37.810631
              ],
              [
                144.958772,
                -37.810371
              ],
              [
                144.958739,
                -37.810301
              ],
              [
                144.9586,
                -37.810001
              ],
              [
                144.958592,
                -37.809983
              ],
              [
                144.958586,
                -37.809985
              ],
              [
                144.958581,
                -37.809988
              ],
              [
                144.958576,
                -37.809992
              ],
              [
                144.958573,
                -37.809996
              ],
              [
                144.95857,
                -37.810001
              ],
              [
                144.958568,
                -37.810005
              ],
              [
                144.958568,
                -37.810006
              ],
              [
                144.958567,
                -37.81001
              ],
              [
                144.958567,
                -37.810011
              ],
              [
                144.958564,
                -37.810012
              ],
              [
                144.958561,
                -37.810012
              ],
              [
                144.958442,
                -37.810049
              ],
              [
                144.958321,
                -37.810086
              ],
              [
                144.958321,
                -37.810085
              ],
              [
                144.958319,
                -37.810084
              ],
              [
                144.958318,
                -37.810082
              ],
              [
                144.958315,
                -37.81008
              ],
              [
                144.958311,
                -37.810078
              ],
              [
                144.958309,
                -37.810076
              ],
              [
                144.958306,
                -37.810075
              ],
              [
                144.958304,
                -37.810074
              ],
              [
                144.958301,
                -37.810073
              ],
              [
                144.958299,
                -37.810073
              ],
              [
                144.958293,
                -37.810071
              ],
              [
                144.958276,
                -37.810071
              ],
              [
                144.958273,
                -37.810072
              ],
              [
                144.958271,
                -37.810072
              ],
              [
                144.958268,
                -37.810073
              ],
              [
                144.958264,
                -37.810074
              ]
            ],
            [
              [
                144.958604,
                -37.810097
              ],
              [
                144.958619,
                -37.810093
              ],
              [
                144.958628,
                -37.810111
              ],
              [
                144.958613,
                -37.810116
              ],
              [
                144.958604,
                -37.810097
              ]
            ],
            [
              [
                144.958653,
                -37.810203
              ],
              [
                144.958668,
                -37.810199
              ],
              [
                144.958677,
                -37.810217
              ],
              [
                144.958661,
                -37.810222
              ],
              [
                144.958653,
                -37.810203
              ]
            ],
            [
              [
                144.95869,
                -37.810283
              ],
              [
                144.958705,
                -37.810279
              ],
              [
                144.958714,
                -37.810298
              ],
              [
                144.958698,
                -37.810302
              ],
              [
                144.95869,
                -37.810283
              ]
            ],
            [
              [
                144.958887,
                -37.810711
              ],
              [
                144.958908,
                -37.810705
              ],
              [
                144.958933,
                -37.81076
              ],
              [
                144.958912,
                -37.810766
              ],
              [
                144.958887,
                -37.810711
              ]
            ]
          ],
          [
            [
              [
                144.958747,
                -37.811113
              ],
              [
                144.958779,
                -37.811179
              ],
              [
                144.958786,
                -37.811177
              ],
              [
                144.958792,
                -37.811176
              ],
              [
                144.958794,
                -37.811175
              ],
              [
                144.958798,
                -37.811175
              ],
              [
                144.958799,
                -37.811174
              ],
              [
                144.958805,
                -37.811174
              ],
              [
                144.958809,
                -37.811175
              ],
              [
                144.958811,
                -37.811175
              ],
              [
                144.958816,
                -37.811177
              ],
              [
                144.958817,
                -37.811178
              ],
              [
                144.958821,
                -37.81118
              ],
              [
                144.958821,
                -37.811181
              ],
              [
                144.958826,
                -37.811187
              ],
              [
                144.958835,
                -37.811206
              ],
              [
                144.959073,
                -37.811136
              ],
              [
                144.959073,
                -37.811135
              ],
              [
                144.959072,
                -37.811134
              ],
              [
                144.95907,
                -37.811122
              ],
              [
                144.95907,
                -37.811116
              ],
              [
                144.959071,
                -37.811111
              ],
              [
                144.959073,
                -37.811107
              ],
              [
                144.959073,
                -37.811106
              ],
              [
                144.959076,
                -37.811103
              ],
              [
                144.959076,
                -37.811102
              ],
              [
                144.95908,
                -37.811098
              ],
              [
                144.959083,
                -37.811096
              ],
              [
                144.959084,
                -37.811095
              ],
              [
                144.959094,
                -37.81109
              ],
              [
                144.959095,
                -37.81109
              ],
              [
                144.959102,
                -37.811088
              ],
              [
                144.95907,
                -37.811019
              ],
              [
                144.958907,
                -37.811067
              ],
              [
                144.958904,
                -37.811068
              ],
              [
                144.958747,
                -37.811113
              ]
            ]
          ]
        ]
      }
    }
  ]
}