{
  "type": "FeatureCollection",
  "features": [
    {
      "type": "Feature",
      "properties": {
        "name": "polygon44"
      },
      "geometry": {
        "type": "Polygon",
        "coordinates": [
          [
            [
              144.957021,
              -37.80586
            ],
            [
              144.957076,
              -37.805867
            ],
            [
              144.957082,
              -37.805867
            ],
            [
              144.957119,
              -37.805871
            ],
            [
              144.957155,
              -37.805875
            ],
            [
              144.957159,
              -37.805876
            ],
            [
              144.957162,
              -37.805876
            ],
            [
              144.95725,
              -37.805886
            ],
            [
              144.957282,
              -37.805695
            ],
            [
              144.957282,
              -37.805693
            ],
            [
              144.957288,
              -37.805667
            ],
            [
              144.957289,
              -37.805665
            ],
            [
              144.957289,
              -37.805664
            ],
            [
              144.957312,
              -37.805534
            ],
            [
              144.957379,
              -37.805166
            ],
            [
              144.957348,
              -37.805162
            ],
            [
              144.957345,
              -37.805162
            ],
            [
              144.957258,
              -37.805655
            ],
            [
              144.957255,
              -37.805655
            ],
            [
              144.957342,
              -37.805162
            ],
            [
              144.957262,
              -37.805152
            ],
            [
              144.957183,
              -37.805143
            ],
            [
              144.957183,
              -37.80514
            ],
            [
              144.957184,
              -37.805139
            ],
            [
              144.957184,
              -37.805136
            ],
            [
              144.957183,
              -37.805135
            ],
            [
              144.957183,
              -37.805132
            ],
            [
              144.957182,
              -37.805131
            ],
            [
              144.957182,
              -37.80513
            ],
            [
              144.957181,
              -37.805129
            ],
            [
              144.957181,
              -37.805127
            ],
            [
              144.95718,
              -37.805127
            ],
            [
              144.95718,
              -37.805126
            ],
            [
              144.957177,
              -37.805123
            ],
            [
              144.957177,
              -37.805122
            ],
            [
              144.957176,
              -37.805122
            ],
            [
              144.957175,
              -37.805121
            ],
            [
              144.957174,
              -37.805121
            ],
            [
              144.957174,
              -37.80512
            ],
            [
              144.957173,
              -37.80512
            ],
            [
              144.957172,
              -37.805119
            ],
            [
              144.957171,
              -37.805119
            ],
            [
              144.95717,
              -37.805118
            ],
            [
              144.957169,
              -37.805118
            ],
            [
              144.957169,
              -37.805117
            ],
            [
              144.957167,
              -37.805117
            ],
            [
              144.957165,
              -37.805116
            ],
            [
              144.957163,
              -37.805116
            ],
            [
              144.957162,
              -37.805115
            ],
            [
              144.957159,
              -37.805115
            ],
            [
              144.957155,
              -37.805114
            ],
            [
              144.957154,
              -37.805117
            ],
            [
              144.957154,
              -37.805119
            ],
            [
              144.95715,
              -37.805139
            ],
            [
              144.957148,
              -37.805148
            ],
            [
              144.957121,
              -37.805306
            ],
            [
              144.957119,
              -37.805321
            ],
            [
              144.957107,
              -37.805384
            ],
            [
              144.957061,
              -37.80565
            ],
            [
              144.95706,
              -37.805652
            ],
            [
              144.957055,
              -37.80568
            ],
            [
              144.957055,
              -37.805682
            ],
            [
              144.957021,
              -37.80586
            ]
          ],
          [
            [
              144.957265,
              -37.805633
            ],
            [
              144.957266,
              -37.805624
            ],
            [
              144.957278,
              -37.805626
            ],
            [
              144.957276,
              -37.805635
            ],
            [
              144.957265,
              -37.805633
            ]
          ]
        ]
      }
    }
  ]
}