{
  "type": "FeatureCollection",
  "features": [
    {
      "type": "Feature",
      "properties": {
        "name": "polygon56"
      },
      "geometry": {
        "type": "MultiPolygon",
        "coordinates": [
          [
            [
              [
                144.966414,
                -37.808729
              ],
              [
                144.966447,
                -37.808801
              ],
              [
                144.96663,
                -37.808747
              ],
              [
                144.966922,
                -37.808663
              ],
              [
                144.967342,
                -37.808539
              ],
              [
                144.967677,
                -37.808441
              ],
              [
                144.968079,
                -37.808325
              ],
              [
                144.968593,
                -37.808173
              ],
              [
                144.968595,
                -37.808173
              ],
              [
                144.968562,
                -37.808101
              ],
              [
                144.96855,
                -37.808105
              ],
              [
                144.96855,
                -37.808104
              ],
              [
                144.968549,
                -37.808103
              ],
              [
                144.968548,
                -37.808101
              ],
              [
                144.968547,
                -37.8081
              ],
              [
                144.96856,
                -37.808096
              ],
              [
                144.968572,
                -37.808093
              ],
              [
                144.968587,
                -37.808086
              ],
              [
                144.968601,
                -37.808077
              ],
              [
                144.968611,
                -37.808068
              ],
              [
                144.968618,
                -37.808058
              ],
              [
                144.968621,
                -37.808049
              ],
              [
                144.968549,
                -37.80807
              ],
              [
                144.967774,
                -37.808297
              ],
              [
                144.967772,
                -37.808297
              ],
              [
                144.967734,
                -37.808308
              ],
              [
                144.967732,
                -37.808309
              ],
              [
                144.96773,
                -37.808309
              ],
              [
                144.9676,
                -37.808347
              ],
              [
                144.966459,
                -37.808678
              ],
              [
                144.966472,
                -37.808708
              ],
              [
                144.966435,
                -37.808719
              ],
              [
                144.966437,
                -37.808723
              ],
              [
                144.966424,
                -37.808727
              ],
              [
                144.966424,
                -37.808728
              ],
              [
                144.966418,
                -37.808729
              ],
              [
                144.966414,
                -37.808729
              ]
            ],
            [
              [
                144.966496,
                -37.80869
              ],
              [
                144.966511,
                -37.808685
              ],
              [
                144.966516,
                -37.808695
              ],
              [
                144.966501,
                -37.8087
              ],
              [
                144.966496,
                -37.80869
              ]
            ],
            [
              [
                144.966635,
                -37.808649
              ],
              [
                144.96665,
                -37.808645
              ],
              [
                144.966654,
                -37.808655
              ],
              [
                144.966639,
                -37.808659
              ],
              [
                144.966635,
                -37.808649
              ]
            ],
            [
              [
                144.967133,
                -37.808504
              ],
              [
                144.967148,
                -37.8085
              ],
              [
                144.967152,
                -37.80851
              ],
              [
                144.967137,
                -37.808514
              ],
              [
                144.967133,
                -37.808504
              ]
            ],
            [
              [
                144.967705,
                -37.808337
              ],
              [
                144.967718,
                -37.808333
              ],
              [
                144.967722,
                -37.808343
              ],
              [
                144.96771,
                -37.808347
              ],
              [
                144.967705,
                -37.808337
              ]
            ],
            [
              [
                144.968073,
                -37.808229
              ],
              [
                144.968088,
                -37.808225
              ],
              [
                144.968093,
                -37.808235
              ],
              [
                144.968078,
                -37.80824
              ],
              [
                144.968073,
                -37.808229
              ]
            ],
            [
              [
                144.968293,
                -37.808165
              ],
              [
                144.968308,
                -37.80816
              ],
              [
                144.968313,
                -37.80817
              ],
              [
                144.968298,
                -37.808175
              ],
              [
                144.968293,
                -37.808165
              ]
            ],
            [
              [
                144.968416,
                -37.808128
              ],
              [
                144.968431,
                -37.808124
              ],
              [
                144.968436,
                -37.808134
              ],
              [
                144.968421,
                -37.808139
              ],
              [
                144.968416,
                -37.808128
              ]
            ]
          ],
          [
            [
              [
                144.96647,
                -37.808849
              ],
              [
                144.966501,
                -37.808916
              ],
              [
                144.966502,
                -37.808919
              ],
              [
                144.966503,
                -37.808921
              ],
              [
                144.966516,
                -37.80895
              ],
              [
                144.966741,
                -37.808885
              ],
              [
                144.966742,
                -37.808884
              ],
              [
                144.966744,
                -37.808884
              ],
              [
                144.966747,
                -37.808883
              ],
              [
                144.966787,
                -37.808871
              ],
              [
                144.966802,
                -37.808866
              ],
              [
                144.967984,
                -37.808522
              ],
              [
                144.967987,
                -37.808522
              ],
              [
                144.967986,
                -37.80852
              ],
              [
                144.967989,
                -37.808519
              ],
              [
                144.967997,
                -37.808517
              ],
              [
                144.967998,
                -37.808518
              ],
              [
                144.968032,
                -37.808509
              ],
              [
                144.968033,
                -37.808508
              ],
              [
                144.96804,
                -37.808506
              ],
              [
                144.968043,
                -37.808505
              ],
              [
                144.968051,
                -37.808503
              ],
              [
                144.968383,
                -37.808406
              ],
              [
                144.968662,
                -37.808324
              ],
              [
                144.968648,
                -37.808293
              ],
              [
                144.968646,
                -37.808289
              ],
              [
                144.968617,
                -37.808222
              ],
              [
                144.968615,
                -37.808223
              ],
              [
                144.968173,
                -37.808352
              ],
              [
                144.967883,
                -37.808437
              ],
              [
                144.967638,
                -37.808509
              ],
              [
                144.967324,
                -37.8086
              ],
              [
                144.967041,
                -37.808683
              ],
              [
                144.966776,
                -37.80876
              ],
              [
                144.96647,
                -37.808849
              ]
            ],
            [
              [
                144.966504,
                -37.808921
              ],
              [
                144.966506,
                -37.80892
              ],
              [
                144.966505,
                -37.808921
              ],
              [
                144.966504,
                -37.808921
              ]
            ]
          ]
        ]
      }
    }
  ]
}