{
  "type": "FeatureCollection",
  "features": [
    {
      "type": "Feature",
      "properties": {
        "name": "polygon91"
      },
      "geometry": {
        "type": "MultiPolygon",
        "coordinates": [
          [
            [
              [
                144.961882,
                -37.817969
              ],
              [
                144.961883,
                -37.817971
              ],
              [
                144.961892,
                -37.817971
              ],
              [
                144.961902,
                -37.817973
              ],
              [
                144.96191,
                -37.817976
              ],
              [
                144.961919,
                -37.81798
              ],
              [
                144.961926,
                -37.817984
              ],
              [
                144.961933,
                -37.81799
              ],
              [
                144.961938,
                -37.817996
              ],
              [
                144.961942,
                -37.818003
              ],
              [
                144.961945,
                -37.81801
              ],
              [
                144.96195,
                -37.818021
              ],
              [
                144.961956,
                -37.818034
              ],
              [
                144.961988,
                -37.818102
              ],
              [
                144.961984,
                -37.818103
              ],
              [
                144.96196,
                -37.818052
              ],
              [
                144.961957,
                -37.818045
              ],
              [
                144.961953,
                -37.818035
              ],
              [
                144.961947,
                -37.818022
              ],
              [
                144.961942,
                -37.81801
              ],
              [
                144.961939,
                -37.818004
              ],
              [
                144.961934,
                -37.817997
              ],
              [
                144.961928,
                -37.81799
              ],
              [
                144.961921,
                -37.817985
              ],
              [
                144.961913,
                -37.81798
              ],
              [
                144.961904,
                -37.817977
              ],
              [
                144.961894,
                -37.817974
              ],
              [
                144.961884,
                -37.817974
              ],
              [
                144.961896,
                -37.818004
              ],
              [
                144.96219,
                -37.818657
              ],
              [
                144.962259,
                -37.81881
              ],
              [
                144.962276,
                -37.818848
              ],
              [
                144.962278,
                -37.818851
              ],
              [
                144.962279,
                -37.818853
              ],
              [
                144.962313,
                -37.818925
              ],
              [
                144.962476,
                -37.818878
              ],
              [
                144.962605,
                -37.81884
              ],
              [
                144.962639,
                -37.81883
              ],
              [
                144.962636,
                -37.818825
              ],
              [
                144.962636,
                -37.818824
              ],
              [
                144.962635,
                -37.818824
              ],
              [
                144.962635,
                -37.818823
              ],
              [
                144.962634,
                -37.818823
              ],
              [
                144.962634,
                -37.81882
              ],
              [
                144.962605,
                -37.818757
              ],
              [
                144.962604,
                -37.818754
              ],
              [
                144.962602,
                -37.818752
              ],
              [
                144.962589,
                -37.818723
              ],
              [
                144.962507,
                -37.818544
              ],
              [
                144.962372,
                -37.818248
              ],
              [
                144.962335,
                -37.818166
              ],
              [
                144.962217,
                -37.817908
              ],
              [
                144.962209,
                -37.817891
              ],
              [
                144.962208,
                -37.817891
              ],
              [
                144.962201,
                -37.817893
              ],
              [
                144.962195,
                -37.817896
              ],
              [
                144.962191,
                -37.8179
              ],
              [
                144.962188,
                -37.817905
              ],
              [
                144.962187,
                -37.817909
              ],
              [
                144.962186,
                -37.817915
              ],
              [
                144.962186,
                -37.817921
              ],
              [
                144.962188,
                -37.817931
              ],
              [
                144.962191,
                -37.817938
              ],
              [
                144.962185,
                -37.81794
              ],
              [
                144.962182,
                -37.817932
              ],
              [
                144.962182,
                -37.817931
              ],
              [
                144.96218,
                -37.817922
              ],
              [
                144.96218,
                -37.817919
              ],
              [
                144.962058,
                -37.817956
              ],
              [
                144.961938,
                -37.817992
              ],
              [
                144.961935,
                -37.817989
              ],
              [
                144.961932,
                -37.817987
              ],
              [
                144.961931,
                -37.817985
              ],
              [
                144.961929,
                -37.817984
              ],
              [
                144.961928,
                -37.817983
              ],
              [
                144.961925,
                -37.817981
              ],
              [
                144.961923,
                -37.817979
              ],
              [
                144.961921,
                -37.817978
              ],
              [
                144.96192,
                -37.817978
              ],
              [
                144.961916,
                -37.817976
              ],
              [
                144.961913,
                -37.817974
              ],
              [
                144.961911,
                -37.817974
              ],
              [
                144.961906,
                -37.817972
              ],
              [
                144.961903,
                -37.817971
              ],
              [
                144.961902,
                -37.817971
              ],
              [
                144.961896,
                -37.81797
              ],
              [
                144.961893,
                -37.817969
              ],
              [
                144.961882,
                -37.817969
              ]
            ],
            [
              [
                144.96208,
                -37.818036
              ],
              [
                144.96208,
                -37.818031
              ],
              [
                144.962081,
                -37.818028
              ],
              [
                144.962087,
                -37.818024
              ],
              [
                144.962088,
                -37.818024
              ],
              [
                144.962091,
                -37.818023
              ],
              [
                144.962099,
                -37.818023
              ],
              [
                144.962105,
                -37.818026
              ],
              [
                144.962108,
                -37.818029
              ],
              [
                144.962111,
                -37.818035
              ],
              [
                144.962111,
                -37.818036
              ],
              [
                144.962096,
                -37.818041
              ],
              [
                144.962084,
                -37.818044
              ],
              [
                144.962083,
                -37.818044
              ],
              [
                144.962082,
                -37.818043
              ],
              [
                144.962081,
                -37.818039
              ],
              [
                144.96208,
                -37.818036
              ]
            ]
          ],
          [
            [
              [
                144.962081,
                -37.818036
              ],
              [
                144.962082,
                -37.818039
              ],
              [
                144.962083,
                -37.818043
              ],
              [
                144.96211,
                -37.818036
              ],
              [
                144.962107,
                -37.818029
              ],
              [
                144.962104,
                -37.818027
              ],
              [
                144.962102,
                -37.818026
              ],
              [
                144.962099,
                -37.818024
              ],
              [
                144.962091,
                -37.818024
              ],
              [
                144.962085,
                -37.818026
              ],
              [
                144.962082,
                -37.818029
              ],
              [
                144.962081,
                -37.818031
              ],
              [
                144.962081,
                -37.818036
              ]
            ]
          ],
          [
            [
              [
                144.962336,
                -37.818975
              ],
              [
                144.962367,
                -37.819042
              ],
              [
                144.962368,
                -37.819044
              ],
              [
                144.962644,
                -37.818964
              ],
              [
                144.962694,
                -37.818949
              ],
              [
                144.962693,
                -37.818947
              ],
              [
                144.962662,
                -37.81888
              ],
              [
                144.962657,
                -37.818882
              ],
              [
                144.962336,
                -37.818975
              ]
            ]
          ],
          [
            [
              [
                144.962369,
                -37.819046
              ],
              [
                144.96239,
                -37.819091
              ],
              [
                144.96266,
                -37.819012
              ],
              [
                144.962661,
                -37.819014
              ],
              [
                144.962391,
                -37.819093
              ],
              [
                144.962405,
                -37.819124
              ],
              [
                144.962731,
                -37.819028
              ],
              [
                144.962708,
                -37.81898
              ],
              [
                144.962695,
                -37.818952
              ],
              [
                144.962645,
                -37.818966
              ],
              [
                144.962369,
                -37.819046
              ]
            ]
          ]
        ]
      }
    }
  ]
}