{
  "type": "FeatureCollection",
  "features": [
    {
      "type": "Feature",
      "properties": {
        "name": "polygon3"
      },
      "geometry": {
        "type": "MultiPolygon",
        "coordinates": [
          [
            [
              [
                144.954222,
                -37.818905
              ],
              [
                144.954231,
                -37.818925
              ],
              [
                144.954235,
                -37.818933
              ],
              [
                144.954238,
                -37.818936
              ],
              [
                144.954241,
                -37.81894
              ],
              [
                144.954245,
                -37.818943
              ],
              [
                144.954249,
                -37.818945
              ],
              [
                144.954253,
                -37.818948
              ],
              [
                144.954257,
                -37.81895
              ],
              [
                144.954267,
                -37.818954
              ],
              [
                144.954271,
                -37.818955
              ],
              [
                144.954277,
                -37.818956
              ],
              [
                144.954282,
                -37.818956
              ],
              [
                144.954287,
                -37.818957
              ],
              [
                144.954292,
                -37.818956
              ],
              [
                144.954295,
                -37.818956
              ],
              [
                144.954313,
                -37.818996
              ],
              [
                144.954876,
                -37.818835
              ],
              [
                144.954875,
                -37.818834
              ],
              [
                144.955379,
                -37.818689
              ],
              [
                144.95538,
                -37.81869
              ],
              [
                144.956457,
                -37.818382
              ],
              [
                144.956432,
                -37.818325
              ],
              [
                144.956431,
                -37.818323
              ],
              [
                144.956429,
                -37.81832
              ],
              [
                144.956409,
                -37.818276
              ],
              [
                144.95639,
                -37.818281
              ],
              [
                144.955663,
                -37.818491
              ],
              [
                144.95534,
                -37.818583
              ],
              [
                144.954706,
                -37.818766
              ],
              [
                144.954382,
                -37.818859
              ],
              [
                144.954266,
                -37.818892
              ],
              [
                144.954227,
                -37.818903
              ],
              [
                144.954224,
                -37.818904
              ],
              [
                144.954222,
                -37.818905
              ]
            ],
            [
              [
                144.954297,
                -37.818956
              ],
              [
                144.954307,
                -37.818954
              ],
              [
                144.954299,
                -37.818956
              ],
              [
                144.954297,
                -37.818956
              ]
            ],
            [
              [
                144.95439,
                -37.818906
              ],
              [
                144.954402,
                -37.818902
              ],
              [
                144.954452,
                -37.818888
              ],
              [
                144.95439,
                -37.818906
              ]
            ],
            [
              [
                144.954446,
                -37.818877
              ],
              [
                144.954465,
                -37.818871
              ],
              [
                144.95447,
                -37.818883
              ],
              [
                144.954452,
                -37.818888
              ],
              [
                144.954446,
                -37.818877
              ]
            ],
            [
              [
                144.954564,
                -37.818843
              ],
              [
                144.954582,
                -37.818838
              ],
              [
                144.954587,
                -37.818849
              ],
              [
                144.954569,
                -37.818854
              ],
              [
                144.954564,
                -37.818843
              ]
            ],
            [
              [
                144.955394,
                -37.818607
              ],
              [
                144.955408,
                -37.818603
              ],
              [
                144.955412,
                -37.818613
              ],
              [
                144.955399,
                -37.818617
              ],
              [
                144.955394,
                -37.818607
              ]
            ],
            [
              [
                144.955496,
                -37.818578
              ],
              [
                144.955509,
                -37.818574
              ],
              [
                144.955514,
                -37.818584
              ],
              [
                144.955501,
                -37.818588
              ],
              [
                144.955496,
                -37.818578
              ]
            ],
            [
              [
                144.955627,
                -37.818541
              ],
              [
                144.95564,
                -37.818537
              ],
              [
                144.955645,
                -37.818547
              ],
              [
                144.955632,
                -37.818551
              ],
              [
                144.955627,
                -37.818541
              ]
            ],
            [
              [
                144.955757,
                -37.818502
              ],
              [
                144.955775,
                -37.818497
              ],
              [
                144.95578,
                -37.818508
              ],
              [
                144.955762,
                -37.818513
              ],
              [
                144.955757,
                -37.818502
              ]
            ],
            [
              [
                144.955858,
                -37.818473
              ],
              [
                144.955877,
                -37.818468
              ],
              [
                144.955882,
                -37.818479
              ],
              [
                144.955864,
                -37.818484
              ],
              [
                144.955858,
                -37.818473
              ]
            ],
            [
              [
                144.955997,
                -37.818433
              ],
              [
                144.956015,
                -37.818428
              ],
              [
                144.956021,
                -37.81844
              ],
              [
                144.956002,
                -37.818445
              ],
              [
                144.955997,
                -37.818433
              ]
            ],
            [
              [
                144.956157,
                -37.818387
              ],
              [
                144.956176,
                -37.818382
              ],
              [
                144.956181,
                -37.818394
              ],
              [
                144.956162,
                -37.818399
              ],
              [
                144.956157,
                -37.818387
              ]
            ]
          ],
          [
            [
              [
                144.95434,
                -37.819056
              ],
              [
                144.954362,
                -37.819104
              ],
              [
                144.954363,
                -37.819106
              ],
              [
                144.954373,
                -37.8191
              ],
              [
                144.954383,
                -37.819097
              ],
              [
                144.954402,
                -37.819091
              ],
              [
                144.954424,
                -37.819085
              ],
              [
                144.954425,
                -37.819087
              ],
              [
                144.954425,
                -37.819088
              ],
              [
                144.954403,
                -37.819094
              ],
              [
                144.954384,
                -37.819099
              ],
              [
                144.954375,
                -37.819102
              ],
              [
                144.954367,
                -37.819107
              ],
              [
                144.954364,
                -37.819109
              ],
              [
                144.954382,
                -37.819147
              ],
              [
                144.955234,
                -37.818902
              ],
              [
                144.956006,
                -37.81868
              ],
              [
                144.956516,
                -37.818533
              ],
              [
                144.956523,
                -37.81853
              ],
              [
                144.956506,
                -37.818491
              ],
              [
                144.956504,
                -37.818487
              ],
              [
                144.956479,
                -37.818432
              ],
              [
                144.955485,
                -37.818715
              ],
              [
                144.955374,
                -37.818747
              ],
              [
                144.955374,
                -37.81875
              ],
              [
                144.955372,
                -37.81875
              ],
              [
                144.954871,
                -37.818893
              ],
              [
                144.954869,
                -37.818894
              ],
              [
                144.954868,
                -37.818891
              ],
              [
                144.954773,
                -37.818918
              ],
              [
                144.954517,
                -37.818992
              ],
              [
                144.954398,
                -37.81903
              ],
              [
                144.954395,
                -37.819031
              ],
              [
                144.954393,
                -37.819032
              ],
              [
                144.954367,
                -37.81904
              ],
              [
                144.954354,
                -37.819048
              ],
              [
                144.95434,
                -37.819056
              ]
            ],
            [
              [
                144.954576,
                -37.819044
              ],
              [
                144.954594,
                -37.819039
              ],
              [
                144.954599,
                -37.81905
              ],
              [
                144.954581,
                -37.819055
              ],
              [
                144.954576,
                -37.819044
              ]
            ],
            [
              [
                144.954681,
                -37.819014
              ],
              [
                144.9547,
                -37.819009
              ],
              [
                144.954705,
                -37.81902
              ],
              [
                144.954687,
                -37.819025
              ],
              [
                144.954681,
                -37.819014
              ]
            ],
            [
              [
                144.95482,
                -37.818974
              ],
              [
                144.954839,
                -37.818969
              ],
              [
                144.954844,
                -37.81898
              ],
              [
                144.954826,
                -37.818985
              ],
              [
                144.95482,
                -37.818974
              ]
            ],
            [
              [
                144.955061,
                -37.818905
              ],
              [
                144.955079,
                -37.8189
              ],
              [
                144.955084,
                -37.818911
              ],
              [
                144.955066,
                -37.818916
              ],
              [
                144.955061,
                -37.818905
              ]
            ],
            [
              [
                144.955157,
                -37.818877
              ],
              [
                144.955175,
                -37.818872
              ],
              [
                144.95518,
                -37.818884
              ],
              [
                144.955162,
                -37.818889
              ],
              [
                144.955157,
                -37.818877
              ]
            ],
            [
              [
                144.955256,
                -37.818849
              ],
              [
                144.955272,
                -37.818844
              ],
              [
                144.955278,
                -37.818857
              ],
              [
                144.955262,
                -37.818862
              ],
              [
                144.955256,
                -37.818849
              ]
            ],
            [
              [
                144.955363,
                -37.818818
              ],
              [
                144.955379,
                -37.818814
              ],
              [
                144.955384,
                -37.818826
              ],
              [
                144.955368,
                -37.818831
              ],
              [
                144.955363,
                -37.818818
              ]
            ],
            [
              [
                144.95548,
                -37.818785
              ],
              [
                144.955496,
                -37.81878
              ],
              [
                144.955502,
                -37.818793
              ],
              [
                144.955486,
                -37.818797
              ],
              [
                144.95548,
                -37.818785
              ]
            ],
            [
              [
                144.955598,
                -37.818751
              ],
              [
                144.955614,
                -37.818746
              ],
              [
                144.955619,
                -37.818759
              ],
              [
                144.955603,
                -37.818764
              ],
              [
                144.955598,
                -37.818751
              ]
            ],
            [
              [
                144.955715,
                -37.818717
              ],
              [
                144.955731,
                -37.818713
              ],
              [
                144.955737,
                -37.818725
              ],
              [
                144.955721,
                -37.81873
              ],
              [
                144.955715,
                -37.818717
              ]
            ],
            [
              [
                144.955833,
                -37.818684
              ],
              [
                144.955849,
                -37.818679
              ],
              [
                144.955854,
                -37.818692
              ],
              [
                144.955838,
                -37.818696
              ],
              [
                144.955833,
                -37.818684
              ]
            ],
            [
              [
                144.95595,
                -37.81865
              ],
              [
                144.955966,
                -37.818645
              ],
              [
                144.955972,
                -37.818658
              ],
              [
                144.955956,
                -37.818663
              ],
              [
                144.95595,
                -37.81865
              ]
            ],
            [
              [
                144.956078,
                -37.818613
              ],
              [
                144.956096,
                -37.818608
              ],
              [
                144.956102,
                -37.818619
              ],
              [
                144.956083,
                -37.818625
              ],
              [
                144.956078,
                -37.818613
              ]
            ],
            [
              [
                144.956211,
                -37.818575
              ],
              [
                144.95623,
                -37.81857
              ],
              [
                144.956235,
                -37.818581
              ],
              [
                144.956217,
                -37.818587
              ],
              [
                144.956211,
                -37.818575
              ]
            ],
            [
              [
                144.956339,
                -37.818538
              ],
              [
                144.956357,
                -37.818533
              ],
              [
                144.956363,
                -37.818545
              ],
              [
                144.956344,
                -37.81855
              ],
              [
                144.956339,
                -37.818538
              ]
            ],
            [
              [
                144.95645,
                -37.818507
              ],
              [
                144.956498,
                -37.818493
              ],
              [
                144.956507,
                -37.818514
              ],
              [
                144.95646,
                -37.818528
              ],
              [
                144.95645,
                -37.818507
              ]
            ]
          ]
        ]
      }
    }
  ]
}