{
  "type": "FeatureCollection",
  "features": [
    {
      "type": "Feature",
      "properties": {
        "name": "polygon186"
      },
      "geometry": {
        "type": "Polygon",
        "coordinates": [
          [
            [
              144.94164,
              -37.819692
            ],
            [
              144.941647,
              -37.819706
            ],
            [
              144.941704,
              -37.819831
            ],
            [
              144.941682,
              -37.819837
            ],
            [
              144.941872,
              -37.82025
            ],
            [
              144.941889,
              -37.820286
            ],
            [
              144.941898,
              -37.820283
            ],
            [
              144.941906,
              -37.820279
            ],
            [
              144.941909,
              -37.820277
            ],
            [
              144.941912,
              -37.820274
            ],
            [
              144.941918,
              -37.820265
            ],
            [
              144.941919,
              -37.820261
            ],
            [
              144.94192,
              -37.820258
            ],
            [
              144.94192,
              -37.820251
            ],
            [
              144.941919,
              -37.820248
            ],
            [
              144.941917,
              -37.820241
            ],
            [
              144.941916,
              -37.820238
            ],
            [
              144.941919,
              -37.820237
            ],
            [
              144.941921,
              -37.820236
            ],
            [
              144.941997,
              -37.820214
            ],
            [
              144.942003,
              -37.820212
            ],
            [
              144.942043,
              -37.820201
            ],
            [
              144.941853,
              -37.819788
            ],
            [
              144.941831,
              -37.819794
            ],
            [
              144.941769,
              -37.819659
            ],
            [
              144.941763,
              -37.819646
            ],
            [
              144.941728,
              -37.819659
            ],
            [
              144.941724,
              -37.819651
            ],
            [
              144.941709,
              -37.819657
            ],
            [
              144.941712,
              -37.819665
            ],
            [
              144.941691,
              -37.819673
            ],
            [
              144.941687,
              -37.819665
            ],
            [
              144.941672,
              -37.819671
            ],
            [
              144.941676,
              -37.819679
            ],
            [
              144.94164,
              -37.819692
            ]
          ],
          [
            [
              144.941916,
              -37.820238
            ],
            [
              144.941915,
              -37.820237
            ],
            [
              144.9419,
              -37.820241
            ],
            [
              144.941895,
              -37.820229
            ],
            [
              144.94191056164382,
              -37.820224136986305
            ],
            [
              144.941915,
              -37.820234
            ],
            [
              144.941914,
              -37.820235
            ],
            [
              144.941916,
              -37.820238
            ]
          ],
          [
            [
              144.941856,
              -37.820144
            ],
            [
              144.941872,
              -37.82014
            ],
            [
              144.941869,
              -37.820133
            ],
            [
              144.94187760547945,
              -37.82015212328767
            ],
            [
              144.941862,
              -37.820157
            ],
            [
              144.941856,
              -37.820144
            ]
          ],
          [
            [
              144.94187,
              -37.820174
            ],
            [
              144.94188568539326,
              -37.820170078651685
            ],
            [
              144.941887,
              -37.820173
            ],
            [
              144.941897,
              -37.820194
            ],
            [
              144.941891,
              -37.820182
            ],
            [
              144.941875,
              -37.820187
            ],
            [
              144.941871,
              -37.820177
            ],
            [
              144.94187,
              -37.820174
            ]
          ],
          [
            [
              144.941942,
              -37.820081
            ],
            [
              144.941958,
              -37.820116
            ],
            [
              144.941974,
              -37.820111
            ],
            [
              144.941978,
              -37.82012
            ],
            [
              144.941979,
              -37.820124
            ],
            [
              144.94196333939394,
              -37.82012791515151
            ],
            [
              144.941962,
              -37.820125
            ],
            [
              144.941942,
              -37.820081
            ]
          ],
          [
            [
              144.94197156720827,
              -37.82014582274741
            ],
            [
              144.941987,
              -37.820141
            ],
            [
              144.941993,
              -37.820154
            ],
            [
              144.94197714545456,
              -37.82015796363636
            ],
            [
              144.94197156720827,
              -37.82014582274741
            ]
          ],
          [
            [
              144.9419958382688,
              -37.820198738041
            ],
            [
              144.942011,
              -37.820194
            ],
            [
              144.942017,
              -37.820207
            ],
            [
              144.942002,
              -37.820211
            ],
            [
              144.942002,
              -37.820209
            ],
            [
              144.942001,
              -37.82021
            ],
            [
              144.9419958382688,
              -37.820198738041
            ]
          ]
        ]
      }
    }
  ]
}