{
  "type": "FeatureCollection",
  "features": [
    {
      "type": "Feature",
      "properties": {
        "name": "polygon46"
      },
      "geometry": {
        "type": "Polygon",
        "coordinates": [
          [
            [
              144.947821,
              -37.803781
            ],
            [
              144.947854,
              -37.803785
            ],
            [
              144.947851,
              -37.8038
            ],
            [
              144.947857,
              -37.8038
            ],
            [
              144.94786,
              -37.803786
            ],
            [
              144.947979,
              -37.8038
            ],
            [
              144.947981,
              -37.803801
            ],
            [
              144.947982,
              -37.803802
            ],
            [
              144.947994,
              -37.803802
            ],
            [
              144.947994,
              -37.803801
            ],
            [
              144.94811,
              -37.803815
            ],
            [
              144.948113,
              -37.803815
            ],
            [
              144.948116,
              -37.803816
            ],
            [
              144.948154,
              -37.80382
            ],
            [
              144.948188,
              -37.803624
            ],
            [
              144.94819,
              -37.803611
            ],
            [
              144.948191,
              -37.803605
            ],
            [
              144.948192,
              -37.803602
            ],
            [
              144.948192,
              -37.8036
            ],
            [
              144.948196,
              -37.803576
            ],
            [
              144.948197,
              -37.803573
            ],
            [
              144.948197,
              -37.80357
            ],
            [
              144.94829,
              -37.803046
            ],
            [
              144.948253,
              -37.803042
            ],
            [
              144.948247,
              -37.803042
            ],
            [
              144.948248,
              -37.803032
            ],
            [
              144.948249,
              -37.80303
            ],
            [
              144.948249,
              -37.803029
            ],
            [
              144.94825,
              -37.803027
            ],
            [
              144.948251,
              -37.803026
            ],
            [
              144.948252,
              -37.803024
            ],
            [
              144.948253,
              -37.803023
            ],
            [
              144.948254,
              -37.803021
            ],
            [
              144.948255,
              -37.80302
            ],
            [
              144.948256,
              -37.803018
            ],
            [
              144.948258,
              -37.803017
            ],
            [
              144.948259,
              -37.803016
            ],
            [
              144.948261,
              -37.803015
            ],
            [
              144.948262,
              -37.803014
            ],
            [
              144.948268,
              -37.803011
            ],
            [
              144.94827,
              -37.803011
            ],
            [
              144.948272,
              -37.80301
            ],
            [
              144.948274,
              -37.80301
            ],
            [
              144.948276,
              -37.803009
            ],
            [
              144.948287,
              -37.803009
            ],
            [
              144.948296,
              -37.80301
            ],
            [
              144.948309,
              -37.802934
            ],
            [
              144.948075,
              -37.802908
            ],
            [
              144.94797,
              -37.802897
            ],
            [
              144.947957,
              -37.802974
            ],
            [
              144.947986,
              -37.802977
            ],
            [
              144.947988,
              -37.802977
            ],
            [
              144.947991,
              -37.802978
            ],
            [
              144.947992,
              -37.802978
            ],
            [
              144.947993,
              -37.802979
            ],
            [
              144.947995,
              -37.80298
            ],
            [
              144.947995,
              -37.802981
            ],
            [
              144.947996,
              -37.802981
            ],
            [
              144.947997,
              -37.802982
            ],
            [
              144.947998,
              -37.802984
            ],
            [
              144.947999,
              -37.802984
            ],
            [
              144.947999,
              -37.802986
            ],
            [
              144.948,
              -37.802986
            ],
            [
              144.948,
              -37.802992
            ],
            [
              144.947997,
              -37.803015
            ],
            [
              144.947994,
              -37.803015
            ],
            [
              144.947991,
              -37.803014
            ],
            [
              144.947951,
              -37.80301
            ],
            [
              144.947821,
              -37.803781
            ]
          ]
        ]
      }
    }
  ]
}