{
  "type": "FeatureCollection",
  "features": [
    {
      "type": "Feature",
      "properties": {
        "name": "polygon202"
      },
      "geometry": {
        "type": "MultiPolygon",
        "coordinates": [
          [
            [
              [
                144.955715,
                -37.808289
              ],
              [
                144.955717,
                -37.80829
              ],
              [
                144.955827,
                -37.807674
              ],
              [
                144.956113,
                -37.806046
              ],
              [
                144.956115,
                -37.806032
              ],
              [
                144.956117,
                -37.806033
              ],
              [
                144.956117,
                -37.806032
              ],
              [
                144.956154,
                -37.806037
              ],
              [
                144.956176,
                -37.806039
              ],
              [
                144.956975,
                -37.806127
              ],
              [
                144.957204,
                -37.806152
              ],
              [
                144.957995,
                -37.806239
              ],
              [
                144.95804,
                -37.806244
              ],
              [
                144.958214,
                -37.806263
              ],
              [
                144.958277,
                -37.80627
              ],
              [
                144.95828,
                -37.80627
              ],
              [
                144.958342,
                -37.806277
              ],
              [
                144.958344,
                -37.806278
              ],
              [
                144.958449,
                -37.806289
              ],
              [
                144.958448,
                -37.806292
              ],
              [
                144.958473,
                -37.806294
              ],
              [
                144.958483,
                -37.806296
              ],
              [
                144.958489,
                -37.806264
              ],
              [
                144.958491,
                -37.80625
              ],
              [
                144.958492,
                -37.806248
              ],
              [
                144.958492,
                -37.806245
              ],
              [
                144.958502,
                -37.806188
              ],
              [
                144.958485,
                -37.806186
              ],
              [
                144.958232,
                -37.806158
              ],
              [
                144.957222,
                -37.806046
              ],
              [
                144.956993,
                -37.80602
              ],
              [
                144.956199,
                -37.805932
              ],
              [
                144.956068,
                -37.805917
              ],
              [
                144.956009,
                -37.805911
              ],
              [
                144.955992,
                -37.806013
              ],
              [
                144.955991,
                -37.806016
              ],
              [
                144.956009,
                -37.806018
              ],
              [
                144.95601,
                -37.806018
              ],
              [
                144.95601,
                -37.806019
              ],
              [
                144.956012,
                -37.806019
              ],
              [
                144.956012,
                -37.80602
              ],
              [
                144.956013,
                -37.80602
              ],
              [
                144.95611,
                -37.806032
              ],
              [
                144.956113,
                -37.806032
              ],
              [
                144.956113,
                -37.806033
              ],
              [
                144.956111,
                -37.806045
              ],
              [
                144.955824,
                -37.807674
              ],
              [
                144.955715,
                -37.808289
              ]
            ]
          ],
          [
            [
              [
                144.956018,
                -37.805859
              ],
              [
                144.956076,
                -37.805865
              ],
              [
                144.95621,
                -37.80588
              ],
              [
                144.957002,
                -37.805968
              ],
              [
                144.957231,
                -37.805993
              ],
              [
                144.958241,
                -37.806106
              ],
              [
                144.958511,
                -37.806136
              ],
              [
                144.958517,
                -37.806101
              ],
              [
                144.95852,
                -37.806084
              ],
              [
                144.958525,
                -37.80606
              ],
              [
                144.958544,
                -37.806061
              ],
              [
                144.958544,
                -37.806056
              ],
              [
                144.958526,
                -37.806054
              ],
              [
                144.958447,
                -37.806046
              ],
              [
                144.958445,
                -37.806046
              ],
              [
                144.958445,
                -37.806045
              ],
              [
                144.958442,
                -37.806045
              ],
              [
                144.958442,
                -37.806044
              ],
              [
                144.958441,
                -37.806044
              ],
              [
                144.95844,
                -37.806043
              ],
              [
                144.95844,
                -37.806042
              ],
              [
                144.958439,
                -37.806042
              ],
              [
                144.958438,
                -37.806041
              ],
              [
                144.958438,
                -37.80604
              ],
              [
                144.958427,
                -37.806016
              ],
              [
                144.958423,
                -37.806015
              ],
              [
                144.958419,
                -37.806015
              ],
              [
                144.958397,
                -37.806013
              ],
              [
                144.958394,
                -37.806008
              ],
              [
                144.958386,
                -37.805992
              ],
              [
                144.958385,
                -37.805992
              ],
              [
                144.958385,
                -37.805991
              ],
              [
                144.958382,
                -37.805991
              ],
              [
                144.958382,
                -37.80599
              ],
              [
                144.958381,
                -37.80599
              ],
              [
                144.95838,
                -37.805991
              ],
              [
                144.958377,
                -37.805991
              ],
              [
                144.958377,
                -37.805992
              ],
              [
                144.958376,
                -37.805992
              ],
              [
                144.958376,
                -37.805993
              ],
              [
                144.958375,
                -37.805993
              ],
              [
                144.958375,
                -37.805994
              ],
              [
                144.958373,
                -37.805999
              ],
              [
                144.958373,
                -37.806
              ],
              [
                144.958372,
                -37.806
              ],
              [
                144.958372,
                -37.806003
              ],
              [
                144.958371,
                -37.806003
              ],
              [
                144.958371,
                -37.806005
              ],
              [
                144.95837,
                -37.806006
              ],
              [
                144.95837,
                -37.806007
              ],
              [
                144.958369,
                -37.806008
              ],
              [
                144.958369,
                -37.806009
              ],
              [
                144.958368,
                -37.80601
              ],
              [
                144.9583,
                -37.806003
              ],
              [
                144.958293,
                -37.806003
              ],
              [
                144.95826,
                -37.805999
              ],
              [
                144.95725,
                -37.805886
              ],
              [
                144.957162,
                -37.805876
              ],
              [
                144.957159,
                -37.805876
              ],
              [
                144.957155,
                -37.805875
              ],
              [
                144.957119,
                -37.805871
              ],
              [
                144.957082,
                -37.805867
              ],
              [
                144.957076,
                -37.805867
              ],
              [
                144.957021,
                -37.80586
              ],
              [
                144.956233,
                -37.805772
              ],
              [
                144.95619,
                -37.805767
              ],
              [
                144.956187,
                -37.805767
              ],
              [
                144.956184,
                -37.805766
              ],
              [
                144.956073,
                -37.805754
              ],
              [
                144.956071,
                -37.805771
              ],
              [
                144.95607,
                -37.805777
              ],
              [
                144.956069,
                -37.805778
              ],
              [
                144.956069,
                -37.805779
              ],
              [
                144.956067,
                -37.805781
              ],
              [
                144.956066,
                -37.805781
              ],
              [
                144.956066,
                -37.805782
              ],
              [
                144.956062,
                -37.805782
              ],
              [
                144.956045,
                -37.80578
              ],
              [
                144.956042,
                -37.80578
              ],
              [
                144.956042,
                -37.805779
              ],
              [
                144.956041,
                -37.805779
              ],
              [
                144.956041,
                -37.805778
              ],
              [
                144.95604,
                -37.805778
              ],
              [
                144.95604,
                -37.805777
              ],
              [
                144.956039,
                -37.805777
              ],
              [
                144.956039,
                -37.805774
              ],
              [
                144.95604,
                -37.805768
              ],
              [
                144.956035,
                -37.805767
              ],
              [
                144.956029,
                -37.805796
              ],
              [
                144.956018,
                -37.805859
              ]
            ],
            [
              [
                144.956596,
                -37.805831
              ],
              [
                144.956631,
                -37.805835
              ],
              [
                144.956629,
                -37.805846
              ],
              [
                144.9566,
                -37.805843
              ],
              [
                144.956599,
                -37.80584288764045
              ],
              [
                144.956599,
                -37.805842
              ],
              [
                144.956598,
                -37.805842
              ],
              [
                144.956598,
                -37.805841
              ],
              [
                144.956596,
                -37.805831
              ]
            ],
            [
              [
                144.95737,
                -37.805929
              ],
              [
                144.957372,
                -37.805918
              ],
              [
                144.957386,
                -37.805919
              ],
              [
                144.957384,
                -37.80593
              ],
              [
                144.95737,
                -37.805929
              ]
            ],
            [
              [
                144.957557,
                -37.805949
              ],
              [
                144.957559,
                -37.805938
              ],
              [
                144.957573,
                -37.80594
              ],
              [
                144.957571,
                -37.80595
              ],
              [
                144.957557,
                -37.805949
              ]
            ]
          ]
        ]
      }
    }
  ]
}