{
  "type": "FeatureCollection",
  "features": [
    {
      "type": "Feature",
      "properties": {
        "name": "polygon90"
      },
      "geometry": {
        "type": "MultiPolygon",
        "coordinates": [
          [
            [
              [
                144.960505,
                -37.818425
              ],
              [
                144.960507,
                -37.818427
              ],
              [
                144.960518,
                -37.818453
              ],
              [
                144.960644,
                -37.818728
              ],
              [
                144.960715,
                -37.818882
              ],
              [
                144.960865,
                -37.819209
              ],
              [
                144.960873,
                -37.819228
              ],
              [
                144.960875,
                -37.81923
              ],
              [
                144.960875,
                -37.819231
              ],
              [
                144.960876,
                -37.819233
              ],
              [
                144.96092,
                -37.819329
              ],
              [
                144.961049,
                -37.819294
              ],
              [
                144.961031,
                -37.819253
              ],
              [
                144.961012,
                -37.819213
              ],
              [
                144.960994,
                -37.819175
              ],
              [
                144.960899,
                -37.818967
              ],
              [
                144.960854,
                -37.818867
              ],
              [
                144.960699,
                -37.818525
              ],
              [
                144.960688,
                -37.818507
              ],
              [
                144.960676,
                -37.818489
              ],
              [
                144.960663,
                -37.818471
              ],
              [
                144.960648,
                -37.818455
              ],
              [
                144.960631,
                -37.81844
              ],
              [
                144.96061,
                -37.818427
              ],
              [
                144.960589,
                -37.818417
              ],
              [
                144.960553,
                -37.818435
              ],
              [
                144.960552,
                -37.818434
              ],
              [
                144.960546,
                -37.81843
              ],
              [
                144.960545,
                -37.81843
              ],
              [
                144.96054,
                -37.818428
              ],
              [
                144.960537,
                -37.818426
              ],
              [
                144.960536,
                -37.818426
              ],
              [
                144.960531,
                -37.818425
              ],
              [
                144.960528,
                -37.818424
              ],
              [
                144.960521,
                -37.818423
              ],
              [
                144.960518,
                -37.818422
              ],
              [
                144.960505,
                -37.818422
              ],
              [
                144.960505,
                -37.818425
              ]
            ],
            [
              [
                144.960591,
                -37.818555
              ],
              [
                144.960606,
                -37.81855
              ],
              [
                144.960611,
                -37.818563
              ],
              [
                144.960596,
                -37.818567
              ],
              [
                144.960591,
                -37.818555
              ]
            ],
            [
              [
                144.960633,
                -37.818656
              ],
              [
                144.960651,
                -37.818651
              ],
              [
                144.96066,
                -37.818672
              ],
              [
                144.960642,
                -37.818677
              ],
              [
                144.960633,
                -37.818656
              ]
            ],
            [
              [
                144.960774,
                -37.818958
              ],
              [
                144.960788,
                -37.818954
              ],
              [
                144.960793,
                -37.818966
              ],
              [
                144.96078,
                -37.81897
              ],
              [
                144.960774,
                -37.818958
              ]
            ]
          ],
          [
            [
              [
                144.960667,
                -37.818377
              ],
              [
                144.960676,
                -37.818383
              ],
              [
                144.960677,
                -37.818383
              ],
              [
                144.960696,
                -37.818399
              ],
              [
                144.960713,
                -37.818418
              ],
              [
                144.960724,
                -37.818432
              ],
              [
                144.960724,
                -37.818433
              ],
              [
                144.960733,
                -37.818448
              ],
              [
                144.960746,
                -37.818471
              ],
              [
                144.960762,
                -37.818506
              ],
              [
                144.960875,
                -37.818753
              ],
              [
                144.960895,
                -37.818798
              ],
              [
                144.960913,
                -37.818841
              ],
              [
                144.960963,
                -37.818949
              ],
              [
                144.961059,
                -37.819158
              ],
              [
                144.961076,
                -37.819195
              ],
              [
                144.961096,
                -37.819238
              ],
              [
                144.961114,
                -37.819276
              ],
              [
                144.96117043243245,
                -37.81926043243243
              ],
              [
                144.961171,
                -37.819261
              ],
              [
                144.961172,
                -37.81926
              ],
              [
                144.961174,
                -37.81926
              ],
              [
                144.961196,
                -37.819254
              ],
              [
                144.961197,
                -37.819254
              ],
              [
                144.961245,
                -37.819241
              ],
              [
                144.96121,
                -37.819165
              ],
              [
                144.961209,
                -37.819162
              ],
              [
                144.961209,
                -37.81916
              ],
              [
                144.961191,
                -37.819124
              ],
              [
                144.961058,
                -37.818833
              ],
              [
                144.961057,
                -37.81883
              ],
              [
                144.961039,
                -37.818792
              ],
              [
                144.961027,
                -37.818765
              ],
              [
                144.961026,
                -37.818763
              ],
              [
                144.961023,
                -37.818755
              ],
              [
                144.960822,
                -37.818316
              ],
              [
                144.960814,
                -37.8183
              ],
              [
                144.960785,
                -37.818308
              ],
              [
                144.960784,
                -37.818307
              ],
              [
                144.960783,
                -37.818307
              ],
              [
                144.960783,
                -37.818308
              ],
              [
                144.960781,
                -37.818308
              ],
              [
                144.960781,
                -37.818309
              ],
              [
                144.96078,
                -37.818309
              ],
              [
                144.96078,
                -37.81831
              ],
              [
                144.960779,
                -37.818311
              ],
              [
                144.960779,
                -37.818315
              ],
              [
                144.960778,
                -37.818316
              ],
              [
                144.96078,
                -37.81832
              ],
              [
                144.960775,
                -37.81832
              ],
              [
                144.960667,
                -37.818377
              ]
            ],
            [
              [
                144.961022,
                -37.818853
              ],
              [
                144.961024,
                -37.818852
              ],
              [
                144.961023,
                -37.81885
              ],
              [
                144.961042,
                -37.818845
              ],
              [
                144.96105,
                -37.818864
              ],
              [
                144.96103,
                -37.818869
              ],
              [
                144.961022,
                -37.818853
              ]
            ],
            [
              [
                144.961077,
                -37.818974
              ],
              [
                144.961108,
                -37.818965
              ],
              [
                144.961122,
                -37.818994
              ],
              [
                144.961091,
                -37.819003
              ],
              [
                144.961077,
                -37.818974
              ]
            ]
          ]
        ]
      }
    }
  ]
}