{
  "type": "FeatureCollection",
  "features": [
    {
      "type": "Feature",
      "properties": {
        "name": "polygon175"
      },
      "geometry": {
        "type": "Polygon",
        "coordinates": [
          [
            [
              144.957339,
              -37.809443
            ],
            [
              144.95734,
              -37.809443
            ],
            [
              144.95734,
              -37.809444
            ],
            [
              144.957341,
              -37.809445
            ],
            [
              144.957342,
              -37.809445
            ],
            [
              144.957342,
              -37.809446
            ],
            [
              144.957344,
              -37.809446
            ],
            [
              144.957457,
              -37.809459
            ],
            [
              144.957444,
              -37.809532
            ],
            [
              144.957459,
              -37.809534
            ],
            [
              144.957955,
              -37.809589
            ],
            [
              144.957954,
              -37.809592
            ],
            [
              144.957954,
              -37.809594
            ],
            [
              144.957961,
              -37.809594
            ],
            [
              144.957967,
              -37.809592
            ],
            [
              144.957991,
              -37.809582
            ],
            [
              144.958005,
              -37.809578
            ],
            [
              144.958015,
              -37.809577
            ],
            [
              144.958023,
              -37.809578
            ],
            [
              144.958043,
              -37.809584
            ],
            [
              144.958047,
              -37.809585
            ],
            [
              144.95805,
              -37.809586
            ],
            [
              144.958054,
              -37.809587
            ],
            [
              144.95806,
              -37.809589
            ],
            [
              144.958064,
              -37.80959
            ],
            [
              144.958067,
              -37.809591
            ],
            [
              144.958074,
              -37.809593
            ],
            [
              144.958077,
              -37.809594
            ],
            [
              144.95808,
              -37.809596
            ],
            [
              144.958086,
              -37.809598
            ],
            [
              144.95809,
              -37.8096
            ],
            [
              144.958093,
              -37.809601
            ],
            [
              144.958099,
              -37.809604
            ],
            [
              144.958102,
              -37.809606
            ],
            [
              144.958105,
              -37.809607
            ],
            [
              144.958108,
              -37.809609
            ],
            [
              144.958111,
              -37.80961
            ],
            [
              144.958117,
              -37.809614
            ],
            [
              144.95812,
              -37.809615
            ],
            [
              144.958123,
              -37.809617
            ],
            [
              144.958124,
              -37.809618
            ],
            [
              144.958126,
              -37.809619
            ],
            [
              144.958127,
              -37.80962
            ],
            [
              144.958129,
              -37.809621
            ],
            [
              144.95813,
              -37.809622
            ],
            [
              144.958132,
              -37.809623
            ],
            [
              144.958134,
              -37.809625
            ],
            [
              144.958137,
              -37.809627
            ],
            [
              144.958139,
              -37.809628
            ],
            [
              144.958141,
              -37.80963
            ],
            [
              144.958144,
              -37.809632
            ],
            [
              144.95815,
              -37.809638
            ],
            [
              144.958153,
              -37.809642
            ],
            [
              144.958155,
              -37.809643
            ],
            [
              144.958156,
              -37.809644
            ],
            [
              144.958157,
              -37.809646
            ],
            [
              144.958159,
              -37.809648
            ],
            [
              144.95816,
              -37.80965
            ],
            [
              144.958166,
              -37.809659
            ],
            [
              144.958172,
              -37.809672
            ],
            [
              144.958176,
              -37.809686
            ],
            [
              144.958166,
              -37.809757
            ],
            [
              144.958232,
              -37.809901
            ],
            [
              144.958232,
              -37.809902
            ],
            [
              144.958233,
              -37.809908
            ],
            [
              144.958233,
              -37.809915
            ],
            [
              144.958229,
              -37.809925
            ],
            [
              144.958224,
              -37.80993
            ],
            [
              144.958217,
              -37.809935
            ],
            [
              144.95821,
              -37.809938
            ],
            [
              144.958209,
              -37.809938
            ],
            [
              144.95821,
              -37.809941
            ],
            [
              144.958211,
              -37.809943
            ],
            [
              144.958212,
              -37.809943
            ],
            [
              144.958221,
              -37.809939
            ],
            [
              144.958235,
              -37.809927
            ],
            [
              144.958239,
              -37.809916
            ],
            [
              144.95824,
              -37.809908
            ],
            [
              144.958239,
              -37.809906
            ],
            [
              144.958359,
              -37.809872
            ],
            [
              144.95848,
              -37.809838
            ],
            [
              144.958479,
              -37.809838
            ],
            [
              144.958477,
              -37.809833
            ],
            [
              144.958352,
              -37.809559
            ],
            [
              144.958095,
              -37.808994
            ],
            [
              144.958093,
              -37.808986
            ],
            [
              144.958091,
              -37.808982
            ],
            [
              144.958091,
              -37.808978
            ],
            [
              144.95809,
              -37.808977
            ],
            [
              144.95809,
              -37.808971
            ],
            [
              144.958091,
              -37.80897
            ],
            [
              144.958091,
              -37.808966
            ],
            [
              144.958092,
              -37.808966
            ],
            [
              144.958092,
              -37.808965
            ],
            [
              144.958093,
              -37.808964
            ],
            [
              144.958093,
              -37.808962
            ],
            [
              144.958094,
              -37.808962
            ],
            [
              144.958095,
              -37.80896
            ],
            [
              144.958095,
              -37.808959
            ],
            [
              144.958096,
              -37.808958
            ],
            [
              144.958096,
              -37.808957
            ],
            [
              144.958097,
              -37.808957
            ],
            [
              144.958099,
              -37.808955
            ],
            [
              144.958099,
              -37.808954
            ],
            [
              144.9581,
              -37.808954
            ],
            [
              144.958101,
              -37.808953
            ],
            [
              144.958101,
              -37.808952
            ],
            [
              144.958103,
              -37.808951
            ],
            [
              144.958111,
              -37.808943
            ],
            [
              144.958112,
              -37.808943
            ],
            [
              144.958115,
              -37.80894
            ],
            [
              144.958088,
              -37.808874
            ],
            [
              144.958079,
              -37.808879
            ],
            [
              144.958067,
              -37.808887
            ],
            [
              144.958049,
              -37.808902
            ],
            [
              144.958047,
              -37.808902
            ],
            [
              144.958047,
              -37.808903
            ],
            [
              144.958042,
              -37.808903
            ],
            [
              144.958041,
              -37.808902
            ],
            [
              144.95804,
              -37.808902
            ],
            [
              144.958,
              -37.808875
            ],
            [
              144.957997,
              -37.808872
            ],
            [
              144.957997,
              -37.808871
            ],
            [
              144.957996,
              -37.808871
            ],
            [
              144.957996,
              -37.808869
            ],
            [
              144.957995,
              -37.808869
            ],
            [
              144.957995,
              -37.808863
            ],
            [
              144.957996,
              -37.808862
            ],
            [
              144.957996,
              -37.808861
            ],
            [
              144.957998,
              -37.808859
            ],
            [
              144.957998,
              -37.808858
            ],
            [
              144.957999,
              -37.808858
            ],
            [
              144.958,
              -37.808857
            ],
            [
              144.958013,
              -37.808848
            ],
            [
              144.958014,
              -37.808848
            ],
            [
              144.958022,
              -37.808843
            ],
            [
              144.95804,
              -37.808833
            ],
            [
              144.958049,
              -37.808829
            ],
            [
              144.958068,
              -37.808823
            ],
            [
              144.958047,
              -37.808771
            ],
            [
              144.957947,
              -37.8088
            ],
            [
              144.957942,
              -37.808801
            ],
            [
              144.957937,
              -37.808799
            ],
            [
              144.957932,
              -37.808796
            ],
            [
              144.957928,
              -37.808793
            ],
            [
              144.957926,
              -37.808789
            ],
            [
              144.957926,
              -37.808786
            ],
            [
              144.957933,
              -37.808745
            ],
            [
              144.957847,
              -37.808771
            ],
            [
              144.957846,
              -37.808773
            ],
            [
              144.957845,
              -37.808776
            ],
            [
              144.957844,
              -37.808778
            ],
            [
              144.957843,
              -37.808781
            ],
            [
              144.957842,
              -37.808783
            ],
            [
              144.957841,
              -37.808786
            ],
            [
              144.95784,
              -37.808788
            ],
            [
              144.957838,
              -37.808791
            ],
            [
              144.957837,
              -37.808793
            ],
            [
              144.957835,
              -37.808798
            ],
            [
              144.957834,
              -37.808798
            ],
            [
              144.957832,
              -37.808802
            ],
            [
              144.95783,
              -37.808805
            ],
            [
              144.957829,
              -37.808807
            ],
            [
              144.957827,
              -37.808809
            ],
            [
              144.957825,
              -37.808812
            ],
            [
              144.957824,
              -37.808815
            ],
            [
              144.957822,
              -37.808817
            ],
            [
              144.957818,
              -37.808823
            ],
            [
              144.957811,
              -37.80883
            ],
            [
              144.957809,
              -37.808833
            ],
            [
              144.957807,
              -37.808835
            ],
            [
              144.957804,
              -37.808837
            ],
            [
              144.957804,
              -37.808838
            ],
            [
              144.9578,
              -37.808842
            ],
            [
              144.957799,
              -37.808842
            ],
            [
              144.957797,
              -37.808845
            ],
            [
              144.957795,
              -37.808847
            ],
            [
              144.957794,
              -37.808847
            ],
            [
              144.957792,
              -37.808849
            ],
            [
              144.957789,
              -37.808851
            ],
            [
              144.957787,
              -37.808854
            ],
            [
              144.957778,
              -37.80886
            ],
            [
              144.957776,
              -37.808862
            ],
            [
              144.957775,
              -37.808862
            ],
            [
              144.95777,
              -37.808866
            ],
            [
              144.957761,
              -37.808872
            ],
            [
              144.957758,
              -37.808873
            ],
            [
              144.957754,
              -37.808875
            ],
            [
              144.957752,
              -37.808877
            ],
            [
              144.957749,
              -37.808879
            ],
            [
              144.957746,
              -37.80888
            ],
            [
              144.957739,
              -37.808883
            ],
            [
              144.957736,
              -37.808885
            ],
            [
              144.957733,
              -37.808886
            ],
            [
              144.95773,
              -37.808888
            ],
            [
              144.957726,
              -37.808889
            ],
            [
              144.957723,
              -37.808891
            ],
            [
              144.95772,
              -37.808892
            ],
            [
              144.957716,
              -37.808893
            ],
            [
              144.957713,
              -37.808894
            ],
            [
              144.957709,
              -37.808895
            ],
            [
              144.957706,
              -37.808896
            ],
            [
              144.957702,
              -37.808897
            ],
            [
              144.957699,
              -37.808898
            ],
            [
              144.957695,
              -37.808899
            ],
            [
              144.957688,
              -37.8089
            ],
            [
              144.957684,
              -37.8089
            ],
            [
              144.957681,
              -37.808901
            ],
            [
              144.957677,
              -37.808901
            ],
            [
              144.957673,
              -37.808902
            ],
            [
              144.957655,
              -37.808903
            ],
            [
              144.957649,
              -37.808903
            ],
            [
              144.957608,
              -37.808899
            ],
            [
              144.957604,
              -37.808899
            ],
            [
              144.957602,
              -37.808898
            ],
            [
              144.957602,
              -37.808896
            ],
            [
              144.957556,
              -37.808892
            ],
            [
              144.95755,
              -37.808925
            ],
            [
              144.95754,
              -37.808979
            ],
            [
              144.95754,
              -37.808981
            ],
            [
              144.957587,
              -37.808986
            ],
            [
              144.957588,
              -37.808986
            ],
            [
              144.957628,
              -37.808991
            ],
            [
              144.95763,
              -37.808991
            ],
            [
              144.95763,
              -37.808992
            ],
            [
              144.957631,
              -37.808992
            ],
            [
              144.957631,
              -37.808993
            ],
            [
              144.957632,
              -37.808993
            ],
            [
              144.957632,
              -37.808995
            ],
            [
              144.95759,
              -37.809229
            ],
            [
              144.95759,
              -37.809232
            ],
            [
              144.957589,
              -37.809232
            ],
            [
              144.957589,
              -37.809235
            ],
            [
              144.957588,
              -37.809236
            ],
            [
              144.957588,
              -37.809237
            ],
            [
              144.957587,
              -37.809238
            ],
            [
              144.957587,
              -37.80924
            ],
            [
              144.957585,
              -37.809242
            ],
            [
              144.957585,
              -37.809243
            ],
            [
              144.957583,
              -37.809245
            ],
            [
              144.957583,
              -37.809246
            ],
            [
              144.95758,
              -37.809249
            ],
            [
              144.957579,
              -37.809251
            ],
            [
              144.957577,
              -37.809252
            ],
            [
              144.957576,
              -37.809253
            ],
            [
              144.957575,
              -37.809255
            ],
            [
              144.957573,
              -37.809256
            ],
            [
              144.957572,
              -37.809257
            ],
            [
              144.957568,
              -37.809259
            ],
            [
              144.957567,
              -37.80926
            ],
            [
              144.957561,
              -37.809263
            ],
            [
              144.95756,
              -37.809264
            ],
            [
              144.957556,
              -37.809265
            ],
            [
              144.957554,
              -37.809265
            ],
            [
              144.957553,
              -37.809266
            ],
            [
              144.95755,
              -37.809266
            ],
            [
              144.957548,
              -37.809267
            ],
            [
              144.957529,
              -37.809267
            ],
            [
              144.957491,
              -37.809262
            ],
            [
              144.95748,
              -37.809261
            ],
            [
              144.957479,
              -37.809264
            ],
            [
              144.957479,
              -37.809265
            ],
            [
              144.95749,
              -37.809266
            ],
            [
              144.957477,
              -37.809341
            ],
            [
              144.957475,
              -37.809341
            ],
            [
              144.957366,
              -37.809328
            ],
            [
              144.957363,
              -37.809328
            ],
            [
              144.957362,
              -37.809329
            ],
            [
              144.957361,
              -37.809329
            ],
            [
              144.957361,
              -37.80933
            ],
            [
              144.95736,
              -37.80933
            ],
            [
              144.95736,
              -37.809331
            ],
            [
              144.957359,
              -37.809332
            ],
            [
              144.957349,
              -37.809386
            ],
            [
              144.957339,
              -37.809441
            ],
            [
              144.957339,
              -37.809443
            ]
          ]
        ]
      }
    }
  ]
}