{
  "type": "FeatureCollection",
  "features": [
    {
      "type": "Feature",
      "properties": {
        "name": "polygon66"
      },
      "geometry": {
        "type": "MultiPolygon",
        "coordinates": [
          [
            [
              [
                144.935553,
                -37.810859
              ],
              [
                144.935554,
                -37.810881
              ],
              [
                144.935555,
                -37.810904
              ],
              [
                144.935556,
                -37.810915
              ],
              [
                144.935558,
                -37.810927
              ],
              [
                144.935561,
                -37.81095
              ],
              [
                144.935566,
                -37.810973
              ],
              [
                144.935571,
                -37.810995
              ],
              [
                144.935572,
                -37.810997
              ],
              [
                144.935578,
                -37.811018
              ],
              [
                144.935585,
                -37.81104
              ],
              [
                144.935594,
                -37.811062
              ],
              [
                144.935599,
                -37.811074
              ],
              [
                144.935603,
                -37.811083
              ],
              [
                144.935613,
                -37.811105
              ],
              [
                144.935624,
                -37.811126
              ],
              [
                144.935636,
                -37.811147
              ],
              [
                144.935649,
                -37.811167
              ],
              [
                144.935663,
                -37.811187
              ],
              [
                144.935678,
                -37.811207
              ],
              [
                144.935694,
                -37.811226
              ],
              [
                144.935841,
                -37.811402
              ],
              [
                144.93585,
                -37.811412
              ],
              [
                144.935858,
                -37.811421
              ],
              [
                144.935918,
                -37.811493
              ],
              [
                144.935945,
                -37.811529
              ],
              [
                144.935953,
                -37.811541
              ],
              [
                144.93596,
                -37.811553
              ],
              [
                144.93596,
                -37.811554
              ],
              [
                144.935963,
                -37.81156
              ],
              [
                144.935967,
                -37.811566
              ],
              [
                144.935968,
                -37.811569
              ],
              [
                144.935975,
                -37.811583
              ],
              [
                144.935979,
                -37.811592
              ],
              [
                144.935984,
                -37.811605
              ],
              [
                144.935988,
                -37.811619
              ],
              [
                144.935992,
                -37.811632
              ],
              [
                144.935996,
                -37.811646
              ],
              [
                144.935999,
                -37.811659
              ],
              [
                144.936001,
                -37.811673
              ],
              [
                144.936002,
                -37.811687
              ],
              [
                144.936004,
                -37.811701
              ],
              [
                144.936004,
                -37.811728
              ],
              [
                144.936002,
                -37.811756
              ],
              [
                144.93598,
                -37.811943
              ],
              [
                144.935978,
                -37.811963
              ],
              [
                144.935976,
                -37.812003
              ],
              [
                144.935978,
                -37.812043
              ],
              [
                144.935981,
                -37.812063
              ],
              [
                144.935984,
                -37.812082
              ],
              [
                144.935988,
                -37.812102
              ],
              [
                144.935993,
                -37.812122
              ],
              [
                144.935998,
                -37.812141
              ],
              [
                144.936005,
                -37.812161
              ],
              [
                144.936012,
                -37.81218
              ],
              [
                144.93602,
                -37.812199
              ],
              [
                144.936029,
                -37.812218
              ],
              [
                144.936039,
                -37.812236
              ],
              [
                144.93605,
                -37.812254
              ],
              [
                144.936212,
                -37.812523
              ],
              [
                144.936223,
                -37.812519
              ],
              [
                144.936225,
                -37.812518
              ],
              [
                144.936234,
                -37.81252
              ],
              [
                144.936238,
                -37.812521
              ],
              [
                144.936244,
                -37.812525
              ],
              [
                144.936303,
                -37.812613
              ],
              [
                144.936373,
                -37.812727
              ],
              [
                144.93645,
                -37.812853
              ],
              [
                144.936513,
                -37.812957
              ],
              [
                144.936602,
                -37.813107
              ],
              [
                144.936661,
                -37.813207
              ],
              [
                144.936719,
                -37.813299
              ],
              [
                144.936744,
                -37.813342
              ],
              [
                144.936805,
                -37.813443
              ],
              [
                144.936881,
                -37.813569
              ],
              [
                144.93694,
                -37.813666
              ],
              [
                144.936962,
                -37.813704
              ],
              [
                144.936987,
                -37.813745
              ],
              [
                144.937009,
                -37.813781
              ],
              [
                144.937093,
                -37.813921
              ],
              [
                144.937163,
                -37.814037
              ],
              [
                144.937235,
                -37.814154
              ],
              [
                144.93725,
                -37.814179
              ],
              [
                144.937278,
                -37.814225
              ],
              [
                144.937324,
                -37.814301
              ],
              [
                144.937365,
                -37.814368
              ],
              [
                144.937417,
                -37.814455
              ],
              [
                144.937478,
                -37.814556
              ],
              [
                144.937489,
                -37.814574
              ],
              [
                144.937496,
                -37.814585
              ],
              [
                144.9375,
                -37.814593
              ],
              [
                144.937503,
                -37.814608
              ],
              [
                144.937509,
                -37.814631
              ],
              [
                144.937513,
                -37.814651
              ],
              [
                144.937513,
                -37.814654
              ],
              [
                144.937556,
                -37.814636
              ],
              [
                144.937561,
                -37.814645
              ],
              [
                144.937567,
                -37.814662
              ],
              [
                144.93757,
                -37.81467
              ],
              [
                144.937572,
                -37.81467
              ],
              [
                144.937574,
                -37.814669
              ],
              [
                144.937575,
                -37.814671
              ],
              [
                144.937581,
                -37.814694
              ],
              [
                144.937581,
                -37.814695
              ],
              [
                144.937582,
                -37.814708
              ],
              [
                144.937698,
                -37.814664
              ],
              [
                144.937692,
                -37.814659
              ],
              [
                144.937683,
                -37.81465
              ],
              [
                144.937682,
                -37.81465
              ],
              [
                144.937669,
                -37.814629
              ],
              [
                144.937672,
                -37.814628
              ],
              [
                144.937674,
                -37.814627
              ],
              [
                144.937673,
                -37.814626
              ],
              [
                144.937669,
                -37.814619
              ],
              [
                144.9377,
                -37.814607
              ],
              [
                144.937132,
                -37.813669
              ],
              [
                144.937065,
                -37.813559
              ],
              [
                144.936729,
                -37.813003
              ],
              [
                144.936729,
                -37.813002
              ],
              [
                144.936728,
                -37.813001
              ],
              [
                144.936716,
                -37.812981
              ],
              [
                144.936696,
                -37.812949
              ],
              [
                144.936675,
                -37.812957
              ],
              [
                144.936675,
                -37.812958
              ],
              [
                144.936664,
                -37.812958
              ],
              [
                144.936664,
                -37.812957
              ],
              [
                144.936662,
                -37.812957
              ],
              [
                144.936662,
                -37.812956
              ],
              [
                144.936661,
                -37.812956
              ],
              [
                144.93666,
                -37.812955
              ],
              [
                144.936659,
                -37.812955
              ],
              [
                144.936659,
                -37.812954
              ],
              [
                144.936444,
                -37.812597
              ],
              [
                144.936444,
                -37.812596
              ],
              [
                144.936443,
                -37.812596
              ],
              [
                144.936443,
                -37.81259
              ],
              [
                144.936444,
                -37.812589
              ],
              [
                144.936444,
                -37.812588
              ],
              [
                144.936445,
                -37.812588
              ],
              [
                144.936445,
                -37.812587
              ],
              [
                144.936446,
                -37.812587
              ],
              [
                144.936447,
                -37.812586
              ],
              [
                144.936448,
                -37.812586
              ],
              [
                144.936449,
                -37.812585
              ],
              [
                144.936452,
                -37.812584
              ],
              [
                144.936471,
                -37.812576
              ],
              [
                144.936432,
                -37.812511
              ],
              [
                144.936411,
                -37.81252
              ],
              [
                144.9364,
                -37.81252
              ],
              [
                144.9364,
                -37.812519
              ],
              [
                144.936398,
                -37.812519
              ],
              [
                144.936398,
                -37.812518
              ],
              [
                144.936397,
                -37.812518
              ],
              [
                144.936397,
                -37.812517
              ],
              [
                144.936396,
                -37.812517
              ],
              [
                144.936396,
                -37.812516
              ],
              [
                144.936395,
                -37.812516
              ],
              [
                144.936395,
                -37.812515
              ],
              [
                144.936377,
                -37.812489
              ],
              [
                144.936377,
                -37.812487
              ],
              [
                144.936376,
                -37.812486
              ],
              [
                144.936376,
                -37.812484
              ],
              [
                144.936377,
                -37.812483
              ],
              [
                144.936377,
                -37.812481
              ],
              [
                144.936378,
                -37.812481
              ],
              [
                144.936378,
                -37.81248
              ],
              [
                144.936379,
                -37.81248
              ],
              [
                144.936379,
                -37.812479
              ],
              [
                144.93638,
                -37.812479
              ],
              [
                144.936382,
                -37.812477
              ],
              [
                144.936405,
                -37.812468
              ],
              [
                144.9364,
                -37.812459
              ],
              [
                144.936366,
                -37.812403
              ],
              [
                144.936344,
                -37.812411
              ],
              [
                144.936343,
                -37.812412
              ],
              [
                144.936334,
                -37.812412
              ],
              [
                144.936334,
                -37.812411
              ],
              [
                144.936332,
                -37.812411
              ],
              [
                144.936332,
                -37.81241
              ],
              [
                144.936328,
                -37.812405
              ],
              [
                144.936275,
                -37.812317
              ],
              [
                144.936231,
                -37.812244
              ],
              [
                144.936221,
                -37.812228
              ],
              [
                144.93622,
                -37.812228
              ],
              [
                144.93622,
                -37.812227
              ],
              [
                144.936219,
                -37.812226
              ],
              [
                144.936218,
                -37.812226
              ],
              [
                144.936217,
                -37.812225
              ],
              [
                144.936212,
                -37.812225
              ],
              [
                144.936201,
                -37.812229
              ],
              [
                144.9362,
                -37.812229
              ],
              [
                144.936199,
                -37.81223
              ],
              [
                144.936196,
                -37.81223
              ],
              [
                144.936196,
                -37.812229
              ],
              [
                144.936194,
                -37.812229
              ],
              [
                144.936193,
                -37.812228
              ],
              [
                144.9361925625,
                -37.812228
              ],
              [
                144.936192,
                -37.812227
              ],
              [
                144.936191,
                -37.812227
              ],
              [
                144.936184,
                -37.812212
              ],
              [
                144.936176,
                -37.812197
              ],
              [
                144.936169,
                -37.812182
              ],
              [
                144.936165,
                -37.812175
              ],
              [
                144.936159,
                -37.812161
              ],
              [
                144.93615,
                -37.812134
              ],
              [
                144.936149,
                -37.812133
              ],
              [
                144.936066,
                -37.812152
              ],
              [
                144.936066,
                -37.812151
              ],
              [
                144.936057,
                -37.812126
              ],
              [
                144.936051,
                -37.81211
              ],
              [
                144.936049,
                -37.812099
              ],
              [
                144.936048,
                -37.812097
              ],
              [
                144.936047,
                -37.81209
              ],
              [
                144.936043,
                -37.812065
              ],
              [
                144.936042,
                -37.81206
              ],
              [
                144.936039,
                -37.81204
              ],
              [
                144.936038,
                -37.81204
              ],
              [
                144.936034,
                -37.812011
              ],
              [
                144.936031,
                -37.811998
              ],
              [
                144.936025,
                -37.811969
              ],
              [
                144.936022,
                -37.811949
              ],
              [
                144.936018,
                -37.811926
              ],
              [
                144.936016,
                -37.811901
              ],
              [
                144.936016,
                -37.811873
              ],
              [
                144.936019,
                -37.811839
              ],
              [
                144.936028,
                -37.811769
              ],
              [
                144.936041,
                -37.811692
              ],
              [
                144.936048,
                -37.811654
              ],
              [
                144.936049,
                -37.81164
              ],
              [
                144.93605,
                -37.811631
              ],
              [
                144.93605,
                -37.81163
              ],
              [
                144.936048,
                -37.811607
              ],
              [
                144.936045,
                -37.811599
              ],
              [
                144.936041,
                -37.811589
              ],
              [
                144.936037,
                -37.811578
              ],
              [
                144.936024,
                -37.811553
              ],
              [
                144.936023,
                -37.811551
              ],
              [
                144.93601,
                -37.811528
              ],
              [
                144.936009,
                -37.811528
              ],
              [
                144.935981,
                -37.811485
              ],
              [
                144.935963,
                -37.811462
              ],
              [
                144.935925,
                -37.811419
              ],
              [
                144.935922,
                -37.811416
              ],
              [
                144.935878,
                -37.811363
              ],
              [
                144.935831,
                -37.811307
              ],
              [
                144.935803,
                -37.811275
              ],
              [
                144.935747,
                -37.811209
              ],
              [
                144.935716,
                -37.81117
              ],
              [
                144.935681,
                -37.811117
              ],
              [
                144.935665,
                -37.811087
              ],
              [
                144.935655,
                -37.811065
              ],
              [
                144.935642,
                -37.811038
              ],
              [
                144.935628,
                -37.810994
              ],
              [
                144.935624,
                -37.81098
              ],
              [
                144.935622,
                -37.810962
              ],
              [
                144.935615,
                -37.810896
              ],
              [
                144.935611,
                -37.81086
              ],
              [
                144.935611,
                -37.810837
              ],
              [
                144.935612,
                -37.810817
              ],
              [
                144.935613,
                -37.810811
              ],
              [
                144.935613,
                -37.81081
              ],
              [
                144.935612,
                -37.810807
              ],
              [
                144.935612,
                -37.810806
              ],
              [
                144.935611,
                -37.810806
              ],
              [
                144.935611,
                -37.810804
              ],
              [
                144.93562982568807,
                -37.810696
              ],
              [
                144.935629,
                -37.810696
              ],
              [
                144.935619,
                -37.810704
              ],
              [
                144.935617,
                -37.810702
              ],
              [
                144.935627,
                -37.810694
              ],
              [
                144.935632,
                -37.810685
              ],
              [
                144.935633,
                -37.810677
              ],
              [
                144.935634,
                -37.810673
              ],
              [
                144.935627,
                -37.810673
              ],
              [
                144.935629,
                -37.810633
              ],
              [
                144.93564,
                -37.810572
              ],
              [
                144.935681,
                -37.81034
              ],
              [
                144.935698,
                -37.810249
              ],
              [
                144.935703,
                -37.810223
              ],
              [
                144.935738,
                -37.810005
              ],
              [
                144.935742,
                -37.809984
              ],
              [
                144.935743,
                -37.809975
              ],
              [
                144.935702,
                -37.809971
              ],
              [
                144.935701,
                -37.809975
              ],
              [
                144.935561,
                -37.810767
              ],
              [
                144.935555,
                -37.810813
              ],
              [
                144.935553,
                -37.810859
              ]
            ],
            [
              [
                144.935619,
                -37.810984
              ],
              [
                144.935619,
                -37.81098
              ],
              [
                144.93562,
                -37.810962
              ],
              [
                144.935621,
                -37.81097
              ],
              [
                144.935622,
                -37.81098
              ],
              [
                144.935624,
                -37.810987
              ],
              [
                144.935626,
                -37.810995
              ],
              [
                144.93564,
                -37.811039
              ],
              [
                144.935652,
                -37.811065
              ],
              [
                144.935658,
                -37.811077
              ],
              [
                144.935663,
                -37.811088
              ],
              [
                144.935679,
                -37.811118
              ],
              [
                144.935714,
                -37.811171
              ],
              [
                144.935725,
                -37.811185
              ],
              [
                144.935745,
                -37.81121
              ],
              [
                144.935786,
                -37.811258
              ],
              [
                144.935801,
                -37.811276
              ],
              [
                144.93581,
                -37.811287
              ],
              [
                144.935829,
                -37.811308
              ],
              [
                144.935876,
                -37.811364
              ],
              [
                144.93592,
                -37.811417
              ],
              [
                144.935923,
                -37.81142
              ],
              [
                144.935961,
                -37.811463
              ],
              [
                144.935979,
                -37.811486
              ],
              [
                144.935971,
                -37.811492
              ],
              [
                144.935909,
                -37.811418
              ],
              [
                144.935907,
                -37.811415
              ],
              [
                144.935874,
                -37.811378
              ],
              [
                144.935865,
                -37.81137
              ],
              [
                144.93586,
                -37.811364
              ],
              [
                144.93586,
                -37.811363
              ],
              [
                144.93582,
                -37.811312
              ],
              [
                144.935759,
                -37.81124
              ],
              [
                144.935751,
                -37.811231
              ],
              [
                144.935713,
                -37.811185
              ],
              [
                144.935698,
                -37.811166
              ],
              [
                144.935697,
                -37.811165
              ],
              [
                144.935685,
                -37.811147
              ],
              [
                144.935668,
                -37.811116
              ],
              [
                144.935659,
                -37.811098
              ],
              [
                144.935653,
                -37.811085
              ],
              [
                144.935646,
                -37.811066
              ],
              [
                144.935638,
                -37.811044
              ],
              [
                144.935623,
                -37.811005
              ],
              [
                144.935621,
                -37.810996
              ],
              [
                144.93562,
                -37.810988
              ],
              [
                144.935619,
                -37.810984
              ]
            ],
            [
              [
                144.936071,
                -37.812224
              ],
              [
                144.936071,
                -37.812221
              ],
              [
                144.936074,
                -37.81222
              ],
              [
                144.93609,
                -37.812213
              ],
              [
                144.936091,
                -37.812212
              ],
              [
                144.936092,
                -37.812212
              ],
              [
                144.936154,
                -37.81232
              ],
              [
                144.936151,
                -37.81232
              ],
              [
                144.936139,
                -37.812325
              ],
              [
                144.936136,
                -37.812326
              ],
              [
                144.936135,
                -37.812326
              ],
              [
                144.936135,
                -37.812325
              ],
              [
                144.936118,
                -37.8123
              ],
              [
                144.936072,
                -37.812226
              ],
              [
                144.936071,
                -37.812224
              ]
            ]
          ],
          [
            [
              [
                144.93562982568807,
                -37.810696
              ],
              [
                144.93563,
                -37.810696
              ],
              [
                144.93563,
                -37.810695
              ],
              [
                144.93562982568807,
                -37.810696
              ]
            ]
          ]
        ]
      }
    }
  ]
}