{
  "type": "FeatureCollection",
  "features": [
    {
      "type": "Feature",
      "properties": {
        "name": "polygon179"
      },
      "geometry": {
        "type": "MultiPolygon",
        "coordinates": [
          [
            [
              [
                144.967301,
                -37.817563
              ],
              [
                144.967321,
                -37.817607
              ],
              [
                144.967322,
                -37.817606
              ],
              [
                144.967324,
                -37.817606
              ],
              [
                144.967325,
                -37.817607
              ],
              [
                144.967328,
                -37.817607
              ],
              [
                144.967332,
                -37.817611
              ],
              [
                144.967344,
                -37.817637
              ],
              [
                144.967354,
                -37.817659
              ],
              [
                144.967351,
                -37.81766
              ],
              [
                144.96754,
                -37.818072
              ],
              [
                144.967541,
                -37.818072
              ],
              [
                144.967541,
                -37.818075
              ],
              [
                144.96754,
                -37.818075
              ],
              [
                144.96754,
                -37.818076
              ],
              [
                144.967538,
                -37.818079
              ],
              [
                144.967716,
                -37.818465
              ],
              [
                144.967782,
                -37.818609
              ],
              [
                144.967783,
                -37.818612
              ],
              [
                144.967785,
                -37.818615
              ],
              [
                144.967828,
                -37.818709
              ],
              [
                144.96785,
                -37.818756
              ],
              [
                144.96788,
                -37.818823
              ],
              [
                144.967895,
                -37.818855
              ],
              [
                144.967897,
                -37.818858
              ],
              [
                144.967956,
                -37.818855
              ],
              [
                144.967961,
                -37.818855
              ],
              [
                144.968038,
                -37.818851
              ],
              [
                144.968009,
                -37.818788
              ],
              [
                144.967924,
                -37.8186
              ],
              [
                144.967923,
                -37.8186
              ],
              [
                144.967857,
                -37.818457
              ],
              [
                144.967643,
                -37.817989
              ],
              [
                144.967594,
                -37.817883
              ],
              [
                144.96759,
                -37.817874
              ],
              [
                144.967588,
                -37.817874
              ],
              [
                144.967585,
                -37.817865
              ],
              [
                144.967565,
                -37.817821
              ],
              [
                144.967542,
                -37.817772
              ],
              [
                144.967517,
                -37.817715
              ],
              [
                144.967495,
                -37.817669
              ],
              [
                144.967486,
                -37.817671
              ],
              [
                144.96748,
                -37.817658
              ],
              [
                144.967489,
                -37.817655
              ],
              [
                144.967468,
                -37.817611
              ],
              [
                144.967469,
                -37.817611
              ],
              [
                144.967465,
                -37.817602
              ],
              [
                144.967425,
                -37.817515
              ],
              [
                144.967301,
                -37.817563
              ]
            ],
            [
              [
                144.96794,
                -37.818819
              ],
              [
                144.96794600000013,
                -37.818832500000276
              ],
              [
                144.967943,
                -37.818826
              ],
              [
                144.96794,
                -37.818819
              ]
            ]
          ],
          [
            [
              [
                144.967486,
                -37.817491
              ],
              [
                144.967528,
                -37.817584
              ],
              [
                144.967706,
                -37.81797
              ],
              [
                144.967706,
                -37.817971
              ],
              [
                144.967707,
                -37.817971
              ],
              [
                144.967712,
                -37.81798
              ],
              [
                144.967737,
                -37.818036
              ],
              [
                144.967929,
                -37.818452
              ],
              [
                144.967932,
                -37.818458
              ],
              [
                144.967988,
                -37.818581
              ],
              [
                144.967987,
                -37.818581
              ],
              [
                144.967987,
                -37.818582
              ],
              [
                144.968109,
                -37.818847
              ],
              [
                144.968183,
                -37.818844
              ],
              [
                144.968186,
                -37.818844
              ],
              [
                144.968188,
                -37.818843
              ],
              [
                144.968255,
                -37.81884
              ],
              [
                144.968254,
                -37.818839
              ],
              [
                144.96825,
                -37.818831
              ],
              [
                144.968241,
                -37.818811
              ],
              [
                144.968238,
                -37.818804
              ],
              [
                144.968241,
                -37.818804
              ],
              [
                144.968243,
                -37.818803
              ],
              [
                144.968244,
                -37.818803
              ],
              [
                144.968246,
                -37.818802
              ],
              [
                144.968249,
                -37.818799
              ],
              [
                144.96825,
                -37.818799
              ],
              [
                144.968251,
                -37.818798
              ],
              [
                144.968252,
                -37.818796
              ],
              [
                144.968253,
                -37.818795
              ],
              [
                144.968254,
                -37.818793
              ],
              [
                144.968254,
                -37.818786
              ],
              [
                144.968237,
                -37.818749
              ],
              [
                144.968236,
                -37.818748
              ],
              [
                144.968236,
                -37.818747
              ],
              [
                144.968235,
                -37.818747
              ],
              [
                144.968235,
                -37.818746
              ],
              [
                144.968234,
                -37.818746
              ],
              [
                144.968234,
                -37.818745
              ],
              [
                144.968233,
                -37.818744
              ],
              [
                144.968232,
                -37.818744
              ],
              [
                144.968232,
                -37.818743
              ],
              [
                144.968231,
                -37.818743
              ],
              [
                144.968229,
                -37.818742
              ],
              [
                144.968228,
                -37.818742
              ],
              [
                144.968227,
                -37.818741
              ],
              [
                144.968225,
                -37.818741
              ],
              [
                144.968224,
                -37.81874
              ],
              [
                144.968217,
                -37.81874
              ],
              [
                144.968216,
                -37.818741
              ],
              [
                144.968213,
                -37.818741
              ],
              [
                144.968209,
                -37.818743
              ],
              [
                144.968206,
                -37.818736
              ],
              [
                144.968162,
                -37.818642
              ],
              [
                144.968068,
                -37.818444
              ],
              [
                144.968068,
                -37.818443
              ],
              [
                144.968078,
                -37.81844
              ],
              [
                144.968079,
                -37.818439
              ],
              [
                144.96808,
                -37.818439
              ],
              [
                144.968082,
                -37.818437
              ],
              [
                144.968083,
                -37.818437
              ],
              [
                144.968083,
                -37.818436
              ],
              [
                144.968084,
                -37.818435
              ],
              [
                144.968084,
                -37.818429
              ],
              [
                144.967978,
                -37.818199
              ],
              [
                144.967975,
                -37.8182
              ],
              [
                144.967868,
                -37.817969
              ],
              [
                144.967868,
                -37.817968
              ],
              [
                144.967867,
                -37.817967
              ],
              [
                144.967866,
                -37.817967
              ],
              [
                144.967865,
                -37.817966
              ],
              [
                144.967863,
                -37.817966
              ],
              [
                144.967862,
                -37.817965
              ],
              [
                144.967861,
                -37.817966
              ],
              [
                144.96786,
                -37.817966
              ],
              [
                144.967857,
                -37.817967
              ],
              [
                144.967965,
                -37.818202
              ],
              [
                144.968073,
                -37.818438
              ],
              [
                144.968067,
                -37.81844
              ],
              [
                144.968037,
                -37.818376
              ],
              [
                144.96785,
                -37.817969
              ],
              [
                144.967846,
                -37.81797
              ],
              [
                144.967841,
                -37.81797
              ],
              [
                144.96784,
                -37.817969
              ],
              [
                144.967839,
                -37.817969
              ],
              [
                144.967839,
                -37.817968
              ],
              [
                144.967838,
                -37.817968
              ],
              [
                144.967838,
                -37.817967
              ],
              [
                144.967837,
                -37.817967
              ],
              [
                144.96784,
                -37.817966
              ],
              [
                144.967841,
                -37.817966
              ],
              [
                144.967841,
                -37.817967
              ],
              [
                144.967845,
                -37.817967
              ],
              [
                144.967849,
                -37.817966
              ],
              [
                144.967752,
                -37.817756
              ],
              [
                144.967656,
                -37.817547
              ],
              [
                144.967655,
                -37.817545
              ],
              [
                144.967654,
                -37.817542
              ],
              [
                144.967653,
                -37.81754
              ],
              [
                144.96761,
                -37.817446
              ],
              [
                144.967558,
                -37.817464
              ],
              [
                144.967486,
                -37.817491
              ]
            ],
            [
              [
                144.967595,
                -37.817581
              ],
              [
                144.967595,
                -37.81758
              ],
              [
                144.967597,
                -37.817589
              ],
              [
                144.967595,
                -37.817581
              ]
            ],
            [
              [
                144.967595,
                -37.817573
              ],
              [
                144.967595,
                -37.817572
              ],
              [
                144.967596,
                -37.81757
              ],
              [
                144.967596,
                -37.817571
              ],
              [
                144.967595,
                -37.817573
              ]
            ],
            [
              [
                144.967598,
                -37.817565
              ],
              [
                144.967599,
                -37.817563
              ],
              [
                144.9676,
                -37.817562
              ],
              [
                144.967599,
                -37.817564
              ],
              [
                144.967598,
                -37.817565
              ]
            ],
            [
              [
                144.967604,
                -37.817558
              ],
              [
                144.967606,
                -37.817556
              ],
              [
                144.9676075,
                -37.8175555
              ],
              [
                144.967606,
                -37.817557
              ],
              [
                144.967604,
                -37.817558
              ]
            ],
            [
              [
                144.968056,
                -37.818449
              ],
              [
                144.968057,
                -37.81845
              ],
              [
                144.968085,
                -37.818513
              ],
              [
                144.968056,
                -37.818449
              ]
            ],
            [
              [
                144.968059,
                -37.818449
              ],
              [
                144.968059,
                -37.818448
              ],
              [
                144.968088,
                -37.818512
              ],
              [
                144.968059,
                -37.818449
              ]
            ],
            [
              [
                144.96808,
                -37.818434
              ],
              [
                144.968081,
                -37.818433
              ],
              [
                144.968081,
                -37.818434
              ],
              [
                144.96808,
                -37.818434
              ]
            ],
            [
              [
                144.968088,
                -37.818512
              ],
              [
                144.968138,
                -37.818649
              ],
              [
                144.968115,
                -37.818586
              ],
              [
                144.968101,
                -37.818548
              ],
              [
                144.968088,
                -37.818512
              ]
            ],
            [
              [
                144.968098,
                -37.818548
              ],
              [
                144.968112,
                -37.818586
              ],
              [
                144.968135,
                -37.818649
              ],
              [
                144.968098,
                -37.818548
              ]
            ],
            [
              [
                144.968129,
                -37.818714
              ],
              [
                144.968129,
                -37.818712
              ],
              [
                144.96813,
                -37.8187095
              ],
              [
                144.96813,
                -37.818711
              ],
              [
                144.968129,
                -37.818714
              ]
            ],
            [
              [
                144.968133,
                -37.818701
              ],
              [
                144.968137,
                -37.818696
              ],
              [
                144.968135,
                -37.818699
              ],
              [
                144.968133,
                -37.818701
              ]
            ],
            [
              [
                144.968135,
                -37.818649
              ],
              [
                144.968142,
                -37.818668
              ],
              [
                144.968143,
                -37.818671
              ],
              [
                144.968141,
                -37.818666
              ],
              [
                144.968135,
                -37.818649
              ]
            ],
            [
              [
                144.968137,
                -37.818696
              ],
              [
                144.96814,
                -37.818691
              ],
              [
                144.968139,
                -37.818693
              ],
              [
                144.968137,
                -37.818696
              ]
            ],
            [
              [
                144.96814,
                -37.818691
              ],
              [
                144.968143,
                -37.8186835
              ],
              [
                144.968143,
                -37.818685
              ],
              [
                144.968142,
                -37.818688
              ],
              [
                144.96814,
                -37.818691
              ]
            ],
            [
              [
                144.968143,
                -37.818671
              ],
              [
                144.968144,
                -37.818674
              ],
              [
                144.968144,
                -37.818676
              ],
              [
                144.968143,
                -37.818671
              ]
            ],
            [
              [
                144.968169,
                -37.818801
              ],
              [
                144.968175,
                -37.818814
              ],
              [
                144.96818166666702,
                -37.8188290000008
              ],
              [
                144.968169,
                -37.818801
              ]
            ]
          ]
        ]
      }
    }
  ]
}