{
  "type": "FeatureCollection",
  "features": [
    {
      "type": "Feature",
      "properties": {
        "name": "polygon97"
      },
      "geometry": {
        "type": "Polygon",
        "coordinates": [
          [
            [
              144.959186,
              -37.8121
            ],
            [
              144.959187,
              -37.812102
            ],
            [
              144.959193,
              -37.81212
            ],
            [
              144.959553,
              -37.812919
            ],
            [
              144.959571,
              -37.812953
            ],
            [
              144.959572,
              -37.812956
            ],
            [
              144.959573,
              -37.812958
            ],
            [
              144.959621,
              -37.81305
            ],
            [
              144.959669,
              -37.813143
            ],
            [
              144.959673,
              -37.813143
            ],
            [
              144.959673,
              -37.813142
            ],
            [
              144.959685,
              -37.813142
            ],
            [
              144.95969,
              -37.813143
            ],
            [
              144.959691,
              -37.813143
            ],
            [
              144.959698,
              -37.813145
            ],
            [
              144.959699,
              -37.813145
            ],
            [
              144.959699,
              -37.813146
            ],
            [
              144.959705,
              -37.813148
            ],
            [
              144.959706,
              -37.813149
            ],
            [
              144.959713,
              -37.813154
            ],
            [
              144.959713,
              -37.813155
            ],
            [
              144.959714,
              -37.813155
            ],
            [
              144.95972,
              -37.813164
            ],
            [
              144.959842,
              -37.81313
            ],
            [
              144.959965,
              -37.813096
            ],
            [
              144.95996,
              -37.813084
            ],
            [
              144.959958,
              -37.813075
            ],
            [
              144.95996,
              -37.813069
            ],
            [
              144.959963,
              -37.813063
            ],
            [
              144.959968,
              -37.81306
            ],
            [
              144.959974,
              -37.813057
            ],
            [
              144.959982,
              -37.813054
            ],
            [
              144.959993,
              -37.813051
            ],
            [
              144.95995,
              -37.812956
            ],
            [
              144.959907,
              -37.81286
            ],
            [
              144.959905,
              -37.812856
            ],
            [
              144.959889,
              -37.812821
            ],
            [
              144.959807,
              -37.81264
            ],
            [
              144.959807,
              -37.812639
            ],
            [
              144.959806,
              -37.812637
            ],
            [
              144.959802,
              -37.812628
            ],
            [
              144.959797,
              -37.812618
            ],
            [
              144.959787,
              -37.812597
            ],
            [
              144.959734,
              -37.812479
            ],
            [
              144.959523,
              -37.812012
            ],
            [
              144.959519,
              -37.812004
            ],
            [
              144.95951,
              -37.812006
            ],
            [
              144.959509,
              -37.812006
            ],
            [
              144.959509,
              -37.812007
            ],
            [
              144.959502,
              -37.81201
            ],
            [
              144.959498,
              -37.812013
            ],
            [
              144.959497,
              -37.812013
            ],
            [
              144.959497,
              -37.812014
            ],
            [
              144.959492,
              -37.812019
            ],
            [
              144.959491,
              -37.812019
            ],
            [
              144.959489,
              -37.812023
            ],
            [
              144.959364,
              -37.812064
            ],
            [
              144.95924,
              -37.812104
            ],
            [
              144.959235,
              -37.8121
            ],
            [
              144.959227,
              -37.812097
            ],
            [
              144.95922,
              -37.812095
            ],
            [
              144.959212,
              -37.812094
            ],
            [
              144.959203,
              -37.812095
            ],
            [
              144.959186,
              -37.8121
            ]
          ],
          [
            [
              144.959581,
              -37.81224
            ],
            [
              144.959592,
              -37.812237
            ],
            [
              144.959604,
              -37.812263
            ],
            [
              144.959592,
              -37.812266
            ],
            [
              144.959581,
              -37.81224
            ]
          ],
          [
            [
              144.959628,
              -37.812345
            ],
            [
              144.959646,
              -37.81234
            ],
            [
              144.959654,
              -37.812358
            ],
            [
              144.959636,
              -37.812363
            ],
            [
              144.959628,
              -37.812345
            ]
          ],
          [
            [
              144.959675,
              -37.812447
            ],
            [
              144.95969,
              -37.812443
            ],
            [
              144.959698,
              -37.81246
            ],
            [
              144.959683,
              -37.812464
            ],
            [
              144.959675,
              -37.812447
            ]
          ]
        ]
      }
    }
  ]
}