{
  "type": "FeatureCollection",
  "features": [
    {
      "type": "Feature",
      "properties": {
        "name": "polygon88"
      },
      "geometry": {
        "type": "MultiPolygon",
        "coordinates": [
          [
            [
              [
                144.958964,
                -37.81772
              ],
              [
                144.95899,
                -37.817775
              ],
              [
                144.958987,
                -37.817775
              ],
              [
                144.958981,
                -37.817776
              ],
              [
                144.958972,
                -37.817778
              ],
              [
                144.95897,
                -37.817779
              ],
              [
                144.958972,
                -37.817783
              ],
              [
                144.958974,
                -37.817783
              ],
              [
                144.958983,
                -37.817781
              ],
              [
                144.958988,
                -37.81778
              ],
              [
                144.958992,
                -37.81778
              ],
              [
                144.959011,
                -37.81782
              ],
              [
                144.959271,
                -37.818396
              ],
              [
                144.95938,
                -37.818638
              ],
              [
                144.959386,
                -37.818649
              ],
              [
                144.959387,
                -37.818652
              ],
              [
                144.959388,
                -37.818654
              ],
              [
                144.959413,
                -37.818707
              ],
              [
                144.959417,
                -37.818709
              ],
              [
                144.959418,
                -37.818711
              ],
              [
                144.959419,
                -37.818712
              ],
              [
                144.95942,
                -37.818714
              ],
              [
                144.959419,
                -37.818716
              ],
              [
                144.959419,
                -37.818717
              ],
              [
                144.959418,
                -37.818718
              ],
              [
                144.959445,
                -37.818776
              ],
              [
                144.959446,
                -37.818777
              ],
              [
                144.959447,
                -37.81878
              ],
              [
                144.959461,
                -37.818809
              ],
              [
                144.95965,
                -37.819212
              ],
              [
                144.959797,
                -37.819526
              ],
              [
                144.95981,
                -37.819554
              ],
              [
                144.959811,
                -37.819557
              ],
              [
                144.959812,
                -37.819559
              ],
              [
                144.959841,
                -37.819621
              ],
              [
                144.959855,
                -37.819617
              ],
              [
                144.960127,
                -37.819536
              ],
              [
                144.960165,
                -37.819525
              ],
              [
                144.960129,
                -37.819447
              ],
              [
                144.960128,
                -37.819444
              ],
              [
                144.960126,
                -37.819442
              ],
              [
                144.960121,
                -37.81943
              ],
              [
                144.959769,
                -37.818671
              ],
              [
                144.959758,
                -37.818647
              ],
              [
                144.959757,
                -37.818644
              ],
              [
                144.959756,
                -37.818642
              ],
              [
                144.959739,
                -37.818605
              ],
              [
                144.959725,
                -37.818608
              ],
              [
                144.959694,
                -37.818611
              ],
              [
                144.959666,
                -37.818612
              ],
              [
                144.959634,
                -37.818608
              ],
              [
                144.959633,
                -37.818608
              ],
              [
                144.959602,
                -37.818602
              ],
              [
                144.959601,
                -37.818601
              ],
              [
                144.959572,
                -37.81859
              ],
              [
                144.959571,
                -37.81859
              ],
              [
                144.959545,
                -37.818577
              ],
              [
                144.959544,
                -37.818577
              ],
              [
                144.95952,
                -37.818561
              ],
              [
                144.959508,
                -37.818549
              ],
              [
                144.959498,
                -37.81854
              ],
              [
                144.959483,
                -37.818522
              ],
              [
                144.959483,
                -37.818521
              ],
              [
                144.959469,
                -37.818501
              ],
              [
                144.959456,
                -37.818476
              ],
              [
                144.959344,
                -37.818227
              ],
              [
                144.959314,
                -37.81816
              ],
              [
                144.959176,
                -37.817858
              ],
              [
                144.959142,
                -37.817785
              ],
              [
                144.959108,
                -37.817711
              ],
              [
                144.959095,
                -37.817683
              ],
              [
                144.958964,
                -37.81772
              ]
            ]
          ],
          [
            [
              [
                144.959161,
                -37.817664
              ],
              [
                144.959173,
                -37.817692
              ],
              [
                144.959183,
                -37.817713
              ],
              [
                144.959208,
                -37.817768
              ],
              [
                144.959329,
                -37.818032
              ],
              [
                144.959505,
                -37.818417
              ],
              [
                144.959511,
                -37.818429
              ],
              [
                144.959518,
                -37.818441
              ],
              [
                144.959525,
                -37.818452
              ],
              [
                144.959534,
                -37.818463
              ],
              [
                144.959547,
                -37.81848
              ],
              [
                144.959563,
                -37.818496
              ],
              [
                144.959573,
                -37.818504
              ],
              [
                144.959581,
                -37.818509
              ],
              [
                144.9596,
                -37.818521
              ],
              [
                144.959622,
                -37.818531
              ],
              [
                144.959645,
                -37.818539
              ],
              [
                144.959666,
                -37.818543
              ],
              [
                144.959692,
                -37.818546
              ],
              [
                144.959712,
                -37.818546
              ],
              [
                144.959685,
                -37.81849
              ],
              [
                144.959683,
                -37.818484
              ],
              [
                144.959663,
                -37.818441
              ],
              [
                144.959335,
                -37.817734
              ],
              [
                144.959314,
                -37.817689
              ],
              [
                144.959313,
                -37.817687
              ],
              [
                144.959312,
                -37.817684
              ],
              [
                144.959286,
                -37.817628
              ],
              [
                144.959173,
                -37.817661
              ],
              [
                144.959161,
                -37.817664
              ]
            ]
          ]
        ]
      }
    }
  ]
}