{
  "type": "FeatureCollection",
  "features": [
    {
      "type": "Feature",
      "properties": {
        "name": "polygon51"
      },
      "geometry": {
        "type": "Polygon",
        "coordinates": [
          [
            [
              144.966216,
              -37.814416
            ],
            [
              144.966236,
              -37.814452
            ],
            [
              144.966237,
              -37.814454
            ],
            [
              144.966239,
              -37.814456
            ],
            [
              144.966254,
              -37.814483
            ],
            [
              144.966255,
              -37.814485
            ],
            [
              144.966256,
              -37.814488
            ],
            [
              144.966267,
              -37.814507
            ],
            [
              144.966886,
              -37.814325
            ],
            [
              144.96689,
              -37.814324
            ],
            [
              144.966924,
              -37.814314
            ],
            [
              144.966926,
              -37.814314
            ],
            [
              144.966927,
              -37.814313
            ],
            [
              144.966928,
              -37.814313
            ],
            [
              144.967301,
              -37.814204
            ],
            [
              144.967304,
              -37.814203
            ],
            [
              144.967306,
              -37.814202
            ],
            [
              144.967307,
              -37.814202
            ],
            [
              144.967309,
              -37.814201
            ],
            [
              144.967334,
              -37.814194
            ],
            [
              144.967337,
              -37.814193
            ],
            [
              144.967339,
              -37.814192
            ],
            [
              144.96734,
              -37.814192
            ],
            [
              144.968033,
              -37.813989
            ],
            [
              144.968037,
              -37.813988
            ],
            [
              144.968079,
              -37.813975
            ],
            [
              144.968082,
              -37.813975
            ],
            [
              144.968088,
              -37.813973
            ],
            [
              144.968413,
              -37.813877
            ],
            [
              144.968402,
              -37.813857
            ],
            [
              144.9684,
              -37.813854
            ],
            [
              144.968399,
              -37.813852
            ],
            [
              144.968374,
              -37.813807
            ],
            [
              144.968373,
              -37.813805
            ],
            [
              144.968372,
              -37.813802
            ],
            [
              144.968365,
              -37.813791
            ],
            [
              144.968233,
              -37.81383
            ],
            [
              144.968228,
              -37.813821
            ],
            [
              144.968173,
              -37.813837
            ],
            [
              144.96817,
              -37.813838
            ],
            [
              144.968169,
              -37.813838
            ],
            [
              144.968173,
              -37.813847
            ],
            [
              144.968141,
              -37.813857
            ],
            [
              144.968138,
              -37.813857
            ],
            [
              144.967542,
              -37.814031
            ],
            [
              144.967538,
              -37.814022
            ],
            [
              144.967526,
              -37.814026
            ],
            [
              144.967524,
              -37.814026
            ],
            [
              144.967523,
              -37.814027
            ],
            [
              144.967465,
              -37.814043
            ],
            [
              144.967459,
              -37.814045
            ],
            [
              144.967118,
              -37.814144
            ],
            [
              144.967111,
              -37.814146
            ],
            [
              144.967108,
              -37.814147
            ],
            [
              144.967094,
              -37.814151
            ],
            [
              144.967095,
              -37.814154
            ],
            [
              144.967093,
              -37.814155
            ],
            [
              144.967092,
              -37.814152
            ],
            [
              144.967055,
              -37.814163
            ],
            [
              144.967052,
              -37.814164
            ],
            [
              144.96705,
              -37.814164
            ],
            [
              144.966505,
              -37.814323
            ],
            [
              144.966498,
              -37.814325
            ],
            [
              144.966495,
              -37.814326
            ],
            [
              144.966489,
              -37.814327
            ],
            [
              144.966493,
              -37.814337
            ],
            [
              144.966462,
              -37.814346
            ],
            [
              144.966456,
              -37.814348
            ],
            [
              144.966437,
              -37.814353
            ],
            [
              144.966216,
              -37.814416
            ]
          ],
          [
            [
              144.967142,
              -37.81417
            ],
            [
              144.967472,
              -37.814073
            ],
            [
              144.967551,
              -37.814049
            ],
            [
              144.967486,
              -37.814069
            ],
            [
              144.967142,
              -37.81417
            ]
          ]
        ]
      }
    }
  ]
}