{
  "type": "FeatureCollection",
  "features": [
    {
      "type": "Feature",
      "properties": {
        "name": "polygon190"
      },
      "geometry": {
        "type": "MultiPolygon",
        "coordinates": [
          [
            [
              [
                144.944572,
                -37.819469
              ],
              [
                144.944588,
                -37.819505
              ],
              [
                144.944589,
                -37.819506
              ],
              [
                144.944589,
                -37.819508
              ],
              [
                144.94459,
                -37.819509
              ],
              [
                144.944618,
                -37.81957
              ],
              [
                144.944659,
                -37.819558
              ],
              [
                144.94467,
                -37.819554
              ],
              [
                144.944674,
                -37.819554
              ],
              [
                144.944675,
                -37.819555
              ],
              [
                144.944676,
                -37.819555
              ],
              [
                144.944677,
                -37.819556
              ],
              [
                144.944678,
                -37.819556
              ],
              [
                144.944678,
                -37.819557
              ],
              [
                144.944679,
                -37.819558
              ],
              [
                144.944688,
                -37.819579
              ],
              [
                144.944698,
                -37.819601
              ],
              [
                144.944699,
                -37.819601
              ],
              [
                144.944699,
                -37.819603
              ],
              [
                144.944698,
                -37.819604
              ],
              [
                144.944698,
                -37.819605
              ],
              [
                144.944696,
                -37.819607
              ],
              [
                144.944695,
                -37.819607
              ],
              [
                144.944694,
                -37.819608
              ],
              [
                144.944683,
                -37.819611
              ],
              [
                144.944642,
                -37.819622
              ],
              [
                144.94467,
                -37.819683
              ],
              [
                144.944672,
                -37.819687
              ],
              [
                144.944689,
                -37.819723
              ],
              [
                144.945162,
                -37.819586
              ],
              [
                144.945208,
                -37.819573
              ],
              [
                144.94521,
                -37.819572
              ],
              [
                144.945213,
                -37.819572
              ],
              [
                144.945274,
                -37.819554
              ],
              [
                144.945276,
                -37.819554
              ],
              [
                144.945324,
                -37.81954
              ],
              [
                144.945768,
                -37.819411
              ],
              [
                144.945813,
                -37.819398
              ],
              [
                144.945816,
                -37.819397
              ],
              [
                144.945882,
                -37.819378
              ],
              [
                144.945885,
                -37.819377
              ],
              [
                144.945888,
                -37.819377
              ],
              [
                144.946033,
                -37.819334
              ],
              [
                144.946034,
                -37.819332
              ],
              [
                144.946117,
                -37.819308
              ],
              [
                144.946119,
                -37.819309
              ],
              [
                144.946144,
                -37.819302
              ],
              [
                144.946141,
                -37.819301
              ],
              [
                144.946366,
                -37.819236
              ],
              [
                144.946367,
                -37.819237
              ],
              [
                144.9464,
                -37.819228
              ],
              [
                144.946399,
                -37.819226
              ],
              [
                144.946414,
                -37.819222
              ],
              [
                144.946458,
                -37.819209
              ],
              [
                144.946478,
                -37.819203
              ],
              [
                144.946488,
                -37.819201
              ],
              [
                144.946501,
                -37.819199
              ],
              [
                144.946503,
                -37.819199
              ],
              [
                144.946589,
                -37.819173
              ],
              [
                144.946593,
                -37.819173
              ],
              [
                144.946586,
                -37.819156
              ],
              [
                144.946582,
                -37.819152
              ],
              [
                144.946577,
                -37.819149
              ],
              [
                144.94658,
                -37.819149
              ],
              [
                144.946592,
                -37.819152
              ],
              [
                144.946609,
                -37.819159
              ],
              [
                144.946625,
                -37.819169
              ],
              [
                144.946636,
                -37.819181
              ],
              [
                144.946638,
                -37.819186
              ],
              [
                144.946641,
                -37.819185
              ],
              [
                144.946639,
                -37.81918
              ],
              [
                144.946638,
                -37.81918
              ],
              [
                144.946628,
                -37.819168
              ],
              [
                144.946628,
                -37.819167
              ],
              [
                144.946627,
                -37.819167
              ],
              [
                144.946622,
                -37.819164
              ],
              [
                144.946626,
                -37.819163
              ],
              [
                144.946639,
                -37.819159
              ],
              [
                144.946702,
                -37.819141
              ],
              [
                144.946647,
                -37.819012
              ],
              [
                144.946593,
                -37.818884
              ],
              [
                144.946544,
                -37.818898
              ],
              [
                144.946544,
                -37.818901
              ],
              [
                144.946543,
                -37.818913
              ],
              [
                144.946543,
                -37.818914
              ],
              [
                144.94654,
                -37.818924
              ],
              [
                144.94654,
                -37.818925
              ],
              [
                144.946539,
                -37.818925
              ],
              [
                144.946529,
                -37.818937
              ],
              [
                144.946529,
                -37.818938
              ],
              [
                144.946528,
                -37.818938
              ],
              [
                144.946519,
                -37.818947
              ],
              [
                144.946518,
                -37.818947
              ],
              [
                144.946504,
                -37.818956
              ],
              [
                144.946503,
                -37.818956
              ],
              [
                144.946503,
                -37.818957
              ],
              [
                144.946482,
                -37.818964
              ],
              [
                144.946404,
                -37.818987
              ],
              [
                144.946402,
                -37.818981
              ],
              [
                144.946377,
                -37.818989
              ],
              [
                144.946275,
                -37.819018
              ],
              [
                144.94627,
                -37.81902
              ],
              [
                144.946267,
                -37.819021
              ],
              [
                144.946267,
                -37.81902
              ],
              [
                144.946261,
                -37.819022
              ],
              [
                144.946262,
                -37.819023
              ],
              [
                144.946252,
                -37.819025
              ],
              [
                144.946247,
                -37.819027
              ],
              [
                144.946235,
                -37.81903
              ],
              [
                144.946193,
                -37.819001
              ],
              [
                144.946181,
                -37.818992
              ],
              [
                144.946172,
                -37.819006
              ],
              [
                144.946113,
                -37.819024
              ],
              [
                144.9461,
                -37.819027
              ],
              [
                144.946024,
                -37.819049
              ],
              [
                144.946011,
                -37.819053
              ],
              [
                144.945967,
                -37.819066
              ],
              [
                144.945335,
                -37.819249
              ],
              [
                144.945113,
                -37.819313
              ],
              [
                144.944572,
                -37.819469
              ]
            ],
            [
              [
                144.944621,
                -37.819481
              ],
              [
                144.944637,
                -37.819476
              ],
              [
                144.94464296591877,
                -37.81948892615734
              ],
              [
                144.9446268108492,
                -37.819493590173245
              ],
              [
                144.944621,
                -37.819481
              ]
            ],
            [
              [
                144.94470430540827,
                -37.81967766171792
              ],
              [
                144.94472005090137,
                -37.81967311028632
              ],
              [
                144.944726,
                -37.819686
              ],
              [
                144.94471,
                -37.81969
              ],
              [
                144.94470430540827,
                -37.81967766171792
              ]
            ],
            [
              [
                144.944731,
                -37.819449
              ],
              [
                144.944747,
                -37.819445
              ],
              [
                144.944753,
                -37.819457
              ],
              [
                144.94478747422883,
                -37.81944720618499
              ],
              [
                144.94473690968476,
                -37.81946180431696
              ],
              [
                144.944731,
                -37.819449
              ]
            ],
            [
              [
                144.94481309862144,
                -37.81964621367974
              ],
              [
                144.94482925132556,
                -37.819641544538705
              ],
              [
                144.944835,
                -37.819654
              ],
              [
                144.944819,
                -37.819659
              ],
              [
                144.94481309862144,
                -37.81964621367974
              ]
            ],
            [
              [
                144.944835,
                -37.819419
              ],
              [
                144.944851,
                -37.819414
              ],
              [
                144.944857,
                -37.819427
              ],
              [
                144.944975,
                -37.819393
              ],
              [
                144.944969,
                -37.819381
              ],
              [
                144.944985,
                -37.819376
              ],
              [
                144.9449907750639,
                -37.81938851263847
              ],
              [
                144.9448408994604,
                -37.819431782164166
              ],
              [
                144.944835,
                -37.819419
              ]
            ],
            [
              [
                144.944928,
                -37.819613
              ],
              [
                144.944941,
                -37.819609
              ],
              [
                144.944946,
                -37.819619
              ],
              [
                144.944933,
                -37.819623
              ],
              [
                144.944928,
                -37.819613
              ]
            ],
            [
              [
                144.945027,
                -37.819584
              ],
              [
                144.945043,
                -37.81958
              ],
              [
                144.945048,
                -37.819591
              ],
              [
                144.945032,
                -37.819596
              ],
              [
                144.945027,
                -37.819584
              ]
            ],
            [
              [
                144.945054,
                -37.819356
              ],
              [
                144.94507,
                -37.819351
              ],
              [
                144.94507596251066,
                -37.819363918773085
              ],
              [
                144.94505980744108,
                -37.81936858278899
              ],
              [
                144.945054,
                -37.819356
              ]
            ],
            [
              [
                144.94514,
                -37.819552
              ],
              [
                144.945153,
                -37.819548
              ],
              [
                144.945157,
                -37.819558
              ],
              [
                144.945144,
                -37.819562
              ],
              [
                144.94514,
                -37.819552
              ]
            ],
            [
              [
                144.94514696773658,
                -37.81934341935639
              ],
              [
                144.945176,
                -37.819335
              ],
              [
                144.94517,
                -37.819322
              ],
              [
                144.945186,
                -37.819318
              ],
              [
                144.945192,
                -37.81933
              ],
              [
                144.94526065671755,
                -37.819310597014606
              ],
              [
                144.94514696773658,
                -37.81934341935639
              ]
            ],
            [
              [
                144.945279,
                -37.819291
              ],
              [
                144.945295,
                -37.819286
              ],
              [
                144.9453,
                -37.819299
              ],
              [
                144.945332,
                -37.81929
              ],
              [
                144.94528395075318,
                -37.8193038719583
              ],
              [
                144.945279,
                -37.819291
              ]
            ],
            [
              [
                144.9453511768868,
                -37.81949038325472
              ],
              [
                144.9453673148585,
                -37.819485682193395
              ],
              [
                144.945373,
                -37.819498
              ],
              [
                144.945357,
                -37.819503
              ],
              [
                144.9453511768868,
                -37.81949038325472
              ]
            ],
            [
              [
                144.945366,
                -37.819266
              ],
              [
                144.945382,
                -37.819262
              ],
              [
                144.945388,
                -37.819274
              ],
              [
                144.945486,
                -37.819246
              ],
              [
                144.94548,
                -37.819234
              ],
              [
                144.945481,
                -37.819233
              ],
              [
                144.945496,
                -37.819229
              ],
              [
                144.945502,
                -37.819242
              ],
              [
                144.94554972727315,
                -37.81922836363625
              ],
              [
                144.945489,
                -37.819246
              ],
              [
                144.945487,
                -37.819246
              ],
              [
                144.94537185519965,
                -37.81927868626591
              ],
              [
                144.945366,
                -37.819266
              ]
            ],
            [
              [
                144.9454572264151,
                -37.81945949056603
              ],
              [
                144.94550340000006,
                -37.81944603999998
              ],
              [
                144.945473,
                -37.819455
              ],
              [
                144.945479,
                -37.819467
              ],
              [
                144.945463,
                -37.819472
              ],
              [
                144.9454572264151,
                -37.81945949056603
              ]
            ],
            [
              [
                144.94556807669173,
                -37.81942719939849
              ],
              [
                144.94569509198112,
                -37.81939019929245
              ],
              [
                144.945701,
                -37.819403
              ],
              [
                144.945685,
                -37.819408
              ],
              [
                144.945679,
                -37.819395
              ],
              [
                144.945584,
                -37.819423
              ],
              [
                144.945589,
                -37.819435
              ],
              [
                144.945573,
                -37.81944
              ],
              [
                144.94556807669173,
                -37.81942719939849
              ]
            ],
            [
              [
                144.94558,
                -37.819205
              ],
              [
                144.945596,
                -37.8192
              ],
              [
                144.945602,
                -37.819213
              ],
              [
                144.945699,
                -37.819185
              ],
              [
                144.945693,
                -37.819172
              ],
              [
                144.945709,
                -37.819168
              ],
              [
                144.94571474167344,
                -37.81918044029245
              ],
              [
                144.94558593054427,
                -37.8192178495126
              ],
              [
                144.94558,
                -37.819205
              ]
            ],
            [
              [
                144.945797,
                -37.819142
              ],
              [
                144.945814,
                -37.819138
              ],
              [
                144.945819,
                -37.81915
              ],
              [
                144.945823,
                -37.819149
              ],
              [
                144.94580292201462,
                -37.81915483103168
              ],
              [
                144.945797,
                -37.819142
              ]
            ],
            [
              [
                144.946295,
                -37.819087
              ],
              [
                144.946299,
                -37.819086
              ],
              [
                144.946302,
                -37.819086
              ],
              [
                144.946295,
                -37.819087
              ]
            ]
          ],
          [
            [
              [
                144.944637,
                -37.819566
              ],
              [
                144.94466,
                -37.819615
              ],
              [
                144.944683,
                -37.819609
              ],
              [
                144.944693,
                -37.819606
              ],
              [
                144.944694,
                -37.819606
              ],
              [
                144.944694,
                -37.819605
              ],
              [
                144.944695,
                -37.819605
              ],
              [
                144.944696,
                -37.819604
              ],
              [
                144.944696,
                -37.819601
              ],
              [
                144.944686,
                -37.81958
              ],
              [
                144.944677,
                -37.819558
              ],
              [
                144.944676,
                -37.819558
              ],
              [
                144.944676,
                -37.819557
              ],
              [
                144.944675,
                -37.819557
              ],
              [
                144.944675,
                -37.819556
              ],
              [
                144.944671,
                -37.819556
              ],
              [
                144.94466,
                -37.819559
              ],
              [
                144.944637,
                -37.819566
              ]
            ]
          ]
        ]
      }
    }
  ]
}