{
  "type": "FeatureCollection",
  "features": [
    {
      "type": "Feature",
      "properties": {
        "name": "polygon7"
      },
      "geometry": {
        "type": "Polygon",
        "coordinates": [
          [
            [
              144.961265,
              -37.806332
            ],
            [
              144.961308,
              -37.806338
            ],
            [
              144.961311,
              -37.806338
            ],
            [
              144.961314,
              -37.806339
            ],
            [
              144.961402,
              -37.80635
            ],
            [
              144.961398,
              -37.806368
            ],
            [
              144.961398,
              -37.80637
            ],
            [
              144.961399,
              -37.80637
            ],
            [
              144.961399,
              -37.806372
            ],
            [
              144.9614,
              -37.806372
            ],
            [
              144.9614,
              -37.806373
            ],
            [
              144.961402,
              -37.806373
            ],
            [
              144.961402,
              -37.806374
            ],
            [
              144.961404,
              -37.806374
            ],
            [
              144.961451,
              -37.80638
            ],
            [
              144.961454,
              -37.80638
            ],
            [
              144.961454,
              -37.806379
            ],
            [
              144.961456,
              -37.806379
            ],
            [
              144.961457,
              -37.806378
            ],
            [
              144.961458,
              -37.806378
            ],
            [
              144.961458,
              -37.806377
            ],
            [
              144.961459,
              -37.806376
            ],
            [
              144.961459,
              -37.806375
            ],
            [
              144.961462,
              -37.806358
            ],
            [
              144.961565,
              -37.806371
            ],
            [
              144.96157,
              -37.806371
            ],
            [
              144.961611,
              -37.806377
            ],
            [
              144.961703,
              -37.805856
            ],
            [
              144.961781,
              -37.805419
            ],
            [
              144.961875,
              -37.804886
            ],
            [
              144.961897,
              -37.804767
            ],
            [
              144.961902,
              -37.804738
            ],
            [
              144.961902,
              -37.804734
            ],
            [
              144.961933,
              -37.804562
            ],
            [
              144.961938,
              -37.804531
            ],
            [
              144.961938,
              -37.804529
            ],
            [
              144.961939,
              -37.804527
            ],
            [
              144.961952,
              -37.804441
            ],
            [
              144.961923,
              -37.804438
            ],
            [
              144.961921,
              -37.804438
            ],
            [
              144.961921,
              -37.804437
            ],
            [
              144.961919,
              -37.804437
            ],
            [
              144.961919,
              -37.804436
            ],
            [
              144.961918,
              -37.804436
            ],
            [
              144.961918,
              -37.804435
            ],
            [
              144.961917,
              -37.804435
            ],
            [
              144.961917,
              -37.804432
            ],
            [
              144.961918,
              -37.804422
            ],
            [
              144.961647,
              -37.804393
            ],
            [
              144.961645,
              -37.804404
            ],
            [
              144.961645,
              -37.804405
            ],
            [
              144.961644,
              -37.804406
            ],
            [
              144.961644,
              -37.804407
            ],
            [
              144.961643,
              -37.804407
            ],
            [
              144.961643,
              -37.804408
            ],
            [
              144.961641,
              -37.804408
            ],
            [
              144.961641,
              -37.804409
            ],
            [
              144.961637,
              -37.804409
            ],
            [
              144.961626,
              -37.804408
            ],
            [
              144.961613,
              -37.804407
            ],
            [
              144.961608,
              -37.804406
            ],
            [
              144.961595,
              -37.80449
            ],
            [
              144.961594,
              -37.804492
            ],
            [
              144.961594,
              -37.804494
            ],
            [
              144.961603,
              -37.804496
            ],
            [
              144.961608,
              -37.804498
            ],
            [
              144.96162,
              -37.804507
            ],
            [
              144.961623,
              -37.804511
            ],
            [
              144.961623,
              -37.804512
            ],
            [
              144.961624,
              -37.804514
            ],
            [
              144.961625,
              -37.804517
            ],
            [
              144.961626,
              -37.804521
            ],
            [
              144.961626,
              -37.804532
            ],
            [
              144.961625,
              -37.804535
            ],
            [
              144.96162,
              -37.804564
            ],
            [
              144.961583,
              -37.80456
            ],
            [
              144.961384,
              -37.805671
            ],
            [
              144.961383,
              -37.805673
            ],
            [
              144.961382,
              -37.805681
            ],
            [
              144.961381,
              -37.805684
            ],
            [
              144.961375,
              -37.805717
            ],
            [
              144.961375,
              -37.805719
            ],
            [
              144.961349,
              -37.805862
            ],
            [
              144.961349,
              -37.805865
            ],
            [
              144.961343,
              -37.805897
            ],
            [
              144.961342,
              -37.8059
            ],
            [
              144.961265,
              -37.806332
            ]
          ],
          [
            [
              144.961317,
              -37.806212
            ],
            [
              144.96132,
              -37.806197
            ],
            [
              144.961333,
              -37.806198
            ],
            [
              144.96133,
              -37.806213
            ],
            [
              144.961317,
              -37.806212
            ]
          ],
          [
            [
              144.961327,
              -37.806155
            ],
            [
              144.96133,
              -37.80614
            ],
            [
              144.961343,
              -37.806141
            ],
            [
              144.961341,
              -37.806157
            ],
            [
              144.961327,
              -37.806155
            ]
          ],
          [
            [
              144.961336,
              -37.806102
            ],
            [
              144.961339,
              -37.806087
            ],
            [
              144.961353,
              -37.806088
            ],
            [
              144.96135,
              -37.806103
            ],
            [
              144.961336,
              -37.806102
            ]
          ],
          [
            [
              144.961348,
              -37.806039
            ],
            [
              144.96135,
              -37.806024
            ],
            [
              144.961364,
              -37.806025
            ],
            [
              144.961361,
              -37.806041
            ],
            [
              144.961348,
              -37.806039
            ]
          ],
          [
            [
              144.961362,
              -37.805961
            ],
            [
              144.961364,
              -37.805946
            ],
            [
              144.961378,
              -37.805947
            ],
            [
              144.961375,
              -37.805962
            ],
            [
              144.961362,
              -37.805961
            ]
          ],
          [
            [
              144.961381,
              -37.80585
            ],
            [
              144.961384,
              -37.805835
            ],
            [
              144.961397,
              -37.805836
            ],
            [
              144.961395,
              -37.805851
            ],
            [
              144.961381,
              -37.80585
            ]
          ],
          [
            [
              144.961391,
              -37.80579
            ],
            [
              144.961394,
              -37.805775
            ],
            [
              144.961408,
              -37.805777
            ],
            [
              144.961405,
              -37.805792
            ],
            [
              144.961391,
              -37.80579
            ]
          ],
          [
            [
              144.961415,
              -37.805653
            ],
            [
              144.961418,
              -37.805638
            ],
            [
              144.961431,
              -37.805639
            ],
            [
              144.961429,
              -37.805654
            ],
            [
              144.961415,
              -37.805653
            ]
          ],
          [
            [
              144.961427,
              -37.805586
            ],
            [
              144.96143,
              -37.805571
            ],
            [
              144.961443,
              -37.805573
            ],
            [
              144.96144,
              -37.805588
            ],
            [
              144.961427,
              -37.805586
            ]
          ],
          [
            [
              144.961434,
              -37.805543
            ],
            [
              144.961437,
              -37.805528
            ],
            [
              144.961451,
              -37.805529
            ],
            [
              144.961448,
              -37.805545
            ],
            [
              144.961434,
              -37.805543
            ]
          ],
          [
            [
              144.961446,
              -37.805479
            ],
            [
              144.961448,
              -37.805464
            ],
            [
              144.961462,
              -37.805466
            ],
            [
              144.961459,
              -37.805481
            ],
            [
              144.961446,
              -37.805479
            ]
          ],
          [
            [
              144.961528,
              -37.805013
            ],
            [
              144.96153,
              -37.804998
            ],
            [
              144.961544,
              -37.805
            ],
            [
              144.961541,
              -37.805015
            ],
            [
              144.961528,
              -37.805013
            ]
          ],
          [
            [
              144.961539,
              -37.804946
            ],
            [
              144.961542,
              -37.804931
            ],
            [
              144.961556,
              -37.804933
            ],
            [
              144.961553,
              -37.804948
            ],
            [
              144.961539,
              -37.804946
            ]
          ],
          [
            [
              144.961713,
              -37.804618
            ],
            [
              144.961713,
              -37.804616
            ],
            [
              144.961726,
              -37.80454
            ],
            [
              144.961729,
              -37.804521
            ],
            [
              144.96173,
              -37.80452
            ],
            [
              144.96173,
              -37.804519
            ],
            [
              144.961732,
              -37.804517
            ],
            [
              144.961733,
              -37.804517
            ],
            [
              144.961734,
              -37.804516
            ],
            [
              144.961737,
              -37.804516
            ],
            [
              144.961784,
              -37.804521
            ],
            [
              144.961785,
              -37.804521
            ],
            [
              144.961786,
              -37.804522
            ],
            [
              144.961788,
              -37.804522
            ],
            [
              144.961789,
              -37.804523
            ],
            [
              144.961789,
              -37.804524
            ],
            [
              144.96179,
              -37.804525
            ],
            [
              144.96179,
              -37.804527
            ],
            [
              144.961787,
              -37.804546
            ],
            [
              144.961774,
              -37.804622
            ],
            [
              144.961774,
              -37.804623
            ],
            [
              144.961773,
              -37.804624
            ],
            [
              144.961773,
              -37.804625
            ],
            [
              144.961772,
              -37.804625
            ],
            [
              144.961771,
              -37.804626
            ],
            [
              144.96177,
              -37.804626
            ],
            [
              144.961769,
              -37.804627
            ],
            [
              144.961766,
              -37.804627
            ],
            [
              144.961743,
              -37.804624
            ],
            [
              144.961719,
              -37.804622
            ],
            [
              144.961718,
              -37.804622
            ],
            [
              144.961718,
              -37.804621
            ],
            [
              144.961716,
              -37.804621
            ],
            [
              144.961716,
              -37.80462
            ],
            [
              144.961715,
              -37.80462
            ],
            [
              144.961714,
              -37.804619
            ],
            [
              144.961714,
              -37.804618
            ],
            [
              144.961713,
              -37.804618
            ]
          ]
        ]
      }
    }
  ]
}