{
  "type": "FeatureCollection",
  "features": [
    {
      "type": "Feature",
      "properties": {
        "name": "polygon63"
      },
      "geometry": {
        "type": "MultiPolygon",
        "coordinates": [
          [
            [
              [
                144.969107,
                -37.8146
              ],
              [
                144.969125,
                -37.814641
              ],
              [
                144.969126,
                -37.814643
              ],
              [
                144.969127,
                -37.814646
              ],
              [
                144.96915,
                -37.8147
              ],
              [
                144.969268,
                -37.814665
              ],
              [
                144.969564,
                -37.814579
              ],
              [
                144.969792,
                -37.81451
              ],
              [
                144.969794,
                -37.81451
              ],
              [
                144.970169,
                -37.814399
              ],
              [
                144.970347,
                -37.814347
              ],
              [
                144.970346,
                -37.814346
              ],
              [
                144.970536,
                -37.814291
              ],
              [
                144.970807,
                -37.814212
              ],
              [
                144.970828,
                -37.814205
              ],
              [
                144.970828,
                -37.814204
              ],
              [
                144.97093,
                -37.814174
              ],
              [
                144.971269,
                -37.814074
              ],
              [
                144.971273,
                -37.814073
              ],
              [
                144.971275,
                -37.814076
              ],
              [
                144.9713,
                -37.814068
              ],
              [
                144.971277,
                -37.814017
              ],
              [
                144.971279,
                -37.814016
              ],
              [
                144.971282,
                -37.814015
              ],
              [
                144.971286,
                -37.814012
              ],
              [
                144.97129,
                -37.814008
              ],
              [
                144.971295,
                -37.814004
              ],
              [
                144.971295,
                -37.814003
              ],
              [
                144.9713,
                -37.813996
              ],
              [
                144.971304,
                -37.813988
              ],
              [
                144.971304,
                -37.813987
              ],
              [
                144.971305,
                -37.813981
              ],
              [
                144.971302,
                -37.813981
              ],
              [
                144.971299,
                -37.81398
              ],
              [
                144.971298,
                -37.813986
              ],
              [
                144.971294,
                -37.813994
              ],
              [
                144.97129,
                -37.814001
              ],
              [
                144.971286,
                -37.814005
              ],
              [
                144.971282,
                -37.814008
              ],
              [
                144.971277,
                -37.814011
              ],
              [
                144.971275,
                -37.814012
              ],
              [
                144.971254,
                -37.813965
              ],
              [
                144.970207,
                -37.814272
              ],
              [
                144.970195,
                -37.814276
              ],
              [
                144.970193,
                -37.814276
              ],
              [
                144.97019,
                -37.814277
              ],
              [
                144.970158,
                -37.814286
              ],
              [
                144.970156,
                -37.814287
              ],
              [
                144.970152,
                -37.814288
              ],
              [
                144.970141,
                -37.814291
              ],
              [
                144.969107,
                -37.8146
              ]
            ]
          ],
          [
            [
              [
                144.969171,
                -37.81475
              ],
              [
                144.969195,
                -37.814806
              ],
              [
                144.969196,
                -37.814808
              ],
              [
                144.969198,
                -37.814811
              ],
              [
                144.969215,
                -37.814853
              ],
              [
                144.970049,
                -37.814608
              ],
              [
                144.970073,
                -37.814601
              ],
              [
                144.970076,
                -37.814601
              ],
              [
                144.970079,
                -37.8146
              ],
              [
                144.970106,
                -37.814592
              ],
              [
                144.970108,
                -37.814591
              ],
              [
                144.97011,
                -37.814591
              ],
              [
                144.970111,
                -37.81459
              ],
              [
                144.970112,
                -37.81459
              ],
              [
                144.97137,
                -37.814222
              ],
              [
                144.97135,
                -37.814177
              ],
              [
                144.971348,
                -37.814175
              ],
              [
                144.971347,
                -37.814172
              ],
              [
                144.971323,
                -37.814118
              ],
              [
                144.971319,
                -37.814119
              ],
              [
                144.970926,
                -37.814234
              ],
              [
                144.970926,
                -37.814235
              ],
              [
                144.970924,
                -37.814236
              ],
              [
                144.970911,
                -37.81424
              ],
              [
                144.97047,
                -37.814369
              ],
              [
                144.970468,
                -37.81437
              ],
              [
                144.970467,
                -37.814369
              ],
              [
                144.970367,
                -37.814398
              ],
              [
                144.96997,
                -37.814515
              ],
              [
                144.969568,
                -37.814632
              ],
              [
                144.969171,
                -37.81475
              ]
            ]
          ]
        ]
      }
    }
  ]
}