{
  "type": "FeatureCollection",
  "features": [
    {
      "type": "Feature",
      "properties": {
        "name": "polygon42"
      },
      "geometry": {
        "type": "MultiPolygon",
        "coordinates": [
          [
            [
              [
                144.94977,
                -37.802946
              ],
              [
                144.949771,
                -37.802948
              ],
              [
                144.949771,
                -37.802951
              ],
              [
                144.949775,
                -37.802959
              ],
              [
                144.949781,
                -37.802965
              ],
              [
                144.949783,
                -37.802966
              ],
              [
                144.949786,
                -37.802967
              ],
              [
                144.949788,
                -37.802969
              ],
              [
                144.949791,
                -37.80297
              ],
              [
                144.949794,
                -37.80297
              ],
              [
                144.949797,
                -37.802971
              ],
              [
                144.949799,
                -37.802971
              ],
              [
                144.949817,
                -37.802973
              ],
              [
                144.949804,
                -37.803042
              ],
              [
                144.949994,
                -37.803063
              ],
              [
                144.950039,
                -37.803068
              ],
              [
                144.950041,
                -37.803068
              ],
              [
                144.950041,
                -37.803069
              ],
              [
                144.950043,
                -37.803069
              ],
              [
                144.950043,
                -37.80307
              ],
              [
                144.950044,
                -37.80307
              ],
              [
                144.950044,
                -37.803073
              ],
              [
                144.950045,
                -37.803073
              ],
              [
                144.950045,
                -37.803074
              ],
              [
                144.950044,
                -37.803074
              ],
              [
                144.95004,
                -37.803102
              ],
              [
                144.950036,
                -37.80312
              ],
              [
                144.950036,
                -37.803122
              ],
              [
                144.950034,
                -37.803124
              ],
              [
                144.950033,
                -37.803124
              ],
              [
                144.950032,
                -37.803125
              ],
              [
                144.950029,
                -37.803125
              ],
              [
                144.949984,
                -37.80312
              ],
              [
                144.949893,
                -37.80311
              ],
              [
                144.949836,
                -37.803104
              ],
              [
                144.949794,
                -37.803099
              ],
              [
                144.949781,
                -37.803172
              ],
              [
                144.949781,
                -37.803174
              ],
              [
                144.94978,
                -37.803177
              ],
              [
                144.949774,
                -37.803209
              ],
              [
                144.950621,
                -37.803304
              ],
              [
                144.950624,
                -37.803304
              ],
              [
                144.950636,
                -37.803306
              ],
              [
                144.950639,
                -37.803306
              ],
              [
                144.950646,
                -37.803307
              ],
              [
                144.950658,
                -37.803309
              ],
              [
                144.950662,
                -37.803309
              ],
              [
                144.95068,
                -37.803311
              ],
              [
                144.950908,
                -37.803336
              ],
              [
                144.950975,
                -37.803343
              ],
              [
                144.95098,
                -37.803343
              ],
              [
                144.95098,
                -37.803339
              ],
              [
                144.950978,
                -37.803333
              ],
              [
                144.950976,
                -37.80333
              ],
              [
                144.950975,
                -37.803328
              ],
              [
                144.950971,
                -37.803322
              ],
              [
                144.950969,
                -37.80332
              ],
              [
                144.950967,
                -37.803317
              ],
              [
                144.950961,
                -37.803313
              ],
              [
                144.950959,
                -37.803311
              ],
              [
                144.950955,
                -37.803309
              ],
              [
                144.950952,
                -37.803307
              ],
              [
                144.950949,
                -37.803306
              ],
              [
                144.950946,
                -37.803304
              ],
              [
                144.950942,
                -37.803303
              ],
              [
                144.950935,
                -37.803301
              ],
              [
                144.950926,
                -37.803299
              ],
              [
                144.950914,
                -37.803298
              ],
              [
                144.95092580645164,
                -37.803225193548386
              ],
              [
                144.950925,
                -37.803226
              ],
              [
                144.950924,
                -37.803226
              ],
              [
                144.950924,
                -37.803227
              ],
              [
                144.950923,
                -37.803227
              ],
              [
                144.950922,
                -37.803228
              ],
              [
                144.950918,
                -37.803228
              ],
              [
                144.950829,
                -37.803218
              ],
              [
                144.950828,
                -37.803218
              ],
              [
                144.950827,
                -37.803217
              ],
              [
                144.950825,
                -37.803217
              ],
              [
                144.950825,
                -37.803216
              ],
              [
                144.950824,
                -37.803216
              ],
              [
                144.950824,
                -37.803215
              ],
              [
                144.950823,
                -37.803215
              ],
              [
                144.950823,
                -37.803211
              ],
              [
                144.950831,
                -37.803163
              ],
              [
                144.950831,
                -37.803162
              ],
              [
                144.950832,
                -37.803161
              ],
              [
                144.950832,
                -37.80316
              ],
              [
                144.950833,
                -37.80316
              ],
              [
                144.950833,
                -37.803159
              ],
              [
                144.950835,
                -37.803159
              ],
              [
                144.950836,
                -37.803158
              ],
              [
                144.95084,
                -37.803158
              ],
              [
                144.950928,
                -37.803168
              ],
              [
                144.950931,
                -37.803168
              ],
              [
                144.950931,
                -37.803169
              ],
              [
                144.950933,
                -37.803169
              ],
              [
                144.950933,
                -37.80317
              ],
              [
                144.950934,
                -37.80317
              ],
              [
                144.950934,
                -37.803171
              ],
              [
                144.950935,
                -37.803171
              ],
              [
                144.950935,
                -37.803172
              ],
              [
                144.950943,
                -37.803123
              ],
              [
                144.950943,
                -37.803121
              ],
              [
                144.950944,
                -37.803118
              ],
              [
                144.950953,
                -37.803062
              ],
              [
                144.950542,
                -37.803016
              ],
              [
                144.95013,
                -37.80297
              ],
              [
                144.950124,
                -37.80297
              ],
              [
                144.95012,
                -37.802969
              ],
              [
                144.95011,
                -37.802968
              ],
              [
                144.950094,
                -37.802967
              ],
              [
                144.950085,
                -37.802966
              ],
              [
                144.950062,
                -37.802963
              ],
              [
                144.950055,
                -37.802963
              ],
              [
                144.949999,
                -37.802956
              ],
              [
                144.949824,
                -37.802936
              ],
              [
                144.949778,
                -37.802931
              ],
              [
                144.949778,
                -37.802933
              ],
              [
                144.949775,
                -37.802932
              ],
              [
                144.949772,
                -37.802932
              ],
              [
                144.949771,
                -37.802941
              ],
              [
                144.94977,
                -37.802944
              ],
              [
                144.94977,
                -37.802946
              ]
            ],
            [
              [
                144.950177,
                -37.803129
              ],
              [
                144.950177,
                -37.803128
              ],
              [
                144.950179,
                -37.803117
              ],
              [
                144.95018,
                -37.803114
              ],
              [
                144.950182,
                -37.803099
              ],
              [
                144.950183,
                -37.803099
              ],
              [
                144.950183,
                -37.803098
              ],
              [
                144.950184,
                -37.803097
              ],
              [
                144.950184,
                -37.803096
              ],
              [
                144.950185,
                -37.803096
              ],
              [
                144.950186,
                -37.803095
              ],
              [
                144.95019,
                -37.803095
              ],
              [
                144.950206,
                -37.803097
              ],
              [
                144.950208,
                -37.803097
              ],
              [
                144.950209,
                -37.803098
              ],
              [
                144.95021,
                -37.803098
              ],
              [
                144.950211,
                -37.803099
              ],
              [
                144.950211,
                -37.8031
              ],
              [
                144.950212,
                -37.803101
              ],
              [
                144.950212,
                -37.803103
              ],
              [
                144.950209,
                -37.803117
              ],
              [
                144.950209,
                -37.80312
              ],
              [
                144.950207,
                -37.803131
              ],
              [
                144.950206,
                -37.803132
              ],
              [
                144.950206,
                -37.803134
              ],
              [
                144.950205,
                -37.803134
              ],
              [
                144.950204,
                -37.803135
              ],
              [
                144.950203,
                -37.803135
              ],
              [
                144.950202,
                -37.803136
              ],
              [
                144.950199,
                -37.803136
              ],
              [
                144.950183,
                -37.803134
              ],
              [
                144.950181,
                -37.803134
              ],
              [
                144.950179,
                -37.803132
              ],
              [
                144.950178,
                -37.803132
              ],
              [
                144.950178,
                -37.80313
              ],
              [
                144.950177,
                -37.803129
              ]
            ],
            [
              [
                144.950366,
                -37.803151
              ],
              [
                144.950366,
                -37.803149
              ],
              [
                144.950368,
                -37.803138
              ],
              [
                144.950369,
                -37.803135
              ],
              [
                144.950371,
                -37.803121
              ],
              [
                144.950372,
                -37.80312
              ],
              [
                144.950372,
                -37.803119
              ],
              [
                144.950374,
                -37.803117
              ],
              [
                144.950375,
                -37.803117
              ],
              [
                144.950376,
                -37.803116
              ],
              [
                144.950379,
                -37.803116
              ],
              [
                144.950393,
                -37.803118
              ],
              [
                144.950395,
                -37.803118
              ],
              [
                144.950396,
                -37.803119
              ],
              [
                144.950397,
                -37.803119
              ],
              [
                144.950397,
                -37.80312
              ],
              [
                144.950398,
                -37.80312
              ],
              [
                144.950398,
                -37.803121
              ],
              [
                144.950399,
                -37.803122
              ],
              [
                144.950399,
                -37.803124
              ],
              [
                144.950396,
                -37.803138
              ],
              [
                144.950396,
                -37.80314
              ],
              [
                144.950394,
                -37.803152
              ],
              [
                144.950393,
                -37.803153
              ],
              [
                144.950393,
                -37.803154
              ],
              [
                144.950391,
                -37.803156
              ],
              [
                144.95039,
                -37.803156
              ],
              [
                144.950389,
                -37.803157
              ],
              [
                144.950386,
                -37.803157
              ],
              [
                144.950372,
                -37.803155
              ],
              [
                144.95037,
                -37.803155
              ],
              [
                144.950369,
                -37.803154
              ],
              [
                144.950368,
                -37.803154
              ],
              [
                144.950368,
                -37.803153
              ],
              [
                144.950367,
                -37.803153
              ],
              [
                144.950367,
                -37.803152
              ],
              [
                144.950366,
                -37.803151
              ]
            ],
            [
              [
                144.950579,
                -37.803175
              ],
              [
                144.950579,
                -37.803173
              ],
              [
                144.950581,
                -37.803161
              ],
              [
                144.950581,
                -37.803158
              ],
              [
                144.950584,
                -37.803144
              ],
              [
                144.950584,
                -37.803143
              ],
              [
                144.950585,
                -37.803142
              ],
              [
                144.950585,
                -37.803141
              ],
              [
                144.950586,
                -37.803141
              ],
              [
                144.950587,
                -37.80314
              ],
              [
                144.950588,
                -37.80314
              ],
              [
                144.950589,
                -37.803139
              ],
              [
                144.950592,
                -37.803139
              ],
              [
                144.950607,
                -37.803141
              ],
              [
                144.950608,
                -37.803141
              ],
              [
                144.950609,
                -37.803142
              ],
              [
                144.95061,
                -37.803142
              ],
              [
                144.950611,
                -37.803143
              ],
              [
                144.950612,
                -37.803143
              ],
              [
                144.950612,
                -37.803144
              ],
              [
                144.950613,
                -37.803145
              ],
              [
                144.950613,
                -37.803147
              ],
              [
                144.950611,
                -37.803161
              ],
              [
                144.95061,
                -37.803164
              ],
              [
                144.950608,
                -37.803176
              ],
              [
                144.950608,
                -37.803177
              ],
              [
                144.950607,
                -37.803177
              ],
              [
                144.950607,
                -37.803178
              ],
              [
                144.950606,
                -37.803179
              ],
              [
                144.950605,
                -37.803179
              ],
              [
                144.950605,
                -37.80318
              ],
              [
                144.9506,
                -37.80318
              ],
              [
                144.950585,
                -37.803179
              ],
              [
                144.950584,
                -37.803178
              ],
              [
                144.950582,
                -37.803178
              ],
              [
                144.950581,
                -37.803177
              ],
              [
                144.95058,
                -37.803177
              ],
              [
                144.95058,
                -37.803176
              ],
              [
                144.950579,
                -37.803175
              ]
            ]
          ],
          [
            [
              [
                144.95092580645164,
                -37.803225193548386
              ],
              [
                144.950926,
                -37.803225
              ],
              [
                144.950926,
                -37.803224
              ],
              [
                144.95092580645164,
                -37.803225193548386
              ]
            ]
          ]
        ]
      }
    }
  ]
}