{
  "type": "FeatureCollection",
  "features": [
    {
      "type": "Feature",
      "properties": {
        "name": "polygon11"
      },
      "geometry": {
        "type": "MultiPolygon",
        "coordinates": [
          [
            [
              [
                144.963471,
                -37.802345
              ],
              [
                144.963473,
                -37.802345
              ],
              [
                144.963511,
                -37.802349
              ],
              [
                144.963516,
                -37.802349
              ],
              [
                144.963604,
                -37.802359
              ],
              [
                144.963682,
                -37.801912
              ],
              [
                144.963593,
                -37.801903
              ],
              [
                144.963593,
                -37.801902
              ],
              [
                144.963596,
                -37.801881
              ],
              [
                144.963597,
                -37.801875
              ],
              [
                144.963597,
                -37.801874
              ],
              [
                144.963596,
                -37.801871
              ],
              [
                144.963596,
                -37.80187
              ],
              [
                144.963594,
                -37.801867
              ],
              [
                144.963594,
                -37.801866
              ],
              [
                144.963593,
                -37.801866
              ],
              [
                144.963589,
                -37.801863
              ],
              [
                144.963586,
                -37.801861
              ],
              [
                144.963585,
                -37.80186
              ],
              [
                144.963581,
                -37.801859
              ],
              [
                144.96358,
                -37.801859
              ],
              [
                144.96358,
                -37.801858
              ],
              [
                144.963579,
                -37.801858
              ],
              [
                144.963572,
                -37.801857
              ],
              [
                144.963557,
                -37.801855
              ],
              [
                144.963556,
                -37.801856
              ],
              [
                144.963556,
                -37.801859
              ],
              [
                144.96355,
                -37.801888
              ],
              [
                144.963549,
                -37.801898
              ],
              [
                144.963531,
                -37.802
              ],
              [
                144.963518,
                -37.802075
              ],
              [
                144.963507,
                -37.802139
              ],
              [
                144.963493,
                -37.802221
              ],
              [
                144.963477,
                -37.802309
              ],
              [
                144.963471,
                -37.802345
              ]
            ]
          ],
          [
            [
              [
                144.963674,
                -37.802366
              ],
              [
                144.96377,
                -37.802376
              ],
              [
                144.963773,
                -37.802377
              ],
              [
                144.963775,
                -37.802377
              ],
              [
                144.963774,
                -37.802384
              ],
              [
                144.963774,
                -37.802391
              ],
              [
                144.963775,
                -37.802395
              ],
              [
                144.963778,
                -37.802401
              ],
              [
                144.963783,
                -37.802404
              ],
              [
                144.963789,
                -37.802407
              ],
              [
                144.963796,
                -37.802409
              ],
              [
                144.963803,
                -37.802409
              ],
              [
                144.963808,
                -37.80241
              ],
              [
                144.963813,
                -37.802381
              ],
              [
                144.963888,
                -37.801934
              ],
              [
                144.963851,
                -37.80193
              ],
              [
                144.963846,
                -37.80193
              ],
              [
                144.963825,
                -37.801927
              ],
              [
                144.963816,
                -37.801981
              ],
              [
                144.963814,
                -37.801984
              ],
              [
                144.963812,
                -37.801986
              ],
              [
                144.963806,
                -37.801986
              ],
              [
                144.963805,
                -37.801984
              ],
              [
                144.963804,
                -37.801983
              ],
              [
                144.963804,
                -37.80198
              ],
              [
                144.963813,
                -37.801926
              ],
              [
                144.963751,
                -37.80192
              ],
              [
                144.963747,
                -37.801941
              ],
              [
                144.963718,
                -37.802115
              ],
              [
                144.963674,
                -37.802366
              ]
            ]
          ]
        ]
      }
    }
  ]
}