{
  "type": "FeatureCollection",
  "features": [
    {
      "type": "Feature",
      "properties": {
        "name": "polygon169"
      },
      "geometry": {
        "type": "Polygon",
        "coordinates": [
          [
            [
              144.96935,
              -37.809032
            ],
            [
              144.969361,
              -37.809054
            ],
            [
              144.969389,
              -37.809111
            ],
            [
              144.96939,
              -37.809113
            ],
            [
              144.969391,
              -37.809116
            ],
            [
              144.969395,
              -37.809124
            ],
            [
              144.970857,
              -37.8087
            ],
            [
              144.97086,
              -37.8087
            ],
            [
              144.970879,
              -37.808694
            ],
            [
              144.970881,
              -37.808693
            ],
            [
              144.970895,
              -37.808689
            ],
            [
              144.970898,
              -37.808689
            ],
            [
              144.970899,
              -37.808688
            ],
            [
              144.970978,
              -37.808665
            ],
            [
              144.970986,
              -37.808663
            ],
            [
              144.970989,
              -37.808662
            ],
            [
              144.971021,
              -37.808653
            ],
            [
              144.971025,
              -37.808652
            ],
            [
              144.971028,
              -37.808651
            ],
            [
              144.97103,
              -37.80865
            ],
            [
              144.971241,
              -37.808589
            ],
            [
              144.971242,
              -37.808589
            ],
            [
              144.971244,
              -37.808588
            ],
            [
              144.971274,
              -37.808579
            ],
            [
              144.971275,
              -37.808579
            ],
            [
              144.971278,
              -37.808578
            ],
            [
              144.971282,
              -37.808577
            ],
            [
              144.971544,
              -37.808501
            ],
            [
              144.971534,
              -37.808479
            ],
            [
              144.971532,
              -37.808477
            ],
            [
              144.971531,
              -37.808475
            ],
            [
              144.971511,
              -37.808431
            ],
            [
              144.971509,
              -37.808427
            ],
            [
              144.971498,
              -37.808403
            ],
            [
              144.970644,
              -37.808654
            ],
            [
              144.970622,
              -37.80866
            ],
            [
              144.970587,
              -37.80867
            ],
            [
              144.970337,
              -37.808743
            ],
            [
              144.96935,
              -37.809032
            ]
          ]
        ]
      }
    }
  ]
}