{
  "type": "FeatureCollection",
  "features": [
    {
      "type": "Feature",
      "properties": {
        "name": "polygon77"
      },
      "geometry": {
        "type": "Polygon",
        "coordinates": [
          [
            [
              144.955133,
              -37.815481
            ],
            [
              144.955134,
              -37.815484
            ],
            [
              144.955138,
              -37.815492
            ],
            [
              144.95551,
              -37.816303
            ],
            [
              144.955526,
              -37.816336
            ],
            [
              144.955527,
              -37.816339
            ],
            [
              144.955562,
              -37.816409
            ],
            [
              144.95572,
              -37.816364
            ],
            [
              144.955734,
              -37.81636
            ],
            [
              144.95588,
              -37.816318
            ],
            [
              144.955855,
              -37.816263
            ],
            [
              144.955854,
              -37.816261
            ],
            [
              144.955853,
              -37.816258
            ],
            [
              144.955834,
              -37.816215
            ],
            [
              144.955648,
              -37.815809
            ],
            [
              144.955631,
              -37.815773
            ],
            [
              144.955462,
              -37.815404
            ],
            [
              144.955458,
              -37.815395
            ],
            [
              144.955457,
              -37.815392
            ],
            [
              144.955456,
              -37.81539
            ],
            [
              144.955436,
              -37.815395
            ],
            [
              144.95543,
              -37.815398
            ],
            [
              144.955427,
              -37.8154
            ],
            [
              144.955423,
              -37.815403
            ],
            [
              144.95542,
              -37.815407
            ],
            [
              144.95542,
              -37.815415
            ],
            [
              144.955294,
              -37.81545
            ],
            [
              144.955167,
              -37.815484
            ],
            [
              144.955163,
              -37.815483
            ],
            [
              144.955157,
              -37.815481
            ],
            [
              144.955151,
              -37.81548
            ],
            [
              144.955145,
              -37.81548
            ],
            [
              144.955138,
              -37.815481
            ],
            [
              144.955133,
              -37.815481
            ]
          ]
        ]
      }
    }
  ]
}