{
  "type": "FeatureCollection",
  "features": [
    {
      "type": "Feature",
      "properties": {
        "name": "polygon75"
      },
      "geometry": {
        "type": "Polygon",
        "coordinates": [
          [
            [
              144.954229,
              -37.813523
            ],
            [
              144.95423,
              -37.813525
            ],
            [
              144.954231,
              -37.813528
            ],
            [
              144.954234,
              -37.813533
            ],
            [
              144.954605,
              -37.814339
            ],
            [
              144.954621,
              -37.814373
            ],
            [
              144.954622,
              -37.814375
            ],
            [
              144.954622,
              -37.814376
            ],
            [
              144.954623,
              -37.814378
            ],
            [
              144.954667,
              -37.814472
            ],
            [
              144.954712,
              -37.814568
            ],
            [
              144.954717,
              -37.814567
            ],
            [
              144.954728,
              -37.814567
            ],
            [
              144.954734,
              -37.814569
            ],
            [
              144.954735,
              -37.814569
            ],
            [
              144.954743,
              -37.814572
            ],
            [
              144.954744,
              -37.814572
            ],
            [
              144.954751,
              -37.814576
            ],
            [
              144.954752,
              -37.814576
            ],
            [
              144.95476,
              -37.814582
            ],
            [
              144.954767,
              -37.814589
            ],
            [
              144.954888,
              -37.814556
            ],
            [
              144.95501,
              -37.814523
            ],
            [
              144.955008,
              -37.814519
            ],
            [
              144.955008,
              -37.814512
            ],
            [
              144.955009,
              -37.814505
            ],
            [
              144.95501,
              -37.814499
            ],
            [
              144.955014,
              -37.814492
            ],
            [
              144.955018,
              -37.814486
            ],
            [
              144.955022,
              -37.814482
            ],
            [
              144.955027,
              -37.814478
            ],
            [
              144.955033,
              -37.814475
            ],
            [
              144.954947,
              -37.814287
            ],
            [
              144.954946,
              -37.814285
            ],
            [
              144.954945,
              -37.814282
            ],
            [
              144.954931,
              -37.814252
            ],
            [
              144.954872,
              -37.814125
            ],
            [
              144.954871,
              -37.814122
            ],
            [
              144.95487,
              -37.814122
            ],
            [
              144.954866,
              -37.814112
            ],
            [
              144.954857,
              -37.814094
            ],
            [
              144.954857,
              -37.814093
            ],
            [
              144.954568,
              -37.813476
            ],
            [
              144.954545,
              -37.813423
            ],
            [
              144.954543,
              -37.813421
            ],
            [
              144.954542,
              -37.813419
            ],
            [
              144.95453,
              -37.813422
            ],
            [
              144.954526,
              -37.813424
            ],
            [
              144.954524,
              -37.813426
            ],
            [
              144.95452,
              -37.813429
            ],
            [
              144.954517,
              -37.813432
            ],
            [
              144.954515,
              -37.813436
            ],
            [
              144.954513,
              -37.813439
            ],
            [
              144.954512,
              -37.813444
            ],
            [
              144.954512,
              -37.813448
            ],
            [
              144.954514,
              -37.813456
            ],
            [
              144.954523,
              -37.813475
            ],
            [
              144.954527,
              -37.813483
            ],
            [
              144.954526,
              -37.813483
            ],
            [
              144.954415,
              -37.813502
            ],
            [
              144.954414,
              -37.813501
            ],
            [
              144.954414,
              -37.8135
            ],
            [
              144.954413,
              -37.8135
            ],
            [
              144.954413,
              -37.813499
            ],
            [
              144.954412,
              -37.813498
            ],
            [
              144.954411,
              -37.813498
            ],
            [
              144.954411,
              -37.813497
            ],
            [
              144.95441,
              -37.813497
            ],
            [
              144.954409,
              -37.813496
            ],
            [
              144.954408,
              -37.813496
            ],
            [
              144.954407,
              -37.813495
            ],
            [
              144.954405,
              -37.813495
            ],
            [
              144.954404,
              -37.813494
            ],
            [
              144.954396,
              -37.813494
            ],
            [
              144.954395,
              -37.813495
            ],
            [
              144.954393,
              -37.813495
            ],
            [
              144.954392,
              -37.813496
            ],
            [
              144.954391,
              -37.813496
            ],
            [
              144.954389,
              -37.813498
            ],
            [
              144.954388,
              -37.813498
            ],
            [
              144.954388,
              -37.813499
            ],
            [
              144.954387,
              -37.813499
            ],
            [
              144.954387,
              -37.8135
            ],
            [
              144.954385,
              -37.813502
            ],
            [
              144.954385,
              -37.813504
            ],
            [
              144.954384,
              -37.813505
            ],
            [
              144.954384,
              -37.813507
            ],
            [
              144.954266,
              -37.813528
            ],
            [
              144.954265,
              -37.813527
            ],
            [
              144.954264,
              -37.813527
            ],
            [
              144.954263,
              -37.813526
            ],
            [
              144.95426,
              -37.813525
            ],
            [
              144.954259,
              -37.813525
            ],
            [
              144.954258,
              -37.813524
            ],
            [
              144.954256,
              -37.813524
            ],
            [
              144.954254,
              -37.813523
            ],
            [
              144.954252,
              -37.813523
            ],
            [
              144.954251,
              -37.813522
            ],
            [
              144.954235,
              -37.813522
            ],
            [
              144.954229,
              -37.813523
            ]
          ],
          [
            [
              144.954308,
              -37.813648
            ],
            [
              144.954322,
              -37.813644
            ],
            [
              144.95433,
              -37.81366
            ],
            [
              144.954316,
              -37.813664
            ],
            [
              144.954308,
              -37.813648
            ]
          ],
          [
            [
              144.954404,
              -37.813861
            ],
            [
              144.95442,
              -37.813857
            ],
            [
              144.954424,
              -37.813865
            ],
            [
              144.954428,
              -37.813874
            ],
            [
              144.954412,
              -37.813878
            ],
            [
              144.954404,
              -37.813861
            ]
          ],
          [
            [
              144.95448,
              -37.814015
            ],
            [
              144.954492,
              -37.814011
            ],
            [
              144.954498,
              -37.814024
            ],
            [
              144.954486,
              -37.814028
            ],
            [
              144.95448,
              -37.814015
            ]
          ],
          [
            [
              144.954557,
              -37.814182
            ],
            [
              144.95457,
              -37.814179
            ],
            [
              144.954576,
              -37.814191
            ],
            [
              144.954563,
              -37.814195
            ],
            [
              144.954557,
              -37.814182
            ]
          ]
        ]
      }
    }
  ]
}