{
  "type": "FeatureCollection",
  "features": [
    {
      "type": "Feature",
      "properties": {
        "name": "polygon160"
      },
      "geometry": {
        "type": "MultiPolygon",
        "coordinates": [
          [
            [
              [
                144.972842,
                -37.811321
              ],
              [
                144.972864,
                -37.811369
              ],
              [
                144.972876,
                -37.811363
              ],
              [
                144.972894,
                -37.81135
              ],
              [
                144.97291,
                -37.811334
              ],
              [
                144.972924,
                -37.811317
              ],
              [
                144.972935,
                -37.811298
              ],
              [
                144.972943,
                -37.811279
              ],
              [
                144.972947,
                -37.811259
              ],
              [
                144.972949,
                -37.811239
              ],
              [
                144.972911,
                -37.81125
              ],
              [
                144.972871,
                -37.811262
              ],
              [
                144.972868,
                -37.811274
              ],
              [
                144.972867,
                -37.811275
              ],
              [
                144.972858,
                -37.8113
              ],
              [
                144.972855,
                -37.811308
              ],
              [
                144.972854,
                -37.811308
              ],
              [
                144.972854,
                -37.811309
              ],
              [
                144.972849,
                -37.811316
              ],
              [
                144.972848,
                -37.811316
              ],
              [
                144.972842,
                -37.811321
              ]
            ]
          ],
          [
            [
              [
                144.972891,
                -37.811426
              ],
              [
                144.972916,
                -37.811482
              ],
              [
                144.972917,
                -37.811484
              ],
              [
                144.972919,
                -37.811487
              ],
              [
                144.97294,
                -37.811532
              ],
              [
                144.973312,
                -37.812341
              ],
              [
                144.973318,
                -37.812354
              ],
              [
                144.973319,
                -37.812357
              ],
              [
                144.97332,
                -37.812359
              ],
              [
                144.973338,
                -37.8124
              ],
              [
                144.973344,
                -37.8124
              ],
              [
                144.97335,
                -37.812399
              ],
              [
                144.973365,
                -37.812399
              ],
              [
                144.973366,
                -37.8124
              ],
              [
                144.97337,
                -37.8124
              ],
              [
                144.973374,
                -37.812402
              ],
              [
                144.973376,
                -37.812402
              ],
              [
                144.973377,
                -37.812403
              ],
              [
                144.973381,
                -37.812405
              ],
              [
                144.973382,
                -37.812406
              ],
              [
                144.973384,
                -37.812407
              ],
              [
                144.973386,
                -37.812409
              ],
              [
                144.973388,
                -37.81241
              ],
              [
                144.973389,
                -37.812411
              ],
              [
                144.97339,
                -37.812413
              ],
              [
                144.973391,
                -37.812414
              ],
              [
                144.973392,
                -37.812416
              ],
              [
                144.973393,
                -37.812417
              ],
              [
                144.973393,
                -37.812418
              ],
              [
                144.973398,
                -37.812428
              ],
              [
                144.973502,
                -37.812398
              ],
              [
                144.973457,
                -37.8123
              ],
              [
                144.973257,
                -37.81187
              ],
              [
                144.973082,
                -37.811491
              ],
              [
                144.973067,
                -37.811457
              ],
              [
                144.973009,
                -37.811333
              ],
              [
                144.972996,
                -37.811354
              ],
              [
                144.972995,
                -37.811354
              ],
              [
                144.972977,
                -37.811374
              ],
              [
                144.972977,
                -37.811375
              ],
              [
                144.972956,
                -37.811392
              ],
              [
                144.972955,
                -37.811392
              ],
              [
                144.972937,
                -37.811404
              ],
              [
                144.972918,
                -37.811414
              ],
              [
                144.972898,
                -37.811423
              ],
              [
                144.972891,
                -37.811426
              ]
            ]
          ],
          [
            [
              [
                144.973027,
                -37.811216
              ],
              [
                144.973105,
                -37.811386
              ],
              [
                144.973145,
                -37.811472
              ],
              [
                144.973326,
                -37.811866
              ],
              [
                144.973518,
                -37.812282
              ],
              [
                144.973564,
                -37.81238
              ],
              [
                144.973635,
                -37.81236
              ],
              [
                144.973638,
                -37.812359
              ],
              [
                144.97364,
                -37.812359
              ],
              [
                144.973676,
                -37.812348
              ],
              [
                144.973678,
                -37.812348
              ],
              [
                144.97368,
                -37.812347
              ],
              [
                144.973673,
                -37.812332
              ],
              [
                144.97367,
                -37.812325
              ],
              [
                144.973669,
                -37.812324
              ],
              [
                144.97366,
                -37.812303
              ],
              [
                144.973659,
                -37.812302
              ],
              [
                144.973659,
                -37.8123
              ],
              [
                144.973658,
                -37.8123
              ],
              [
                144.973658,
                -37.812298
              ],
              [
                144.97364,
                -37.81226
              ],
              [
                144.97364,
                -37.812258
              ],
              [
                144.973638,
                -37.812255
              ],
              [
                144.973638,
                -37.812254
              ],
              [
                144.973636,
                -37.812251
              ],
              [
                144.973635,
                -37.812249
              ],
              [
                144.973603,
                -37.812177
              ],
              [
                144.973596,
                -37.812163
              ],
              [
                144.973595,
                -37.81216
              ],
              [
                144.973476,
                -37.811904
              ],
              [
                144.973461,
                -37.81187
              ],
              [
                144.973401,
                -37.811738
              ],
              [
                144.9734,
                -37.811735
              ],
              [
                144.97338,
                -37.81169
              ],
              [
                144.973379,
                -37.811688
              ],
              [
                144.973368,
                -37.811664
              ],
              [
                144.973263,
                -37.811438
              ],
              [
                144.973144,
                -37.811182
              ],
              [
                144.973106,
                -37.811193
              ],
              [
                144.973103,
                -37.811194
              ],
              [
                144.9731,
                -37.811194
              ],
              [
                144.973027,
                -37.811216
              ]
            ],
            [
              [
                144.973326,
                -37.811675
              ],
              [
                144.973328,
                -37.811677
              ],
              [
                144.97333,
                -37.81168
              ],
              [
                144.973328,
                -37.811678
              ],
              [
                144.973326,
                -37.811675
              ]
            ],
            [
              [
                144.97333,
                -37.81168
              ],
              [
                144.97334,
                -37.81168666666667
              ],
              [
                144.973338,
                -37.811686
              ],
              [
                144.973334,
                -37.811683
              ],
              [
                144.973331,
                -37.811681
              ],
              [
                144.97333,
                -37.81168
              ]
            ],
            [
              [
                144.973344,
                -37.811688499999995
              ],
              [
                144.97335,
                -37.81169
              ],
              [
                144.973353,
                -37.811691
              ],
              [
                144.973357,
                -37.811692
              ],
              [
                144.973356,
                -37.811692
              ],
              [
                144.973352,
                -37.811691
              ],
              [
                144.973349,
                -37.81169
              ],
              [
                144.973346,
                -37.81169
              ],
              [
                144.973345,
                -37.811689
              ],
              [
                144.973344,
                -37.811688499999995
              ]
            ],
            [
              [
                144.973377,
                -37.811781
              ],
              [
                144.973378,
                -37.811774
              ],
              [
                144.97337885714285,
                -37.81177100000001
              ],
              [
                144.9733772142857,
                -37.8117825
              ],
              [
                144.973377,
                -37.811781
              ]
            ],
            [
              [
                144.973387,
                -37.811809
              ],
              [
                144.973422,
                -37.811882
              ],
              [
                144.973425,
                -37.811889
              ],
              [
                144.973387,
                -37.811809
              ]
            ]
          ]
        ]
      }
    }
  ]
}