{
  "type": "FeatureCollection",
  "features": [
    {
      "type": "Feature",
      "properties": {
        "name": "polygon70"
      },
      "geometry": {
        "type": "Polygon",
        "coordinates": [
          [
            [
              144.951557,
              -37.822314
            ],
            [
              144.951584,
              -37.822324
            ],
            [
              144.951709,
              -37.822596
            ],
            [
              144.951711,
              -37.8226
            ],
            [
              144.951725,
              -37.822631
            ],
            [
              144.951726,
              -37.822634
            ],
            [
              144.951745,
              -37.822673
            ],
            [
              144.951745,
              -37.822674
            ],
            [
              144.951746,
              -37.822676
            ],
            [
              144.951756,
              -37.822697
            ],
            [
              144.951758,
              -37.822702
            ],
            [
              144.951759,
              -37.822704
            ],
            [
              144.951759,
              -37.822705
            ],
            [
              144.95176,
              -37.822707
            ],
            [
              144.951761,
              -37.822708
            ],
            [
              144.951761,
              -37.82271
            ],
            [
              144.951762,
              -37.82271
            ],
            [
              144.951764,
              -37.822714
            ],
            [
              144.951769,
              -37.822719
            ],
            [
              144.951772,
              -37.822721
            ],
            [
              144.95178,
              -37.822729
            ],
            [
              144.951782,
              -37.82273
            ],
            [
              144.95179,
              -37.822738
            ],
            [
              144.951808,
              -37.82275
            ],
            [
              144.951822,
              -37.822756
            ],
            [
              144.951827,
              -37.822758
            ],
            [
              144.951835,
              -37.822761
            ],
            [
              144.951845,
              -37.822765
            ],
            [
              144.95187,
              -37.822771
            ],
            [
              144.95187,
              -37.822777
            ],
            [
              144.951996,
              -37.822778
            ],
            [
              144.951997,
              -37.822758
            ],
            [
              144.952017,
              -37.822758
            ],
            [
              144.952028,
              -37.822757
            ],
            [
              144.952048,
              -37.822755
            ],
            [
              144.952059,
              -37.822754
            ],
            [
              144.952099,
              -37.822746
            ],
            [
              144.952109,
              -37.822743
            ],
            [
              144.952606,
              -37.822599
            ],
            [
              144.952941,
              -37.822502
            ],
            [
              144.953008,
              -37.822482
            ],
            [
              144.952993,
              -37.82245
            ],
            [
              144.953055,
              -37.822432
            ],
            [
              144.95355,
              -37.822288
            ],
            [
              144.953686,
              -37.822249
            ],
            [
              144.953695,
              -37.822268
            ],
            [
              144.953995,
              -37.822181
            ],
            [
              144.95428,
              -37.822098
            ],
            [
              144.954289,
              -37.822096
            ],
            [
              144.954291,
              -37.822095
            ],
            [
              144.954355,
              -37.822076
            ],
            [
              144.954286,
              -37.821925
            ],
            [
              144.954267,
              -37.821927
            ],
            [
              144.954245,
              -37.821927
            ],
            [
              144.95424,
              -37.821926
            ],
            [
              144.954234,
              -37.821926
            ],
            [
              144.954157,
              -37.821948
            ],
            [
              144.954161,
              -37.82195
            ],
            [
              144.954165,
              -37.821953
            ],
            [
              144.954168,
              -37.821955
            ],
            [
              144.954172,
              -37.821958
            ],
            [
              144.954178,
              -37.821964
            ],
            [
              144.954181,
              -37.821968
            ],
            [
              144.954183,
              -37.821971
            ],
            [
              144.954185,
              -37.821975
            ],
            [
              144.954187,
              -37.821978
            ],
            [
              144.954189,
              -37.821982
            ],
            [
              144.954191,
              -37.82199
            ],
            [
              144.954191,
              -37.821993
            ],
            [
              144.954192,
              -37.821997
            ],
            [
              144.954192,
              -37.822005
            ],
            [
              144.954189,
              -37.822017
            ],
            [
              144.954187,
              -37.822021
            ],
            [
              144.954186,
              -37.822024
            ],
            [
              144.954184,
              -37.822028
            ],
            [
              144.954181,
              -37.822031
            ],
            [
              144.954179,
              -37.822035
            ],
            [
              144.95417,
              -37.822044
            ],
            [
              144.954166,
              -37.822047
            ],
            [
              144.954158,
              -37.822051
            ],
            [
              144.954154,
              -37.822054
            ],
            [
              144.95415,
              -37.822056
            ],
            [
              144.954145,
              -37.822057
            ],
            [
              144.954141,
              -37.822059
            ],
            [
              144.954131,
              -37.822061
            ],
            [
              144.954127,
              -37.822062
            ],
            [
              144.954122,
              -37.822063
            ],
            [
              144.954102,
              -37.822063
            ],
            [
              144.954092,
              -37.822061
            ],
            [
              144.954088,
              -37.82206
            ],
            [
              144.954083,
              -37.822059
            ],
            [
              144.954078,
              -37.822057
            ],
            [
              144.954062,
              -37.822049
            ],
            [
              144.954054,
              -37.822043
            ],
            [
              144.954045,
              -37.822034
            ],
            [
              144.954043,
              -37.822031
            ],
            [
              144.954039,
              -37.822023
            ],
            [
              144.954037,
              -37.82202
            ],
            [
              144.954035,
              -37.822016
            ],
            [
              144.954034,
              -37.822012
            ],
            [
              144.954034,
              -37.822008
            ],
            [
              144.954033,
              -37.822004
            ],
            [
              144.954033,
              -37.821993
            ],
            [
              144.954035,
              -37.821985
            ],
            [
              144.954036,
              -37.821983
            ],
            [
              144.953916,
              -37.822018
            ],
            [
              144.953909,
              -37.82202
            ],
            [
              144.953908,
              -37.82202
            ],
            [
              144.953908,
              -37.822021
            ],
            [
              144.953884,
              -37.822033
            ],
            [
              144.953871,
              -37.822039
            ],
            [
              144.953842,
              -37.822051
            ],
            [
              144.953815,
              -37.822061
            ],
            [
              144.953814,
              -37.822061
            ],
            [
              144.953773,
              -37.822073
            ],
            [
              144.953742,
              -37.822082
            ],
            [
              144.953643,
              -37.822111
            ],
            [
              144.953642,
              -37.822111
            ],
            [
              144.953642,
              -37.822109
            ],
            [
              144.953742,
              -37.82208
            ],
            [
              144.953741,
              -37.822079
            ],
            [
              144.953813,
              -37.822058
            ],
            [
              144.953841,
              -37.822048
            ],
            [
              144.953846,
              -37.822046
            ],
            [
              144.953868,
              -37.822037
            ],
            [
              144.953894,
              -37.822024
            ],
            [
              144.95388,
              -37.822028
            ],
            [
              144.953868,
              -37.822032
            ],
            [
              144.953843,
              -37.822039
            ],
            [
              144.953757,
              -37.822064
            ],
            [
              144.953756,
              -37.822064
            ],
            [
              144.953677,
              -37.822087
            ],
            [
              144.953637,
              -37.822099
            ],
            [
              144.953516,
              -37.822134
            ],
            [
              144.953403,
              -37.822167
            ],
            [
              144.953276,
              -37.822204
            ],
            [
              144.953186,
              -37.82223
            ],
            [
              144.953069,
              -37.822264
            ],
            [
              144.952936,
              -37.822302
            ],
            [
              144.952926,
              -37.822305
            ],
            [
              144.952567,
              -37.82241
            ],
            [
              144.952571,
              -37.822418
            ],
            [
              144.952571,
              -37.822419
            ],
            [
              144.952577,
              -37.822431
            ],
            [
              144.952037,
              -37.822588
            ],
            [
              144.952026,
              -37.822588
            ],
            [
              144.95202,
              -37.822587
            ],
            [
              144.952014,
              -37.822587
            ],
            [
              144.952009,
              -37.822586
            ],
            [
              144.952003,
              -37.822586
            ],
            [
              144.951998,
              -37.822585
            ],
            [
              144.951992,
              -37.822584
            ],
            [
              144.95199,
              -37.822583
            ],
            [
              144.951987,
              -37.822583
            ],
            [
              144.951982,
              -37.822581
            ],
            [
              144.951976,
              -37.82258
            ],
            [
              144.951971,
              -37.822578
            ],
            [
              144.951966,
              -37.822577
            ],
            [
              144.951951,
              -37.822571
            ],
            [
              144.951946,
              -37.822568
            ],
            [
              144.951942,
              -37.822566
            ],
            [
              144.951937,
              -37.822563
            ],
            [
              144.951933,
              -37.822561
            ],
            [
              144.951928,
              -37.822558
            ],
            [
              144.951912,
              -37.822546
            ],
            [
              144.951905,
              -37.822539
            ],
            [
              144.951772,
              -37.822252
            ],
            [
              144.951735,
              -37.822263
            ],
            [
              144.951732,
              -37.822264
            ],
            [
              144.951728,
              -37.822265
            ],
            [
              144.951683,
              -37.822278
            ],
            [
              144.951694,
              -37.822302
            ],
            [
              144.951726,
              -37.822368
            ],
            [
              144.951727,
              -37.822369
            ],
            [
              144.951727,
              -37.822372
            ],
            [
              144.951725,
              -37.822374
            ],
            [
              144.951724,
              -37.822376
            ],
            [
              144.951723,
              -37.822377
            ],
            [
              144.951721,
              -37.822377
            ],
            [
              144.951719,
              -37.822378
            ],
            [
              144.951718,
              -37.822378
            ],
            [
              144.951716,
              -37.822379
            ],
            [
              144.951714,
              -37.822378
            ],
            [
              144.951712,
              -37.822378
            ],
            [
              144.95171,
              -37.822377
            ],
            [
              144.951706,
              -37.822373
            ],
            [
              144.951706,
              -37.822372
            ],
            [
              144.951675,
              -37.822309
            ],
            [
              144.951663,
              -37.822284
            ],
            [
              144.951663,
              -37.822283
            ],
            [
              144.95162,
              -37.822296
            ],
            [
              144.951614,
              -37.822298
            ],
            [
              144.951615,
              -37.822299
            ],
            [
              144.951609,
              -37.822299
            ],
            [
              144.951557,
              -37.822314
            ]
          ]
        ]
      }
    }
  ]
}