{
  "type": "FeatureCollection",
  "features": [
    {
      "type": "Feature",
      "properties": {
        "name": "polygon39"
      },
      "geometry": {
        "type": "Polygon",
        "coordinates": [
          [
            [
              144.949326,
              -37.804957
            ],
            [
              144.949327,
              -37.804973
            ],
            [
              144.949335,
              -37.805001
            ],
            [
              144.949399,
              -37.805009
            ],
            [
              144.949405,
              -37.80501
            ],
            [
              144.949409,
              -37.80501
            ],
            [
              144.949449,
              -37.805015
            ],
            [
              144.949489,
              -37.804789
            ],
            [
              144.949492,
              -37.804774
            ],
            [
              144.949492,
              -37.804772
            ],
            [
              144.949495,
              -37.804756
            ],
            [
              144.949496,
              -37.80475
            ],
            [
              144.949498,
              -37.804741
            ],
            [
              144.949498,
              -37.804739
            ],
            [
              144.949573,
              -37.804318
            ],
            [
              144.949574,
              -37.80431
            ],
            [
              144.949575,
              -37.804309
            ],
            [
              144.949575,
              -37.804305
            ],
            [
              144.949581,
              -37.804271
            ],
            [
              144.949582,
              -37.804269
            ],
            [
              144.949582,
              -37.804266
            ],
            [
              144.949583,
              -37.804262
            ],
            [
              144.94972,
              -37.803506
            ],
            [
              144.949721,
              -37.803503
            ],
            [
              144.949721,
              -37.803501
            ],
            [
              144.949725,
              -37.803479
            ],
            [
              144.949726,
              -37.803478
            ],
            [
              144.949726,
              -37.803476
            ],
            [
              144.949774,
              -37.803209
            ],
            [
              144.94978,
              -37.803177
            ],
            [
              144.949781,
              -37.803174
            ],
            [
              144.949781,
              -37.803172
            ],
            [
              144.949752,
              -37.803169
            ],
            [
              144.94975,
              -37.803168
            ],
            [
              144.949744,
              -37.803168
            ],
            [
              144.949741,
              -37.803169
            ],
            [
              144.949736,
              -37.803169
            ],
            [
              144.949734,
              -37.80317
            ],
            [
              144.949731,
              -37.803171
            ],
            [
              144.949729,
              -37.803171
            ],
            [
              144.949728,
              -37.803172
            ],
            [
              144.949726,
              -37.803172
            ],
            [
              144.949724,
              -37.803174
            ],
            [
              144.949722,
              -37.803175
            ],
            [
              144.949721,
              -37.803175
            ],
            [
              144.94972,
              -37.803176
            ],
            [
              144.949719,
              -37.803176
            ],
            [
              144.949716,
              -37.803179
            ],
            [
              144.949715,
              -37.803179
            ],
            [
              144.949714,
              -37.803181
            ],
            [
              144.949712,
              -37.803182
            ],
            [
              144.949711,
              -37.803184
            ],
            [
              144.94971,
              -37.803184
            ],
            [
              144.949707,
              -37.80319
            ],
            [
              144.949706,
              -37.803191
            ],
            [
              144.949706,
              -37.803192
            ],
            [
              144.949705,
              -37.803194
            ],
            [
              144.949705,
              -37.803196
            ],
            [
              144.949704,
              -37.803198
            ],
            [
              144.949704,
              -37.8032
            ],
            [
              144.949623,
              -37.80319
            ],
            [
              144.949623,
              -37.803194
            ],
            [
              144.949624,
              -37.803209
            ],
            [
              144.949624,
              -37.80321
            ],
            [
              144.949623,
              -37.803228
            ],
            [
              144.949622,
              -37.803247
            ],
            [
              144.949618,
              -37.80328
            ],
            [
              144.949598,
              -37.80339
            ],
            [
              144.949576,
              -37.803502
            ],
            [
              144.949576,
              -37.803503
            ],
            [
              144.949563,
              -37.80358
            ],
            [
              144.949558,
              -37.803609
            ],
            [
              144.949538,
              -37.803716
            ],
            [
              144.949519,
              -37.803827
            ],
            [
              144.949488,
              -37.804001
            ],
            [
              144.94945,
              -37.80422
            ],
            [
              144.94943,
              -37.804338
            ],
            [
              144.949398,
              -37.804516
            ],
            [
              144.949362,
              -37.804725
            ],
            [
              144.94934,
              -37.804847
            ],
            [
              144.949331,
              -37.8049
            ],
            [
              144.949326,
              -37.804929
            ],
            [
              144.949326,
              -37.804957
            ]
          ]
        ]
      }
    }
  ]
}