{
  "type": "FeatureCollection",
  "features": [
    {
      "type": "Feature",
      "properties": {
        "name": "polygon180"
      },
      "geometry": {
        "type": "Polygon",
        "coordinates": [
          [
            [
              144.967897,
              -37.818858
            ],
            [
              144.968259,
              -37.819646
            ],
            [
              144.968272,
              -37.819675
            ],
            [
              144.968274,
              -37.819679
            ],
            [
              144.968273,
              -37.819679
            ],
            [
              144.968277,
              -37.819689
            ],
            [
              144.968294,
              -37.819727
            ],
            [
              144.968295,
              -37.819726
            ],
            [
              144.968301,
              -37.819738
            ],
            [
              144.96831,
              -37.819758
            ],
            [
              144.968326,
              -37.819794
            ],
            [
              144.96833,
              -37.819801
            ],
            [
              144.96833,
              -37.819802
            ],
            [
              144.968331,
              -37.819802
            ],
            [
              144.968332,
              -37.819805
            ],
            [
              144.96833,
              -37.819805
            ],
            [
              144.968353,
              -37.819854
            ],
            [
              144.968354,
              -37.819854
            ],
            [
              144.968356,
              -37.819857
            ],
            [
              144.968355,
              -37.819857
            ],
            [
              144.968405,
              -37.819967
            ],
            [
              144.968415,
              -37.819987
            ],
            [
              144.968421,
              -37.820004
            ],
            [
              144.968428,
              -37.820023
            ],
            [
              144.968434,
              -37.82004
            ],
            [
              144.968435,
              -37.820044
            ],
            [
              144.96844,
              -37.820062
            ],
            [
              144.968448,
              -37.820102
            ],
            [
              144.96845,
              -37.820119
            ],
            [
              144.968451,
              -37.820124
            ],
            [
              144.968453,
              -37.820142
            ],
            [
              144.968454,
              -37.820163
            ],
            [
              144.968454,
              -37.8202
            ],
            [
              144.968453,
              -37.820205
            ],
            [
              144.968452,
              -37.820222
            ],
            [
              144.96845,
              -37.820242
            ],
            [
              144.968445,
              -37.820271
            ],
            [
              144.968444,
              -37.820282
            ],
            [
              144.968443,
              -37.820291
            ],
            [
              144.968443,
              -37.820314
            ],
            [
              144.968444,
              -37.820326
            ],
            [
              144.968446,
              -37.820341
            ],
            [
              144.968447,
              -37.820347
            ],
            [
              144.968459,
              -37.820402
            ],
            [
              144.968492,
              -37.820553
            ],
            [
              144.968543,
              -37.820665
            ],
            [
              144.968545,
              -37.820668
            ],
            [
              144.968545,
              -37.820669
            ],
            [
              144.968547,
              -37.820672
            ],
            [
              144.968548,
              -37.820675
            ],
            [
              144.968544,
              -37.820675
            ],
            [
              144.968585,
              -37.820761
            ],
            [
              144.968585,
              -37.820762
            ],
            [
              144.968625,
              -37.820847
            ],
            [
              144.968626,
              -37.820849
            ],
            [
              144.968627,
              -37.820852
            ],
            [
              144.968631,
              -37.82086
            ],
            [
              144.9687,
              -37.821007
            ],
            [
              144.969741,
              -37.823273
            ],
            [
              144.969753,
              -37.823298
            ],
            [
              144.969754,
              -37.8233
            ],
            [
              144.969755,
              -37.823303
            ],
            [
              144.969756,
              -37.823303
            ],
            [
              144.969776,
              -37.823296
            ],
            [
              144.969777,
              -37.823296
            ],
            [
              144.969785,
              -37.823291
            ],
            [
              144.969786,
              -37.82329
            ],
            [
              144.969793,
              -37.823285
            ],
            [
              144.969796,
              -37.823282
            ],
            [
              144.969797,
              -37.823282
            ],
            [
              144.969803,
              -37.823276
            ],
            [
              144.969809,
              -37.823269
            ],
            [
              144.969816,
              -37.823259
            ],
            [
              144.969818,
              -37.823255
            ],
            [
              144.96982,
              -37.823252
            ],
            [
              144.96982,
              -37.823251
            ],
            [
              144.969821,
              -37.82325
            ],
            [
              144.969905,
              -37.823226
            ],
            [
              144.969917,
              -37.823226
            ],
            [
              144.969919,
              -37.823225
            ],
            [
              144.96992,
              -37.823225
            ],
            [
              144.969923,
              -37.823224
            ],
            [
              144.969924,
              -37.823223
            ],
            [
              144.969927,
              -37.823222
            ],
            [
              144.969927,
              -37.823221
            ],
            [
              144.96993,
              -37.823219
            ],
            [
              144.969973,
              -37.823207
            ],
            [
              144.969975,
              -37.823172
            ],
            [
              144.969969,
              -37.823139
            ],
            [
              144.969957,
              -37.823106
            ],
            [
              144.969936,
              -37.823061
            ],
            [
              144.969733,
              -37.822619
            ],
            [
              144.969752,
              -37.822613
            ],
            [
              144.96972,
              -37.82252
            ],
            [
              144.969681,
              -37.822428
            ],
            [
              144.969584,
              -37.822216
            ],
            [
              144.969534,
              -37.822107
            ],
            [
              144.9692,
              -37.821381
            ],
            [
              144.969198,
              -37.821376
            ],
            [
              144.969167,
              -37.821313
            ],
            [
              144.969132,
              -37.821252
            ],
            [
              144.969074,
              -37.821157
            ],
            [
              144.969039,
              -37.821091
            ],
            [
              144.968952,
              -37.820902
            ],
            [
              144.968937,
              -37.820869
            ],
            [
              144.968773,
              -37.820511
            ],
            [
              144.968746,
              -37.820442
            ],
            [
              144.968713,
              -37.820341
            ],
            [
              144.968683,
              -37.820259
            ],
            [
              144.968683,
              -37.820258
            ],
            [
              144.96868242307693,
              -37.82025742307692
            ],
            [
              144.968682,
              -37.82025626666668
            ],
            [
              144.968682,
              -37.820256
            ],
            [
              144.96868190243902,
              -37.820256
            ],
            [
              144.968668,
              -37.820218
            ],
            [
              144.968646,
              -37.820168
            ],
            [
              144.968525,
              -37.819912
            ],
            [
              144.96847,
              -37.819791
            ],
            [
              144.968456,
              -37.81976
            ],
            [
              144.968438,
              -37.819722
            ],
            [
              144.968417,
              -37.819675
            ],
            [
              144.968405,
              -37.819651
            ],
            [
              144.968413,
              -37.819651
            ],
            [
              144.968478,
              -37.819653
            ],
            [
              144.968485,
              -37.819669
            ],
            [
              144.968509,
              -37.819718
            ],
            [
              144.96854,
              -37.819786
            ],
            [
              144.968584,
              -37.81988
            ],
            [
              144.968657,
              -37.820038
            ],
            [
              144.968731,
              -37.820201
            ],
            [
              144.968751,
              -37.8202371904762
            ],
            [
              144.968751,
              -37.820238
            ],
            [
              144.968752,
              -37.820239
            ],
            [
              144.968795,
              -37.820317
            ],
            [
              144.968853,
              -37.820412
            ],
            [
              144.968888,
              -37.820478
            ],
            [
              144.969052,
              -37.820835
            ],
            [
              144.969065,
              -37.820863
            ],
            [
              144.969154,
              -37.821058
            ],
            [
              144.969181,
              -37.821126
            ],
            [
              144.969214,
              -37.821228
            ],
            [
              144.969237,
              -37.821293
            ],
            [
              144.969264,
              -37.821357
            ],
            [
              144.969284,
              -37.821401
            ],
            [
              144.969609,
              -37.822109
            ],
            [
              144.96965,
              -37.822197
            ],
            [
              144.969801,
              -37.822525
            ],
            [
              144.969833,
              -37.82259
            ],
            [
              144.96984744444444,
              -37.82258518518519
            ],
            [
              144.969868,
              -37.82264
            ],
            [
              144.969892,
              -37.822696
            ],
            [
              144.97011,
              -37.82317
            ],
            [
              144.970112,
              -37.82317
            ],
            [
              144.970111,
              -37.823167
            ],
            [
              144.970165,
              -37.823151
            ],
            [
              144.970182,
              -37.823188
            ],
            [
              144.970185,
              -37.823192
            ],
            [
              144.97019,
              -37.823196
            ],
            [
              144.970195,
              -37.823199
            ],
            [
              144.9702,
              -37.823201
            ],
            [
              144.970212,
              -37.823203
            ],
            [
              144.970218,
              -37.823203
            ],
            [
              144.970225,
              -37.823202
            ],
            [
              144.97023,
              -37.8232
            ],
            [
              144.970236,
              -37.823198
            ],
            [
              144.970241,
              -37.823195
            ],
            [
              144.970245,
              -37.823191
            ],
            [
              144.970248,
              -37.823187
            ],
            [
              144.97025,
              -37.823182
            ],
            [
              144.970252,
              -37.823172
            ],
            [
              144.970251,
              -37.823168
            ],
            [
              144.970234,
              -37.823131
            ],
            [
              144.970322,
              -37.823106
            ],
            [
              144.970328,
              -37.823104
            ],
            [
              144.970361,
              -37.823177
            ],
            [
              144.970362,
              -37.823177
            ],
            [
              144.970362,
              -37.823178
            ],
            [
              144.970363,
              -37.823178
            ],
            [
              144.970363,
              -37.823179
            ],
            [
              144.970364,
              -37.823179
            ],
            [
              144.970364,
              -37.82318
            ],
            [
              144.97037,
              -37.82318
            ],
            [
              144.970421,
              -37.823165
            ],
            [
              144.970398,
              -37.823115
            ],
            [
              144.970394,
              -37.823116
            ],
            [
              144.970392,
              -37.823111
            ],
            [
              144.970382,
              -37.823089
            ],
            [
              144.970378,
              -37.82308
            ],
            [
              144.970285,
              -37.822876
            ],
            [
              144.97027,
              -37.822845
            ],
            [
              144.970167,
              -37.822619
            ],
            [
              144.970127,
              -37.822531
            ],
            [
              144.970126,
              -37.82253
            ],
            [
              144.970126,
              -37.822529
            ],
            [
              144.970129,
              -37.822528
            ],
            [
              144.970114,
              -37.822495
            ],
            [
              144.97011,
              -37.822496
            ],
            [
              144.97011,
              -37.822495
            ],
            [
              144.970109,
              -37.822493
            ],
            [
              144.970073,
              -37.822414
            ],
            [
              144.969972,
              -37.822192
            ],
            [
              144.969799,
              -37.821812
            ],
            [
              144.969728,
              -37.821653
            ],
            [
              144.969604,
              -37.821384
            ],
            [
              144.969529,
              -37.821214
            ],
            [
              144.969495,
              -37.821139
            ],
            [
              144.96949,
              -37.821128
            ],
            [
              144.969478,
              -37.821103
            ],
            [
              144.969448,
              -37.82104
            ],
            [
              144.969366,
              -37.820863
            ],
            [
              144.96936,
              -37.82085
            ],
            [
              144.96935,
              -37.820828
            ],
            [
              144.969347,
              -37.820821
            ],
            [
              144.969341,
              -37.820809
            ],
            [
              144.969341,
              -37.820808
            ],
            [
              144.96934,
              -37.820806
            ],
            [
              144.969304,
              -37.820727
            ],
            [
              144.969298,
              -37.820715
            ],
            [
              144.969257,
              -37.820625
            ],
            [
              144.969255,
              -37.820623
            ],
            [
              144.969255,
              -37.820621
            ],
            [
              144.969252,
              -37.820614
            ],
            [
              144.96925,
              -37.820611
            ],
            [
              144.96921,
              -37.820525
            ],
            [
              144.969185,
              -37.820469
            ],
            [
              144.969144,
              -37.820379
            ],
            [
              144.969113,
              -37.820367
            ],
            [
              144.969093,
              -37.820357
            ],
            [
              144.969074,
              -37.820346
            ],
            [
              144.969056,
              -37.82033
            ],
            [
              144.969037,
              -37.820314
            ],
            [
              144.969001,
              -37.820279
            ],
            [
              144.968979,
              -37.820255
            ],
            [
              144.968948,
              -37.820225
            ],
            [
              144.968916,
              -37.820196
            ],
            [
              144.968885,
              -37.820167
            ],
            [
              144.968861,
              -37.82014
            ],
            [
              144.968846,
              -37.820121
            ],
            [
              144.968843,
              -37.820116
            ],
            [
              144.968834,
              -37.820103
            ],
            [
              144.968821,
              -37.820076
            ],
            [
              144.968786,
              -37.819999
            ],
            [
              144.96876,
              -37.819942
            ],
            [
              144.968755,
              -37.819928
            ],
            [
              144.968756,
              -37.819928
            ],
            [
              144.968749,
              -37.819915
            ],
            [
              144.968748,
              -37.819912
            ],
            [
              144.968746,
              -37.819913
            ],
            [
              144.968745,
              -37.819909
            ],
            [
              144.968712,
              -37.81984
            ],
            [
              144.968707,
              -37.81983
            ],
            [
              144.968708,
              -37.819829
            ],
            [
              144.968687,
              -37.819782
            ],
            [
              144.968686,
              -37.819783
            ],
            [
              144.968683,
              -37.819777
            ],
            [
              144.968683,
              -37.819776
            ],
            [
              144.968651,
              -37.81971
            ],
            [
              144.96865,
              -37.819707
            ],
            [
              144.968647,
              -37.819702
            ],
            [
              144.968649,
              -37.819702
            ],
            [
              144.96863,
              -37.819658
            ],
            [
              144.968635,
              -37.819658
            ],
            [
              144.968633,
              -37.819655
            ],
            [
              144.968633,
              -37.819654
            ],
            [
              144.96863,
              -37.819649
            ],
            [
              144.968255,
              -37.81884
            ],
            [
              144.968188,
              -37.818843
            ],
            [
              144.968186,
              -37.818843
            ],
            [
              144.968183,
              -37.818844
            ],
            [
              144.968109,
              -37.818847
            ],
            [
              144.968038,
              -37.818851
            ],
            [
              144.967961,
              -37.818855
            ],
            [
              144.967956,
              -37.818855
            ],
            [
              144.967897,
              -37.818858
            ]
          ],
          [
            [
              144.9692,
              -37.821381
            ],
            [
              144.969197,
              -37.821382
            ],
            [
              144.96915,
              -37.821395
            ],
            [
              144.9692,
              -37.821381
            ]
          ],
          [
            [
              144.969284,
              -37.821401
            ],
            [
              144.969315,
              -37.821392
            ],
            [
              144.969288,
              -37.8214
            ],
            [
              144.969284,
              -37.821401
            ]
          ],
          [
            [
              144.968321,
              -37.819648
            ],
            [
              144.968324,
              -37.819648
            ],
            [
              144.968342,
              -37.819682
            ],
            [
              144.968362,
              -37.819726
            ],
            [
              144.968375,
              -37.819754
            ],
            [
              144.968373,
              -37.819755
            ],
            [
              144.96836,
              -37.819726
            ],
            [
              144.968339,
              -37.819683
            ],
            [
              144.968321,
              -37.819648
            ]
          ],
          [
            [
              144.968375,
              -37.819754
            ],
            [
              144.968377,
              -37.819753
            ],
            [
              144.968378,
              -37.819753
            ],
            [
              144.968375,
              -37.819754
            ]
          ],
          [
            [
              144.968472,
              -37.819983
            ],
            [
              144.968489,
              -37.820034
            ],
            [
              144.968488,
              -37.820032
            ],
            [
              144.968472,
              -37.819983
            ]
          ],
          [
            [
              144.968523,
              -37.820376
            ],
            [
              144.968537,
              -37.820452
            ],
            [
              144.968526,
              -37.820395
            ],
            [
              144.968523,
              -37.820376
            ]
          ],
          [
            [
              144.968584,
              -37.820295
            ],
            [
              144.968585,
              -37.820294
            ],
            [
              144.968585,
              -37.820295
            ],
            [
              144.968584,
              -37.820295
            ]
          ],
          [
            [
              144.968596,
              -37.820296
            ],
            [
              144.968596,
              -37.820295
            ],
            [
              144.968597,
              -37.820296
            ],
            [
              144.968596,
              -37.820296
            ]
          ],
          [
            [
              144.9686,
              -37.820307
            ],
            [
              144.96861951515183,
              -37.820387848486035
            ],
            [
              144.968608,
              -37.820343
            ],
            [
              144.968602,
              -37.820319
            ],
            [
              144.9686,
              -37.820307
            ]
          ],
          [
            [
              144.968619,
              -37.820674
            ],
            [
              144.968654,
              -37.82075
            ],
            [
              144.968694,
              -37.820838
            ],
            [
              144.968753,
              -37.820969
            ],
            [
              144.968619,
              -37.820674
            ]
          ],
          [
            [
              144.96862149347257,
              -37.8203955535247
            ],
            [
              144.96864501948065,
              -37.82046961688353
            ],
            [
              144.968627,
              -37.820417
            ],
            [
              144.96862149347257,
              -37.8203955535247
            ]
          ],
          [
            [
              144.96864923958327,
              -37.820481939583175
            ],
            [
              144.968683,
              -37.820562
            ],
            [
              144.968652,
              -37.82049
            ],
            [
              144.96864923958327,
              -37.820481939583175
            ]
          ],
          [
            [
              144.96870549999994,
              -37.820324499999764
            ],
            [
              144.968711,
              -37.820341
            ],
            [
              144.968707,
              -37.82033
            ],
            [
              144.96870549999994,
              -37.820324499999764
            ]
          ],
          [
            [
              144.968728,
              -37.82074
            ],
            [
              144.96872817525775,
              -37.82073998969072
            ],
            [
              144.968805,
              -37.820907
            ],
            [
              144.968769,
              -37.820829
            ],
            [
              144.968728,
              -37.82074
            ]
          ],
          [
            [
              144.968744,
              -37.820443
            ],
            [
              144.968771,
              -37.820512
            ],
            [
              144.968761,
              -37.820489
            ],
            [
              144.968752,
              -37.820466
            ],
            [
              144.968744,
              -37.820443
            ]
          ],
          [
            [
              144.968855,
              -37.820411
            ],
            [
              144.968879,
              -37.820455
            ],
            [
              144.96889,
              -37.820477
            ],
            [
              144.968855,
              -37.820411
            ]
          ],
          [
            [
              144.96886389473602,
              -37.82078884210346
            ],
            [
              144.968905,
              -37.820878
            ],
            [
              144.968879,
              -37.820822
            ],
            [
              144.96886389473602,
              -37.82078884210346
            ]
          ],
          [
            [
              144.968952,
              -37.821157
            ],
            [
              144.968954,
              -37.821156
            ],
            [
              144.968953,
              -37.821157
            ],
            [
              144.968952,
              -37.821157
            ]
          ],
          [
            [
              144.968954,
              -37.821163
            ],
            [
              144.968955,
              -37.821161
            ],
            [
              144.968955,
              -37.821162
            ],
            [
              144.968954,
              -37.821163
            ]
          ],
          [
            [
              144.968955,
              -37.821161
            ],
            [
              144.968956,
              -37.8211605
            ],
            [
              144.968956,
              -37.821161
            ],
            [
              144.968955,
              -37.821161
            ]
          ],
          [
            [
              144.968958,
              -37.821159
            ],
            [
              144.96896,
              -37.821158
            ],
            [
              144.968959,
              -37.821159
            ],
            [
              144.968958,
              -37.821159
            ]
          ],
          [
            [
              144.968959,
              -37.821154
            ],
            [
              144.968962,
              -37.821153
            ],
            [
              144.968961,
              -37.821154
            ],
            [
              144.968959,
              -37.821154
            ]
          ],
          [
            [
              144.968968,
              -37.821158
            ],
            [
              144.96897,
              -37.821159
            ],
            [
              144.968969,
              -37.821159
            ],
            [
              144.968968,
              -37.821158
            ]
          ],
          [
            [
              144.9689715,
              -37.8211545
            ],
            [
              144.968973,
              -37.821155
            ],
            [
              144.968975,
              -37.821156
            ],
            [
              144.968974,
              -37.821156
            ],
            [
              144.968972,
              -37.821155
            ],
            [
              144.9689715,
              -37.8211545
            ]
          ],
          [
            [
              144.968974,
              -37.821163
            ],
            [
              144.968974,
              -37.821162
            ],
            [
              144.968975,
              -37.821164
            ],
            [
              144.968974,
              -37.821163
            ]
          ],
          [
            [
              144.969001,
              -37.821427
            ],
            [
              144.969002,
              -37.821427
            ],
            [
              144.969003,
              -37.821428
            ],
            [
              144.969002,
              -37.821428
            ],
            [
              144.969001,
              -37.821427
            ]
          ],
          [
            [
              144.969004,
              -37.821429
            ],
            [
              144.969006,
              -37.82143
            ],
            [
              144.969005,
              -37.82143
            ],
            [
              144.969004,
              -37.821429
            ]
          ],
          [
            [
              144.96903268014776,
              -37.820713897060344
            ],
            [
              144.969036,
              -37.820721
            ],
            [
              144.96904988709343,
              -37.82075148386365
            ],
            [
              144.96903268014776,
              -37.820713897060344
            ]
          ],
          [
            [
              144.969037,
              -37.821092
            ],
            [
              144.969072,
              -37.821158
            ],
            [
              144.969048,
              -37.821114
            ],
            [
              144.969037,
              -37.821092
            ]
          ],
          [
            [
              144.969089,
              -37.821466
            ],
            [
              144.969089,
              -37.821465
            ],
            [
              144.96909,
              -37.821465
            ],
            [
              144.969089,
              -37.821466
            ]
          ],
          [
            [
              144.969091,
              -37.821464
            ],
            [
              144.969091,
              -37.821463
            ],
            [
              144.969092,
              -37.821463
            ],
            [
              144.969091,
              -37.821464
            ]
          ],
          [
            [
              144.969092,
              -37.821465
            ],
            [
              144.969093,
              -37.821464
            ],
            [
              144.969093,
              -37.821465
            ],
            [
              144.969092,
              -37.821465
            ]
          ],
          [
            [
              144.969099,
              -37.821411
            ],
            [
              144.969099,
              -37.82141
            ],
            [
              144.9691,
              -37.82141
            ],
            [
              144.969099,
              -37.821411
            ]
          ],
          [
            [
              144.969119,
              -37.821457
            ],
            [
              144.96912,
              -37.821456
            ],
            [
              144.96912,
              -37.821457
            ],
            [
              144.969119,
              -37.821457
            ]
          ],
          [
            [
              144.96914,
              -37.820859
            ],
            [
              144.96924,
              -37.821076
            ],
            [
              144.969175,
              -37.820935
            ],
            [
              144.96914,
              -37.820859
            ]
          ],
          [
            [
              144.969143,
              -37.820851
            ],
            [
              144.969144,
              -37.820849
            ],
            [
              144.969144,
              -37.82085
            ],
            [
              144.969143,
              -37.820851
            ]
          ],
          [
            [
              144.969144,
              -37.820849
            ],
            [
              144.969145,
              -37.820848
            ],
            [
              144.969145,
              -37.820849
            ],
            [
              144.969144,
              -37.820849
            ]
          ],
          [
            [
              144.969144,
              -37.820847
            ],
            [
              144.969145,
              -37.820846
            ],
            [
              144.969147,
              -37.820845
            ],
            [
              144.969148,
              -37.820845
            ],
            [
              144.969144,
              -37.820847
            ]
          ],
          [
            [
              144.969145,
              -37.820848
            ],
            [
              144.969147,
              -37.820847
            ],
            [
              144.969146,
              -37.820848
            ],
            [
              144.969145,
              -37.820848
            ]
          ],
          [
            [
              144.969151,
              -37.820555
            ],
            [
              144.969162,
              -37.820573
            ],
            [
              144.969172,
              -37.820591
            ],
            [
              144.969181,
              -37.820609
            ],
            [
              144.969151,
              -37.820555
            ]
          ],
          [
            [
              144.9691535,
              -37.82084425
            ],
            [
              144.969154,
              -37.820844
            ],
            [
              144.969156,
              -37.820845
            ],
            [
              144.969155,
              -37.820845
            ],
            [
              144.9691535,
              -37.82084425
            ]
          ],
          [
            [
              144.969157,
              -37.821057
            ],
            [
              144.969175,
              -37.821103
            ],
            [
              144.969183,
              -37.821126
            ],
            [
              144.969157,
              -37.821057
            ]
          ],
          [
            [
              144.969157,
              -37.820847
            ],
            [
              144.969157,
              -37.820846
            ],
            [
              144.969158,
              -37.820847
            ],
            [
              144.969157,
              -37.820847
            ]
          ],
          [
            [
              144.969157,
              -37.820845
            ],
            [
              144.969158,
              -37.820845
            ],
            [
              144.969162,
              -37.820847
            ],
            [
              144.969163,
              -37.820848
            ],
            [
              144.969157,
              -37.820845
            ]
          ],
          [
            [
              144.969157,
              -37.820553
            ],
            [
              144.969169,
              -37.820574
            ],
            [
              144.9691744999999,
              -37.820584499999796
            ],
            [
              144.969157,
              -37.820553
            ]
          ],
          [
            [
              144.96915911764705,
              -37.821303747899144
            ],
            [
              144.969165,
              -37.821314
            ],
            [
              144.96917088235296,
              -37.82132615686274
            ],
            [
              144.96915911764705,
              -37.821303747899144
            ]
          ],
          [
            [
              144.969161,
              -37.820849
            ],
            [
              144.969161,
              -37.82084850000001
            ],
            [
              144.969162,
              -37.820849
            ],
            [
              144.969163,
              -37.82085
            ],
            [
              144.969162,
              -37.82085
            ],
            [
              144.969161,
              -37.820849
            ]
          ],
          [
            [
              144.969163,
              -37.820851
            ],
            [
              144.969163,
              -37.82085
            ],
            [
              144.969164,
              -37.820852
            ],
            [
              144.969163,
              -37.820851
            ]
          ],
          [
            [
              144.969164,
              -37.820852
            ],
            [
              144.96928,
              -37.821064
            ],
            [
              144.969186,
              -37.820893
            ],
            [
              144.969164,
              -37.820852
            ]
          ],
          [
            [
              144.9691854999999,
              -37.8206174999998
            ],
            [
              144.969187,
              -37.82062
            ],
            [
              144.96919,
              -37.820626
            ],
            [
              144.9691854999999,
              -37.8206174999998
            ]
          ],
          [
            [
              144.96919500000007,
              -37.82062300000016
            ],
            [
              144.969208,
              -37.820649
            ],
            [
              144.969214,
              -37.820663
            ],
            [
              144.969196,
              -37.820626
            ],
            [
              144.96919500000007,
              -37.82062300000016
            ]
          ],
          [
            [
              144.969199,
              -37.820645
            ],
            [
              144.969202,
              -37.820651
            ],
            [
              144.969208,
              -37.820664
            ],
            [
              144.969199,
              -37.820645
            ]
          ],
          [
            [
              144.96923597979782,
              -37.82128359595919
            ],
            [
              144.96924380821923,
              -37.82130339726042
            ],
            [
              144.969239,
              -37.821292
            ],
            [
              144.96923597979782,
              -37.82128359595919
            ]
          ],
          [
            [
              144.969242,
              -37.821075
            ],
            [
              144.969327,
              -37.821259
            ],
            [
              144.969388,
              -37.821392
            ],
            [
              144.969242,
              -37.821075
            ]
          ],
          [
            [
              144.96927990909091,
              -37.82080772727275
            ],
            [
              144.969281,
              -37.82081
            ],
            [
              144.96928,
              -37.820808
            ],
            [
              144.96927990909091,
              -37.82080772727275
            ]
          ],
          [
            [
              144.96928568421035,
              -37.8208203684207
            ],
            [
              144.969288,
              -37.820825
            ],
            [
              144.96929299290824,
              -37.82083654610029
            ],
            [
              144.96928568421035,
              -37.8208203684207
            ]
          ],
          [
            [
              144.96930700000004,
              -37.82169800000009
            ],
            [
              144.969311,
              -37.821705
            ],
            [
              144.969318,
              -37.821718
            ],
            [
              144.96930700000004,
              -37.82169800000009
            ]
          ],
          [
            [
              144.969318,
              -37.82134
            ],
            [
              144.969345,
              -37.821401
            ],
            [
              144.969327,
              -37.821361
            ],
            [
              144.969318,
              -37.82134
            ]
          ],
          [
            [
              144.969345,
              -37.821406
            ],
            [
              144.969346,
              -37.821405
            ],
            [
              144.969346,
              -37.821406
            ],
            [
              144.969345,
              -37.821406
            ]
          ],
          [
            [
              144.969346,
              -37.821405
            ],
            [
              144.969347,
              -37.821404
            ],
            [
              144.969347,
              -37.821405
            ],
            [
              144.969346,
              -37.821405
            ]
          ],
          [
            [
              144.969362,
              -37.821441
            ],
            [
              144.969363,
              -37.821441
            ],
            [
              144.969363,
              -37.821442
            ],
            [
              144.969362,
              -37.821441
            ]
          ],
          [
            [
              144.96939,
              -37.821396
            ],
            [
              144.96939,
              -37.821395
            ],
            [
              144.969391,
              -37.821396
            ],
            [
              144.96939,
              -37.821396
            ]
          ],
          [
            [
              144.96939,
              -37.821051
            ],
            [
              144.969432,
              -37.821142
            ],
            [
              144.969434,
              -37.821147
            ],
            [
              144.96939,
              -37.821051
            ]
          ],
          [
            [
              144.969398,
              -37.822131
            ],
            [
              144.969399,
              -37.82213
            ],
            [
              144.969399,
              -37.822131
            ],
            [
              144.969398,
              -37.822131
            ]
          ],
          [
            [
              144.969402,
              -37.821424
            ],
            [
              144.969403,
              -37.821423
            ],
            [
              144.969403,
              -37.821424
            ],
            [
              144.969402,
              -37.821424
            ]
          ],
          [
            [
              144.969404,
              -37.822141
            ],
            [
              144.969824,
              -37.823063
            ],
            [
              144.969515,
              -37.822385
            ],
            [
              144.969502,
              -37.822357
            ],
            [
              144.969404,
              -37.822141
            ]
          ],
          [
            [
              144.96943,
              -37.82163
            ],
            [
              144.969444,
              -37.821666
            ],
            [
              144.969434,
              -37.821642
            ],
            [
              144.96943,
              -37.82163
            ]
          ],
          [
            [
              144.969432,
              -37.821142
            ],
            [
              144.969455,
              -37.821136
            ],
            [
              144.96945510225765,
              -37.82113622443559
            ],
            [
              144.969432,
              -37.821142
            ]
          ],
          [
            [
              144.969439,
              -37.821415
            ],
            [
              144.969439,
              -37.821414
            ],
            [
              144.96944,
              -37.821415
            ],
            [
              144.969439,
              -37.821415
            ]
          ],
          [
            [
              144.969453,
              -37.822112
            ],
            [
              144.969454,
              -37.822112
            ],
            [
              144.969454,
              -37.822113
            ],
            [
              144.969453,
              -37.822112
            ]
          ],
          [
            [
              144.969455,
              -37.822113
            ],
            [
              144.96945553125002,
              -37.822113
            ],
            [
              144.969456,
              -37.822114
            ],
            [
              144.969455,
              -37.822113
            ]
          ],
          [
            [
              144.9694941335423,
              -37.8223549554859
            ],
            [
              144.969497,
              -37.822354
            ],
            [
              144.969514,
              -37.822391
            ],
            [
              144.96951102633227,
              -37.822391991222574
            ],
            [
              144.9694941335423,
              -37.8223549554859
            ]
          ],
          [
            [
              144.969558,
              -37.822333
            ],
            [
              144.969561,
              -37.822332
            ],
            [
              144.969579,
              -37.822372
            ],
            [
              144.969582,
              -37.822377
            ],
            [
              144.969583,
              -37.822379
            ],
            [
              144.96958,
              -37.82238
            ],
            [
              144.969578,
              -37.822378
            ],
            [
              144.969576,
              -37.822372
            ],
            [
              144.969558,
              -37.822333
            ]
          ],
          [
            [
              144.96956947368403,
              -37.822366631578554
            ],
            [
              144.969572,
              -37.822372
            ],
            [
              144.969575,
              -37.822379
            ],
            [
              144.96956947368403,
              -37.822366631578554
            ]
          ],
          [
            [
              144.969666,
              -37.822059
            ],
            [
              144.969666,
              -37.822058
            ],
            [
              144.969667,
              -37.822059
            ],
            [
              144.969666,
              -37.822059
            ]
          ],
          [
            [
              144.96967,
              -37.82206
            ],
            [
              144.969671,
              -37.822059
            ],
            [
              144.969671,
              -37.82206
            ],
            [
              144.96967,
              -37.82206
            ]
          ],
          [
            [
              144.969679,
              -37.822428
            ],
            [
              144.969718,
              -37.822519
            ],
            [
              144.96972634285714,
              -37.82254324642857
            ],
            [
              144.969705,
              -37.822489
            ],
            [
              144.969679,
              -37.822428
            ]
          ],
          [
            [
              144.969681,
              -37.822087
            ],
            [
              144.969681,
              -37.822086
            ],
            [
              144.969682,
              -37.822086
            ],
            [
              144.969681,
              -37.822087
            ]
          ],
          [
            [
              144.969725,
              -37.822044
            ],
            [
              144.969726,
              -37.822043
            ],
            [
              144.969726,
              -37.822044
            ],
            [
              144.969725,
              -37.822044
            ]
          ],
          [
            [
              144.969725,
              -37.822042
            ],
            [
              144.969725,
              -37.822041
            ],
            [
              144.969726,
              -37.822041
            ],
            [
              144.969725,
              -37.822042
            ]
          ],
          [
            [
              144.969726,
              -37.82204
            ],
            [
              144.969727,
              -37.822039
            ],
            [
              144.969727,
              -37.82204
            ],
            [
              144.969726,
              -37.82204
            ]
          ],
          [
            [
              144.969736,
              -37.82207
            ],
            [
              144.969736,
              -37.822069
            ],
            [
              144.969737,
              -37.822069
            ],
            [
              144.969736,
              -37.82207
            ]
          ],
          [
            [
              144.969755,
              -37.823069
            ],
            [
              144.969765,
              -37.823071
            ],
            [
              144.969764,
              -37.823071
            ],
            [
              144.969755,
              -37.823069
            ]
          ],
          [
            [
              144.969766,
              -37.823072
            ],
            [
              144.969766,
              -37.823071
            ],
            [
              144.969767,
              -37.823072
            ],
            [
              144.969766,
              -37.823072
            ]
          ],
          [
            [
              144.969771,
              -37.823076
            ],
            [
              144.969771,
              -37.823075
            ],
            [
              144.969772,
              -37.823076
            ],
            [
              144.969771,
              -37.823076
            ]
          ],
          [
            [
              144.969778,
              -37.822398
            ],
            [
              144.969801,
              -37.822453
            ],
            [
              144.969804142857,
              -37.822461485713916
            ],
            [
              144.969793,
              -37.822434
            ],
            [
              144.969778,
              -37.822398
            ]
          ],
          [
            [
              144.969818,
              -37.823171
            ],
            [
              144.969818,
              -37.82317
            ],
            [
              144.969825,
              -37.823189
            ],
            [
              144.969818,
              -37.823171
            ]
          ],
          [
            [
              144.969852,
              -37.82207
            ],
            [
              144.96985233333334,
              -37.82207
            ],
            [
              144.969853,
              -37.822072
            ],
            [
              144.969852,
              -37.82207
            ]
          ],
          [
            [
              144.96989119999998,
              -37.8232198
            ],
            [
              144.969896,
              -37.823223
            ],
            [
              144.969898,
              -37.823224
            ],
            [
              144.969895,
              -37.823223
            ],
            [
              144.969892,
              -37.823221
            ],
            [
              144.96989119999998,
              -37.8232198
            ]
          ],
          [
            [
              144.969932,
              -37.823216
            ],
            [
              144.969934,
              -37.823213
            ],
            [
              144.969935,
              -37.82321
            ],
            [
              144.969935,
              -37.823211
            ],
            [
              144.969934,
              -37.823214
            ],
            [
              144.969932,
              -37.823216
            ]
          ],
          [
            [
              144.969933,
              -37.82317
            ],
            [
              144.969935,
              -37.823204
            ],
            [
              144.969935,
              -37.823207
            ],
            [
              144.969933,
              -37.82317
            ]
          ]
        ]
      }
    }
  ]
}