{
  "type": "FeatureCollection",
  "features": [
    {
      "type": "Feature",
      "properties": {
        "name": "polygon151"
      },
      "geometry": {
        "type": "Polygon",
        "coordinates": [
          [
            [
              144.960993,
              -37.809115
            ],
            [
              144.961002,
              -37.809136
            ],
            [
              144.961003,
              -37.809139
            ],
            [
              144.961004,
              -37.809141
            ],
            [
              144.961032,
              -37.809202
            ],
            [
              144.961058,
              -37.809261
            ],
            [
              144.96106,
              -37.809265
            ],
            [
              144.961072,
              -37.80929
            ],
            [
              144.961419,
              -37.809189
            ],
            [
              144.962158,
              -37.808974
            ],
            [
              144.963201,
              -37.80867
            ],
            [
              144.96319,
              -37.808647
            ],
            [
              144.96319,
              -37.808646
            ],
            [
              144.963189,
              -37.808645
            ],
            [
              144.963188,
              -37.808643
            ],
            [
              144.963196,
              -37.80864
            ],
            [
              144.963182,
              -37.808611
            ],
            [
              144.963175,
              -37.808595
            ],
            [
              144.963176,
              -37.808595
            ],
            [
              144.963177,
              -37.808594
            ],
            [
              144.963177,
              -37.808593
            ],
            [
              144.963178,
              -37.808592
            ],
            [
              144.963178,
              -37.80859
            ],
            [
              144.963174,
              -37.808582
            ],
            [
              144.963172,
              -37.80858
            ],
            [
              144.963168,
              -37.80858
            ],
            [
              144.963163,
              -37.80857
            ],
            [
              144.963156,
              -37.808554
            ],
            [
              144.96315,
              -37.808542
            ],
            [
              144.963129,
              -37.808496
            ],
            [
              144.962923,
              -37.808555
            ],
            [
              144.962806,
              -37.808589
            ],
            [
              144.962803,
              -37.80859
            ],
            [
              144.962746,
              -37.808607
            ],
            [
              144.962547,
              -37.808666
            ],
            [
              144.962539,
              -37.808669
            ],
            [
              144.962537,
              -37.808669
            ],
            [
              144.962525,
              -37.808673
            ],
            [
              144.962461,
              -37.808691
            ],
            [
              144.962458,
              -37.808691
            ],
            [
              144.962455,
              -37.808692
            ],
            [
              144.962439,
              -37.808697
            ],
            [
              144.961761,
              -37.808895
            ],
            [
              144.961758,
              -37.808896
            ],
            [
              144.961757,
              -37.808897
            ],
            [
              144.961718,
              -37.808908
            ],
            [
              144.961715,
              -37.808909
            ],
            [
              144.961423,
              -37.808993
            ],
            [
              144.96142,
              -37.808994
            ],
            [
              144.961392,
              -37.809002
            ],
            [
              144.961387,
              -37.809004
            ],
            [
              144.961384,
              -37.809005
            ],
            [
              144.960993,
              -37.809115
            ]
          ],
          [
            [
              144.96106,
              -37.809108
            ],
            [
              144.961082,
              -37.809102
            ],
            [
              144.961086,
              -37.809112
            ],
            [
              144.961065,
              -37.809118
            ],
            [
              144.96106,
              -37.809108
            ]
          ],
          [
            [
              144.961152,
              -37.809082
            ],
            [
              144.961174,
              -37.809076
            ],
            [
              144.961178,
              -37.809086
            ],
            [
              144.961157,
              -37.809092
            ],
            [
              144.961152,
              -37.809082
            ]
          ],
          [
            [
              144.961187,
              -37.809229
            ],
            [
              144.961205,
              -37.809224
            ],
            [
              144.961208,
              -37.809231
            ],
            [
              144.96119,
              -37.809236
            ],
            [
              144.961187,
              -37.809229
            ]
          ],
          [
            [
              144.961249,
              -37.809055
            ],
            [
              144.96127,
              -37.809049
            ],
            [
              144.961274,
              -37.809058
            ],
            [
              144.961253,
              -37.809064
            ],
            [
              144.961249,
              -37.809055
            ]
          ],
          [
            [
              144.96131,
              -37.809193
            ],
            [
              144.961327,
              -37.809188
            ],
            [
              144.961331,
              -37.809195
            ],
            [
              144.961313,
              -37.809201
            ],
            [
              144.96131,
              -37.809193
            ]
          ],
          [
            [
              144.961512,
              -37.80898
            ],
            [
              144.961533,
              -37.808974
            ],
            [
              144.961537,
              -37.808982
            ],
            [
              144.961516,
              -37.808988
            ],
            [
              144.961512,
              -37.80898
            ]
          ],
          [
            [
              144.961624,
              -37.808948
            ],
            [
              144.961645,
              -37.808941
            ],
            [
              144.961649,
              -37.808949
            ],
            [
              144.961628,
              -37.808955
            ],
            [
              144.961624,
              -37.808948
            ]
          ],
          [
            [
              144.961725,
              -37.808929
            ],
            [
              144.961726,
              -37.808928
            ],
            [
              144.961726,
              -37.808929
            ],
            [
              144.961725,
              -37.808929
            ]
          ],
          [
            [
              144.961991,
              -37.808833
            ],
            [
              144.962033,
              -37.80882
            ],
            [
              144.96204,
              -37.808835
            ],
            [
              144.962041,
              -37.808836
            ],
            [
              144.961998,
              -37.808849
            ],
            [
              144.961998,
              -37.808848
            ],
            [
              144.961991,
              -37.808833
            ]
          ],
          [
            [
              144.962156,
              -37.808784
            ],
            [
              144.962182,
              -37.808777
            ],
            [
              144.962189,
              -37.808792
            ],
            [
              144.96219,
              -37.808793
            ],
            [
              144.962163,
              -37.808801
            ],
            [
              144.962163,
              -37.8088
            ],
            [
              144.962156,
              -37.808784
            ]
          ],
          [
            [
              144.962332,
              -37.808733
            ],
            [
              144.962374,
              -37.808721
            ],
            [
              144.962381,
              -37.808736
            ],
            [
              144.962382,
              -37.808737
            ],
            [
              144.962339,
              -37.808749
            ],
            [
              144.962339,
              -37.808748
            ],
            [
              144.962332,
              -37.808733
            ]
          ]
        ]
      }
    }
  ]
}