{
  "type": "FeatureCollection",
  "features": [
    {
      "type": "Feature",
      "properties": {
        "name": "polygon52"
      },
      "geometry": {
        "type": "Polygon",
        "coordinates": [
          [
            [
              144.950686,
              -37.819928
            ],
            [
              144.950781,
              -37.820054
            ],
            [
              144.950864,
              -37.820158
            ],
            [
              144.95085,
              -37.820165
            ],
            [
              144.951807,
              -37.821376
            ],
            [
              144.95179,
              -37.821384
            ],
            [
              144.951824,
              -37.821427
            ],
            [
              144.951847,
              -37.821399
            ],
            [
              144.951772,
              -37.821305
            ],
            [
              144.951865,
              -37.821421
            ],
            [
              144.951867,
              -37.82142
            ],
            [
              144.95184819246862,
              -37.82139674337519
            ],
            [
              144.951881,
              -37.821353
            ],
            [
              144.95183,
              -37.821288
            ],
            [
              144.951885,
              -37.821358
            ],
            [
              144.951885,
              -37.821359
            ],
            [
              144.951886,
              -37.821359
            ],
            [
              144.951886,
              -37.82136
            ],
            [
              144.951893,
              -37.82136
            ],
            [
              144.951893,
              -37.821359
            ],
            [
              144.951894,
              -37.821359
            ],
            [
              144.951894,
              -37.821358
            ],
            [
              144.951895,
              -37.821358
            ],
            [
              144.951895,
              -37.821354
            ],
            [
              144.951894,
              -37.821354
            ],
            [
              144.95184,
              -37.821283
            ],
            [
              144.951887,
              -37.821344
            ],
            [
              144.951896,
              -37.821329
            ],
            [
              144.951898,
              -37.821326
            ],
            [
              144.951938,
              -37.821378
            ],
            [
              144.951943,
              -37.821375
            ],
            [
              144.951944,
              -37.821374
            ],
            [
              144.951946,
              -37.821373
            ],
            [
              144.951947,
              -37.821372
            ],
            [
              144.951948,
              -37.82137
            ],
            [
              144.951948,
              -37.821369
            ],
            [
              144.951949,
              -37.821367
            ],
            [
              144.951949,
              -37.821364
            ],
            [
              144.951943,
              -37.821355
            ],
            [
              144.951929,
              -37.821336
            ],
            [
              144.951907,
              -37.821308
            ],
            [
              144.951864,
              -37.821244
            ],
            [
              144.951847,
              -37.821222
            ],
            [
              144.951826,
              -37.821196
            ],
            [
              144.951804,
              -37.821167
            ],
            [
              144.951503,
              -37.820785
            ],
            [
              144.951319,
              -37.820553
            ],
            [
              144.951137,
              -37.820322
            ],
            [
              144.950986,
              -37.820131
            ],
            [
              144.951062,
              -37.820109
            ],
            [
              144.950987,
              -37.820049
            ],
            [
              144.950986,
              -37.820048
            ],
            [
              144.950985,
              -37.820048
            ],
            [
              144.950983,
              -37.820047
            ],
            [
              144.950981,
              -37.820047
            ],
            [
              144.95098,
              -37.820046
            ],
            [
              144.950974,
              -37.820046
            ],
            [
              144.950973,
              -37.820047
            ],
            [
              144.950945,
              -37.820055
            ],
            [
              144.950939,
              -37.820057
            ],
            [
              144.950936,
              -37.820059
            ],
            [
              144.950934,
              -37.82006
            ],
            [
              144.950931,
              -37.820062
            ],
            [
              144.950928,
              -37.820065
            ],
            [
              144.95092,
              -37.820072
            ],
            [
              144.95092,
              -37.820073
            ],
            [
              144.950919,
              -37.820073
            ],
            [
              144.950919,
              -37.820075
            ],
            [
              144.950918,
              -37.820075
            ],
            [
              144.950918,
              -37.820078
            ],
            [
              144.950919,
              -37.820078
            ],
            [
              144.950919,
              -37.82008
            ],
            [
              144.95092,
              -37.82008
            ],
            [
              144.950917,
              -37.820082
            ],
            [
              144.9509607089723,
              -37.8201380837203
            ],
            [
              144.950888,
              -37.820159
            ],
            [
              144.950889,
              -37.82016
            ],
            [
              144.950877,
              -37.820156
            ],
            [
              144.950865,
              -37.820156
            ],
            [
              144.950783,
              -37.820053
            ],
            [
              144.950689,
              -37.819927
            ],
            [
              144.950686,
              -37.819928
            ]
          ]
        ]
      }
    }
  ]
}