{
  "type": "FeatureCollection",
  "features": [
    {
      "type": "Feature",
      "properties": {
        "name": "polygon42"
      },
      "geometry": {
        "type": "Polygon",
        "coordinates": [
          [
            [
              144.955529,
              -37.819938
            ],
            [
              144.955786,
              -37.820499
            ],
            [
              144.955791,
              -37.820509
            ],
            [
              144.955794,
              -37.820508
            ],
            [
              144.95587,
              -37.820676
            ],
            [
              144.95588,
              -37.820673
            ],
            [
              144.955882,
              -37.820673
            ],
            [
              144.95589,
              -37.820671
            ],
            [
              144.955894,
              -37.820681
            ],
            [
              144.955895,
              -37.820683
            ],
            [
              144.955895,
              -37.820687
            ],
            [
              144.955894,
              -37.820688
            ],
            [
              144.955894,
              -37.820689
            ],
            [
              144.95589,
              -37.820693
            ],
            [
              144.955886,
              -37.820695
            ],
            [
              144.955894,
              -37.820692
            ],
            [
              144.955896,
              -37.820691
            ],
            [
              144.955897,
              -37.820689
            ],
            [
              144.955897,
              -37.820687
            ],
            [
              144.955898,
              -37.820685
            ],
            [
              144.955898,
              -37.820683
            ],
            [
              144.955897,
              -37.820681
            ],
            [
              144.955892,
              -37.82067
            ],
            [
              144.955954,
              -37.820652
            ],
            [
              144.955957,
              -37.820651
            ],
            [
              144.955961,
              -37.82065
            ],
            [
              144.95597,
              -37.820648
            ],
            [
              144.955907,
              -37.820511
            ],
            [
              144.955907,
              -37.820509
            ],
            [
              144.955906,
              -37.820508
            ],
            [
              144.955894,
              -37.820483
            ],
            [
              144.955894,
              -37.820481
            ],
            [
              144.955893,
              -37.82048
            ],
            [
              144.955805,
              -37.820286
            ],
            [
              144.955771,
              -37.820211
            ],
            [
              144.955633,
              -37.819908
            ],
            [
              144.95562,
              -37.819912
            ],
            [
              144.955621,
              -37.819914
            ],
            [
              144.955619,
              -37.819914
            ],
            [
              144.955618,
              -37.819912
            ],
            [
              144.955546,
              -37.819933
            ],
            [
              144.955543,
              -37.819934
            ],
            [
              144.955541,
              -37.819934
            ],
            [
              144.955529,
              -37.819938
            ]
          ]
        ]
      }
    }
  ]
}