{
  "type": "FeatureCollection",
  "features": [
    {
      "type": "Feature",
      "properties": {
        "name": "polygon37"
      },
      "geometry": {
        "type": "Polygon",
        "coordinates": [
          [
            [
              144.947894,
              -37.81078
            ],
            [
              144.94791,
              -37.810806
            ],
            [
              144.947912,
              -37.810809
            ],
            [
              144.947913,
              -37.810811
            ],
            [
              144.948023,
              -37.810993
            ],
            [
              144.947983,
              -37.811009
            ],
            [
              144.947985,
              -37.811014
            ],
            [
              144.947986,
              -37.811015
            ],
            [
              144.947999,
              -37.811042
            ],
            [
              144.948005,
              -37.811055
            ],
            [
              144.948008,
              -37.811054
            ],
            [
              144.948002,
              -37.811041
            ],
            [
              144.948043,
              -37.811025
            ],
            [
              144.949375,
              -37.810522
            ],
            [
              144.949377,
              -37.810521
            ],
            [
              144.949388,
              -37.810517
            ],
            [
              144.949391,
              -37.810516
            ],
            [
              144.949404,
              -37.810511
            ],
            [
              144.949406,
              -37.81051
            ],
            [
              144.949407,
              -37.81051
            ],
            [
              144.949492,
              -37.810477
            ],
            [
              144.949504,
              -37.810473
            ],
            [
              144.949648,
              -37.810418
            ],
            [
              144.949654,
              -37.810415
            ],
            [
              144.949663,
              -37.810411
            ],
            [
              144.94967,
              -37.810408
            ],
            [
              144.949681,
              -37.810403
            ],
            [
              144.949683,
              -37.810402
            ],
            [
              144.949911,
              -37.810315
            ],
            [
              144.949894,
              -37.810288
            ],
            [
              144.949893,
              -37.810287
            ],
            [
              144.949891,
              -37.810284
            ],
            [
              144.949904,
              -37.810284
            ],
            [
              144.949908,
              -37.810285
            ],
            [
              144.949911,
              -37.810285
            ],
            [
              144.949914,
              -37.810286
            ],
            [
              144.949915,
              -37.810286
            ],
            [
              144.949924,
              -37.810289
            ],
            [
              144.949925,
              -37.810289
            ],
            [
              144.949927,
              -37.81029
            ],
            [
              144.949928,
              -37.81029
            ],
            [
              144.94993,
              -37.810292
            ],
            [
              144.949931,
              -37.810292
            ],
            [
              144.949933,
              -37.810293
            ],
            [
              144.949933,
              -37.810294
            ],
            [
              144.949936,
              -37.810295
            ],
            [
              144.949938,
              -37.810297
            ],
            [
              144.949939,
              -37.810297
            ],
            [
              144.949944,
              -37.810302
            ],
            [
              144.950067,
              -37.810255
            ],
            [
              144.950053,
              -37.81023
            ],
            [
              144.950053,
              -37.810226
            ],
            [
              144.949927,
              -37.810057
            ],
            [
              144.949927,
              -37.810058
            ],
            [
              144.949926,
              -37.810058
            ],
            [
              144.949926,
              -37.81006
            ],
            [
              144.949924,
              -37.810062
            ],
            [
              144.949923,
              -37.810062
            ],
            [
              144.949923,
              -37.810063
            ],
            [
              144.949922,
              -37.810063
            ],
            [
              144.949921,
              -37.810064
            ],
            [
              144.949912,
              -37.810064
            ],
            [
              144.949911,
              -37.810063
            ],
            [
              144.94991,
              -37.810063
            ],
            [
              144.94991,
              -37.810062
            ],
            [
              144.949909,
              -37.810062
            ],
            [
              144.949907,
              -37.81006
            ],
            [
              144.949907,
              -37.810059
            ],
            [
              144.949906,
              -37.810059
            ],
            [
              144.949906,
              -37.810058
            ],
            [
              144.949883,
              -37.810022
            ],
            [
              144.949794,
              -37.810056
            ],
            [
              144.949795,
              -37.810061
            ],
            [
              144.949795,
              -37.810065
            ],
            [
              144.949794,
              -37.810071
            ],
            [
              144.949792,
              -37.810076
            ],
            [
              144.94979,
              -37.810083
            ],
            [
              144.949786,
              -37.810089
            ],
            [
              144.949781,
              -37.810095
            ],
            [
              144.949778,
              -37.810099
            ],
            [
              144.949774,
              -37.810102
            ],
            [
              144.949771,
              -37.810099
            ],
            [
              144.949754,
              -37.810072
            ],
            [
              144.949373,
              -37.81022
            ],
            [
              144.949371,
              -37.81022
            ],
            [
              144.949369,
              -37.810221
            ],
            [
              144.949359,
              -37.810225
            ],
            [
              144.949356,
              -37.810226
            ],
            [
              144.949354,
              -37.810227
            ],
            [
              144.949351,
              -37.810228
            ],
            [
              144.949339,
              -37.810233
            ],
            [
              144.949337,
              -37.810234
            ],
            [
              144.949336,
              -37.810234
            ],
            [
              144.947894,
              -37.81078
            ]
          ],
          [
            [
              144.949618,
              -37.810291
            ],
            [
              144.949618,
              -37.810285
            ],
            [
              144.949619,
              -37.810285
            ],
            [
              144.949619,
              -37.810284
            ],
            [
              144.94962,
              -37.810284
            ],
            [
              144.94962,
              -37.810283
            ],
            [
              144.949621,
              -37.810283
            ],
            [
              144.949621,
              -37.810282
            ],
            [
              144.949622,
              -37.810282
            ],
            [
              144.949623,
              -37.810281
            ],
            [
              144.949624,
              -37.810281
            ],
            [
              144.949776,
              -37.810225
            ],
            [
              144.949838,
              -37.810202
            ],
            [
              144.949863,
              -37.810192
            ],
            [
              144.949872,
              -37.810192
            ],
            [
              144.949872,
              -37.810193
            ],
            [
              144.949874,
              -37.810193
            ],
            [
              144.949874,
              -37.810194
            ],
            [
              144.949875,
              -37.810194
            ],
            [
              144.949875,
              -37.810195
            ],
            [
              144.949876,
              -37.810195
            ],
            [
              144.949876,
              -37.810196
            ],
            [
              144.949877,
              -37.810196
            ],
            [
              144.949878,
              -37.810198
            ],
            [
              144.949878,
              -37.8102
            ],
            [
              144.949879,
              -37.8102
            ],
            [
              144.949879,
              -37.810204
            ],
            [
              144.949878,
              -37.810204
            ],
            [
              144.949878,
              -37.810206
            ],
            [
              144.949877,
              -37.810206
            ],
            [
              144.949877,
              -37.810207
            ],
            [
              144.949876,
              -37.810207
            ],
            [
              144.949876,
              -37.810208
            ],
            [
              144.949874,
              -37.810208
            ],
            [
              144.949874,
              -37.810209
            ],
            [
              144.949873,
              -37.810209
            ],
            [
              144.949849,
              -37.810218
            ],
            [
              144.949631,
              -37.810299
            ],
            [
              144.949625,
              -37.810299
            ],
            [
              144.949624,
              -37.810298
            ],
            [
              144.949623,
              -37.810298
            ],
            [
              144.949623,
              -37.810297
            ],
            [
              144.949622,
              -37.810297
            ],
            [
              144.949621,
              -37.810296
            ],
            [
              144.949619,
              -37.810292
            ],
            [
              144.949618,
              -37.810291
            ]
          ]
        ]
      }
    }
  ]
}