{
  "type": "FeatureCollection",
  "features": [
    {
      "type": "Feature",
      "properties": {
        "name": "polygon136"
      },
      "geometry": {
        "type": "MultiPolygon",
        "coordinates": [
          [
            [
              [
                144.95224,
                -37.815311
              ],
              [
                144.952615,
                -37.816123
              ],
              [
                144.952656,
                -37.816211
              ],
              [
                144.952694,
                -37.8162
              ],
              [
                144.952698,
                -37.816199
              ],
              [
                144.9527,
                -37.816198
              ],
              [
                144.952789,
                -37.816173
              ],
              [
                144.952748,
                -37.816085
              ],
              [
                144.952374,
                -37.815272
              ],
              [
                144.952283,
                -37.815298
              ],
              [
                144.952281,
                -37.815299
              ],
              [
                144.952277,
                -37.8153
              ],
              [
                144.95224,
                -37.815311
              ]
            ]
          ],
          [
            [
              [
                144.952437,
                -37.815253
              ],
              [
                144.952812,
                -37.816066
              ],
              [
                144.952853,
                -37.816154
              ],
              [
                144.952945,
                -37.816127
              ],
              [
                144.952945,
                -37.816124
              ],
              [
                144.952946,
                -37.81612
              ],
              [
                144.952946,
                -37.816119
              ],
              [
                144.952947,
                -37.816115
              ],
              [
                144.952947,
                -37.816114
              ],
              [
                144.952948,
                -37.816114
              ],
              [
                144.95295,
                -37.81611
              ],
              [
                144.952951,
                -37.816109
              ],
              [
                144.952952,
                -37.816109
              ],
              [
                144.952952,
                -37.816108
              ],
              [
                144.95296,
                -37.816104
              ],
              [
                144.952961,
                -37.816104
              ],
              [
                144.952978,
                -37.816099
              ],
              [
                144.95295,
                -37.816041
              ],
              [
                144.952949,
                -37.816041
              ],
              [
                144.952947,
                -37.816037
              ],
              [
                144.952943,
                -37.816028
              ],
              [
                144.95272,
                -37.815544
              ],
              [
                144.952568,
                -37.815215
              ],
              [
                144.952555,
                -37.815187
              ],
              [
                144.952554,
                -37.815184
              ],
              [
                144.952552,
                -37.815182
              ],
              [
                144.952549,
                -37.815184
              ],
              [
                144.952546,
                -37.815185
              ],
              [
                144.95254,
                -37.815189
              ],
              [
                144.952538,
                -37.815191
              ],
              [
                144.952535,
                -37.815193
              ],
              [
                144.952533,
                -37.815196
              ],
              [
                144.952531,
                -37.815198
              ],
              [
                144.95253,
                -37.815201
              ],
              [
                144.952528,
                -37.815204
              ],
              [
                144.952527,
                -37.815207
              ],
              [
                144.952527,
                -37.81521
              ],
              [
                144.952526,
                -37.815213
              ],
              [
                144.952526,
                -37.815221
              ],
              [
                144.952528,
                -37.815227
              ],
              [
                144.952437,
                -37.815253
              ]
            ],
            [
              [
                144.952595,
                -37.815358
              ],
              [
                144.952609,
                -37.815354
              ],
              [
                144.952639,
                -37.815419
              ],
              [
                144.952625,
                -37.815423
              ],
              [
                144.952595,
                -37.815358
              ]
            ],
            [
              [
                144.952661,
                -37.815502
              ],
              [
                144.952676,
                -37.815498
              ],
              [
                144.952684,
                -37.815516
              ],
              [
                144.95267,
                -37.81552
              ],
              [
                144.952661,
                -37.815502
              ]
            ],
            [
              [
                144.952716,
                -37.81562
              ],
              [
                144.952734,
                -37.815615
              ],
              [
                144.952748,
                -37.815646
              ],
              [
                144.95273,
                -37.815651
              ],
              [
                144.952716,
                -37.81562
              ]
            ],
            [
              [
                144.952768,
                -37.815734
              ],
              [
                144.952786,
                -37.815729
              ],
              [
                144.952798,
                -37.815756
              ],
              [
                144.952781,
                -37.815761
              ],
              [
                144.952768,
                -37.815734
              ]
            ],
            [
              [
                144.95284,
                -37.81589
              ],
              [
                144.95286,
                -37.815884
              ],
              [
                144.952872,
                -37.81591
              ],
              [
                144.952851,
                -37.815915
              ],
              [
                144.95284,
                -37.81589
              ]
            ]
          ]
        ]
      }
    }
  ]
}