{
  "type": "FeatureCollection",
  "features": [
    {
      "type": "Feature",
      "properties": {
        "name": "polygon10"
      },
      "geometry": {
        "type": "Polygon",
        "coordinates": [
          [
            [
              144.977975,
              -37.810889
            ],
            [
              144.977991,
              -37.810891
            ],
            [
              144.977999,
              -37.810891
            ],
            [
              144.978006,
              -37.810889
            ],
            [
              144.978011,
              -37.810887
            ],
            [
              144.978015,
              -37.810883
            ],
            [
              144.978018,
              -37.810878
            ],
            [
              144.978021,
              -37.810858
            ],
            [
              144.978124,
              -37.810869
            ],
            [
              144.978119,
              -37.810895
            ],
            [
              144.97812,
              -37.810897
            ],
            [
              144.97812,
              -37.810899
            ],
            [
              144.978126,
              -37.810902
            ],
            [
              144.978158,
              -37.810906
            ],
            [
              144.978161,
              -37.810906
            ],
            [
              144.978165,
              -37.810904
            ],
            [
              144.978166,
              -37.810903
            ],
            [
              144.978166,
              -37.810902
            ],
            [
              144.978167,
              -37.8109
            ],
            [
              144.978171,
              -37.810875
            ],
            [
              144.978267,
              -37.810885
            ],
            [
              144.978278,
              -37.810886
            ],
            [
              144.97828,
              -37.810886
            ],
            [
              144.978301,
              -37.810889
            ],
            [
              144.978442,
              -37.810044
            ],
            [
              144.978445,
              -37.810029
            ],
            [
              144.978445,
              -37.810026
            ],
            [
              144.978467,
              -37.810017
            ],
            [
              144.978468,
              -37.810019
            ],
            [
              144.978471,
              -37.809999
            ],
            [
              144.978473,
              -37.80999
            ],
            [
              144.97843669374998,
              -37.809986075000005
            ],
            [
              144.978442,
              -37.809979
            ],
            [
              144.978454,
              -37.80997
            ],
            [
              144.978469,
              -37.809964
            ],
            [
              144.978474,
              -37.809963
            ],
            [
              144.97848,
              -37.809962
            ],
            [
              144.978485,
              -37.809961
            ],
            [
              144.978497,
              -37.809961
            ],
            [
              144.978502,
              -37.809962
            ],
            [
              144.978502,
              -37.80996
            ],
            [
              144.978503,
              -37.809958
            ],
            [
              144.978497,
              -37.809957
            ],
            [
              144.978485,
              -37.809957
            ],
            [
              144.978473,
              -37.809959
            ],
            [
              144.978467,
              -37.809961
            ],
            [
              144.978472,
              -37.809959
            ],
            [
              144.978478,
              -37.809958
            ],
            [
              144.978491,
              -37.809879
            ],
            [
              144.978456,
              -37.809875
            ],
            [
              144.978454,
              -37.809875
            ],
            [
              144.978453,
              -37.809874
            ],
            [
              144.978452,
              -37.809874
            ],
            [
              144.978451,
              -37.809873
            ],
            [
              144.97845,
              -37.809873
            ],
            [
              144.97845,
              -37.809872
            ],
            [
              144.978449,
              -37.809871
            ],
            [
              144.978449,
              -37.809868
            ],
            [
              144.978452,
              -37.809848
            ],
            [
              144.978183,
              -37.809828
            ],
            [
              144.978181,
              -37.80984
            ],
            [
              144.978181,
              -37.809842
            ],
            [
              144.97818,
              -37.809842
            ],
            [
              144.97818,
              -37.809843
            ],
            [
              144.978179,
              -37.809843
            ],
            [
              144.978179,
              -37.809844
            ],
            [
              144.978177,
              -37.809844
            ],
            [
              144.978176,
              -37.809845
            ],
            [
              144.978173,
              -37.809845
            ],
            [
              144.978144,
              -37.809841
            ],
            [
              144.978132,
              -37.809917
            ],
            [
              144.978131,
              -37.809919
            ],
            [
              144.978131,
              -37.809921
            ],
            [
              144.978126,
              -37.809954
            ],
            [
              144.977982,
              -37.810854
            ],
            [
              144.977976,
              -37.810885
            ],
            [
              144.977975,
              -37.810887
            ],
            [
              144.977975,
              -37.810889
            ]
          ],
          [
            [
              144.97826921739133,
              -37.80999678260867
            ],
            [
              144.978274,
              -37.80997
            ],
            [
              144.978279,
              -37.809943
            ],
            [
              144.978279,
              -37.809942
            ],
            [
              144.978282,
              -37.809939
            ],
            [
              144.978283,
              -37.809939
            ],
            [
              144.978283,
              -37.809938
            ],
            [
              144.978288,
              -37.809938
            ],
            [
              144.97832,
              -37.809941
            ],
            [
              144.978322,
              -37.809941
            ],
            [
              144.978323,
              -37.809942
            ],
            [
              144.978324,
              -37.809942
            ],
            [
              144.978326,
              -37.809944
            ],
            [
              144.978326,
              -37.809945
            ],
            [
              144.978327,
              -37.809945
            ],
            [
              144.978327,
              -37.809949
            ],
            [
              144.978326,
              -37.80995
            ],
            [
              144.978326,
              -37.809951
            ],
            [
              144.978325,
              -37.809951
            ],
            [
              144.978325,
              -37.809952
            ],
            [
              144.978323,
              -37.809952
            ],
            [
              144.978323,
              -37.809953
            ],
            [
              144.978318,
              -37.809953
            ],
            [
              144.978286,
              -37.80995
            ],
            [
              144.978284,
              -37.80995
            ],
            [
              144.978283,
              -37.809949
            ],
            [
              144.978282,
              -37.809949
            ],
            [
              144.978282,
              -37.809948
            ],
            [
              144.978281,
              -37.809948
            ],
            [
              144.97828,
              -37.809947
            ],
            [
              144.97828,
              -37.809946
            ],
            [
              144.978279,
              -37.809946
            ],
            [
              144.978279,
              -37.809944
            ],
            [
              144.97826922727273,
              -37.809996772727274
            ],
            [
              144.97826921739133,
              -37.80999678260867
            ]
          ],
          [
            [
              144.978274,
              -37.810011
            ],
            [
              144.97831,
              -37.810014
            ],
            [
              144.978291,
              -37.810013
            ],
            [
              144.978274,
              -37.810011
            ]
          ],
          [
            [
              144.978318,
              -37.810002
            ],
            [
              144.978327,
              -37.809949
            ],
            [
              144.978323,
              -37.809974
            ],
            [
              144.978318,
              -37.810002
            ]
          ],
          [
            [
              144.9784325,
              -37.80999200000001
            ],
            [
              144.978433,
              -37.809991
            ],
            [
              144.9784345,
              -37.80998900000001
            ],
            [
              144.978434,
              -37.80999
            ],
            [
              144.9784325,
              -37.80999200000001
            ]
          ]
        ]
      }
    }
  ]
}