{
  "type": "FeatureCollection",
  "features": [
    {
      "type": "Feature",
      "properties": {
        "name": "polygon4"
      },
      "geometry": {
        "type": "MultiPolygon",
        "coordinates": [
          [
            [
              [
                144.963818,
                -37.800323
              ],
              [
                144.963823,
                -37.800324
              ],
              [
                144.963824,
                -37.800324
              ],
              [
                144.963832,
                -37.800323
              ],
              [
                144.963838,
                -37.800322
              ],
              [
                144.963839,
                -37.800321
              ],
              [
                144.963848,
                -37.800317
              ],
              [
                144.963855,
                -37.800313
              ],
              [
                144.963862,
                -37.800306
              ],
              [
                144.963867,
                -37.800299
              ],
              [
                144.963867,
                -37.800298
              ],
              [
                144.963869,
                -37.800292
              ],
              [
                144.96387,
                -37.800292
              ],
              [
                144.96387,
                -37.800288
              ],
              [
                144.963873,
                -37.800275
              ],
              [
                144.963965,
                -37.800285
              ],
              [
                144.964041,
                -37.79984
              ],
              [
                144.964024,
                -37.799838
              ],
              [
                144.964036,
                -37.799752
              ],
              [
                144.964043,
                -37.799711
              ],
              [
                144.964047,
                -37.799689
              ],
              [
                144.96405,
                -37.79966
              ],
              [
                144.964054,
                -37.79959
              ],
              [
                144.964056,
                -37.799542
              ],
              [
                144.964058,
                -37.7995
              ],
              [
                144.96406,
                -37.799468
              ],
              [
                144.964065,
                -37.799429
              ],
              [
                144.964072,
                -37.799377
              ],
              [
                144.964102,
                -37.799213
              ],
              [
                144.964135,
                -37.799014
              ],
              [
                144.964164,
                -37.798851
              ],
              [
                144.964193,
                -37.798684
              ],
              [
                144.964219,
                -37.79854
              ],
              [
                144.96423,
                -37.798479
              ],
              [
                144.964232,
                -37.798465
              ],
              [
                144.964239,
                -37.798427
              ],
              [
                144.96425,
                -37.798384
              ],
              [
                144.964264,
                -37.798336
              ],
              [
                144.96428,
                -37.798249
              ],
              [
                144.964286,
                -37.798214
              ],
              [
                144.964231,
                -37.798208
              ],
              [
                144.964227,
                -37.798207
              ],
              [
                144.964222,
                -37.798233
              ],
              [
                144.964222,
                -37.798234
              ],
              [
                144.964178,
                -37.798473
              ],
              [
                144.964176,
                -37.798473
              ],
              [
                144.96422,
                -37.798233
              ],
              [
                144.964225,
                -37.798207
              ],
              [
                144.964181,
                -37.798202
              ],
              [
                144.964178,
                -37.798221
              ],
              [
                144.964137,
                -37.798463
              ],
              [
                144.964136,
                -37.798468
              ],
              [
                144.964117,
                -37.798581
              ],
              [
                144.963827,
                -37.80027
              ],
              [
                144.963818,
                -37.800319
              ],
              [
                144.963818,
                -37.800323
              ]
            ]
          ],
          [
            [
              [
                144.964031,
                -37.800292
              ],
              [
                144.964125,
                -37.800303
              ],
              [
                144.964121,
                -37.800326
              ],
              [
                144.964121,
                -37.80034
              ],
              [
                144.964123,
                -37.800344
              ],
              [
                144.964123,
                -37.800345
              ],
              [
                144.964124,
                -37.800345
              ],
              [
                144.964127,
                -37.80035
              ],
              [
                144.964128,
                -37.80035
              ],
              [
                144.964134,
                -37.800355
              ],
              [
                144.964136,
                -37.800355
              ],
              [
                144.964136,
                -37.800356
              ],
              [
                144.964145,
                -37.800358
              ],
              [
                144.964155,
                -37.800359
              ],
              [
                144.96416,
                -37.80036
              ],
              [
                144.964167,
                -37.800361
              ],
              [
                144.964168,
                -37.800359
              ],
              [
                144.964168,
                -37.800357
              ],
              [
                144.96416,
                -37.800356
              ],
              [
                144.96417,
                -37.800308
              ],
              [
                144.964479,
                -37.798508
              ],
              [
                144.96449,
                -37.798443
              ],
              [
                144.96449,
                -37.79844
              ],
              [
                144.964491,
                -37.798439
              ],
              [
                144.964497,
                -37.7984
              ],
              [
                144.964465,
                -37.798397
              ],
              [
                144.964462,
                -37.798396
              ],
              [
                144.964461,
                -37.798396
              ],
              [
                144.964458,
                -37.798393
              ],
              [
                144.964458,
                -37.79839
              ],
              [
                144.964464,
                -37.798348
              ],
              [
                144.964465,
                -37.798346
              ],
              [
                144.964466,
                -37.798345
              ],
              [
                144.964466,
                -37.798344
              ],
              [
                144.964468,
                -37.798344
              ],
              [
                144.964469,
                -37.798343
              ],
              [
                144.964471,
                -37.798343
              ],
              [
                144.964507,
                -37.798347
              ],
              [
                144.964516,
                -37.798291
              ],
              [
                144.964513,
                -37.798291
              ],
              [
                144.964505,
                -37.798288
              ],
              [
                144.964498,
                -37.798284
              ],
              [
                144.964488,
                -37.798276
              ],
              [
                144.964485,
                -37.798271
              ],
              [
                144.964481,
                -37.798265
              ],
              [
                144.964479,
                -37.798258
              ],
              [
                144.964478,
                -37.798252
              ],
              [
                144.964479,
                -37.798245
              ],
              [
                144.96448,
                -37.798235
              ],
              [
                144.964423,
                -37.798228
              ],
              [
                144.964414,
                -37.798284
              ],
              [
                144.964409,
                -37.798315
              ],
              [
                144.964405,
                -37.798344
              ],
              [
                144.964403,
                -37.79838
              ],
              [
                144.964402,
                -37.798414
              ],
              [
                144.964398,
                -37.798437
              ],
              [
                144.964391,
                -37.798479
              ],
              [
                144.964388,
                -37.798498
              ],
              [
                144.96438,
                -37.798545
              ],
              [
                144.964344,
                -37.798754
              ],
              [
                144.964329,
                -37.798843
              ],
              [
                144.964315,
                -37.798924
              ],
              [
                144.964302,
                -37.799001
              ],
              [
                144.964294,
                -37.799044
              ],
              [
                144.964287,
                -37.799083
              ],
              [
                144.964275,
                -37.799154
              ],
              [
                144.964252,
                -37.79929
              ],
              [
                144.964234,
                -37.799395
              ],
              [
                144.964226,
                -37.799437
              ],
              [
                144.964219,
                -37.79947
              ],
              [
                144.964212,
                -37.799496
              ],
              [
                144.964188,
                -37.79958
              ],
              [
                144.96417,
                -37.799639
              ],
              [
                144.964162,
                -37.799668
              ],
              [
                144.964154,
                -37.7997
              ],
              [
                144.964148,
                -37.799734
              ],
              [
                144.964145,
                -37.799748
              ],
              [
                144.96414,
                -37.799779
              ],
              [
                144.964128,
                -37.799846
              ],
              [
                144.964127,
                -37.799851
              ],
              [
                144.964107,
                -37.799849
              ],
              [
                144.964031,
                -37.800292
              ]
            ]
          ],
          [
            [
              [
                144.964125,
                -37.79938
              ],
              [
                144.964132,
                -37.799381
              ],
              [
                144.964175,
                -37.799385
              ],
              [
                144.964182,
                -37.799385
              ],
              [
                144.964188,
                -37.799356
              ],
              [
                144.964195,
                -37.799325
              ],
              [
                144.964206,
                -37.799285
              ],
              [
                144.964208,
                -37.799275
              ],
              [
                144.964226,
                -37.799168
              ],
              [
                144.964245,
                -37.799057
              ],
              [
                144.964266,
                -37.798933
              ],
              [
                144.964282,
                -37.798842
              ],
              [
                144.964297,
                -37.798759
              ],
              [
                144.9643,
                -37.798719
              ],
              [
                144.964301,
                -37.798638
              ],
              [
                144.964268,
                -37.798633
              ],
              [
                144.964252,
                -37.798672
              ],
              [
                144.964227,
                -37.798748
              ],
              [
                144.964212,
                -37.798839
              ],
              [
                144.964193,
                -37.798945
              ],
              [
                144.964171,
                -37.799073
              ],
              [
                144.964158,
                -37.799146
              ],
              [
                144.964137,
                -37.799267
              ],
              [
                144.964135,
                -37.799276
              ],
              [
                144.964132,
                -37.799319
              ],
              [
                144.96413,
                -37.799348
              ],
              [
                144.964125,
                -37.79938
              ]
            ]
          ]
        ]
      }
    }
  ]
}