{
  "type": "FeatureCollection",
  "features": [
    {
      "type": "Feature",
      "properties": {
        "name": "polygon55"
      },
      "geometry": {
        "type": "MultiPolygon",
        "coordinates": [
          [
            [
              [
                144.963923,
                -37.809426
              ],
              [
                144.963936,
                -37.809454
              ],
              [
                144.963938,
                -37.809456
              ],
              [
                144.963939,
                -37.809458
              ],
              [
                144.96397,
                -37.809525
              ],
              [
                144.966124,
                -37.808895
              ],
              [
                144.96609,
                -37.808823
              ],
              [
                144.966098,
                -37.808818
              ],
              [
                144.966103,
                -37.808815
              ],
              [
                144.966112,
                -37.808806
              ],
              [
                144.966115,
                -37.808802
              ],
              [
                144.966117,
                -37.808799
              ],
              [
                144.966118,
                -37.808795
              ],
              [
                144.96612,
                -37.808789
              ],
              [
                144.96612,
                -37.808781
              ],
              [
                144.966119,
                -37.808778
              ],
              [
                144.966116,
                -37.808778
              ],
              [
                144.966113,
                -37.808779
              ],
              [
                144.966025,
                -37.808805
              ],
              [
                144.966025,
                -37.808804
              ],
              [
                144.966015,
                -37.808807
              ],
              [
                144.966004,
                -37.808811
              ],
              [
                144.965994,
                -37.808814
              ],
              [
                144.965902,
                -37.808841
              ],
              [
                144.965897,
                -37.808828
              ],
              [
                144.965775,
                -37.808864
              ],
              [
                144.965779,
                -37.808872
              ],
              [
                144.965766,
                -37.808876
              ],
              [
                144.965765,
                -37.808874
              ],
              [
                144.965728,
                -37.808885
              ],
              [
                144.965729,
                -37.808887
              ],
              [
                144.965711,
                -37.808892
              ],
              [
                144.965708,
                -37.808884
              ],
              [
                144.965581,
                -37.808921
              ],
              [
                144.965588,
                -37.808934
              ],
              [
                144.965504,
                -37.808959
              ],
              [
                144.965498,
                -37.808947
              ],
              [
                144.96549,
                -37.80895
              ],
              [
                144.965483,
                -37.808967
              ],
              [
                144.965458,
                -37.808974
              ],
              [
                144.965435,
                -37.808965
              ],
              [
                144.965299,
                -37.809004
              ],
              [
                144.965302,
                -37.809013
              ],
              [
                144.965297,
                -37.809014
              ],
              [
                144.965298,
                -37.809017
              ],
              [
                144.965246,
                -37.809032
              ],
              [
                144.965245,
                -37.80903
              ],
              [
                144.96524,
                -37.809031
              ],
              [
                144.965236,
                -37.809023
              ],
              [
                144.965117,
                -37.809058
              ],
              [
                144.965123,
                -37.809072
              ],
              [
                144.965052,
                -37.809093
              ],
              [
                144.965051,
                -37.809091
              ],
              [
                144.965037,
                -37.809095
              ],
              [
                144.965038,
                -37.809097
              ],
              [
                144.963923,
                -37.809426
              ]
            ],
            [
              [
                144.965085,
                -37.8091
              ],
              [
                144.965111,
                -37.809092
              ],
              [
                144.965117,
                -37.809105
              ],
              [
                144.965091,
                -37.809113
              ],
              [
                144.965085,
                -37.8091
              ]
            ],
            [
              [
                144.965256,
                -37.80905
              ],
              [
                144.965272,
                -37.809046
              ],
              [
                144.965277,
                -37.809058
              ],
              [
                144.965261,
                -37.809063
              ],
              [
                144.965256,
                -37.80905
              ]
            ],
            [
              [
                144.965429,
                -37.808999
              ],
              [
                144.965445,
                -37.808995
              ],
              [
                144.96545,
                -37.809007
              ],
              [
                144.965434,
                -37.809012
              ],
              [
                144.965429,
                -37.808999
              ]
            ],
            [
              [
                144.965578,
                -37.808955
              ],
              [
                144.965597,
                -37.80895
              ],
              [
                144.965603,
                -37.808962
              ],
              [
                144.965584,
                -37.808968
              ],
              [
                144.965578,
                -37.808955
              ]
            ],
            [
              [
                144.96563,
                -37.808941
              ],
              [
                144.96566,
                -37.808932
              ],
              [
                144.965665,
                -37.808944
              ],
              [
                144.965636,
                -37.808953
              ],
              [
                144.96563,
                -37.808941
              ]
            ],
            [
              [
                144.965751,
                -37.808904
              ],
              [
                144.965767,
                -37.8089
              ],
              [
                144.965773,
                -37.808912
              ],
              [
                144.965757,
                -37.808917
              ],
              [
                144.965751,
                -37.808904
              ]
            ],
            [
              [
                144.965909,
                -37.808858
              ],
              [
                144.965925,
                -37.808853
              ],
              [
                144.965931,
                -37.808866
              ],
              [
                144.965915,
                -37.80887
              ],
              [
                144.965909,
                -37.808858
              ]
            ]
          ],
          [
            [
              [
                144.963994,
                -37.809575
              ],
              [
                144.964023,
                -37.809638
              ],
              [
                144.964027,
                -37.809647
              ],
              [
                144.964028,
                -37.809649
              ],
              [
                144.96403,
                -37.809651
              ],
              [
                144.964044,
                -37.809682
              ],
              [
                144.964218,
                -37.809631
              ],
              [
                144.964228,
                -37.809628
              ],
              [
                144.964372,
                -37.809586
              ],
              [
                144.964419,
                -37.809572
              ],
              [
                144.965959,
                -37.809117
              ],
              [
                144.965944,
                -37.809085
              ],
              [
                144.965972,
                -37.809077
              ],
              [
                144.966085,
                -37.809044
              ],
              [
                144.966108,
                -37.809037
              ],
              [
                144.966168,
                -37.80902
              ],
              [
                144.966168,
                -37.809019
              ],
              [
                144.966172,
                -37.809018
              ],
              [
                144.966176,
                -37.809018
              ],
              [
                144.966181,
                -37.809017
              ],
              [
                144.96618,
                -37.809015
              ],
              [
                144.966179,
                -37.809012
              ],
              [
                144.966146,
                -37.808944
              ],
              [
                144.963994,
                -37.809575
              ]
            ]
          ]
        ]
      }
    }
  ]
}