{
  "type": "FeatureCollection",
  "features": [
    {
      "type": "Feature",
      "properties": {
        "name": "polygon44"
      },
      "geometry": {
        "type": "Polygon",
        "coordinates": [
          [
            [
              144.962845,
              -37.81317
            ],
            [
              144.96285,
              -37.813181
            ],
            [
              144.962858,
              -37.813195
            ],
            [
              144.962859,
              -37.813197
            ],
            [
              144.96286,
              -37.8132
            ],
            [
              144.962882,
              -37.813243
            ],
            [
              144.962883,
              -37.813245
            ],
            [
              144.962884,
              -37.813248
            ],
            [
              144.962889,
              -37.813257
            ],
            [
              144.963203,
              -37.813166
            ],
            [
              144.963204,
              -37.813166
            ],
            [
              144.963206,
              -37.813165
            ],
            [
              144.963266,
              -37.813148
            ],
            [
              144.963283,
              -37.813143
            ],
            [
              144.963287,
              -37.813142
            ],
            [
              144.963289,
              -37.813141
            ],
            [
              144.96329,
              -37.813141
            ],
            [
              144.963326,
              -37.81313
            ],
            [
              144.963507,
              -37.813078
            ],
            [
              144.963575,
              -37.813059
            ],
            [
              144.963662,
              -37.813034
            ],
            [
              144.963752,
              -37.813008
            ],
            [
              144.963899,
              -37.812965
            ],
            [
              144.963942,
              -37.812953
            ],
            [
              144.963947,
              -37.812951
            ],
            [
              144.96395,
              -37.81295
            ],
            [
              144.963946,
              -37.812941
            ],
            [
              144.963946,
              -37.81294
            ],
            [
              144.963945,
              -37.81294
            ],
            [
              144.963945,
              -37.812939
            ],
            [
              144.963944,
              -37.812939
            ],
            [
              144.963944,
              -37.812938
            ],
            [
              144.963943,
              -37.812938
            ],
            [
              144.96398,
              -37.812927
            ],
            [
              144.96398,
              -37.812931
            ],
            [
              144.963985,
              -37.81294
            ],
            [
              144.963988,
              -37.81294
            ],
            [
              144.964261,
              -37.812861
            ],
            [
              144.964265,
              -37.81286
            ],
            [
              144.964267,
              -37.812859
            ],
            [
              144.964268,
              -37.812859
            ],
            [
              144.964263,
              -37.812848
            ],
            [
              144.964263,
              -37.812847
            ],
            [
              144.964262,
              -37.812847
            ],
            [
              144.964262,
              -37.812846
            ],
            [
              144.964261,
              -37.812846
            ],
            [
              144.964261,
              -37.812845
            ],
            [
              144.96426,
              -37.812845
            ],
            [
              144.964302,
              -37.812833
            ],
            [
              144.964302,
              -37.812837
            ],
            [
              144.964307,
              -37.812847
            ],
            [
              144.964311,
              -37.812846
            ],
            [
              144.964346,
              -37.812836
            ],
            [
              144.964389,
              -37.812824
            ],
            [
              144.96439,
              -37.812824
            ],
            [
              144.964393,
              -37.812823
            ],
            [
              144.964388,
              -37.812812
            ],
            [
              144.964388,
              -37.812811
            ],
            [
              144.964387,
              -37.812811
            ],
            [
              144.964387,
              -37.81281
            ],
            [
              144.964386,
              -37.81281
            ],
            [
              144.964386,
              -37.812809
            ],
            [
              144.964385,
              -37.812809
            ],
            [
              144.96443,
              -37.812796
            ],
            [
              144.964429,
              -37.812797
            ],
            [
              144.964429,
              -37.812798
            ],
            [
              144.96443,
              -37.812799
            ],
            [
              144.964435,
              -37.812811
            ],
            [
              144.964438,
              -37.81281
            ],
            [
              144.964761,
              -37.812716
            ],
            [
              144.964764,
              -37.812716
            ],
            [
              144.964772,
              -37.812713
            ],
            [
              144.96482,
              -37.8127
            ],
            [
              144.964828,
              -37.812697
            ],
            [
              144.964831,
              -37.812696
            ],
            [
              144.965042,
              -37.812635
            ],
            [
              144.965034,
              -37.812619
            ],
            [
              144.965033,
              -37.812616
            ],
            [
              144.965009,
              -37.812568
            ],
            [
              144.965008,
              -37.812565
            ],
            [
              144.964995,
              -37.812538
            ],
            [
              144.964733,
              -37.812616
            ],
            [
              144.964733,
              -37.812615
            ],
            [
              144.964729,
              -37.812616
            ],
            [
              144.964681,
              -37.81263
            ],
            [
              144.964662,
              -37.812636
            ],
            [
              144.96466,
              -37.812636
            ],
            [
              144.964657,
              -37.812637
            ],
            [
              144.964643,
              -37.812641
            ],
            [
              144.964457,
              -37.812697
            ],
            [
              144.964408,
              -37.812711
            ],
            [
              144.964336,
              -37.812732
            ],
            [
              144.96429,
              -37.812745
            ],
            [
              144.964135,
              -37.812791
            ],
            [
              144.964141,
              -37.812802
            ],
            [
              144.964052,
              -37.812828
            ],
            [
              144.964013,
              -37.81284
            ],
            [
              144.963922,
              -37.812867
            ],
            [
              144.963917,
              -37.812856
            ],
            [
              144.963273,
              -37.813044
            ],
            [
              144.963278,
              -37.813055
            ],
            [
              144.963117,
              -37.813102
            ],
            [
              144.963113,
              -37.813092
            ],
            [
              144.963107,
              -37.813094
            ],
            [
              144.963103,
              -37.813094
            ],
            [
              144.96307,
              -37.813104
            ],
            [
              144.963067,
              -37.813105
            ],
            [
              144.96306,
              -37.813107
            ],
            [
              144.963028,
              -37.813117
            ],
            [
              144.962845,
              -37.81317
            ]
          ],
          [
            [
              144.962921,
              -37.813162
            ],
            [
              144.962937,
              -37.813157
            ],
            [
              144.962943,
              -37.81317
            ],
            [
              144.962927,
              -37.813175
            ],
            [
              144.962921,
              -37.813162
            ]
          ],
          [
            [
              144.963019,
              -37.813133
            ],
            [
              144.963035,
              -37.813129
            ],
            [
              144.963041,
              -37.813141
            ],
            [
              144.963025,
              -37.813146
            ],
            [
              144.963019,
              -37.813133
            ]
          ],
          [
            [
              144.96487,
              -37.812591
            ],
            [
              144.964907,
              -37.81258
            ],
            [
              144.964913,
              -37.812593
            ],
            [
              144.964876,
              -37.812604
            ],
            [
              144.96487,
              -37.812591
            ]
          ]
        ]
      }
    }
  ]
}