{
  "type": "FeatureCollection",
  "features": [
    {
      "type": "Feature",
      "properties": {
        "name": "polygon208"
      },
      "geometry": {
        "type": "MultiPolygon",
        "coordinates": [
          [
            [
              [
                144.958427,
                -37.806016
              ],
              [
                144.958438,
                -37.80604
              ],
              [
                144.958438,
                -37.806041
              ],
              [
                144.958439,
                -37.806042
              ],
              [
                144.95844,
                -37.806042
              ],
              [
                144.95844,
                -37.806043
              ],
              [
                144.958441,
                -37.806044
              ],
              [
                144.958442,
                -37.806044
              ],
              [
                144.958442,
                -37.806045
              ],
              [
                144.958445,
                -37.806045
              ],
              [
                144.958445,
                -37.806046
              ],
              [
                144.958447,
                -37.806046
              ],
              [
                144.958526,
                -37.806054
              ],
              [
                144.958544,
                -37.806056
              ],
              [
                144.958544,
                -37.806061
              ],
              [
                144.958525,
                -37.80606
              ],
              [
                144.95852,
                -37.806084
              ],
              [
                144.958517,
                -37.806101
              ],
              [
                144.958511,
                -37.806136
              ],
              [
                144.958569,
                -37.806142
              ],
              [
                144.958581,
                -37.806144
              ],
              [
                144.959116,
                -37.806202
              ],
              [
                144.959183,
                -37.80621
              ],
              [
                144.959251,
                -37.806217
              ],
              [
                144.959276,
                -37.806221
              ],
              [
                144.959277,
                -37.806221
              ],
              [
                144.9593,
                -37.806226
              ],
              [
                144.959301,
                -37.806226
              ],
              [
                144.959313,
                -37.806229
              ],
              [
                144.959325,
                -37.806231
              ],
              [
                144.959325,
                -37.806232
              ],
              [
                144.959345,
                -37.806237
              ],
              [
                144.959365,
                -37.806244
              ],
              [
                144.959366,
                -37.806244
              ],
              [
                144.959385,
                -37.806251
              ],
              [
                144.959407,
                -37.80626
              ],
              [
                144.959419,
                -37.806266
              ],
              [
                144.959434,
                -37.806273
              ],
              [
                144.959452,
                -37.806283
              ],
              [
                144.959472,
                -37.806294
              ],
              [
                144.959467,
                -37.806284
              ],
              [
                144.959453,
                -37.806254
              ],
              [
                144.95943,
                -37.806204
              ],
              [
                144.959417,
                -37.806176
              ],
              [
                144.959337,
                -37.806001
              ],
              [
                144.959269,
                -37.805984
              ],
              [
                144.959248,
                -37.805937
              ],
              [
                144.959247,
                -37.805936
              ],
              [
                144.959246,
                -37.805934
              ],
              [
                144.959245,
                -37.805934
              ],
              [
                144.959244,
                -37.805933
              ],
              [
                144.959243,
                -37.805933
              ],
              [
                144.959241,
                -37.805932
              ],
              [
                144.959234,
                -37.805932
              ],
              [
                144.959222,
                -37.805936
              ],
              [
                144.959206,
                -37.805941
              ],
              [
                144.959205,
                -37.805941
              ],
              [
                144.959204,
                -37.805942
              ],
              [
                144.959203,
                -37.805942
              ],
              [
                144.9592,
                -37.805945
              ],
              [
                144.9592,
                -37.805946
              ],
              [
                144.959199,
                -37.805947
              ],
              [
                144.959199,
                -37.80595
              ],
              [
                144.9592,
                -37.805952
              ],
              [
                144.959207,
                -37.805967
              ],
              [
                144.959188,
                -37.805962
              ],
              [
                144.959022,
                -37.805919
              ],
              [
                144.959019,
                -37.805918
              ],
              [
                144.959015,
                -37.805917
              ],
              [
                144.958962,
                -37.805903
              ],
              [
                144.95853,
                -37.806026
              ],
              [
                144.958427,
                -37.806016
              ]
            ]
          ],
          [
            [
              [
                144.958483,
                -37.806296
              ],
              [
                144.95907,
                -37.80636
              ],
              [
                144.959204,
                -37.806375
              ],
              [
                144.959307,
                -37.806387
              ],
              [
                144.959315,
                -37.806387
              ],
              [
                144.959332,
                -37.806389
              ],
              [
                144.959506,
                -37.806409
              ],
              [
                144.95949,
                -37.806393
              ],
              [
                144.959476,
                -37.80638
              ],
              [
                144.959461,
                -37.806368
              ],
              [
                144.959446,
                -37.806357
              ],
              [
                144.959432,
                -37.806347
              ],
              [
                144.959414,
                -37.806336
              ],
              [
                144.959399,
                -37.806327
              ],
              [
                144.959381,
                -37.806317
              ],
              [
                144.959364,
                -37.80631
              ],
              [
                144.959345,
                -37.806302
              ],
              [
                144.959327,
                -37.806295
              ],
              [
                144.959307,
                -37.806288
              ],
              [
                144.959287,
                -37.806282
              ],
              [
                144.959261,
                -37.806276
              ],
              [
                144.959233,
                -37.80627
              ],
              [
                144.959204,
                -37.806266
              ],
              [
                144.95915,
                -37.80626
              ],
              [
                144.959145,
                -37.80626
              ],
              [
                144.958509,
                -37.806188
              ],
              [
                144.958502,
                -37.806188
              ],
              [
                144.958492,
                -37.806245
              ],
              [
                144.958492,
                -37.806248
              ],
              [
                144.958491,
                -37.80625
              ],
              [
                144.958489,
                -37.806264
              ],
              [
                144.958483,
                -37.806296
              ]
            ]
          ]
        ]
      }
    }
  ]
}