{
  "type": "FeatureCollection",
  "features": [
    {
      "type": "Feature",
      "properties": {
        "name": "polygon216"
      },
      "geometry": {
        "type": "Polygon",
        "coordinates": [
          [
            [
              144.973101,
              -37.809286
            ],
            [
              144.973103,
              -37.809287
            ],
            [
              144.973103,
              -37.809288
            ],
            [
              144.973105,
              -37.809288
            ],
            [
              144.973107,
              -37.809289
            ],
            [
              144.973138,
              -37.809293
            ],
            [
              144.973125,
              -37.809367
            ],
            [
              144.973125,
              -37.80937
            ],
            [
              144.973124,
              -37.809371
            ],
            [
              144.973119,
              -37.809403
            ],
            [
              144.973405,
              -37.809434
            ],
            [
              144.973609,
              -37.809457
            ],
            [
              144.973641,
              -37.80946
            ],
            [
              144.973648,
              -37.809461
            ],
            [
              144.973738,
              -37.809471
            ],
            [
              144.974319,
              -37.809535
            ],
            [
              144.974344,
              -37.809538
            ],
            [
              144.974358,
              -37.80954
            ],
            [
              144.974359,
              -37.80954
            ],
            [
              144.97438,
              -37.809542
            ],
            [
              144.975404,
              -37.809655
            ],
            [
              144.975409,
              -37.809625
            ],
            [
              144.975409,
              -37.809623
            ],
            [
              144.97541,
              -37.809621
            ],
            [
              144.975432,
              -37.809623
            ],
            [
              144.975439,
              -37.809624
            ],
            [
              144.975439,
              -37.809625
            ],
            [
              144.975441,
              -37.809625
            ],
            [
              144.975445,
              -37.809626
            ],
            [
              144.975445,
              -37.809627
            ],
            [
              144.975451,
              -37.809629
            ],
            [
              144.975454,
              -37.809631
            ],
            [
              144.975456,
              -37.809633
            ],
            [
              144.975457,
              -37.809633
            ],
            [
              144.975461,
              -37.809637
            ],
            [
              144.975462,
              -37.809637
            ],
            [
              144.975463,
              -37.809639
            ],
            [
              144.975465,
              -37.809641
            ],
            [
              144.975465,
              -37.809642
            ],
            [
              144.975467,
              -37.809644
            ],
            [
              144.975468,
              -37.809646
            ],
            [
              144.975468,
              -37.809647
            ],
            [
              144.975469,
              -37.80965
            ],
            [
              144.975469,
              -37.809652
            ],
            [
              144.97547,
              -37.809653
            ],
            [
              144.97547,
              -37.809663
            ],
            [
              144.975595,
              -37.809677
            ],
            [
              144.975608,
              -37.809601
            ],
            [
              144.975608,
              -37.809598
            ],
            [
              144.97564,
              -37.809405
            ],
            [
              144.975517,
              -37.809389
            ],
            [
              144.975515,
              -37.809402
            ],
            [
              144.975514,
              -37.809405
            ],
            [
              144.975512,
              -37.809404
            ],
            [
              144.975509,
              -37.809404
            ],
            [
              144.975509,
              -37.809406
            ],
            [
              144.975508,
              -37.809408
            ],
            [
              144.975506,
              -37.80941
            ],
            [
              144.975504,
              -37.809413
            ],
            [
              144.975498,
              -37.809417
            ],
            [
              144.975493,
              -37.809419
            ],
            [
              144.975489,
              -37.809421
            ],
            [
              144.975476,
              -37.809421
            ],
            [
              144.975471,
              -37.80942
            ],
            [
              144.975442,
              -37.809417
            ],
            [
              144.975448,
              -37.809381
            ],
            [
              144.973885,
              -37.809215
            ],
            [
              144.973874,
              -37.809213
            ],
            [
              144.973872,
              -37.809213
            ],
            [
              144.97382,
              -37.809207
            ],
            [
              144.973816,
              -37.809206
            ],
            [
              144.973814,
              -37.809206
            ],
            [
              144.973806,
              -37.809205
            ],
            [
              144.973165,
              -37.809134
            ],
            [
              144.97316,
              -37.809161
            ],
            [
              144.973164,
              -37.809162
            ],
            [
              144.973167,
              -37.809164
            ],
            [
              144.973173,
              -37.809165
            ],
            [
              144.973173,
              -37.80917
            ],
            [
              144.973172,
              -37.80917
            ],
            [
              144.973167,
              -37.809168
            ],
            [
              144.973162,
              -37.809167
            ],
            [
              144.973159,
              -37.809166
            ],
            [
              144.973147,
              -37.809241
            ],
            [
              144.973116,
              -37.809238
            ],
            [
              144.973111,
              -37.809238
            ],
            [
              144.97311,
              -37.809239
            ],
            [
              144.973109,
              -37.809239
            ],
            [
              144.973109,
              -37.809241
            ],
            [
              144.973108,
              -37.809241
            ],
            [
              144.973108,
              -37.809242
            ],
            [
              144.973106,
              -37.809255
            ],
            [
              144.973101,
              -37.809284
            ],
            [
              144.973101,
              -37.809286
            ]
          ]
        ]
      }
    }
  ]
}