{
  "type": "FeatureCollection",
  "features": [
    {
      "type": "Feature",
      "properties": {
        "name": "polygon73"
      },
      "geometry": {
        "type": "MultiPolygon",
        "coordinates": [
          [
            [
              [
                144.938065,
                -37.811585
              ],
              [
                144.938125,
                -37.811615
              ],
              [
                144.938128,
                -37.811617
              ],
              [
                144.938132,
                -37.811618
              ],
              [
                144.938138,
                -37.811622
              ],
              [
                144.938142,
                -37.811624
              ],
              [
                144.938145,
                -37.811627
              ],
              [
                144.938148,
                -37.811629
              ],
              [
                144.938153,
                -37.811634
              ],
              [
                144.938156,
                -37.811636
              ],
              [
                144.938158,
                -37.811639
              ],
              [
                144.938161,
                -37.811641
              ],
              [
                144.938165,
                -37.811647
              ],
              [
                144.93817,
                -37.811652
              ],
              [
                144.938171,
                -37.811655
              ],
              [
                144.938175,
                -37.811661
              ],
              [
                144.938177,
                -37.811667
              ],
              [
                144.938179,
                -37.811671
              ],
              [
                144.938181,
                -37.811677
              ],
              [
                144.938181,
                -37.81168
              ],
              [
                144.938185,
                -37.811716
              ],
              [
                144.938188,
                -37.811733
              ],
              [
                144.938196,
                -37.811769
              ],
              [
                144.938202,
                -37.811786
              ],
              [
                144.938207,
                -37.811803
              ],
              [
                144.938221,
                -37.811837
              ],
              [
                144.938229,
                -37.811854
              ],
              [
                144.938238,
                -37.81187
              ],
              [
                144.938248,
                -37.811886
              ],
              [
                144.938336,
                -37.812033
              ],
              [
                144.93836,
                -37.812072
              ],
              [
                144.938511,
                -37.812321
              ],
              [
                144.938525,
                -37.812344
              ],
              [
                144.938827,
                -37.812844
              ],
              [
                144.93884,
                -37.81284
              ],
              [
                144.938848,
                -37.812836
              ],
              [
                144.938851,
                -37.812834
              ],
              [
                144.938853,
                -37.812833
              ],
              [
                144.938853,
                -37.812829
              ],
              [
                144.938847,
                -37.812817
              ],
              [
                144.938751,
                -37.812658
              ],
              [
                144.938749,
                -37.812654
              ],
              [
                144.938748,
                -37.812651
              ],
              [
                144.938748,
                -37.812649
              ],
              [
                144.938747,
                -37.812646
              ],
              [
                144.938748,
                -37.812644
              ],
              [
                144.938748,
                -37.812639
              ],
              [
                144.938749,
                -37.812636
              ],
              [
                144.938751,
                -37.812634
              ],
              [
                144.938752,
                -37.812632
              ],
              [
                144.938752,
                -37.81263
              ],
              [
                144.938753,
                -37.812628
              ],
              [
                144.938753,
                -37.812619
              ],
              [
                144.93875,
                -37.812613
              ],
              [
                144.938684,
                -37.812504
              ],
              [
                144.938683,
                -37.812502
              ],
              [
                144.938681,
                -37.812501
              ],
              [
                144.938679,
                -37.812499
              ],
              [
                144.938678,
                -37.812497
              ],
              [
                144.938675,
                -37.812496
              ],
              [
                144.938673,
                -37.812495
              ],
              [
                144.938671,
                -37.812493
              ],
              [
                144.938669,
                -37.812492
              ],
              [
                144.938666,
                -37.812492
              ],
              [
                144.938664,
                -37.812491
              ],
              [
                144.938652,
                -37.812487
              ],
              [
                144.93865,
                -37.812485
              ],
              [
                144.938648,
                -37.812484
              ],
              [
                144.93864,
                -37.812476
              ],
              [
                144.938295,
                -37.811904
              ],
              [
                144.938284,
                -37.811884
              ],
              [
                144.938273,
                -37.81186
              ],
              [
                144.938255,
                -37.811836
              ],
              [
                144.938246,
                -37.811811
              ],
              [
                144.938235,
                -37.811779
              ],
              [
                144.938231,
                -37.811752
              ],
              [
                144.938251,
                -37.811762
              ],
              [
                144.93825,
                -37.811742
              ],
              [
                144.93825,
                -37.811717
              ],
              [
                144.938252,
                -37.811691
              ],
              [
                144.93823,
                -37.811693
              ],
              [
                144.938227,
                -37.811693
              ],
              [
                144.938226,
                -37.811672
              ],
              [
                144.938225,
                -37.811622
              ],
              [
                144.938221,
                -37.811619
              ],
              [
                144.938216,
                -37.811616
              ],
              [
                144.938207,
                -37.811611
              ],
              [
                144.938192,
                -37.811604
              ],
              [
                144.938158,
                -37.811589
              ],
              [
                144.938117,
                -37.811572
              ],
              [
                144.938086,
                -37.81156
              ],
              [
                144.938065,
                -37.811585
              ]
            ]
          ],
          [
            [
              [
                144.938252,
                -37.811742
              ],
              [
                144.938255,
                -37.811776
              ],
              [
                144.938258,
                -37.8118
              ],
              [
                144.938265,
                -37.811831
              ],
              [
                144.938275,
                -37.81186
              ],
              [
                144.938286,
                -37.811883
              ],
              [
                144.938297,
                -37.811904
              ],
              [
                144.938642,
                -37.812475
              ],
              [
                144.938644,
                -37.812477
              ],
              [
                144.938645,
                -37.812479
              ],
              [
                144.938647,
                -37.812481
              ],
              [
                144.938649,
                -37.812482
              ],
              [
                144.938651,
                -37.812484
              ],
              [
                144.938654,
                -37.812485
              ],
              [
                144.938656,
                -37.812486
              ],
              [
                144.938659,
                -37.812488
              ],
              [
                144.938661,
                -37.812488
              ],
              [
                144.93867,
                -37.812491
              ],
              [
                144.938672,
                -37.812492
              ],
              [
                144.938675,
                -37.812493
              ],
              [
                144.938677,
                -37.812494
              ],
              [
                144.938685,
                -37.812502
              ],
              [
                144.938686,
                -37.812504
              ],
              [
                144.938752,
                -37.812612
              ],
              [
                144.938753,
                -37.812614
              ],
              [
                144.938754,
                -37.812617
              ],
              [
                144.938755,
                -37.812619
              ],
              [
                144.938755,
                -37.81263
              ],
              [
                144.938754,
                -37.812633
              ],
              [
                144.938753,
                -37.812635
              ],
              [
                144.938751,
                -37.812637
              ],
              [
                144.938751,
                -37.812639
              ],
              [
                144.93875,
                -37.812642
              ],
              [
                144.93875,
                -37.812651
              ],
              [
                144.938753,
                -37.812657
              ],
              [
                144.938849,
                -37.812816
              ],
              [
                144.938855,
                -37.812828
              ],
              [
                144.938855,
                -37.812829
              ],
              [
                144.938856,
                -37.812829
              ],
              [
                144.938855,
                -37.812831
              ],
              [
                144.938855,
                -37.812834
              ],
              [
                144.938853,
                -37.812835
              ],
              [
                144.938853,
                -37.812836
              ],
              [
                144.938849,
                -37.812838
              ],
              [
                144.938841,
                -37.812841
              ],
              [
                144.938828,
                -37.812846
              ],
              [
                144.938868,
                -37.812912
              ],
              [
                144.938869,
                -37.812913
              ],
              [
                144.938951,
                -37.813048
              ],
              [
                144.939058,
                -37.813226
              ],
              [
                144.939101,
                -37.813297
              ],
              [
                144.939102,
                -37.813299
              ],
              [
                144.939109,
                -37.81331
              ],
              [
                144.93914,
                -37.813361
              ],
              [
                144.939141,
                -37.813363
              ],
              [
                144.939206,
                -37.81347
              ],
              [
                144.939491,
                -37.81394
              ],
              [
                144.939516,
                -37.813935
              ],
              [
                144.939517,
                -37.813935
              ],
              [
                144.939519,
                -37.813934
              ],
              [
                144.939522,
                -37.813934
              ],
              [
                144.939522,
                -37.813935
              ],
              [
                144.939531,
                -37.813957
              ],
              [
                144.939532,
                -37.81396
              ],
              [
                144.939532,
                -37.813961
              ],
              [
                144.939533,
                -37.813961
              ],
              [
                144.939533,
                -37.813965
              ],
              [
                144.939534,
                -37.813976
              ],
              [
                144.939533,
                -37.813997
              ],
              [
                144.939532,
                -37.814003
              ],
              [
                144.939531,
                -37.814003
              ],
              [
                144.93953,
                -37.814007
              ],
              [
                144.939568,
                -37.81407
              ],
              [
                144.939611,
                -37.814053
              ],
              [
                144.93975,
                -37.814001
              ],
              [
                144.939711,
                -37.813935
              ],
              [
                144.939707,
                -37.813935
              ],
              [
                144.939701,
                -37.813934
              ],
              [
                144.939695,
                -37.813934
              ],
              [
                144.93969,
                -37.813933
              ],
              [
                144.939684,
                -37.813931
              ],
              [
                144.939676,
                -37.813928
              ],
              [
                144.939676,
                -37.813927
              ],
              [
                144.939675,
                -37.813927
              ],
              [
                144.93967,
                -37.813924
              ],
              [
                144.939666,
                -37.813921
              ],
              [
                144.939665,
                -37.813921
              ],
              [
                144.939661,
                -37.813917
              ],
              [
                144.939665,
                -37.813915
              ],
              [
                144.939693,
                -37.813904
              ],
              [
                144.939286,
                -37.813233
              ],
              [
                144.939237,
                -37.813154
              ],
              [
                144.939236,
                -37.813152
              ],
              [
                144.939232,
                -37.813157
              ],
              [
                144.939231,
                -37.813159
              ],
              [
                144.939234,
                -37.813151
              ],
              [
                144.939235,
                -37.813149
              ],
              [
                144.939192,
                -37.813081
              ],
              [
                144.939172,
                -37.813079
              ],
              [
                144.939163,
                -37.813077
              ],
              [
                144.939153,
                -37.813074
              ],
              [
                144.939144,
                -37.813071
              ],
              [
                144.939135,
                -37.813067
              ],
              [
                144.939119,
                -37.813057
              ],
              [
                144.939112,
                -37.813052
              ],
              [
                144.939105,
                -37.813046
              ],
              [
                144.939094,
                -37.813028
              ],
              [
                144.939093,
                -37.813027
              ],
              [
                144.939095,
                -37.813027
              ],
              [
                144.9391,
                -37.813033
              ],
              [
                144.939106,
                -37.81304
              ],
              [
                144.939112,
                -37.813046
              ],
              [
                144.939119,
                -37.813052
              ],
              [
                144.939126,
                -37.813057
              ],
              [
                144.939134,
                -37.813062
              ],
              [
                144.939143,
                -37.813066
              ],
              [
                144.939161,
                -37.813072
              ],
              [
                144.93917,
                -37.813074
              ],
              [
                144.93918,
                -37.813076
              ],
              [
                144.93919,
                -37.813076
              ],
              [
                144.93917,
                -37.813044
              ],
              [
                144.939131,
                -37.812979
              ],
              [
                144.939113,
                -37.81295
              ],
              [
                144.938701,
                -37.812269
              ],
              [
                144.938682,
                -37.812239
              ],
              [
                144.938516,
                -37.811964
              ],
              [
                144.938449,
                -37.811853
              ],
              [
                144.938475,
                -37.81182
              ],
              [
                144.938454,
                -37.811826
              ],
              [
                144.93845,
                -37.811825
              ],
              [
                144.938446,
                -37.81182
              ],
              [
                144.938421,
                -37.811814
              ],
              [
                144.938397,
                -37.811808
              ],
              [
                144.938397,
                -37.811782
              ],
              [
                144.938401,
                -37.811757
              ],
              [
                144.938407,
                -37.811732
              ],
              [
                144.938415,
                -37.811707
              ],
              [
                144.938426,
                -37.811684
              ],
              [
                144.93844,
                -37.811661
              ],
              [
                144.938457,
                -37.811639
              ],
              [
                144.938499,
                -37.811588
              ],
              [
                144.938537,
                -37.81154
              ],
              [
                144.938542,
                -37.811534
              ],
              [
                144.938563,
                -37.81151
              ],
              [
                144.93857,
                -37.811501
              ],
              [
                144.938583,
                -37.811488
              ],
              [
                144.938596,
                -37.811473
              ],
              [
                144.938671,
                -37.811398
              ],
              [
                144.9387,
                -37.811368
              ],
              [
                144.938698,
                -37.811367
              ],
              [
                144.938861,
                -37.811167
              ],
              [
                144.938882,
                -37.81114
              ],
              [
                144.938943,
                -37.811064
              ],
              [
                144.938961,
                -37.811039
              ],
              [
                144.938971,
                -37.811027
              ],
              [
                144.938978,
                -37.811019
              ],
              [
                144.938985,
                -37.811012
              ],
              [
                144.938993,
                -37.811005
              ],
              [
                144.938994,
                -37.811005
              ],
              [
                144.939003,
                -37.810998
              ],
              [
                144.939015,
                -37.81099
              ],
              [
                144.939023,
                -37.810986
              ],
              [
                144.939023,
                -37.810985
              ],
              [
                144.93903,
                -37.810983
              ],
              [
                144.939037,
                -37.81098
              ],
              [
                144.939043,
                -37.810978
              ],
              [
                144.93905,
                -37.810976
              ],
              [
                144.939055,
                -37.810974
              ],
              [
                144.939074,
                -37.81097
              ],
              [
                144.939082,
                -37.810968
              ],
              [
                144.939094,
                -37.810968
              ],
              [
                144.939138,
                -37.810969
              ],
              [
                144.939138,
                -37.81097
              ],
              [
                144.939139,
                -37.81097
              ],
              [
                144.939154,
                -37.810972
              ],
              [
                144.939212,
                -37.810981
              ],
              [
                144.93923,
                -37.810984
              ],
              [
                144.939231,
                -37.810982
              ],
              [
                144.939213,
                -37.810979
              ],
              [
                144.939213,
                -37.810978
              ],
              [
                144.939145,
                -37.810968
              ],
              [
                144.939139,
                -37.810967
              ],
              [
                144.939138,
                -37.810967
              ],
              [
                144.939095,
                -37.810966
              ],
              [
                144.939081,
                -37.810966
              ],
              [
                144.939073,
                -37.810968
              ],
              [
                144.939054,
                -37.810972
              ],
              [
                144.939049,
                -37.810974
              ],
              [
                144.939043,
                -37.810975
              ],
              [
                144.939042,
                -37.810975
              ],
              [
                144.939042,
                -37.810976
              ],
              [
                144.939036,
                -37.810978
              ],
              [
                144.939029,
                -37.81098
              ],
              [
                144.939029,
                -37.810981
              ],
              [
                144.939022,
                -37.810983
              ],
              [
                144.939022,
                -37.810984
              ],
              [
                144.939013,
                -37.810988
              ],
              [
                144.939002,
                -37.810996
              ],
              [
                144.939001,
                -37.810996
              ],
              [
                144.938992,
                -37.811003
              ],
              [
                144.938991,
                -37.811003
              ],
              [
                144.938984,
                -37.81101
              ],
              [
                144.938919,
                -37.810973
              ],
              [
                144.938889,
                -37.811008
              ],
              [
                144.938857,
                -37.81104
              ],
              [
                144.938775,
                -37.811123
              ],
              [
                144.938729,
                -37.811171
              ],
              [
                144.938698,
                -37.811202
              ],
              [
                144.938681,
                -37.811222
              ],
              [
                144.938628,
                -37.811289
              ],
              [
                144.938568,
                -37.811364
              ],
              [
                144.938484,
                -37.811468
              ],
              [
                144.938419,
                -37.811551
              ],
              [
                144.938416,
                -37.811555
              ],
              [
                144.938415,
                -37.811555
              ],
              [
                144.938411,
                -37.811557
              ],
              [
                144.938408,
                -37.811557
              ],
              [
                144.938407,
                -37.811556
              ],
              [
                144.938406,
                -37.811556
              ],
              [
                144.938404,
                -37.811555
              ],
              [
                144.938404,
                -37.811554
              ],
              [
                144.938403,
                -37.811553
              ],
              [
                144.938403,
                -37.81155
              ],
              [
                144.938405,
                -37.811546
              ],
              [
                144.938406,
                -37.811546
              ],
              [
                144.938456,
                -37.811483
              ],
              [
                144.938543,
                -37.811373
              ],
              [
                144.938628,
                -37.811266
              ],
              [
                144.938703,
                -37.811171
              ],
              [
                144.938761,
                -37.811097
              ],
              [
                144.938813,
                -37.811033
              ],
              [
                144.938871,
                -37.810958
              ],
              [
                144.938875,
                -37.810953
              ],
              [
                144.938777,
                -37.810903
              ],
              [
                144.938802,
                -37.810871
              ],
              [
                144.938803,
                -37.81087
              ],
              [
                144.9388,
                -37.810869
              ],
              [
                144.9388,
                -37.81087
              ],
              [
                144.938762,
                -37.810919
              ],
              [
                144.938707,
                -37.81099
              ],
              [
                144.938658,
                -37.811051
              ],
              [
                144.93863,
                -37.811085
              ],
              [
                144.938565,
                -37.811168
              ],
              [
                144.93852,
                -37.811225
              ],
              [
                144.938487,
                -37.811265
              ],
              [
                144.938472,
                -37.811285
              ],
              [
                144.938456,
                -37.81131
              ],
              [
                144.938427,
                -37.811357
              ],
              [
                144.938394,
                -37.811412
              ],
              [
                144.938361,
                -37.811466
              ],
              [
                144.938336,
                -37.811509
              ],
              [
                144.938329,
                -37.81152
              ],
              [
                144.93832,
                -37.811528
              ],
              [
                144.93832,
                -37.811529
              ],
              [
                144.938319,
                -37.811529
              ],
              [
                144.938311,
                -37.811542
              ],
              [
                144.938299,
                -37.811564
              ],
              [
                144.938291,
                -37.811578
              ],
              [
                144.938284,
                -37.811589
              ],
              [
                144.938284,
                -37.81159
              ],
              [
                144.938271,
                -37.811618
              ],
              [
                144.938265,
                -37.811635
              ],
              [
                144.938265,
                -37.811636
              ],
              [
                144.938261,
                -37.811649
              ],
              [
                144.938256,
                -37.811669
              ],
              [
                144.938252,
                -37.811717
              ],
              [
                144.938252,
                -37.811742
              ]
            ],
            [
              [
                144.938933,
                -37.812702
              ],
              [
                144.938936,
                -37.812701
              ],
              [
                144.938934,
                -37.812702
              ],
              [
                144.938933,
                -37.812702
              ]
            ],
            [
              [
                144.939226,
                -37.813177
              ],
              [
                144.939227,
                -37.813187
              ],
              [
                144.939227,
                -37.813188
              ],
              [
                144.939226,
                -37.813177
              ]
            ],
            [
              [
                144.939339,
                -37.813385
              ],
              [
                144.93934,
                -37.813386
              ],
              [
                144.93934,
                -37.813387
              ],
              [
                144.939339,
                -37.813385
              ]
            ],
            [
              [
                144.93934,
                -37.813387
              ],
              [
                144.939341,
                -37.813387
              ],
              [
                144.939342,
                -37.813388
              ],
              [
                144.93934,
                -37.813387
              ]
            ],
            [
              [
                144.939368,
                -37.813428
              ],
              [
                144.939375,
                -37.813425
              ],
              [
                144.939369,
                -37.813428
              ],
              [
                144.939368,
                -37.813428
              ]
            ]
          ]
        ]
      }
    }
  ]
}