{
  "type": "FeatureCollection",
  "features": [
    {
      "type": "Feature",
      "properties": {
        "name": "polygon39"
      },
      "geometry": {
        "type": "Polygon",
        "coordinates": [
          [
            [
              144.962174,
              -37.817814
            ],
            [
              144.962183,
              -37.817835
            ],
            [
              144.962184,
              -37.817837
            ],
            [
              144.962185,
              -37.81784
            ],
            [
              144.962207,
              -37.817886
            ],
            [
              144.962208,
              -37.817888
            ],
            [
              144.962209,
              -37.817891
            ],
            [
              144.962217,
              -37.817908
            ],
            [
              144.962541,
              -37.817815
            ],
            [
              144.962554,
              -37.817811
            ],
            [
              144.962557,
              -37.81781
            ],
            [
              144.962602,
              -37.817798
            ],
            [
              144.962605,
              -37.817797
            ],
            [
              144.962647,
              -37.817785
            ],
            [
              144.963308,
              -37.817595
            ],
            [
              144.963309,
              -37.817595
            ],
            [
              144.963311,
              -37.817594
            ],
            [
              144.963323,
              -37.817591
            ],
            [
              144.963336,
              -37.817587
            ],
            [
              144.963338,
              -37.817586
            ],
            [
              144.96334,
              -37.817586
            ],
            [
              144.963807,
              -37.817452
            ],
            [
              144.96381,
              -37.817451
            ],
            [
              144.963812,
              -37.81745
            ],
            [
              144.963815,
              -37.817449
            ],
            [
              144.96385,
              -37.817439
            ],
            [
              144.963853,
              -37.817438
            ],
            [
              144.963855,
              -37.817438
            ],
            [
              144.964116,
              -37.817363
            ],
            [
              144.964117,
              -37.817362
            ],
            [
              144.964119,
              -37.817362
            ],
            [
              144.964156,
              -37.817351
            ],
            [
              144.964161,
              -37.817361
            ],
            [
              144.964164,
              -37.81736
            ],
            [
              144.964376,
              -37.817299
            ],
            [
              144.964371,
              -37.817289
            ],
            [
              144.964356,
              -37.817261
            ],
            [
              144.964354,
              -37.817258
            ],
            [
              144.964353,
              -37.817256
            ],
            [
              144.964335,
              -37.817222
            ],
            [
              144.964333,
              -37.817218
            ],
            [
              144.964326,
              -37.817206
            ],
            [
              144.96432,
              -37.817193
            ],
            [
              144.964315,
              -37.817181
            ],
            [
              144.964305,
              -37.817197
            ],
            [
              144.964162,
              -37.817238
            ],
            [
              144.964165,
              -37.817244
            ],
            [
              144.964168,
              -37.817251
            ],
            [
              144.964125,
              -37.817264
            ],
            [
              144.964123,
              -37.817264
            ],
            [
              144.964114,
              -37.817267
            ],
            [
              144.963817,
              -37.817352
            ],
            [
              144.963815,
              -37.817353
            ],
            [
              144.963814,
              -37.817353
            ],
            [
              144.963789,
              -37.81736
            ],
            [
              144.96378,
              -37.817363
            ],
            [
              144.963778,
              -37.817363
            ],
            [
              144.963777,
              -37.817364
            ],
            [
              144.963775,
              -37.817365
            ],
            [
              144.963774,
              -37.817365
            ],
            [
              144.96369,
              -37.817389
            ],
            [
              144.963589,
              -37.817418
            ],
            [
              144.963173,
              -37.817537
            ],
            [
              144.96317,
              -37.817538
            ],
            [
              144.963169,
              -37.817538
            ],
            [
              144.963166,
              -37.817539
            ],
            [
              144.96313,
              -37.81755
            ],
            [
              144.963129,
              -37.81755
            ],
            [
              144.963125,
              -37.817551
            ],
            [
              144.962827,
              -37.817637
            ],
            [
              144.962823,
              -37.817626
            ],
            [
              144.962489,
              -37.817723
            ],
            [
              144.962486,
              -37.817723
            ],
            [
              144.962486,
              -37.817724
            ],
            [
              144.962439,
              -37.817737
            ],
            [
              144.962443,
              -37.817747
            ],
            [
              144.962391,
              -37.817762
            ],
            [
              144.962391,
              -37.817767
            ],
            [
              144.96239,
              -37.817771
            ],
            [
              144.962388,
              -37.817774
            ],
            [
              144.962387,
              -37.817776
            ],
            [
              144.962385,
              -37.817778
            ],
            [
              144.962379,
              -37.817781
            ],
            [
              144.962378,
              -37.817779
            ],
            [
              144.962383,
              -37.817776
            ],
            [
              144.962385,
              -37.817773
            ],
            [
              144.962386,
              -37.81777
            ],
            [
              144.962388,
              -37.817766
            ],
            [
              144.962388,
              -37.817763
            ],
            [
              144.962361,
              -37.81777
            ],
            [
              144.962357,
              -37.817761
            ],
            [
              144.962174,
              -37.817814
            ]
          ]
        ]
      }
    }
  ]
}