{
  "type": "FeatureCollection",
  "features": [
    {
      "type": "Feature",
      "properties": {
        "name": "polygon14"
      },
      "geometry": {
        "type": "Polygon",
        "coordinates": [
          [
            [
              144.976204,
              -37.816837
            ],
            [
              144.976234,
              -37.816841
            ],
            [
              144.976236,
              -37.816851
            ],
            [
              144.976238,
              -37.81686
            ],
            [
              144.97624,
              -37.816866
            ],
            [
              144.976241,
              -37.81687
            ],
            [
              144.976246,
              -37.816881
            ],
            [
              144.976253,
              -37.816892
            ],
            [
              144.976266,
              -37.816904
            ],
            [
              144.976273,
              -37.81691
            ],
            [
              144.976283,
              -37.816916
            ],
            [
              144.976287,
              -37.816917
            ],
            [
              144.97629,
              -37.816919
            ],
            [
              144.976302,
              -37.816923
            ],
            [
              144.976312,
              -37.816926
            ],
            [
              144.976315,
              -37.816926
            ],
            [
              144.976322,
              -37.816928
            ],
            [
              144.976409,
              -37.81694
            ],
            [
              144.976409,
              -37.816939
            ],
            [
              144.976412,
              -37.81694
            ],
            [
              144.976425,
              -37.816942
            ],
            [
              144.976474,
              -37.816948
            ],
            [
              144.976793,
              -37.816991
            ],
            [
              144.976825,
              -37.816996
            ],
            [
              144.976824,
              -37.817001
            ],
            [
              144.976802,
              -37.816998
            ],
            [
              144.976861,
              -37.817036
            ],
            [
              144.976934,
              -37.817109
            ],
            [
              144.976938,
              -37.817094
            ],
            [
              144.976923,
              -37.817079
            ],
            [
              144.976952,
              -37.816946
            ],
            [
              144.97696,
              -37.816947
            ],
            [
              144.976961,
              -37.816945
            ],
            [
              144.976957,
              -37.816929
            ],
            [
              144.976956,
              -37.816926
            ],
            [
              144.976955,
              -37.816922
            ],
            [
              144.976953,
              -37.816919
            ],
            [
              144.976952,
              -37.816915
            ],
            [
              144.976948,
              -37.816909
            ],
            [
              144.976946,
              -37.816905
            ],
            [
              144.976943,
              -37.816902
            ],
            [
              144.976941,
              -37.816899
            ],
            [
              144.976938,
              -37.816896
            ],
            [
              144.976936,
              -37.816893
            ],
            [
              144.97693,
              -37.816887
            ],
            [
              144.976932,
              -37.816878
            ],
            [
              144.976923,
              -37.816872
            ],
            [
              144.976919,
              -37.81687
            ],
            [
              144.976913,
              -37.816866
            ],
            [
              144.976925,
              -37.81681
            ],
            [
              144.976919,
              -37.816809
            ],
            [
              144.976975,
              -37.816547
            ],
            [
              144.977027,
              -37.816309
            ],
            [
              144.976998,
              -37.816305
            ],
            [
              144.976959,
              -37.816488
            ],
            [
              144.97695,
              -37.816487
            ],
            [
              144.976947,
              -37.816486
            ],
            [
              144.976944,
              -37.816483
            ],
            [
              144.976943,
              -37.816481
            ],
            [
              144.976942,
              -37.81648
            ],
            [
              144.976938,
              -37.81648
            ],
            [
              144.976928,
              -37.816478
            ],
            [
              144.97692,
              -37.816477
            ],
            [
              144.976918,
              -37.816477
            ],
            [
              144.976917,
              -37.816476
            ],
            [
              144.976915,
              -37.816476
            ],
            [
              144.976914,
              -37.816475
            ],
            [
              144.976914,
              -37.816468
            ],
            [
              144.976436,
              -37.816403
            ],
            [
              144.976473,
              -37.816234
            ],
            [
              144.976453,
              -37.816231
            ],
            [
              144.976416,
              -37.816401
            ],
            [
              144.976403,
              -37.816399
            ],
            [
              144.976394,
              -37.816389
            ],
            [
              144.976394,
              -37.816386
            ],
            [
              144.976396,
              -37.816379
            ],
            [
              144.976413,
              -37.816297
            ],
            [
              144.976427,
              -37.816228
            ],
            [
              144.976425,
              -37.816228
            ],
            [
              144.976422,
              -37.816227
            ],
            [
              144.976366,
              -37.81622
            ],
            [
              144.976363,
              -37.816219
            ],
            [
              144.97636,
              -37.816219
            ],
            [
              144.976338,
              -37.816216
            ],
            [
              144.976204,
              -37.816837
            ]
          ],
          [
            [
              144.976299,
              -37.816826
            ],
            [
              144.976299,
              -37.816823
            ],
            [
              144.9763,
              -37.816821
            ],
            [
              144.976301,
              -37.81682
            ],
            [
              144.976303,
              -37.81682
            ],
            [
              144.97632,
              -37.816816
            ],
            [
              144.976322,
              -37.816816
            ],
            [
              144.976325,
              -37.816815
            ],
            [
              144.97632675,
              -37.81681325
            ],
            [
              144.97632,
              -37.816847
            ],
            [
              144.976317,
              -37.81686
            ],
            [
              144.976337,
              -37.816863
            ],
            [
              144.976336,
              -37.816868
            ],
            [
              144.976332,
              -37.816872
            ],
            [
              144.976333,
              -37.816873
            ],
            [
              144.976323,
              -37.816868
            ],
            [
              144.976317,
              -37.816861
            ],
            [
              144.976313,
              -37.816857
            ],
            [
              144.976305,
              -37.816846
            ],
            [
              144.976301,
              -37.816836
            ],
            [
              144.9763,
              -37.81683
            ],
            [
              144.976299,
              -37.816826
            ]
          ],
          [
            [
              144.976316,
              -37.816749
            ],
            [
              144.976316,
              -37.816745
            ],
            [
              144.976318,
              -37.816745
            ],
            [
              144.976341,
              -37.816739
            ],
            [
              144.976342,
              -37.816738
            ],
            [
              144.97634375,
              -37.816737125
            ],
            [
              144.976338,
              -37.816763
            ],
            [
              144.976338,
              -37.816762
            ],
            [
              144.976335,
              -37.816759
            ],
            [
              144.976317,
              -37.816749
            ],
            [
              144.976316,
              -37.816749
            ]
          ],
          [
            [
              144.976332,
              -37.816671
            ],
            [
              144.976332,
              -37.816669
            ],
            [
              144.976335,
              -37.816657
            ],
            [
              144.976361,
              -37.81666
            ],
            [
              144.976355,
              -37.816686
            ],
            [
              144.976353,
              -37.816682
            ],
            [
              144.976351,
              -37.81668
            ],
            [
              144.976334,
              -37.816673
            ],
            [
              144.976332,
              -37.816671
            ]
          ],
          [
            [
              144.976338,
              -37.816644
            ],
            [
              144.976338,
              -37.816642
            ],
            [
              144.97634,
              -37.816633
            ],
            [
              144.976341,
              -37.816631
            ],
            [
              144.976342,
              -37.81663
            ],
            [
              144.976343,
              -37.81663
            ],
            [
              144.976361,
              -37.816627
            ],
            [
              144.976364,
              -37.816626
            ],
            [
              144.976368,
              -37.816624
            ],
            [
              144.976369,
              -37.816622
            ],
            [
              144.976363,
              -37.816647
            ],
            [
              144.976338,
              -37.816644
            ]
          ],
          [
            [
              144.976339,
              -37.816852
            ],
            [
              144.976376,
              -37.816684
            ],
            [
              144.97638,
              -37.816663
            ],
            [
              144.976551,
              -37.816686
            ],
            [
              144.976907,
              -37.816734
            ],
            [
              144.976902,
              -37.816758
            ],
            [
              144.97688,
              -37.816861
            ],
            [
              144.976867,
              -37.81692
            ],
            [
              144.976866,
              -37.816924
            ],
            [
              144.976857,
              -37.816922
            ],
            [
              144.976843,
              -37.816921
            ],
            [
              144.976339,
              -37.816852
            ]
          ],
          [
            [
              144.976357,
              -37.816559
            ],
            [
              144.976357,
              -37.816558
            ],
            [
              144.976358,
              -37.816557
            ],
            [
              144.976358,
              -37.816556
            ],
            [
              144.97636,
              -37.816556
            ],
            [
              144.97636,
              -37.816555
            ],
            [
              144.976381,
              -37.81655
            ],
            [
              144.976383,
              -37.81655
            ],
            [
              144.976384,
              -37.816549
            ],
            [
              144.976384,
              -37.816548
            ],
            [
              144.976385,
              -37.816547
            ],
            [
              144.976382,
              -37.816559
            ],
            [
              144.976379,
              -37.816575
            ],
            [
              144.976378,
              -37.816573
            ],
            [
              144.976376,
              -37.81657
            ],
            [
              144.976375,
              -37.81657
            ],
            [
              144.976371,
              -37.816568
            ],
            [
              144.976359,
              -37.816561
            ],
            [
              144.976358,
              -37.816561
            ],
            [
              144.976358,
              -37.81656
            ],
            [
              144.976357,
              -37.816559
            ]
          ],
          [
            [
              144.976374,
              -37.816484
            ],
            [
              144.976377,
              -37.816472
            ],
            [
              144.976379,
              -37.816458
            ],
            [
              144.976392,
              -37.816453
            ],
            [
              144.976405,
              -37.816455
            ],
            [
              144.976395,
              -37.816499
            ],
            [
              144.976395,
              -37.816497
            ],
            [
              144.976392,
              -37.816494
            ],
            [
              144.976391,
              -37.816494
            ],
            [
              144.97639,
              -37.816493
            ],
            [
              144.976389,
              -37.816493
            ],
            [
              144.976375,
              -37.816486
            ],
            [
              144.976374,
              -37.816484
            ]
          ],
          [
            [
              144.976383,
              -37.81665
            ],
            [
              144.976387,
              -37.81663
            ],
            [
              144.976402,
              -37.816563
            ],
            [
              144.976425,
              -37.816457
            ],
            [
              144.976903,
              -37.816522
            ],
            [
              144.976903,
              -37.816521
            ],
            [
              144.976904,
              -37.816517
            ],
            [
              144.976905,
              -37.816517
            ],
            [
              144.976907,
              -37.816516
            ],
            [
              144.97691,
              -37.816514
            ],
            [
              144.976914,
              -37.816515
            ],
            [
              144.97693,
              -37.816517
            ],
            [
              144.976933,
              -37.816517
            ],
            [
              144.976939,
              -37.816515
            ],
            [
              144.976941,
              -37.816514
            ],
            [
              144.976945,
              -37.816513
            ],
            [
              144.976953,
              -37.816515
            ],
            [
              144.976949,
              -37.816534
            ],
            [
              144.976909,
              -37.816721
            ],
            [
              144.976383,
              -37.81665
            ]
          ],
          [
            [
              144.976437,
              -37.816882
            ],
            [
              144.976438,
              -37.816877
            ],
            [
              144.976456,
              -37.816879
            ],
            [
              144.976455,
              -37.816885
            ],
            [
              144.976447,
              -37.816892
            ],
            [
              144.9764580588235,
              -37.81689407352941
            ],
            [
              144.97644194725274,
              -37.816891894505495
            ],
            [
              144.976437,
              -37.816882
            ]
          ],
          [
            [
              144.97646945365852,
              -37.81689561463414
            ],
            [
              144.976484,
              -37.816897
            ],
            [
              144.976502521739,
              -37.8169000869565
            ],
            [
              144.97646945365852,
              -37.81689561463414
            ]
          ],
          [
            [
              144.9765177808222,
              -37.81690215068497
            ],
            [
              144.976542,
              -37.816905
            ],
            [
              144.976537,
              -37.816896
            ],
            [
              144.976538,
              -37.81689
            ],
            [
              144.976556,
              -37.816893
            ],
            [
              144.976555,
              -37.816898
            ],
            [
              144.976547,
              -37.816906
            ],
            [
              144.976616,
              -37.816915
            ],
            [
              144.97662982608693,
              -37.81691730434782
            ],
            [
              144.9765177808222,
              -37.81690215068497
            ]
          ],
          [
            [
              144.976637,
              -37.816909
            ],
            [
              144.976638,
              -37.816904
            ],
            [
              144.976656,
              -37.816906
            ],
            [
              144.976655,
              -37.816912
            ],
            [
              144.976647,
              -37.816919
            ],
            [
              144.97665,
              -37.81692
            ],
            [
              144.976672,
              -37.816923
            ],
            [
              144.976697,
              -37.816926
            ],
            [
              144.976742,
              -37.816932
            ],
            [
              144.976737,
              -37.816923
            ],
            [
              144.976738,
              -37.816917
            ],
            [
              144.976756,
              -37.81692
            ],
            [
              144.976755,
              -37.816925
            ],
            [
              144.976747,
              -37.816933
            ],
            [
              144.97678496103893,
              -37.81693828571428
            ],
            [
              144.97664197362636,
              -37.816918947252745
            ],
            [
              144.976637,
              -37.816909
            ]
          ],
          [
            [
              144.97682,
              -37.816934
            ],
            [
              144.976821,
              -37.816929
            ],
            [
              144.976864,
              -37.816934
            ],
            [
              144.976857,
              -37.816969
            ],
            [
              144.976853,
              -37.816987
            ],
            [
              144.97685,
              -37.816987
            ],
            [
              144.976833,
              -37.816985
            ],
            [
              144.97684,
              -37.816956
            ],
            [
              144.976842,
              -37.816946
            ],
            [
              144.9768272121212,
              -37.816944
            ],
            [
              144.976829,
              -37.816944
            ],
            [
              144.97682,
              -37.816934
            ]
          ]
        ]
      }
    }
  ]
}