{
  "type": "FeatureCollection",
  "features": [
    {
      "type": "Feature",
      "properties": {
        "name": "polygon141"
      },
      "geometry": {
        "type": "MultiPolygon",
        "coordinates": [
          [
            [
              [
                144.954503,
                -37.82023
              ],
              [
                144.954761,
                -37.820798
              ],
              [
                144.95484,
                -37.820973
              ],
              [
                144.954842,
                -37.820978
              ],
              [
                144.954841,
                -37.820983
              ],
              [
                144.954841,
                -37.820988
              ],
              [
                144.954838,
                -37.821107
              ],
              [
                144.954838,
                -37.821133
              ],
              [
                144.95485900000006,
                -37.821126499999984
              ],
              [
                144.954881,
                -37.821121
              ],
              [
                144.954905,
                -37.821113
              ],
              [
                144.954906,
                -37.821113
              ],
              [
                144.955003,
                -37.821085
              ],
              [
                144.954949,
                -37.820958
              ],
              [
                144.954944,
                -37.820945
              ],
              [
                144.954763,
                -37.820508
              ],
              [
                144.954743,
                -37.820456
              ],
              [
                144.954695,
                -37.820344
              ],
              [
                144.954643,
                -37.820214
              ],
              [
                144.954633,
                -37.820193
              ],
              [
                144.954549,
                -37.820217
              ],
              [
                144.954545,
                -37.820218
              ],
              [
                144.954542,
                -37.820219
              ],
              [
                144.954503,
                -37.82023
              ]
            ]
          ],
          [
            [
              [
                144.954697,
                -37.820175
              ],
              [
                144.954703,
                -37.820188
              ],
              [
                144.954774,
                -37.820359
              ],
              [
                144.95483,
                -37.820496
              ],
              [
                144.954897,
                -37.820659
              ],
              [
                144.954928,
                -37.820733
              ],
              [
                144.954975,
                -37.820836
              ],
              [
                144.954988,
                -37.820865
              ],
              [
                144.954998,
                -37.820885
              ],
              [
                144.955009,
                -37.820903
              ],
              [
                144.955019,
                -37.820918
              ],
              [
                144.955022,
                -37.820921
              ],
              [
                144.955036,
                -37.820938
              ],
              [
                144.955055,
                -37.820957
              ],
              [
                144.955073,
                -37.82097
              ],
              [
                144.955092,
                -37.820981
              ],
              [
                144.955112,
                -37.820991
              ],
              [
                144.955124,
                -37.820996
              ],
              [
                144.955146,
                -37.821002
              ],
              [
                144.95517,
                -37.821006
              ],
              [
                144.955193,
                -37.821008
              ],
              [
                144.955217,
                -37.821008
              ],
              [
                144.955229,
                -37.821007
              ],
              [
                144.955207,
                -37.820959
              ],
              [
                144.955186,
                -37.820911
              ],
              [
                144.955185,
                -37.820909
              ],
              [
                144.955184,
                -37.820906
              ],
              [
                144.95517,
                -37.820876
              ],
              [
                144.954832,
                -37.820136
              ],
              [
                144.954819,
                -37.820109
              ],
              [
                144.954819,
                -37.820107
              ],
              [
                144.954818,
                -37.820108
              ],
              [
                144.954817,
                -37.820108
              ],
              [
                144.954815,
                -37.820109
              ],
              [
                144.954814,
                -37.820109
              ],
              [
                144.954813,
                -37.82011
              ],
              [
                144.954812,
                -37.82011
              ],
              [
                144.954808,
                -37.820112
              ],
              [
                144.954806,
                -37.820114
              ],
              [
                144.954805,
                -37.820114
              ],
              [
                144.954804,
                -37.820115
              ],
              [
                144.954802,
                -37.820116
              ],
              [
                144.954801,
                -37.820117
              ],
              [
                144.954801,
                -37.820118
              ],
              [
                144.954799,
                -37.82012
              ],
              [
                144.954799,
                -37.820121
              ],
              [
                144.954798,
                -37.820121
              ],
              [
                144.954798,
                -37.820122
              ],
              [
                144.954797,
                -37.820123
              ],
              [
                144.954797,
                -37.820124
              ],
              [
                144.954796,
                -37.820124
              ],
              [
                144.954796,
                -37.820125
              ],
              [
                144.954795,
                -37.820126
              ],
              [
                144.954795,
                -37.820127
              ],
              [
                144.954794,
                -37.820128
              ],
              [
                144.954794,
                -37.82013
              ],
              [
                144.954793,
                -37.820133
              ],
              [
                144.954793,
                -37.820138
              ],
              [
                144.954794,
                -37.820141
              ],
              [
                144.954794,
                -37.820144
              ],
              [
                144.954795,
                -37.820146
              ],
              [
                144.954795,
                -37.820147
              ],
              [
                144.954792,
                -37.820148
              ],
              [
                144.95479,
                -37.820148
              ],
              [
                144.954697,
                -37.820175
              ]
            ],
            [
              [
                144.954856,
                -37.820279
              ],
              [
                144.954872,
                -37.820274
              ],
              [
                144.95488,
                -37.820291
              ],
              [
                144.954864,
                -37.820296
              ],
              [
                144.954856,
                -37.820279
              ]
            ],
            [
              [
                144.954894,
                -37.820364
              ],
              [
                144.95491,
                -37.820359
              ],
              [
                144.95492,
                -37.82038
              ],
              [
                144.954904,
                -37.820385
              ],
              [
                144.954894,
                -37.820364
              ]
            ],
            [
              [
                144.954933,
                -37.820448
              ],
              [
                144.954949,
                -37.820443
              ],
              [
                144.954956,
                -37.82046
              ],
              [
                144.95494,
                -37.820465
              ],
              [
                144.954933,
                -37.820448
              ]
            ]
          ]
        ]
      }
    }
  ]
}