{
  "type": "FeatureCollection",
  "features": [
    {
      "type": "Feature",
      "properties": {
        "name": "polygon80"
      },
      "geometry": {
        "type": "Polygon",
        "coordinates": [
          [
            [
              144.956479,
              -37.818432
            ],
            [
              144.956504,
              -37.818487
            ],
            [
              144.956506,
              -37.818491
            ],
            [
              144.956523,
              -37.81853
            ],
            [
              144.956902,
              -37.819358
            ],
            [
              144.956915,
              -37.819385
            ],
            [
              144.956917,
              -37.819388
            ],
            [
              144.956918,
              -37.81939
            ],
            [
              144.956943,
              -37.819442
            ],
            [
              144.956969,
              -37.819494
            ],
            [
              144.956971,
              -37.819494
            ],
            [
              144.95698,
              -37.819492
            ],
            [
              144.956992,
              -37.819492
            ],
            [
              144.956999,
              -37.819493
            ],
            [
              144.957001,
              -37.819493
            ],
            [
              144.957006,
              -37.819495
            ],
            [
              144.957008,
              -37.819495
            ],
            [
              144.957013,
              -37.819498
            ],
            [
              144.957014,
              -37.819498
            ],
            [
              144.957014,
              -37.819499
            ],
            [
              144.957021,
              -37.819505
            ],
            [
              144.957025,
              -37.81951
            ],
            [
              144.957026,
              -37.81951
            ],
            [
              144.957027,
              -37.819512
            ],
            [
              144.957269,
              -37.819444
            ],
            [
              144.957268,
              -37.81944
            ],
            [
              144.957268,
              -37.819439
            ],
            [
              144.957269,
              -37.819436
            ],
            [
              144.957269,
              -37.819435
            ],
            [
              144.957271,
              -37.819432
            ],
            [
              144.957271,
              -37.819431
            ],
            [
              144.957275,
              -37.819427
            ],
            [
              144.957275,
              -37.819426
            ],
            [
              144.957276,
              -37.819426
            ],
            [
              144.957276,
              -37.819425
            ],
            [
              144.957279,
              -37.819424
            ],
            [
              144.95728,
              -37.819423
            ],
            [
              144.957284,
              -37.819421
            ],
            [
              144.957285,
              -37.819421
            ],
            [
              144.957302,
              -37.819416
            ],
            [
              144.957275,
              -37.819357
            ],
            [
              144.957247,
              -37.819297
            ],
            [
              144.957246,
              -37.819295
            ],
            [
              144.957245,
              -37.819292
            ],
            [
              144.957231,
              -37.819264
            ],
            [
              144.956847,
              -37.818438
            ],
            [
              144.956829,
              -37.8184
            ],
            [
              144.956827,
              -37.818396
            ],
            [
              144.9568,
              -37.81834
            ],
            [
              144.956726,
              -37.818361
            ],
            [
              144.956646,
              -37.818384
            ],
            [
              144.956479,
              -37.818432
            ]
          ]
        ]
      }
    }
  ]
}