{
  "type": "FeatureCollection",
  "features": [
    {
      "type": "Feature",
      "properties": {
        "name": "polygon157"
      },
      "geometry": {
        "type": "MultiPolygon",
        "coordinates": [
          [
            [
              [
                144.974263,
                -37.814408
              ],
              [
                144.97437,
                -37.814645
              ],
              [
                144.974386,
                -37.81468
              ],
              [
                144.974451,
                -37.814825
              ],
              [
                144.974452,
                -37.814826
              ],
              [
                144.974452,
                -37.814828
              ],
              [
                144.974466,
                -37.814857
              ],
              [
                144.974467,
                -37.81486
              ],
              [
                144.974467,
                -37.814861
              ],
              [
                144.974474,
                -37.814876
              ],
              [
                144.974475,
                -37.814878
              ],
              [
                144.974488,
                -37.814906
              ],
              [
                144.974489,
                -37.814908
              ],
              [
                144.974489,
                -37.81491
              ],
              [
                144.974494,
                -37.81492
              ],
              [
                144.974624,
                -37.815209
              ],
              [
                144.974697,
                -37.815187
              ],
              [
                144.974698,
                -37.815191
              ],
              [
                144.974698,
                -37.815198
              ],
              [
                144.974694,
                -37.815206
              ],
              [
                144.974691,
                -37.81521
              ],
              [
                144.974689,
                -37.815213
              ],
              [
                144.974686,
                -37.815216
              ],
              [
                144.974682,
                -37.815219
              ],
              [
                144.974677,
                -37.815222
              ],
              [
                144.974671,
                -37.815224
              ],
              [
                144.974661,
                -37.815228
              ],
              [
                144.974663,
                -37.815232
              ],
              [
                144.97466,
                -37.815233
              ],
              [
                144.974636,
                -37.81524
              ],
              [
                144.974661,
                -37.815307
              ],
              [
                144.974685,
                -37.815295
              ],
              [
                144.974703,
                -37.815283
              ],
              [
                144.974716,
                -37.81527
              ],
              [
                144.974734,
                -37.815251
              ],
              [
                144.974744,
                -37.815238
              ],
              [
                144.974754,
                -37.815218
              ],
              [
                144.974761,
                -37.815199
              ],
              [
                144.974763,
                -37.81518
              ],
              [
                144.974764,
                -37.815168
              ],
              [
                144.974764,
                -37.815162
              ],
              [
                144.974761,
                -37.815145
              ],
              [
                144.974757,
                -37.815127
              ],
              [
                144.974748,
                -37.815099
              ],
              [
                144.97473,
                -37.815059
              ],
              [
                144.974678,
                -37.814948
              ],
              [
                144.974619,
                -37.81482
              ],
              [
                144.974549,
                -37.814669
              ],
              [
                144.974489,
                -37.814539
              ],
              [
                144.974409,
                -37.814365
              ],
              [
                144.974335,
                -37.814387
              ],
              [
                144.974333,
                -37.814388
              ],
              [
                144.97433,
                -37.814388
              ],
              [
                144.974263,
                -37.814408
              ]
            ]
          ],
          [
            [
              [
                144.974472,
                -37.814347
              ],
              [
                144.974528,
                -37.814468
              ],
              [
                144.974662,
                -37.814755
              ],
              [
                144.974765,
                -37.814978
              ],
              [
                144.974818,
                -37.815093
              ],
              [
                144.974833,
                -37.815131
              ],
              [
                144.974837,
                -37.815146
              ],
              [
                144.974839,
                -37.815153
              ],
              [
                144.974839,
                -37.815154
              ],
              [
                144.974842,
                -37.815174
              ],
              [
                144.974842,
                -37.815192
              ],
              [
                144.974841,
                -37.815214
              ],
              [
                144.974841,
                -37.815215
              ],
              [
                144.974836,
                -37.815234
              ],
              [
                144.974835,
                -37.815234
              ],
              [
                144.974827,
                -37.815255
              ],
              [
                144.974827,
                -37.815256
              ],
              [
                144.974819,
                -37.815268
              ],
              [
                144.974828,
                -37.815266
              ],
              [
                144.974857,
                -37.815261
              ],
              [
                144.974887,
                -37.815255
              ],
              [
                144.974919,
                -37.81525
              ],
              [
                144.974951,
                -37.815247
              ],
              [
                144.97498,
                -37.815245
              ],
              [
                144.974941,
                -37.815116
              ],
              [
                144.974941,
                -37.815114
              ],
              [
                144.97494,
                -37.815112
              ],
              [
                144.97494,
                -37.815111
              ],
              [
                144.974938,
                -37.815107
              ],
              [
                144.974917,
                -37.815036
              ],
              [
                144.974912,
                -37.815025
              ],
              [
                144.974909,
                -37.815018
              ],
              [
                144.974912,
                -37.815018
              ],
              [
                144.974915,
                -37.815017
              ],
              [
                144.974912,
                -37.815013
              ],
              [
                144.974893,
                -37.814971
              ],
              [
                144.974846,
                -37.814871
              ],
              [
                144.974775,
                -37.814719
              ],
              [
                144.974737,
                -37.814636
              ],
              [
                144.974716,
                -37.814592
              ],
              [
                144.974669,
                -37.814491
              ],
              [
                144.974654,
                -37.814458
              ],
              [
                144.974645,
                -37.814439
              ],
              [
                144.97459,
                -37.814321
              ],
              [
                144.974589,
                -37.814321
              ],
              [
                144.974585,
                -37.814322
              ],
              [
                144.974584,
                -37.814319
              ],
              [
                144.974582,
                -37.814315
              ],
              [
                144.97455,
                -37.814324
              ],
              [
                144.974548,
                -37.814325
              ],
              [
                144.974536,
                -37.814328
              ],
              [
                144.974472,
                -37.814347
              ]
            ]
          ],
          [
            [
              [
                144.974682,
                -37.815361
              ],
              [
                144.97471,
                -37.815436
              ],
              [
                144.974711,
                -37.815438
              ],
              [
                144.974712,
                -37.815441
              ],
              [
                144.974723,
                -37.81547
              ],
              [
                144.974803,
                -37.815451
              ],
              [
                144.974925,
                -37.815426
              ],
              [
                144.975029,
                -37.815409
              ],
              [
                144.97502,
                -37.815379
              ],
              [
                144.97502,
                -37.815377
              ],
              [
                144.975019,
                -37.815377
              ],
              [
                144.975019,
                -37.815375
              ],
              [
                144.975009,
                -37.815341
              ],
              [
                144.974996,
                -37.815297
              ],
              [
                144.974956,
                -37.815301
              ],
              [
                144.974935,
                -37.815304
              ],
              [
                144.974903,
                -37.815308
              ],
              [
                144.974883,
                -37.815311
              ],
              [
                144.974849,
                -37.815318
              ],
              [
                144.974848,
                -37.815318
              ],
              [
                144.974817,
                -37.815325
              ],
              [
                144.974753,
                -37.815341
              ],
              [
                144.974691,
                -37.815359
              ],
              [
                144.974682,
                -37.815361
              ]
            ]
          ]
        ]
      }
    }
  ]
}