{
  "type": "FeatureCollection",
  "features": [
    {
      "type": "Feature",
      "properties": {
        "name": "polygon69"
      },
      "geometry": {
        "type": "MultiPolygon",
        "coordinates": [
          [
            [
              [
                144.97157,
                -37.813868
              ],
              [
                144.971592,
                -37.813915
              ],
              [
                144.971593,
                -37.813918
              ],
              [
                144.971595,
                -37.81392
              ],
              [
                144.97162,
                -37.813974
              ],
              [
                144.971623,
                -37.813973
              ],
              [
                144.971983,
                -37.813868
              ],
              [
                144.972335,
                -37.813765
              ],
              [
                144.972626,
                -37.813679
              ],
              [
                144.972822,
                -37.813621
              ],
              [
                144.97304,
                -37.813558
              ],
              [
                144.973569,
                -37.813403
              ],
              [
                144.973616,
                -37.813387
              ],
              [
                144.973639,
                -37.813378
              ],
              [
                144.973663,
                -37.813368
              ],
              [
                144.973685,
                -37.813358
              ],
              [
                144.973709,
                -37.813344
              ],
              [
                144.973738,
                -37.813323
              ],
              [
                144.973751,
                -37.813312
              ],
              [
                144.973735,
                -37.813277
              ],
              [
                144.973733,
                -37.813275
              ],
              [
                144.973732,
                -37.813272
              ],
              [
                144.973716,
                -37.813239
              ],
              [
                144.97157,
                -37.813868
              ]
            ]
          ],
          [
            [
              [
                144.971644,
                -37.814023
              ],
              [
                144.971671,
                -37.814079
              ],
              [
                144.971673,
                -37.814083
              ],
              [
                144.971694,
                -37.814127
              ],
              [
                144.973841,
                -37.813495
              ],
              [
                144.973819,
                -37.81345
              ],
              [
                144.973817,
                -37.813446
              ],
              [
                144.97378,
                -37.813371
              ],
              [
                144.973751,
                -37.813392
              ],
              [
                144.97375,
                -37.813392
              ],
              [
                144.973739,
                -37.813399
              ],
              [
                144.973713,
                -37.813412
              ],
              [
                144.973712,
                -37.813413
              ],
              [
                144.973684,
                -37.813424
              ],
              [
                144.973675,
                -37.813427
              ],
              [
                144.973676,
                -37.81343
              ],
              [
                144.973674,
                -37.813431
              ],
              [
                144.973652,
                -37.813438
              ],
              [
                144.97361,
                -37.813449
              ],
              [
                144.973286,
                -37.813544
              ],
              [
                144.973148,
                -37.813584
              ],
              [
                144.973146,
                -37.813585
              ],
              [
                144.973145,
                -37.813583
              ],
              [
                144.972918,
                -37.813651
              ],
              [
                144.972557,
                -37.813756
              ],
              [
                144.972231,
                -37.813851
              ],
              [
                144.9719,
                -37.813948
              ],
              [
                144.971644,
                -37.814023
              ]
            ]
          ]
        ]
      }
    }
  ]
}