{
  "type": "FeatureCollection",
  "features": [
    {
      "type": "Feature",
      "properties": {
        "name": "polygon12"
      },
      "geometry": {
        "type": "MultiPolygon",
        "coordinates": [
          [
            [
              [
                144.963595,
                -37.801654
              ],
              [
                144.963609,
                -37.801655
              ],
              [
                144.963617,
                -37.801655
              ],
              [
                144.963622,
                -37.801654
              ],
              [
                144.963628,
                -37.801651
              ],
              [
                144.963632,
                -37.801647
              ],
              [
                144.963635,
                -37.801642
              ],
              [
                144.963638,
                -37.801632
              ],
              [
                144.963638,
                -37.801628
              ],
              [
                144.963641,
                -37.801629
              ],
              [
                144.963644,
                -37.801629
              ],
              [
                144.96373,
                -37.801638
              ],
              [
                144.963919,
                -37.800553
              ],
              [
                144.963826,
                -37.800544
              ],
              [
                144.96383,
                -37.800517
              ],
              [
                144.963832,
                -37.800501
              ],
              [
                144.963831,
                -37.800494
              ],
              [
                144.963829,
                -37.800491
              ],
              [
                144.963825,
                -37.800487
              ],
              [
                144.963819,
                -37.800484
              ],
              [
                144.963807,
                -37.800482
              ],
              [
                144.963791,
                -37.80048
              ],
              [
                144.96379,
                -37.800482
              ],
              [
                144.96379,
                -37.800483
              ],
              [
                144.96378,
                -37.800539
              ],
              [
                144.963697,
                -37.801043
              ],
              [
                144.963696,
                -37.801044
              ],
              [
                144.963696,
                -37.801047
              ],
              [
                144.963695,
                -37.80105
              ],
              [
                144.963693,
                -37.801061
              ],
              [
                144.963693,
                -37.801063
              ],
              [
                144.96369,
                -37.801081
              ],
              [
                144.96369,
                -37.801084
              ],
              [
                144.963688,
                -37.801093
              ],
              [
                144.9636,
                -37.801624
              ],
              [
                144.963595,
                -37.801654
              ]
            ]
          ],
          [
            [
              [
                144.963798,
                -37.801645
              ],
              [
                144.963893,
                -37.801655
              ],
              [
                144.963895,
                -37.801655
              ],
              [
                144.963897,
                -37.801656
              ],
              [
                144.963934,
                -37.80166
              ],
              [
                144.963961,
                -37.801499
              ],
              [
                144.963961,
                -37.801495
              ],
              [
                144.963968,
                -37.801463
              ],
              [
                144.963968,
                -37.801461
              ],
              [
                144.964118,
                -37.800574
              ],
              [
                144.964128,
                -37.800521
              ],
              [
                144.964117,
                -37.800521
              ],
              [
                144.964113,
                -37.800522
              ],
              [
                144.964101,
                -37.800526
              ],
              [
                144.964097,
                -37.80053
              ],
              [
                144.964093,
                -37.800533
              ],
              [
                144.964089,
                -37.800538
              ],
              [
                144.964087,
                -37.800542
              ],
              [
                144.964085,
                -37.800547
              ],
              [
                144.964084,
                -37.800555
              ],
              [
                144.964082,
                -37.800555
              ],
              [
                144.964084,
                -37.800544
              ],
              [
                144.964086,
                -37.800538
              ],
              [
                144.964089,
                -37.800534
              ],
              [
                144.964096,
                -37.800527
              ],
              [
                144.964101,
                -37.800524
              ],
              [
                144.964113,
                -37.80052
              ],
              [
                144.964119,
                -37.800519
              ],
              [
                144.964128,
                -37.800519
              ],
              [
                144.964129,
                -37.800517
              ],
              [
                144.964123,
                -37.800516
              ],
              [
                144.964118,
                -37.800517
              ],
              [
                144.964112,
                -37.800518
              ],
              [
                144.964104,
                -37.80052
              ],
              [
                144.964097,
                -37.800524
              ],
              [
                144.964094,
                -37.800526
              ],
              [
                144.964092,
                -37.800528
              ],
              [
                144.964089,
                -37.80053
              ],
              [
                144.964086,
                -37.800533
              ],
              [
                144.964083,
                -37.800538
              ],
              [
                144.964081,
                -37.800543
              ],
              [
                144.964076,
                -37.80057
              ],
              [
                144.963985,
                -37.80056
              ],
              [
                144.963952,
                -37.800751
              ],
              [
                144.963911,
                -37.800985
              ],
              [
                144.96386,
                -37.801285
              ],
              [
                144.963814,
                -37.801553
              ],
              [
                144.963798,
                -37.801645
              ]
            ]
          ]
        ]
      }
    }
  ]
}