{
  "type": "FeatureCollection",
  "features": [
    {
      "type": "Feature",
      "properties": {
        "name": "polygon158"
      },
      "geometry": {
        "type": "MultiPolygon",
        "coordinates": [
          [
            [
              [
                144.973817,
                -37.813446
              ],
              [
                144.973819,
                -37.81345
              ],
              [
                144.973841,
                -37.813495
              ],
              [
                144.974211,
                -37.814298
              ],
              [
                144.974221,
                -37.81432
              ],
              [
                144.974231,
                -37.814317
              ],
              [
                144.974231,
                -37.814318
              ],
              [
                144.974233,
                -37.814322
              ],
              [
                144.974223,
                -37.814325
              ],
              [
                144.974246,
                -37.814371
              ],
              [
                144.974291,
                -37.814358
              ],
              [
                144.974296,
                -37.814357
              ],
              [
                144.974305,
                -37.814357
              ],
              [
                144.974315,
                -37.814359
              ],
              [
                144.974323,
                -37.814363
              ],
              [
                144.974329,
                -37.814369
              ],
              [
                144.974331,
                -37.814372
              ],
              [
                144.974335,
                -37.814387
              ],
              [
                144.974409,
                -37.814365
              ],
              [
                144.974366,
                -37.814273
              ],
              [
                144.974358,
                -37.814256
              ],
              [
                144.974269,
                -37.814065
              ],
              [
                144.974129,
                -37.81376
              ],
              [
                144.974046,
                -37.813581
              ],
              [
                144.973987,
                -37.813453
              ],
              [
                144.973913,
                -37.813474
              ],
              [
                144.97391,
                -37.813468
              ],
              [
                144.973907,
                -37.813461
              ],
              [
                144.973899,
                -37.813452
              ],
              [
                144.973892,
                -37.813447
              ],
              [
                144.973886,
                -37.813443
              ],
              [
                144.973872,
                -37.813439
              ],
              [
                144.973866,
                -37.813438
              ],
              [
                144.973858,
                -37.813437
              ],
              [
                144.973848,
                -37.813438
              ],
              [
                144.973837,
                -37.81344
              ],
              [
                144.973817,
                -37.813446
              ]
            ]
          ],
          [
            [
              [
                144.974049,
                -37.813435
              ],
              [
                144.974084,
                -37.813512
              ],
              [
                144.974187,
                -37.813732
              ],
              [
                144.974296,
                -37.813966
              ],
              [
                144.974408,
                -37.814208
              ],
              [
                144.974422,
                -37.814237
              ],
              [
                144.974472,
                -37.814347
              ],
              [
                144.974536,
                -37.814328
              ],
              [
                144.974548,
                -37.814325
              ],
              [
                144.97455,
                -37.814324
              ],
              [
                144.974582,
                -37.814315
              ],
              [
                144.974575,
                -37.814299
              ],
              [
                144.974565,
                -37.814277
              ],
              [
                144.974564,
                -37.814276
              ],
              [
                144.974562,
                -37.814271
              ],
              [
                144.974562,
                -37.81427
              ],
              [
                144.974549,
                -37.814244
              ],
              [
                144.974549,
                -37.814243
              ],
              [
                144.974548,
                -37.814242
              ],
              [
                144.974545,
                -37.814236
              ],
              [
                144.974549,
                -37.814235
              ],
              [
                144.974548,
                -37.814234
              ],
              [
                144.974468,
                -37.814062
              ],
              [
                144.974404,
                -37.813922
              ],
              [
                144.97434,
                -37.813785
              ],
              [
                144.974338,
                -37.813785
              ],
              [
                144.974337,
                -37.813786
              ],
              [
                144.974326,
                -37.813763
              ],
              [
                144.974293,
                -37.813692
              ],
              [
                144.974274,
                -37.813647
              ],
              [
                144.974259,
                -37.81361
              ],
              [
                144.974258,
                -37.813607
              ],
              [
                144.974257,
                -37.813605
              ],
              [
                144.97424,
                -37.813564
              ],
              [
                144.97424,
                -37.813562
              ],
              [
                144.974239,
                -37.81356
              ],
              [
                144.974239,
                -37.813559
              ],
              [
                144.974229,
                -37.813536
              ],
              [
                144.974166,
                -37.813401
              ],
              [
                144.974133,
                -37.81341
              ],
              [
                144.974127,
                -37.813412
              ],
              [
                144.974049,
                -37.813435
              ]
            ]
          ]
        ]
      }
    }
  ]
}