{
  "type": "FeatureCollection",
  "features": [
    {
      "type": "Feature",
      "properties": {
        "name": "polygon198"
      },
      "geometry": {
        "type": "Polygon",
        "coordinates": [
          [
            [
              144.94666,
              -37.818864
            ],
            [
              144.946714,
              -37.818992
            ],
            [
              144.946769,
              -37.819121
            ],
            [
              144.946855,
              -37.819097
            ],
            [
              144.946858,
              -37.819096
            ],
            [
              144.946862,
              -37.819094
            ],
            [
              144.946874,
              -37.819091
            ],
            [
              144.947046,
              -37.819041
            ],
            [
              144.947037,
              -37.819024
            ],
            [
              144.947092,
              -37.819008
            ],
            [
              144.947092,
              -37.819014
            ],
            [
              144.947093,
              -37.819019
            ],
            [
              144.947094,
              -37.819025
            ],
            [
              144.947095,
              -37.819027
            ],
            [
              144.947098,
              -37.819026
            ],
            [
              144.947098,
              -37.819025
            ],
            [
              144.947097,
              -37.819019
            ],
            [
              144.947096,
              -37.819014
            ],
            [
              144.947095,
              -37.819008
            ],
            [
              144.947095,
              -37.819007
            ],
            [
              144.947098,
              -37.819006
            ],
            [
              144.947172,
              -37.818985
            ],
            [
              144.947174,
              -37.818985
            ],
            [
              144.947175,
              -37.818984
            ],
            [
              144.94717,
              -37.818996
            ],
            [
              144.947167,
              -37.819006
            ],
            [
              144.947171,
              -37.819005
            ],
            [
              144.947173,
              -37.818996
            ],
            [
              144.947179,
              -37.818985
            ],
            [
              144.94718,
              -37.818982
            ],
            [
              144.9472,
              -37.818977
            ],
            [
              144.947215,
              -37.818992
            ],
            [
              144.947216,
              -37.818992
            ],
            [
              144.947556,
              -37.818894
            ],
            [
              144.947557,
              -37.818894
            ],
            [
              144.947559,
              -37.818893
            ],
            [
              144.94763,
              -37.818872
            ],
            [
              144.947633,
              -37.818872
            ],
            [
              144.948327,
              -37.818671
            ],
            [
              144.948375,
              -37.818657
            ],
            [
              144.948378,
              -37.818656
            ],
            [
              144.94838,
              -37.818655
            ],
            [
              144.948493,
              -37.818623
            ],
            [
              144.948615,
              -37.818587
            ],
            [
              144.948618,
              -37.818587
            ],
            [
              144.948621,
              -37.818586
            ],
            [
              144.94862,
              -37.818588
            ],
            [
              144.948618,
              -37.818597
            ],
            [
              144.948617,
              -37.818607
            ],
            [
              144.948617,
              -37.818611
            ],
            [
              144.948665,
              -37.81861
            ],
            [
              144.948664,
              -37.818573
            ],
            [
              144.948792,
              -37.818536
            ],
            [
              144.948842,
              -37.818522
            ],
            [
              144.948845,
              -37.818521
            ],
            [
              144.948846,
              -37.818521
            ],
            [
              144.948847,
              -37.81852
            ],
            [
              144.948872,
              -37.818513
            ],
            [
              144.948874,
              -37.818513
            ],
            [
              144.948917,
              -37.8185
            ],
            [
              144.948919,
              -37.818499
            ],
            [
              144.94901,
              -37.818473
            ],
            [
              144.949403,
              -37.818359
            ],
            [
              144.949441,
              -37.818349
            ],
            [
              144.949443,
              -37.818348
            ],
            [
              144.949507,
              -37.818329
            ],
            [
              144.949509,
              -37.818328
            ],
            [
              144.94951,
              -37.818329
            ],
            [
              144.949534,
              -37.818321
            ],
            [
              144.949539,
              -37.81832
            ],
            [
              144.94955,
              -37.818317
            ],
            [
              144.950207,
              -37.818127
            ],
            [
              144.950342,
              -37.818163
            ],
            [
              144.95035,
              -37.818165
            ],
            [
              144.950346,
              -37.818161
            ],
            [
              144.950312,
              -37.818115
            ],
            [
              144.950323,
              -37.81811
            ],
            [
              144.950338,
              -37.818118
            ],
            [
              144.950356,
              -37.818133
            ],
            [
              144.95036,
              -37.818131
            ],
            [
              144.950341,
              -37.818115
            ],
            [
              144.95032,
              -37.818103
            ],
            [
              144.950296,
              -37.818094
            ],
            [
              144.950296,
              -37.818093
            ],
            [
              144.950218,
              -37.81799
            ],
            [
              144.950225,
              -37.817988
            ],
            [
              144.950227,
              -37.817988
            ],
            [
              144.950232,
              -37.817986
            ],
            [
              144.950234,
              -37.817985
            ],
            [
              144.950235,
              -37.817981
            ],
            [
              144.950235,
              -37.817978
            ],
            [
              144.950233,
              -37.817975
            ],
            [
              144.950231,
              -37.817973
            ],
            [
              144.95023,
              -37.81797
            ],
            [
              144.950227,
              -37.817969
            ],
            [
              144.950223,
              -37.817968
            ],
            [
              144.950215,
              -37.81797
            ],
            [
              144.950205,
              -37.817973
            ],
            [
              144.950181,
              -37.817941
            ],
            [
              144.950133,
              -37.817878
            ],
            [
              144.950139,
              -37.817871
            ],
            [
              144.95014,
              -37.817871
            ],
            [
              144.950149,
              -37.817856
            ],
            [
              144.950149,
              -37.817855
            ],
            [
              144.95015,
              -37.817855
            ],
            [
              144.950156,
              -37.817839
            ],
            [
              144.950156,
              -37.817838
            ],
            [
              144.950158,
              -37.817821
            ],
            [
              144.950155,
              -37.817802
            ],
            [
              144.950152,
              -37.817803
            ],
            [
              144.950155,
              -37.817821
            ],
            [
              144.950154,
              -37.817829
            ],
            [
              144.95015,
              -37.81783
            ],
            [
              144.950151,
              -37.817821
            ],
            [
              144.950149,
              -37.817804
            ],
            [
              144.950146,
              -37.817797
            ],
            [
              144.950143,
              -37.817791
            ],
            [
              144.950139,
              -37.817785
            ],
            [
              144.950138,
              -37.817784
            ],
            [
              144.950137,
              -37.817785
            ],
            [
              144.950136,
              -37.817785
            ],
            [
              144.950079,
              -37.817803
            ],
            [
              144.950093,
              -37.817825
            ],
            [
              144.950069,
              -37.817876
            ],
            [
              144.949814,
              -37.81795
            ],
            [
              144.948522,
              -37.818324
            ],
            [
              144.948519,
              -37.818324
            ],
            [
              144.948517,
              -37.818325
            ],
            [
              144.948516,
              -37.818325
            ],
            [
              144.948355,
              -37.818372
            ],
            [
              144.948352,
              -37.818373
            ],
            [
              144.94835,
              -37.818373
            ],
            [
              144.947014,
              -37.81876
            ],
            [
              144.947016,
              -37.818762
            ],
            [
              144.947038,
              -37.818787
            ],
            [
              144.946984,
              -37.818803
            ],
            [
              144.94695,
              -37.818812
            ],
            [
              144.946949,
              -37.818813
            ],
            [
              144.946931,
              -37.818818
            ],
            [
              144.946929,
              -37.818818
            ],
            [
              144.946916,
              -37.818822
            ],
            [
              144.9469,
              -37.818826
            ],
            [
              144.946899,
              -37.818825
            ],
            [
              144.94683,
              -37.818844
            ],
            [
              144.946822,
              -37.818845
            ],
            [
              144.946804,
              -37.818845
            ],
            [
              144.946785,
              -37.818841
            ],
            [
              144.946771,
              -37.818832
            ],
            [
              144.94677,
              -37.818831
            ],
            [
              144.946764,
              -37.818833
            ],
            [
              144.94666,
              -37.818864
            ]
          ],
          [
            [
              144.948041,
              -37.818606
            ],
            [
              144.948042,
              -37.818602
            ],
            [
              144.948043,
              -37.818601
            ],
            [
              144.948047,
              -37.818599
            ],
            [
              144.948279,
              -37.81853
            ],
            [
              144.948286,
              -37.81853
            ],
            [
              144.94829,
              -37.818535
            ],
            [
              144.948292,
              -37.818538
            ],
            [
              144.948292,
              -37.818543
            ],
            [
              144.948287,
              -37.818546
            ],
            [
              144.948052,
              -37.818615
            ],
            [
              144.94805,
              -37.818616
            ],
            [
              144.948048,
              -37.818615
            ],
            [
              144.948046,
              -37.818615
            ],
            [
              144.948044,
              -37.818612
            ],
            [
              144.948043,
              -37.818609
            ],
            [
              144.948042,
              -37.818608
            ],
            [
              144.948041,
              -37.818606
            ]
          ]
        ]
      }
    }
  ]
}