{
  "type": "FeatureCollection",
  "features": [
    {
      "type": "Feature",
      "properties": {
        "name": "polygon13"
      },
      "geometry": {
        "type": "Polygon",
        "coordinates": [
          [
            [
              144.950553,
              -37.810862
            ],
            [
              144.950567,
              -37.810892
            ],
            [
              144.950568,
              -37.810893
            ],
            [
              144.950569,
              -37.810895
            ],
            [
              144.950601,
              -37.810967
            ],
            [
              144.950577,
              -37.810973
            ],
            [
              144.950576,
              -37.810973
            ],
            [
              144.950576,
              -37.810974
            ],
            [
              144.950574,
              -37.810974
            ],
            [
              144.950574,
              -37.810975
            ],
            [
              144.950573,
              -37.810975
            ],
            [
              144.950573,
              -37.810976
            ],
            [
              144.950572,
              -37.810976
            ],
            [
              144.950572,
              -37.810977
            ],
            [
              144.950571,
              -37.810978
            ],
            [
              144.950571,
              -37.810982
            ],
            [
              144.950572,
              -37.810982
            ],
            [
              144.950572,
              -37.810983
            ],
            [
              144.950589,
              -37.81102
            ],
            [
              144.950589,
              -37.811021
            ],
            [
              144.95059,
              -37.811021
            ],
            [
              144.95059,
              -37.811022
            ],
            [
              144.950591,
              -37.811022
            ],
            [
              144.950591,
              -37.811023
            ],
            [
              144.950592,
              -37.811023
            ],
            [
              144.950593,
              -37.811024
            ],
            [
              144.950595,
              -37.811024
            ],
            [
              144.950595,
              -37.811025
            ],
            [
              144.9506,
              -37.811025
            ],
            [
              144.950601,
              -37.811024
            ],
            [
              144.950625,
              -37.811018
            ],
            [
              144.950658,
              -37.81109
            ],
            [
              144.950659,
              -37.811093
            ],
            [
              144.95066,
              -37.811094
            ],
            [
              144.950673,
              -37.811123
            ],
            [
              144.951966,
              -37.810756
            ],
            [
              144.952468,
              -37.810613
            ],
            [
              144.952471,
              -37.810612
            ],
            [
              144.952484,
              -37.810608
            ],
            [
              144.952492,
              -37.810606
            ],
            [
              144.952503,
              -37.810603
            ],
            [
              144.952505,
              -37.810602
            ],
            [
              144.952826,
              -37.810511
            ],
            [
              144.952867,
              -37.810499
            ],
            [
              144.952869,
              -37.810498
            ],
            [
              144.952871,
              -37.810498
            ],
            [
              144.952871,
              -37.810496
            ],
            [
              144.952865,
              -37.81049
            ],
            [
              144.952865,
              -37.810489
            ],
            [
              144.952859,
              -37.810484
            ],
            [
              144.952858,
              -37.810483
            ],
            [
              144.952851,
              -37.810479
            ],
            [
              144.95285,
              -37.810479
            ],
            [
              144.952843,
              -37.810476
            ],
            [
              144.952842,
              -37.810476
            ],
            [
              144.952835,
              -37.810475
            ],
            [
              144.952824,
              -37.810475
            ],
            [
              144.952817,
              -37.810477
            ],
            [
              144.952811,
              -37.810479
            ],
            [
              144.952782,
              -37.810413
            ],
            [
              144.952809,
              -37.810406
            ],
            [
              144.952809,
              -37.810405
            ],
            [
              144.952811,
              -37.810405
            ],
            [
              144.952811,
              -37.810404
            ],
            [
              144.952813,
              -37.810404
            ],
            [
              144.952813,
              -37.810403
            ],
            [
              144.952814,
              -37.810403
            ],
            [
              144.952814,
              -37.810401
            ],
            [
              144.952815,
              -37.810401
            ],
            [
              144.952815,
              -37.810397
            ],
            [
              144.952814,
              -37.810397
            ],
            [
              144.952814,
              -37.810396
            ],
            [
              144.952798,
              -37.81036
            ],
            [
              144.952798,
              -37.810358
            ],
            [
              144.952797,
              -37.810358
            ],
            [
              144.952797,
              -37.810357
            ],
            [
              144.952796,
              -37.810357
            ],
            [
              144.952796,
              -37.810356
            ],
            [
              144.952794,
              -37.810356
            ],
            [
              144.952794,
              -37.810355
            ],
            [
              144.952787,
              -37.810355
            ],
            [
              144.952759,
              -37.810363
            ],
            [
              144.952729,
              -37.810296
            ],
            [
              144.952727,
              -37.810292
            ],
            [
              144.952711,
              -37.810256
            ],
            [
              144.950553,
              -37.810862
            ]
          ],
          [
            [
              144.951948,
              -37.810716
            ],
            [
              144.951951,
              -37.810722
            ],
            [
              144.95195,
              -37.810722
            ],
            [
              144.951948,
              -37.810716
            ]
          ],
          [
            [
              144.951952,
              -37.810726
            ],
            [
              144.951952,
              -37.810725
            ],
            [
              144.951953,
              -37.810727
            ],
            [
              144.951952,
              -37.810726
            ]
          ],
          [
            [
              144.952017,
              -37.810684
            ],
            [
              144.952038,
              -37.810679
            ],
            [
              144.95204565314205,
              -37.810695262926885
            ],
            [
              144.95202378253688,
              -37.81070144080917
            ],
            [
              144.952017,
              -37.810684
            ]
          ],
          [
            [
              144.9523037272732,
              -37.81062236363623
            ],
            [
              144.952354,
              -37.810608
            ],
            [
              144.952347,
              -37.810592
            ],
            [
              144.952368,
              -37.810586
            ],
            [
              144.952375,
              -37.810602
            ],
            [
              144.952436,
              -37.810585
            ],
            [
              144.9523037272732,
              -37.81062236363623
            ]
          ],
          [
            [
              144.952453,
              -37.810588
            ],
            [
              144.952454,
              -37.810588
            ],
            [
              144.952456,
              -37.810589
            ],
            [
              144.952455,
              -37.810589
            ],
            [
              144.952453,
              -37.810588
            ]
          ],
          [
            [
              144.952455,
              -37.810592
            ],
            [
              144.952456,
              -37.810592
            ],
            [
              144.952457,
              -37.810593
            ],
            [
              144.952456,
              -37.810593
            ],
            [
              144.952455,
              -37.810592
            ]
          ],
          [
            [
              144.952459,
              -37.810595
            ],
            [
              144.95246,
              -37.810596
            ],
            [
              144.952461,
              -37.810598
            ],
            [
              144.95246,
              -37.810597
            ],
            [
              144.952459,
              -37.810595
            ]
          ],
          [
            [
              144.952461,
              -37.810593
            ],
            [
              144.952463,
              -37.810594
            ],
            [
              144.952464,
              -37.810596
            ],
            [
              144.952464,
              -37.810597
            ],
            [
              144.952463,
              -37.810595
            ],
            [
              144.952461,
              -37.810593
            ]
          ],
          [
            [
              144.952464,
              -37.810597
            ],
            [
              144.952465,
              -37.810597
            ],
            [
              144.952465,
              -37.810598
            ],
            [
              144.952464,
              -37.810597
            ]
          ]
        ]
      }
    }
  ]
}