{
  "type": "FeatureCollection",
  "features": [
    {
      "type": "Feature",
      "properties": {
        "name": "polygon24"
      },
      "geometry": {
        "type": "Polygon",
        "coordinates": [
          [
            [
              144.956955,
              -37.812641
            ],
            [
              144.956958,
              -37.812646
            ],
            [
              144.956961,
              -37.812654
            ],
            [
              144.956962,
              -37.812655
            ],
            [
              144.956962,
              -37.812656
            ],
            [
              144.956964,
              -37.812659
            ],
            [
              144.956965,
              -37.812661
            ],
            [
              144.956965,
              -37.812662
            ],
            [
              144.95697,
              -37.812672
            ],
            [
              144.956971,
              -37.812673
            ],
            [
              144.956971,
              -37.812674
            ],
            [
              144.956972,
              -37.812674
            ],
            [
              144.956975,
              -37.812677
            ],
            [
              144.956976,
              -37.812677
            ],
            [
              144.956979,
              -37.81268
            ],
            [
              144.95698,
              -37.81268
            ],
            [
              144.956986,
              -37.812683
            ],
            [
              144.956989,
              -37.812683
            ],
            [
              144.95699,
              -37.812684
            ],
            [
              144.957003,
              -37.812684
            ],
            [
              144.957004,
              -37.812683
            ],
            [
              144.957007,
              -37.812683
            ],
            [
              144.957011,
              -37.812682
            ],
            [
              144.957015,
              -37.81268
            ],
            [
              144.957016,
              -37.81268
            ],
            [
              144.957031,
              -37.812726
            ],
            [
              144.957032,
              -37.812728
            ],
            [
              144.957032,
              -37.812731
            ],
            [
              144.957034,
              -37.812735
            ],
            [
              144.957038,
              -37.812745
            ],
            [
              144.957922,
              -37.812488
            ],
            [
              144.957956,
              -37.812478
            ],
            [
              144.958376,
              -37.812357
            ],
            [
              144.959193,
              -37.81212
            ],
            [
              144.959187,
              -37.812102
            ],
            [
              144.959186,
              -37.8121
            ],
            [
              144.959168,
              -37.812044
            ],
            [
              144.959167,
              -37.812041
            ],
            [
              144.959166,
              -37.812039
            ],
            [
              144.95916,
              -37.812022
            ],
            [
              144.958539,
              -37.812204
            ],
            [
              144.958538,
              -37.812204
            ],
            [
              144.958536,
              -37.812205
            ],
            [
              144.958535,
              -37.812205
            ],
            [
              144.9585,
              -37.812217
            ],
            [
              144.958497,
              -37.812217
            ],
            [
              144.958497,
              -37.812218
            ],
            [
              144.958494,
              -37.812218
            ],
            [
              144.958309,
              -37.812272
            ],
            [
              144.958304,
              -37.81226
            ],
            [
              144.958079,
              -37.812325
            ],
            [
              144.958085,
              -37.812337
            ],
            [
              144.957007,
              -37.812651
            ],
            [
              144.957018,
              -37.812674
            ],
            [
              144.957005,
              -37.812678
            ],
            [
              144.957004,
              -37.812678
            ],
            [
              144.957003,
              -37.812679
            ],
            [
              144.95699,
              -37.812679
            ],
            [
              144.956989,
              -37.812678
            ],
            [
              144.956987,
              -37.812678
            ],
            [
              144.956986,
              -37.812677
            ],
            [
              144.956985,
              -37.812677
            ],
            [
              144.956984,
              -37.812676
            ],
            [
              144.956983,
              -37.812676
            ],
            [
              144.956982,
              -37.812675
            ],
            [
              144.956981,
              -37.812675
            ],
            [
              144.956976,
              -37.81267
            ],
            [
              144.956975,
              -37.812668
            ],
            [
              144.956974,
              -37.812667
            ],
            [
              144.956972,
              -37.812663
            ],
            [
              144.956971,
              -37.81266
            ],
            [
              144.956969,
              -37.812656
            ],
            [
              144.956968,
              -37.812653
            ],
            [
              144.956967,
              -37.812652
            ],
            [
              144.956964,
              -37.812644
            ],
            [
              144.956961,
              -37.812639
            ],
            [
              144.956955,
              -37.812641
            ]
          ]
        ]
      }
    }
  ]
}