{
    "type": "FeatureCollection",
    "generator": "JOSM",
    "features": [
        {
            "type": "Feature",
            "properties": {
                "name": "polygon24",
                "type": "multipolygon"
            },
            "geometry": {
                "type": "MultiPolygon",
                "coordinates": [
                    [
                        [
                            [
                                144.96203600000,
                                -37.80218600000
                            ],
                            [
                                144.96203800000,
                                -37.80218600000
                            ],
                            [
                                144.96204300000,
                                -37.80218700000
                            ],
                            [
                                144.96213900000,
                                -37.80219700000
                            ],
                            [
                                144.96219500000,
                                -37.80220300000
                            ],
                            [
                                144.96228000000,
                                -37.80221300000
                            ],
                            [
                                144.96229500000,
                                -37.80221400000
                            ],
                            [
                                144.96229900000,
                                -37.80221500000
                            ],
                            [
                                144.96233700000,
                                -37.80221900000
                            ],
                            [
                                144.96235100000,
                                -37.80214000000
                            ],
                            [
                                144.96236300000,
                                -37.80206700000
                            ],
                            [
                                144.96240400000,
                                -37.80181700000
                            ],
                            [
                                144.96240500000,
                                -37.80181100000
                            ],
                            [
                                144.96240700000,
                                -37.80180500000
                            ],
                            [
                                144.96240900000,
                                -37.80180300000
                            ],
                            [
                                144.96241500000,
                                -37.80177000000
                            ],
                            [
                                144.96241800000,
                                -37.80175100000
                            ],
                            [
                                144.96241700000,
                                -37.80174900000
                            ],
                            [
                                144.96241700000,
                                -37.80173900000
                            ],
                            [
                                144.96241800000,
                                -37.80173400000
                            ],
                            [
                                144.96241100000,
                                -37.80173400000
                            ],
                            [
                                144.96242100000,
                                -37.80173100000
                            ],
                            [
                                144.96243400000,
                                -37.80165700000
                            ],
                            [
                                144.96240600000,
                                -37.80165400000
                            ],
                            [
                                144.96240400000,
                                -37.80165400000
                            ],
                            [
                                144.96240200000,
                                -37.80165200000
                            ],
                            [
                                144.96240200000,
                                -37.80165100000
                            ],
                            [
                                144.96240100000,
                                -37.80165100000
                            ],
                            [
                                144.96240100000,
                                -37.80164700000
                            ],
                            [
                                144.96240700000,
                                -37.80160800000
                            ],
                            [
                                144.96240900000,
                                -37.80160600000
                            ],
                            [
                                144.96241100000,
                                -37.80160600000
                            ],
                            [
                                144.96241200000,
                                -37.80160500000
                            ],
                            [
                                144.96241400000,
                                -37.80160500000
                            ],
                            [
                                144.96244200000,
                                -37.80160900000
                            ],
                            [
                                144.96245600000,
                                -37.80153000000
                            ],
                            [
                                144.96246068109,
                                -37.80150036037
                            ],
                            [
                                144.96241900000,
                                -37.80149600000
                            ],
                            [
                                144.96231400000,
                                -37.80148400000
                            ],
                            [
                                144.96226600000,
                                -37.80147900000
                            ],
                            [
                                144.96217800000,
                                -37.80146900000
                            ],
                            [
                                144.96216300000,
                                -37.80146800000
                            ],
                            [
                                144.96216000000,
                                -37.80146800000
                            ],
                            [
                                144.96212300000,
                                -37.80146300000
                            ],
                            [
                                144.96209900000,
                                -37.80159800000
                            ],
                            [
                                144.96209900000,
                                -37.80160100000
                            ],
                            [
                                144.96209600000,
                                -37.80161800000
                            ],
                            [
                                144.96209500000,
                                -37.80162500000
                            ],
                            [
                                144.96209200000,
                                -37.80163800000
                            ],
                            [
                                144.96209200000,
                                -37.80164100000
                            ],
                            [
                                144.96207600000,
                                -37.80173200000
                            ],
                            [
                                144.96204500000,
                                -37.80191000000
                            ],
                            [
                                144.96199700000,
                                -37.80218200000
                            ],
                            [
                                144.96203600000,
                                -37.80218600000
                            ]
                        ],
                        [
                            [
                                144.96202600000,
                                -37.80216100000
                            ],
                            [
                                144.96203000000,
                                -37.80213900000
                            ],
                            [
                                144.96204400000,
                                -37.80214000000
                            ],
                            [
                                144.96204000000,
                                -37.80216200000
                            ],
                            [
                                144.96202600000,
                                -37.80216100000
                            ]
                        ],
                        [
                            [
                                144.96203600000,
                                -37.80210700000
                            ],
                            [
                                144.96203800000,
                                -37.80209100000
                            ],
                            [
                                144.96205200000,
                                -37.80209300000
                            ],
                            [
                                144.96204900000,
                                -37.80210900000
                            ],
                            [
                                144.96203600000,
                                -37.80210700000
                            ]
                        ],
                        [
                            [
                                144.96204700000,
                                -37.80204300000
                            ],
                            [
                                144.96204900000,
                                -37.80202900000
                            ],
                            [
                                144.96206300000,
                                -37.80203000000
                            ],
                            [
                                144.96206000000,
                                -37.80204400000
                            ],
                            [
                                144.96204700000,
                                -37.80204300000
                            ]
                        ]
                    ]
                ]
            }
        }
    ]
}