{
  "type": "FeatureCollection",
  "features": [
    {
      "type": "Feature",
      "properties": {
        "name": "polygon99"
      },
      "geometry": {
        "type": "MultiPolygon",
        "coordinates": [
          [
            [
              [
                144.96391,
                -37.816286
              ],
              [
                144.963936,
                -37.816341
              ],
              [
                144.963937,
                -37.816343
              ],
              [
                144.963939,
                -37.816346
              ],
              [
                144.963959,
                -37.816388
              ],
              [
                144.964315,
                -37.817181
              ],
              [
                144.96432,
                -37.817193
              ],
              [
                144.964326,
                -37.817206
              ],
              [
                144.964333,
                -37.817218
              ],
              [
                144.964335,
                -37.817222
              ],
              [
                144.964353,
                -37.817256
              ],
              [
                144.964354,
                -37.817258
              ],
              [
                144.964356,
                -37.817261
              ],
              [
                144.964371,
                -37.817289
              ],
              [
                144.964376,
                -37.817299
              ],
              [
                144.964378,
                -37.817305
              ],
              [
                144.964383,
                -37.817314
              ],
              [
                144.96446,
                -37.817481
              ],
              [
                144.96457,
                -37.817718
              ],
              [
                144.964571,
                -37.81772
              ],
              [
                144.964572,
                -37.817723
              ],
              [
                144.964583,
                -37.817746
              ],
              [
                144.964584,
                -37.817749
              ],
              [
                144.964746,
                -37.818099
              ],
              [
                144.964758,
                -37.818125
              ],
              [
                144.964759,
                -37.818128
              ],
              [
                144.96476,
                -37.81813
              ],
              [
                144.964761,
                -37.818131
              ],
              [
                144.964795,
                -37.818205
              ],
              [
                144.964954,
                -37.818159
              ],
              [
                144.965047,
                -37.818132
              ],
              [
                144.96512,
                -37.818111
              ],
              [
                144.96509,
                -37.818046
              ],
              [
                144.965089,
                -37.818043
              ],
              [
                144.965088,
                -37.818041
              ],
              [
                144.965073,
                -37.818008
              ],
              [
                144.965052,
                -37.817962
              ],
              [
                144.964699,
                -37.817194
              ],
              [
                144.96469,
                -37.817177
              ],
              [
                144.964689,
                -37.817175
              ],
              [
                144.964687,
                -37.817173
              ],
              [
                144.964662,
                -37.817127
              ],
              [
                144.964661,
                -37.817125
              ],
              [
                144.964659,
                -37.817122
              ],
              [
                144.964646,
                -37.817099
              ],
              [
                144.964284,
                -37.816295
              ],
              [
                144.964263,
                -37.816252
              ],
              [
                144.964262,
                -37.816249
              ],
              [
                144.964261,
                -37.816247
              ],
              [
                144.964234,
                -37.816192
              ],
              [
                144.964131,
                -37.816222
              ],
              [
                144.964105,
                -37.81623
              ],
              [
                144.964118,
                -37.816258
              ],
              [
                144.964118,
                -37.816259
              ],
              [
                144.964152,
                -37.816333
              ],
              [
                144.96431,
                -37.816679
              ],
              [
                144.964417,
                -37.816914
              ],
              [
                144.9645,
                -37.817093
              ],
              [
                144.96452,
                -37.817135
              ],
              [
                144.964536,
                -37.81717
              ],
              [
                144.964566,
                -37.817237
              ],
              [
                144.96459,
                -37.817289
              ],
              [
                144.96459,
                -37.817291
              ],
              [
                144.964602,
                -37.817316
              ],
              [
                144.964603,
                -37.817319
              ],
              [
                144.96469,
                -37.817512
              ],
              [
                144.964756,
                -37.817661
              ],
              [
                144.964815,
                -37.817789
              ],
              [
                144.964911,
                -37.817998
              ],
              [
                144.964913,
                -37.818
              ],
              [
                144.964886,
                -37.818007
              ],
              [
                144.964882,
                -37.817999
              ],
              [
                144.964876,
                -37.818
              ],
              [
                144.964867,
                -37.81798
              ],
              [
                144.964725,
                -37.81767
              ],
              [
                144.964595,
                -37.817385
              ],
              [
                144.964603,
                -37.817383
              ],
              [
                144.964564,
                -37.817298
              ],
              [
                144.964547,
                -37.817303
              ],
              [
                144.964548,
                -37.817304
              ],
              [
                144.964561,
                -37.81737
              ],
              [
                144.964566,
                -37.817391
              ],
              [
                144.964566,
                -37.817392
              ],
              [
                144.964567,
                -37.817392
              ],
              [
                144.964716,
                -37.817717
              ],
              [
                144.964795,
                -37.817891
              ],
              [
                144.964766,
                -37.817899
              ],
              [
                144.964686,
                -37.817726
              ],
              [
                144.964661,
                -37.81767
              ],
              [
                144.964564,
                -37.817458
              ],
              [
                144.964554,
                -37.817437
              ],
              [
                144.964545,
                -37.817416
              ],
              [
                144.964538,
                -37.817394
              ],
              [
                144.964532,
                -37.817372
              ],
              [
                144.964525,
                -37.817341
              ],
              [
                144.964525,
                -37.817338
              ],
              [
                144.964519,
                -37.817311
              ],
              [
                144.964518,
                -37.817307
              ],
              [
                144.964512,
                -37.817282
              ],
              [
                144.964504,
                -37.817259
              ],
              [
                144.964503,
                -37.817257
              ],
              [
                144.964493,
                -37.817235
              ],
              [
                144.964482,
                -37.817211
              ],
              [
                144.964456,
                -37.817154
              ],
              [
                144.964436,
                -37.817111
              ],
              [
                144.964264,
                -37.816735
              ],
              [
                144.964088,
                -37.816351
              ],
              [
                144.96405,
                -37.816269
              ],
              [
                144.964041,
                -37.816249
              ],
              [
                144.96391,
                -37.816286
              ]
            ],
            [
              [
                144.964516,
                -37.817501
              ],
              [
                144.964532,
                -37.817496
              ],
              [
                144.96454,
                -37.817513
              ],
              [
                144.964524,
                -37.817518
              ],
              [
                144.964516,
                -37.817501
              ]
            ],
            [
              [
                144.964642,
                -37.817734
              ],
              [
                144.964643,
                -37.817734
              ],
              [
                144.964644,
                -37.817735
              ],
              [
                144.964643,
                -37.817735
              ],
              [
                144.964642,
                -37.817734
              ]
            ],
            [
              [
                144.964729,
                -37.817964
              ],
              [
                144.964745,
                -37.81796
              ],
              [
                144.964753,
                -37.817976
              ],
              [
                144.964737,
                -37.817981
              ],
              [
                144.964729,
                -37.817964
              ]
            ],
            [
              [
                144.964785,
                -37.81812
              ],
              [
                144.964786,
                -37.818119
              ],
              [
                144.96479,
                -37.818117
              ],
              [
                144.964787,
                -37.818119
              ],
              [
                144.964785,
                -37.81812
              ]
            ],
            [
              [
                144.964799,
                -37.818107000000005
              ],
              [
                144.9648,
                -37.818105
              ],
              [
                144.9648016,
                -37.8181026
              ],
              [
                144.964801,
                -37.818105
              ],
              [
                144.964799,
                -37.818107000000005
              ]
            ],
            [
              [
                144.96480266666666,
                -37.8181
              ],
              [
                144.964803,
                -37.818099
              ],
              [
                144.964804,
                -37.818095
              ],
              [
                144.964805,
                -37.818092
              ],
              [
                144.964805,
                -37.818094
              ],
              [
                144.964804,
                -37.818098
              ],
              [
                144.96480266666666,
                -37.8181
              ]
            ]
          ],
          [
            [
              [
                144.964817,
                -37.818254
              ],
              [
                144.964849,
                -37.818322
              ],
              [
                144.96485,
                -37.818324
              ],
              [
                144.964851,
                -37.818327
              ],
              [
                144.964864,
                -37.818355
              ],
              [
                144.96519,
                -37.818261
              ],
              [
                144.965176,
                -37.818232
              ],
              [
                144.965174,
                -37.818228
              ],
              [
                144.965143,
                -37.81816
              ],
              [
                144.965094,
                -37.818174
              ],
              [
                144.965076,
                -37.818179
              ],
              [
                144.965075,
                -37.81818
              ],
              [
                144.964817,
                -37.818254
              ]
            ]
          ]
        ]
      }
    }
  ]
}