{
  "type": "FeatureCollection",
  "features": [
    {
      "type": "Feature",
      "properties": {
        "name": "polygon18"
      },
      "geometry": {
        "type": "Polygon",
        "coordinates": [
          [
            [
              144.988415,
              -37.812054
            ],
            [
              144.988437,
              -37.812057
            ],
            [
              144.988444,
              -37.812057
            ],
            [
              144.988451,
              -37.812056
            ],
            [
              144.98846,
              -37.812053
            ],
            [
              144.988467,
              -37.812049
            ],
            [
              144.988471,
              -37.812045
            ],
            [
              144.988475,
              -37.812039
            ],
            [
              144.988477,
              -37.812037
            ],
            [
              144.988481,
              -37.812016
            ],
            [
              144.988553,
              -37.812025
            ],
            [
              144.988553,
              -37.812026
            ],
            [
              144.988556,
              -37.812028
            ],
            [
              144.988559,
              -37.812029
            ],
            [
              144.988628,
              -37.812037
            ],
            [
              144.988631,
              -37.812036
            ],
            [
              144.988633,
              -37.812036
            ],
            [
              144.988718,
              -37.812046
            ],
            [
              144.988717,
              -37.812057
            ],
            [
              144.988716,
              -37.81206
            ],
            [
              144.988716,
              -37.81207
            ],
            [
              144.988717,
              -37.812074
            ],
            [
              144.988723,
              -37.81208
            ],
            [
              144.988726,
              -37.812082
            ],
            [
              144.988728,
              -37.812084
            ],
            [
              144.988732,
              -37.812085
            ],
            [
              144.988753,
              -37.812087
            ],
            [
              144.988754,
              -37.812085
            ],
            [
              144.988754,
              -37.812083
            ],
            [
              144.988759,
              -37.812052
            ],
            [
              144.988802,
              -37.811806
            ],
            [
              144.988802,
              -37.811805
            ],
            [
              144.988807,
              -37.81178
            ],
            [
              144.988807,
              -37.811777
            ],
            [
              144.988917,
              -37.811142
            ],
            [
              144.988879,
              -37.811137
            ],
            [
              144.988874,
              -37.811137
            ],
            [
              144.988874,
              -37.811135
            ],
            [
              144.988877,
              -37.811129
            ],
            [
              144.988879,
              -37.811127
            ],
            [
              144.98888,
              -37.811125
            ],
            [
              144.988885,
              -37.81112
            ],
            [
              144.988887,
              -37.811119
            ],
            [
              144.988889,
              -37.811117
            ],
            [
              144.988893,
              -37.811115
            ],
            [
              144.988898,
              -37.811113
            ],
            [
              144.9889,
              -37.811112
            ],
            [
              144.988903,
              -37.811111
            ],
            [
              144.988905,
              -37.81111
            ],
            [
              144.988908,
              -37.81111
            ],
            [
              144.98891,
              -37.811109
            ],
            [
              144.988923,
              -37.811109
            ],
            [
              144.988939,
              -37.811019
            ],
            [
              144.988939,
              -37.811015
            ],
            [
              144.98894,
              -37.811011
            ],
            [
              144.988608,
              -37.810973
            ],
            [
              144.98859,
              -37.811071
            ],
            [
              144.98859,
              -37.811075
            ],
            [
              144.988589,
              -37.811077
            ],
            [
              144.988584,
              -37.811104
            ],
            [
              144.988544,
              -37.811334
            ],
            [
              144.988543,
              -37.811335
            ],
            [
              144.988543,
              -37.811338
            ],
            [
              144.988511,
              -37.811526
            ],
            [
              144.988509,
              -37.811526
            ],
            [
              144.988506,
              -37.811544
            ],
            [
              144.988509,
              -37.811544
            ],
            [
              144.988503,
              -37.811575
            ],
            [
              144.988483,
              -37.811689
            ],
            [
              144.98848,
              -37.811688
            ],
            [
              144.988478,
              -37.8117
            ],
            [
              144.988481,
              -37.8117
            ],
            [
              144.988436,
              -37.81195
            ],
            [
              144.988426,
              -37.812009
            ],
            [
              144.988426,
              -37.812011
            ],
            [
              144.988423,
              -37.812011
            ],
            [
              144.988417,
              -37.812044
            ],
            [
              144.988417,
              -37.812046
            ],
            [
              144.988415,
              -37.812054
            ]
          ]
        ]
      }
    }
  ]
}