{
  "type": "FeatureCollection",
  "features": [
    {
      "type": "Feature",
      "properties": {
        "name": "polygon23"
      },
      "geometry": {
        "type": "Polygon",
        "coordinates": [
          [
            [
              144.972624,
              -37.818122
            ],
            [
              144.972654,
              -37.818143
            ],
            [
              144.972998,
              -37.81784
            ],
            [
              144.973102,
              -37.817748
            ],
            [
              144.973411,
              -37.818095
            ],
            [
              144.97345,
              -37.818077
            ],
            [
              144.973258,
              -37.817859
            ],
            [
              144.973156,
              -37.817743
            ],
            [
              144.973146,
              -37.817721
            ],
            [
              144.973154,
              -37.817705
            ],
            [
              144.973254,
              -37.817616
            ],
            [
              144.97329,
              -37.817583
            ],
            [
              144.973312,
              -37.817562
            ],
            [
              144.97333,
              -37.817546
            ],
            [
              144.973331,
              -37.817545
            ],
            [
              144.973367,
              -37.817513
            ],
            [
              144.973588,
              -37.817443
            ],
            [
              144.973411,
              -37.817342
            ],
            [
              144.9734,
              -37.81736
            ],
            [
              144.973399,
              -37.81736
            ],
            [
              144.973298,
              -37.817518
            ],
            [
              144.973294,
              -37.817517
            ],
            [
              144.973213,
              -37.817544
            ],
            [
              144.972992,
              -37.817616
            ],
            [
              144.972767,
              -37.817689
            ],
            [
              144.972765,
              -37.817687
            ],
            [
              144.97276,
              -37.817689
            ],
            [
              144.972721,
              -37.817701
            ],
            [
              144.972723,
              -37.817704
            ],
            [
              144.972724,
              -37.817705
            ],
            [
              144.972725,
              -37.817705
            ],
            [
              144.972746,
              -37.817727
            ],
            [
              144.973008,
              -37.817643
            ],
            [
              144.973079,
              -37.817722
            ],
            [
              144.972624,
              -37.818122
            ]
          ]
        ]
      }
    }
  ]
}