{
    "type": "FeatureCollection",
    "generator": "JOSM",
    "features": [
        {
            "type": "Feature",
            "properties": {
                "name": "polygon19",
                "type": "multipolygon"
            },
            "geometry": {
                "type": "MultiPolygon",
                "coordinates": [
                    [
                        [
                            [
                                144.96642900000,
                                -37.80266200000
                            ],
                            [
                                144.96643000000,
                                -37.80266200000
                            ],
                            [
                                144.96645500000,
                                -37.80266500000
                            ],
                            [
                                144.96645800000,
                                -37.80266500000
                            ],
                            [
                                144.96648600000,
                                -37.80266800000
                            ],
                            [
                                144.96648900000,
                                -37.80266800000
                            ],
                            [
                                144.96649100000,
                                -37.80266900000
                            ],
                            [
                                144.96658200000,
                                -37.80267900000
                            ],
                            [
                                144.96661200000,
                                -37.80268200000
                            ],
                            [
                                144.96670100000,
                                -37.80269100000
                            ],
                            [
                                144.96670000000,
                                -37.80269800000
                            ],
                            [
                                144.96670500000,
                                -37.80269800000
                            ],
                            [
                                144.96670400000,
                                -37.80270700000
                            ],
                            [
                                144.96670300000,
                                -37.80271400000
                            ],
                            [
                                144.96670300000,
                                -37.80271500000
                            ],
                            [
                                144.96670400000,
                                -37.80272200000
                            ],
                            [
                                144.96670700000,
                                -37.80272900000
                            ],
                            [
                                144.96671200000,
                                -37.80273600000
                            ],
                            [
                                144.96671700000,
                                -37.80274200000
                            ],
                            [
                                144.96672400000,
                                -37.80274700000
                            ],
                            [
                                144.96673200000,
                                -37.80275100000
                            ],
                            [
                                144.96674100000,
                                -37.80275400000
                            ],
                            [
                                144.96675000000,
                                -37.80275600000
                            ],
                            [
                                144.96675700000,
                                -37.80275600000
                            ],
                            [
                                144.96676700000,
                                -37.80269900000
                            ],
                            [
                                144.96684300000,
                                -37.80225100000
                            ],
                            [
                                144.96688900000,
                                -37.80198400000
                            ],
                            [
                                144.96682700000,
                                -37.80197800000
                            ],
                            [
                                144.96682400000,
                                -37.80197700000
                            ],
                            [
                                144.96682200000,
                                -37.80197700000
                            ],
                            [
                                144.96672000000,
                                -37.80196600000
                            ],
                            [
                                144.96661700000,
                                -37.80195500000
                            ],
                            [
                                144.96661600000,
                                -37.80195800000
                            ],
                            [
                                144.96661300000,
                                -37.80196300000
                            ],
                            [
                                144.96660900000,
                                -37.80196900000
                            ],
                            [
                                144.96660500000,
                                -37.80197200000
                            ],
                            [
                                144.96659700000,
                                -37.80197600000
                            ],
                            [
                                144.96659200000,
                                -37.80197800000
                            ],
                            [
                                144.96658500000,
                                -37.80198000000
                            ],
                            [
                                144.96657900000,
                                -37.80198100000
                            ],
                            [
                                144.96657100000,
                                -37.80198100000
                            ],
                            [
                                144.96655100000,
                                -37.80197900000
                            ],
                            [
                                144.96654900000,
                                -37.80198700000
                            ],
                            [
                                144.96653500000,
                                -37.80198500000
                            ],
                            [
                                144.96652600000,
                                -37.80205200000
                            ],
                            [
                                144.96651900000,
                                -37.80210400000
                            ],
                            [
                                144.96651000000,
                                -37.80217400000
                            ],
                            [
                                144.96650900000,
                                -37.80217900000
                            ],
                            [
                                144.96650900000,
                                -37.80218300000
                            ],
                            [
                                144.96650500000,
                                -37.80221500000
                            ],
                            [
                                144.96650300000,
                                -37.80222700000
                            ],
                            [
                                144.96650200000,
                                -37.80223000000
                            ],
                            [
                                144.96649700000,
                                -37.80225700000
                            ],
                            [
                                144.96646200000,
                                -37.80246900000
                            ],
                            [
                                144.96642900000,
                                -37.80266200000
                            ]
                        ],
                        [
                            [
                                144.96647900000,
                                -37.80260600000
                            ],
                            [
                                144.96648300000,
                                -37.80258300000
                            ],
                            [
                                144.96650000000,
                                -37.80258500000
                            ],
                            [
                                144.96649600000,
                                -37.80260700000
                            ],
                            [
                                144.96647900000,
                                -37.80260600000
                            ]
                        ],
                        [
                            [
                                144.96650000000,
                                -37.80248200000
                            ],
                            [
                                144.96650400000,
                                -37.80245900000
                            ],
                            [
                                144.96652100000,
                                -37.80246100000
                            ],
                            [
                                144.96651700000,
                                -37.80248400000
                            ],
                            [
                                144.96650000000,
                                -37.80248200000
                            ]
                        ],
                        [
                            [
                                144.96652200000,
                                -37.80235500000
                            ],
                            [
                                144.96652500000,
                                -37.80233200000
                            ],
                            [
                                144.96654200000,
                                -37.80233400000
                            ],
                            [
                                144.96653800000,
                                -37.80235700000
                            ],
                            [
                                144.96652200000,
                                -37.80235500000
                            ]
                        ],
                        [
                            [
                                144.96654300000,
                                -37.80222800000
                            ],
                            [
                                144.96654500000,
                                -37.80221400000
                            ],
                            [
                                144.96656200000,
                                -37.80221600000
                            ],
                            [
                                144.96656100000,
                                -37.80222100000
                            ],
                            [
                                144.96656000000,
                                -37.80222900000
                            ],
                            [
                                144.96654300000,
                                -37.80222800000
                            ]
                        ]
                    ]
                ]
            }
        }
    ]
}