{
  "type": "FeatureCollection",
  "features": [
    {
      "type": "Feature",
      "properties": {
        "name": "polygon56"
      },
      "geometry": {
        "type": "Polygon",
        "coordinates": [
          [
            [
              144.944202,
              -37.819864
            ],
            [
              144.944357,
              -37.820201
            ],
            [
              144.944357,
              -37.820202
            ],
            [
              144.944358,
              -37.820202
            ],
            [
              144.944369,
              -37.820228
            ],
            [
              144.944379,
              -37.820248
            ],
            [
              144.944379,
              -37.82025
            ],
            [
              144.944476,
              -37.820461
            ],
            [
              144.9445,
              -37.820512
            ],
            [
              144.944545,
              -37.820499
            ],
            [
              144.944547,
              -37.820498
            ],
            [
              144.944612,
              -37.820479
            ],
            [
              144.944615,
              -37.820478
            ],
            [
              144.944635,
              -37.820473
            ],
            [
              144.944638,
              -37.820472
            ],
            [
              144.94466,
              -37.820465
            ],
            [
              144.944593,
              -37.820321
            ],
            [
              144.944558,
              -37.820243
            ],
            [
              144.944556,
              -37.82024
            ],
            [
              144.944553,
              -37.820233
            ],
            [
              144.944546,
              -37.820217
            ],
            [
              144.944545,
              -37.820216
            ],
            [
              144.944543,
              -37.820212
            ],
            [
              144.944436,
              -37.819979
            ],
            [
              144.944417,
              -37.819984
            ],
            [
              144.944395,
              -37.81999
            ],
            [
              144.944394,
              -37.819991
            ],
            [
              144.944393,
              -37.819991
            ],
            [
              144.944392,
              -37.819992
            ],
            [
              144.944392,
              -37.819994
            ],
            [
              144.9444,
              -37.820012
            ],
            [
              144.944401,
              -37.820013
            ],
            [
              144.944401,
              -37.820014
            ],
            [
              144.944404,
              -37.820014
            ],
            [
              144.944405,
              -37.820015
            ],
            [
              144.944406,
              -37.820014
            ],
            [
              144.944418,
              -37.820011
            ],
            [
              144.944424,
              -37.820011
            ],
            [
              144.944426,
              -37.820012
            ],
            [
              144.944427,
              -37.820013
            ],
            [
              144.944429,
              -37.820014
            ],
            [
              144.94443,
              -37.820016
            ],
            [
              144.944442,
              -37.820042
            ],
            [
              144.944449,
              -37.82004
            ],
            [
              144.944455,
              -37.820052
            ],
            [
              144.944447,
              -37.820054
            ],
            [
              144.944451,
              -37.820062
            ],
            [
              144.944471,
              -37.820105
            ],
            [
              144.944478,
              -37.820103
            ],
            [
              144.944484,
              -37.820114
            ],
            [
              144.944476,
              -37.820117
            ],
            [
              144.944478,
              -37.82012
            ],
            [
              144.944479,
              -37.820122
            ],
            [
              144.944478,
              -37.820124
            ],
            [
              144.944478,
              -37.820126
            ],
            [
              144.944476,
              -37.820128
            ],
            [
              144.944472,
              -37.82013
            ],
            [
              144.944461,
              -37.820133
            ],
            [
              144.944458,
              -37.820136
            ],
            [
              144.944456,
              -37.820137
            ],
            [
              144.944455,
              -37.820137
            ],
            [
              144.944457,
              -37.820133
            ],
            [
              144.944458,
              -37.820132
            ],
            [
              144.94446,
              -37.820131
            ],
            [
              144.944472,
              -37.820128
            ],
            [
              144.944474,
              -37.820127
            ],
            [
              144.944476,
              -37.820125
            ],
            [
              144.944476,
              -37.820122
            ],
            [
              144.944471,
              -37.820112
            ],
            [
              144.944452,
              -37.82007
            ],
            [
              144.944427,
              -37.820016
            ],
            [
              144.944426,
              -37.820015
            ],
            [
              144.944425,
              -37.820013
            ],
            [
              144.944419,
              -37.820013
            ],
            [
              144.944408,
              -37.820016
            ],
            [
              144.944406,
              -37.820016
            ],
            [
              144.944404,
              -37.820017
            ],
            [
              144.9444,
              -37.820015
            ],
            [
              144.944398,
              -37.820013
            ],
            [
              144.94439,
              -37.819995
            ],
            [
              144.9443892631579,
              -37.819993473684214
            ],
            [
              144.94439,
              -37.819992
            ],
            [
              144.94439,
              -37.819991
            ],
            [
              144.944391,
              -37.81999
            ],
            [
              144.944393,
              -37.819989
            ],
            [
              144.944394,
              -37.819988
            ],
            [
              144.944416,
              -37.819982
            ],
            [
              144.944435,
              -37.819977
            ],
            [
              144.944413,
              -37.819928
            ],
            [
              144.944412,
              -37.819927
            ],
            [
              144.944362,
              -37.819818
            ],
            [
              144.944318,
              -37.819831
            ],
            [
              144.944315,
              -37.819832
            ],
            [
              144.944312,
              -37.819832
            ],
            [
              144.944252,
              -37.81985
            ],
            [
              144.944249,
              -37.819851
            ],
            [
              144.944246,
              -37.819851
            ],
            [
              144.944202,
              -37.819864
            ]
          ]
        ]
      }
    }
  ]
}