{
  "type": "FeatureCollection",
  "features": [
    {
      "type": "Feature",
      "properties": {
        "name": "polygon203"
      },
      "geometry": {
        "type": "Polygon",
        "coordinates": [
          [
            [
              144.963178,
              -37.819612
            ],
            [
              144.963179,
              -37.819615
            ],
            [
              144.963236,
              -37.819602
            ],
            [
              144.96332,
              -37.819582
            ],
            [
              144.963355,
              -37.819596
            ],
            [
              144.963321,
              -37.819624
            ],
            [
              144.963304,
              -37.819639
            ],
            [
              144.963258,
              -37.819677
            ],
            [
              144.963248,
              -37.819679
            ],
            [
              144.963235,
              -37.81969
            ],
            [
              144.963232,
              -37.819693
            ],
            [
              144.963281,
              -37.819692
            ],
            [
              144.963683,
              -37.819605
            ],
            [
              144.963795,
              -37.819581
            ],
            [
              144.963853,
              -37.819533
            ],
            [
              144.964916,
              -37.819313
            ],
            [
              144.965132,
              -37.81927
            ],
            [
              144.965213,
              -37.819254
            ],
            [
              144.965213,
              -37.819251
            ],
            [
              144.965214,
              -37.819251
            ],
            [
              144.965488,
              -37.819196
            ],
            [
              144.965489,
              -37.819197
            ],
            [
              144.965549,
              -37.819223
            ],
            [
              144.965582,
              -37.819178
            ],
            [
              144.965582,
              -37.819177
            ],
            [
              144.965601,
              -37.819173
            ],
            [
              144.965752,
              -37.819143
            ],
            [
              144.966228,
              -37.819058
            ],
            [
              144.966619,
              -37.819
            ],
            [
              144.967045,
              -37.818948
            ],
            [
              144.967768,
              -37.818887
            ],
            [
              144.967895,
              -37.818855
            ],
            [
              144.967955,
              -37.818852
            ],
            [
              144.968187,
              -37.818841
            ],
            [
              144.968253,
              -37.818837
            ],
            [
              144.96825,
              -37.818831
            ],
            [
              144.968241,
              -37.818811
            ],
            [
              144.968175,
              -37.818814
            ],
            [
              144.967943,
              -37.818826
            ],
            [
              144.967901,
              -37.818828
            ],
            [
              144.96788,
              -37.818823
            ],
            [
              144.967698,
              -37.818835
            ],
            [
              144.967701,
              -37.818856
            ],
            [
              144.967698,
              -37.818857
            ],
            [
              144.967675,
              -37.818858
            ],
            [
              144.967677,
              -37.818868
            ],
            [
              144.96754,
              -37.818878
            ],
            [
              144.967566,
              -37.818844
            ],
            [
              144.967671,
              -37.818836
            ],
            [
              144.967672,
              -37.818836
            ],
            [
              144.967695,
              -37.818834
            ],
            [
              144.967694,
              -37.818831
            ],
            [
              144.967747,
              -37.818828
            ],
            [
              144.967755,
              -37.818812
            ],
            [
              144.967815,
              -37.818808
            ],
            [
              144.967811,
              -37.81878
            ],
            [
              144.967795,
              -37.818782
            ],
            [
              144.967795,
              -37.818781
            ],
            [
              144.967774,
              -37.818782
            ],
            [
              144.967762,
              -37.818791
            ],
            [
              144.967754,
              -37.818796
            ],
            [
              144.967745,
              -37.818799
            ],
            [
              144.967733,
              -37.8188
            ],
            [
              144.967722,
              -37.8188
            ],
            [
              144.967709,
              -37.818799
            ],
            [
              144.967698,
              -37.818796
            ],
            [
              144.967689,
              -37.818792
            ],
            [
              144.967682,
              -37.818786
            ],
            [
              144.967626,
              -37.81879
            ],
            [
              144.967624,
              -37.818768
            ],
            [
              144.967618,
              -37.818769
            ],
            [
              144.967612,
              -37.818771
            ],
            [
              144.967605,
              -37.818774
            ],
            [
              144.967604,
              -37.818776
            ],
            [
              144.967561,
              -37.818776
            ],
            [
              144.967479,
              -37.818884
            ],
            [
              144.967156,
              -37.818911
            ],
            [
              144.967141,
              -37.818901
            ],
            [
              144.967026,
              -37.818912
            ],
            [
              144.967015,
              -37.818924
            ],
            [
              144.966617,
              -37.818973
            ],
            [
              144.966613,
              -37.818973
            ],
            [
              144.966226,
              -37.819031
            ],
            [
              144.966221,
              -37.819032
            ],
            [
              144.965883,
              -37.819092
            ],
            [
              144.965749,
              -37.819116
            ],
            [
              144.965744,
              -37.819117
            ],
            [
              144.965595,
              -37.819147
            ],
            [
              144.965575,
              -37.819151
            ],
            [
              144.965574,
              -37.819149
            ],
            [
              144.965594,
              -37.819145
            ],
            [
              144.965587,
              -37.819112
            ],
            [
              144.965574,
              -37.819114
            ],
            [
              144.965467,
              -37.819133
            ],
            [
              144.965459,
              -37.819145
            ],
            [
              144.965223,
              -37.819192
            ],
            [
              144.965214,
              -37.819191
            ],
            [
              144.96521,
              -37.819191
            ],
            [
              144.965175,
              -37.819189
            ],
            [
              144.965163,
              -37.819171
            ],
            [
              144.96516,
              -37.819165
            ],
            [
              144.964904,
              -37.819202
            ],
            [
              144.964614,
              -37.819237
            ],
            [
              144.964167,
              -37.819275
            ],
            [
              144.964115,
              -37.81928
            ],
            [
              144.964063,
              -37.819286
            ],
            [
              144.964012,
              -37.819294
            ],
            [
              144.963961,
              -37.819303
            ],
            [
              144.963909,
              -37.819313
            ],
            [
              144.963892,
              -37.819317
            ],
            [
              144.963963,
              -37.819371
            ],
            [
              144.96396,
              -37.819373
            ],
            [
              144.963888,
              -37.819318
            ],
            [
              144.963761,
              -37.819344
            ],
            [
              144.963613,
              -37.819379
            ],
            [
              144.963433,
              -37.819425
            ],
            [
              144.963439,
              -37.81944
            ],
            [
              144.963574,
              -37.819408
            ],
            [
              144.963576,
              -37.819413
            ],
            [
              144.963571,
              -37.819414
            ],
            [
              144.963565,
              -37.819416
            ],
            [
              144.963562,
              -37.819416
            ],
            [
              144.96344,
              -37.819445
            ],
            [
              144.963464,
              -37.819508
            ],
            [
              144.963223,
              -37.819565
            ],
            [
              144.963216,
              -37.819567
            ],
            [
              144.963216,
              -37.819569
            ],
            [
              144.963215,
              -37.819571
            ],
            [
              144.963215,
              -37.819573
            ],
            [
              144.963214,
              -37.819574
            ],
            [
              144.963214,
              -37.819576
            ],
            [
              144.96321,
              -37.819584
            ],
            [
              144.963209,
              -37.819585
            ],
            [
              144.963206,
              -37.819591
            ],
            [
              144.963194,
              -37.819603
            ],
            [
              144.963188,
              -37.819606
            ],
            [
              144.963186,
              -37.819608
            ],
            [
              144.963178,
              -37.819612
            ]
          ],
          [
            [
              144.963729,
              -37.819424
            ],
            [
              144.963733,
              -37.819423
            ],
            [
              144.963813,
              -37.81948
            ],
            [
              144.96381,
              -37.819483
            ],
            [
              144.963729,
              -37.819424
            ]
          ],
          [
            [
              144.963782,
              -37.819512
            ],
            [
              144.963996,
              -37.819469
            ],
            [
              144.963999,
              -37.819467
            ],
            [
              144.964011,
              -37.819455
            ],
            [
              144.96402,
              -37.819444
            ],
            [
              144.964027,
              -37.819432
            ],
            [
              144.964031,
              -37.819425
            ],
            [
              144.964032,
              -37.819423
            ],
            [
              144.964039,
              -37.819411
            ],
            [
              144.964044,
              -37.819407
            ],
            [
              144.964045,
              -37.819406
            ],
            [
              144.964049,
              -37.819403
            ],
            [
              144.964052,
              -37.819401
            ],
            [
              144.964054,
              -37.8194
            ],
            [
              144.964059,
              -37.819399
            ],
            [
              144.964061,
              -37.819398
            ],
            [
              144.964068,
              -37.819396
            ],
            [
              144.96407,
              -37.819396
            ],
            [
              144.964076,
              -37.819395
            ],
            [
              144.964081,
              -37.819395
            ],
            [
              144.964087,
              -37.819396
            ],
            [
              144.964088,
              -37.819397
            ],
            [
              144.964093,
              -37.819399
            ],
            [
              144.964087,
              -37.819414
            ],
            [
              144.964092,
              -37.819416
            ],
            [
              144.964097,
              -37.819417
            ],
            [
              144.964105,
              -37.81942
            ],
            [
              144.964123,
              -37.81942
            ],
            [
              144.964128,
              -37.819419
            ],
            [
              144.964131,
              -37.819419
            ],
            [
              144.964137,
              -37.819418
            ],
            [
              144.96414,
              -37.819417
            ],
            [
              144.964152,
              -37.819414
            ],
            [
              144.964166,
              -37.819406
            ],
            [
              144.964168,
              -37.819404
            ],
            [
              144.964179,
              -37.819394
            ],
            [
              144.964182,
              -37.819392
            ],
            [
              144.964183,
              -37.819391
            ],
            [
              144.964185,
              -37.81939
            ],
            [
              144.964186,
              -37.819389
            ],
            [
              144.964188,
              -37.819388
            ],
            [
              144.964192,
              -37.819387
            ],
            [
              144.964197,
              -37.819386
            ],
            [
              144.964199,
              -37.819385
            ],
            [
              144.964202,
              -37.819385
            ],
            [
              144.964206,
              -37.819384
            ],
            [
              144.964223,
              -37.819384
            ],
            [
              144.964227,
              -37.819385
            ],
            [
              144.964243,
              -37.819388
            ],
            [
              144.964246,
              -37.819389
            ],
            [
              144.96425,
              -37.819389
            ],
            [
              144.964257,
              -37.81939
            ],
            [
              144.96427,
              -37.81939
            ],
            [
              144.96428,
              -37.819389
            ],
            [
              144.964291,
              -37.819386
            ],
            [
              144.964301,
              -37.819382
            ],
            [
              144.964318,
              -37.819371
            ],
            [
              144.964321,
              -37.819368
            ],
            [
              144.964325,
              -37.819365
            ],
            [
              144.964328,
              -37.819363
            ],
            [
              144.96433,
              -37.819361
            ],
            [
              144.964333,
              -37.81936
            ],
            [
              144.964334,
              -37.819359
            ],
            [
              144.964339,
              -37.819358
            ],
            [
              144.964345,
              -37.819357
            ],
            [
              144.964358,
              -37.819357
            ],
            [
              144.96437,
              -37.819358
            ],
            [
              144.964384,
              -37.819361
            ],
            [
              144.964415,
              -37.819361
            ],
            [
              144.964423,
              -37.81936
            ],
            [
              144.964424,
              -37.819359
            ],
            [
              144.964436,
              -37.819357
            ],
            [
              144.964447,
              -37.819352
            ],
            [
              144.964457,
              -37.819344
            ],
            [
              144.964462,
              -37.819339
            ],
            [
              144.964464,
              -37.819335
            ],
            [
              144.964466,
              -37.819334
            ],
            [
              144.96447,
              -37.819331
            ],
            [
              144.964478,
              -37.819327
            ],
            [
              144.964486,
              -37.819326
            ],
            [
              144.964494,
              -37.819326
            ],
            [
              144.964499,
              -37.819327
            ],
            [
              144.964503,
              -37.819327
            ],
            [
              144.964516,
              -37.81933
            ],
            [
              144.964528,
              -37.819332
            ],
            [
              144.964539,
              -37.819333
            ],
            [
              144.964554,
              -37.819333
            ],
            [
              144.964566,
              -37.819331
            ],
            [
              144.964577,
              -37.819328
            ],
            [
              144.964582,
              -37.819326
            ],
            [
              144.964586,
              -37.819325
            ],
            [
              144.964591,
              -37.819322
            ],
            [
              144.964592,
              -37.819322
            ],
            [
              144.964596,
              -37.819319
            ],
            [
              144.964606,
              -37.819311
            ],
            [
              144.9646,
              -37.819306
            ],
            [
              144.964593,
              -37.8193
            ],
            [
              144.964598,
              -37.819296
            ],
            [
              144.964604,
              -37.819292
            ],
            [
              144.964605,
              -37.819291
            ],
            [
              144.964608,
              -37.81929
            ],
            [
              144.96461,
              -37.819289
            ],
            [
              144.964611,
              -37.819289
            ],
            [
              144.964612,
              -37.819288
            ],
            [
              144.964614,
              -37.819288
            ],
            [
              144.964617,
              -37.819287
            ],
            [
              144.964619,
              -37.819287
            ],
            [
              144.964629,
              -37.819285
            ],
            [
              144.96463,
              -37.819285
            ],
            [
              144.964639,
              -37.819284
            ],
            [
              144.96466,
              -37.819284
            ],
            [
              144.964671,
              -37.819283
            ],
            [
              144.964672,
              -37.819283
            ],
            [
              144.964681,
              -37.819282
            ],
            [
              144.96469,
              -37.81928
            ],
            [
              144.964704,
              -37.819276
            ],
            [
              144.964715,
              -37.819272
            ],
            [
              144.964725,
              -37.81927
            ],
            [
              144.964731,
              -37.819269
            ],
            [
              144.964744,
              -37.819267
            ],
            [
              144.964762,
              -37.819267
            ],
            [
              144.964774,
              -37.819268
            ],
            [
              144.964775,
              -37.819268
            ],
            [
              144.964786,
              -37.819269
            ],
            [
              144.964792,
              -37.81927
            ],
            [
              144.964798,
              -37.81927
            ],
            [
              144.964816,
              -37.819268
            ],
            [
              144.964832,
              -37.819265
            ],
            [
              144.964839,
              -37.819264
            ],
            [
              144.964845,
              -37.819262
            ],
            [
              144.964859,
              -37.819259
            ],
            [
              144.964864,
              -37.819257
            ],
            [
              144.96487,
              -37.819255
            ],
            [
              144.964872,
              -37.819253
            ],
            [
              144.964877,
              -37.819251
            ],
            [
              144.96488,
              -37.819249
            ],
            [
              144.964882,
              -37.819248
            ],
            [
              144.964891,
              -37.819246
            ],
            [
              144.964899,
              -37.819244
            ],
            [
              144.964902,
              -37.819243
            ],
            [
              144.964912,
              -37.819242
            ],
            [
              144.964957,
              -37.819242
            ],
            [
              144.964977,
              -37.81924
            ],
            [
              144.964983,
              -37.819239
            ],
            [
              144.964994,
              -37.819237
            ],
            [
              144.964994,
              -37.819235
            ],
            [
              144.965108,
              -37.819213
            ],
            [
              144.965109,
              -37.819214
            ],
            [
              144.965073,
              -37.819222
            ],
            [
              144.965056,
              -37.819225
            ],
            [
              144.965031,
              -37.81923
            ],
            [
              144.964997,
              -37.819237
            ],
            [
              144.965005,
              -37.819267
            ],
            [
              144.964812,
              -37.819305
            ],
            [
              144.964795,
              -37.819297
            ],
            [
              144.964684,
              -37.81932
            ],
            [
              144.964674,
              -37.819333
            ],
            [
              144.964415,
              -37.819386
            ],
            [
              144.964398,
              -37.819379
            ],
            [
              144.964289,
              -37.819401
            ],
            [
              144.964278,
              -37.819415
            ],
            [
              144.96401,
              -37.819471
            ],
            [
              144.963997,
              -37.819471
            ],
            [
              144.963996,
              -37.81947
            ],
            [
              144.963987,
              -37.819476
            ],
            [
              144.963972,
              -37.819483
            ],
            [
              144.963957,
              -37.819489
            ],
            [
              144.963941,
              -37.819495
            ],
            [
              144.963924,
              -37.819499
            ],
            [
              144.963906,
              -37.819503
            ],
            [
              144.963889,
              -37.819505
            ],
            [
              144.963871,
              -37.819507
            ],
            [
              144.963852,
              -37.819508
            ],
            [
              144.96381,
              -37.819508
            ],
            [
              144.963794,
              -37.819511
            ],
            [
              144.963782,
              -37.819512
            ]
          ],
          [
            [
              144.965037,
              -37.819257
            ],
            [
              144.96504,
              -37.819257
            ],
            [
              144.965065,
              -37.819251
            ],
            [
              144.965081,
              -37.819248
            ],
            [
              144.965117,
              -37.81924
            ],
            [
              144.965119,
              -37.81924
            ],
            [
              144.965123,
              -37.819239
            ],
            [
              144.965124,
              -37.819241
            ],
            [
              144.96512,
              -37.819242
            ],
            [
              144.965038,
              -37.81926
            ],
            [
              144.965037,
              -37.819257
            ]
          ]
        ]
      }
    }
  ]
}