{
  "type": "FeatureCollection",
  "features": [
    {
      "type": "Feature",
      "properties": {
        "name": "polygon18"
      },
      "geometry": {
        "type": "MultiPolygon",
        "coordinates": [
          [
            [
              [
                144.955834,
                -37.816215
              ],
              [
                144.955853,
                -37.816258
              ],
              [
                144.955854,
                -37.816261
              ],
              [
                144.955855,
                -37.816263
              ],
              [
                144.95588,
                -37.816318
              ],
              [
                144.957606,
                -37.815824
              ],
              [
                144.957606,
                -37.815823
              ],
              [
                144.957971,
                -37.815718
              ],
              [
                144.957972,
                -37.81572
              ],
              [
                144.958032,
                -37.815702
              ],
              [
                144.958006,
                -37.815648
              ],
              [
                144.958005,
                -37.815645
              ],
              [
                144.958004,
                -37.815643
              ],
              [
                144.957983,
                -37.815598
              ],
              [
                144.957614,
                -37.815703
              ],
              [
                144.957599,
                -37.815707
              ],
              [
                144.957553,
                -37.81572
              ],
              [
                144.957213,
                -37.815818
              ],
              [
                144.957203,
                -37.815821
              ],
              [
                144.957208,
                -37.815833
              ],
              [
                144.957222,
                -37.815863
              ],
              [
                144.957222,
                -37.815864
              ],
              [
                144.957223,
                -37.815864
              ],
              [
                144.957223,
                -37.815865
              ],
              [
                144.957225,
                -37.815865
              ],
              [
                144.957226,
                -37.815866
              ],
              [
                144.957231,
                -37.815866
              ],
              [
                144.957232,
                -37.815868
              ],
              [
                144.95723,
                -37.815868
              ],
              [
                144.95723,
                -37.815869
              ],
              [
                144.957227,
                -37.815869
              ],
              [
                144.957226,
                -37.815868
              ],
              [
                144.957223,
                -37.815868
              ],
              [
                144.957223,
                -37.815867
              ],
              [
                144.957221,
                -37.815867
              ],
              [
                144.957221,
                -37.815866
              ],
              [
                144.95722,
                -37.815866
              ],
              [
                144.95722,
                -37.815865
              ],
              [
                144.957219,
                -37.815865
              ],
              [
                144.957219,
                -37.815864
              ],
              [
                144.957218,
                -37.815863
              ],
              [
                144.957204,
                -37.815833
              ],
              [
                144.957199,
                -37.815822
              ],
              [
                144.957196,
                -37.815823
              ],
              [
                144.957165,
                -37.815832
              ],
              [
                144.957164,
                -37.815832
              ],
              [
                144.957162,
                -37.815833
              ],
              [
                144.957128,
                -37.815841
              ],
              [
                144.957132,
                -37.81585
              ],
              [
                144.957147,
                -37.815884
              ],
              [
                144.957148,
                -37.815886
              ],
              [
                144.957148,
                -37.815888
              ],
              [
                144.957147,
                -37.815889
              ],
              [
                144.957147,
                -37.81589
              ],
              [
                144.957143,
                -37.815894
              ],
              [
                144.957141,
                -37.815894
              ],
              [
                144.95714,
                -37.815892
              ],
              [
                144.957141,
                -37.815891
              ],
              [
                144.957142,
                -37.815891
              ],
              [
                144.957144,
                -37.815889
              ],
              [
                144.957144,
                -37.815885
              ],
              [
                144.957125,
                -37.815842
              ],
              [
                144.957124,
                -37.815842
              ],
              [
                144.956745,
                -37.815952
              ],
              [
                144.956718,
                -37.81596
              ],
              [
                144.956715,
                -37.815961
              ],
              [
                144.956713,
                -37.815962
              ],
              [
                144.956686,
                -37.81597
              ],
              [
                144.956683,
                -37.815963
              ],
              [
                144.95668,
                -37.81596
              ],
              [
                144.956678,
                -37.815959
              ],
              [
                144.956644,
                -37.81594
              ],
              [
                144.956642,
                -37.815941
              ],
              [
                144.956639,
                -37.815941
              ],
              [
                144.956638,
                -37.815942
              ],
              [
                144.956639,
                -37.815942
              ],
              [
                144.956639,
                -37.815943
              ],
              [
                144.95664,
                -37.815944
              ],
              [
                144.956641,
                -37.815944
              ],
              [
                144.956675,
                -37.815963
              ],
              [
                144.956676,
                -37.815963
              ],
              [
                144.956676,
                -37.815964
              ],
              [
                144.956677,
                -37.815965
              ],
              [
                144.95668,
                -37.815972
              ],
              [
                144.956649,
                -37.815982
              ],
              [
                144.955834,
                -37.816215
              ]
            ],
            [
              [
                144.956803,
                -37.815973
              ],
              [
                144.956819,
                -37.815969
              ],
              [
                144.956825,
                -37.815981
              ],
              [
                144.956809,
                -37.815986
              ],
              [
                144.956803,
                -37.815973
              ]
            ],
            [
              [
                144.957031,
                -37.815908
              ],
              [
                144.957047,
                -37.815904
              ],
              [
                144.957052,
                -37.815917
              ],
              [
                144.957036,
                -37.815921
              ],
              [
                144.957031,
                -37.815908
              ]
            ]
          ],
          [
            [
              [
                144.955902,
                -37.816368
              ],
              [
                144.955927,
                -37.816424
              ],
              [
                144.955928,
                -37.816427
              ],
              [
                144.955929,
                -37.816429
              ],
              [
                144.955946,
                -37.816468
              ],
              [
                144.956319,
                -37.816362
              ],
              [
                144.956323,
                -37.816361
              ],
              [
                144.956329,
                -37.816359
              ],
              [
                144.956377,
                -37.816346
              ],
              [
                144.956378,
                -37.816345
              ],
              [
                144.956381,
                -37.816344
              ],
              [
                144.956382,
                -37.816344
              ],
              [
                144.9564,
                -37.816339
              ],
              [
                144.95703,
                -37.816158
              ],
              [
                144.95707,
                -37.816146
              ],
              [
                144.957074,
                -37.816146
              ],
              [
                144.957077,
                -37.816145
              ],
              [
                144.957164,
                -37.81612
              ],
              [
                144.957166,
                -37.816119
              ],
              [
                144.957169,
                -37.816118
              ],
              [
                144.95718,
                -37.816115
              ],
              [
                144.958102,
                -37.815853
              ],
              [
                144.958103,
                -37.815853
              ],
              [
                144.958082,
                -37.815808
              ],
              [
                144.95808,
                -37.815804
              ],
              [
                144.958055,
                -37.815752
              ],
              [
                144.957993,
                -37.815769
              ],
              [
                144.957994,
                -37.81577
              ],
              [
                144.957597,
                -37.815885
              ],
              [
                144.957596,
                -37.815884
              ],
              [
                144.955902,
                -37.816368
              ]
            ]
          ]
        ]
      }
    }
  ]
}