{
  "type": "FeatureCollection",
  "features": [
    {
      "type": "Feature",
      "properties": {
        "name": "polygon26"
      },
      "geometry": {
        "type": "Polygon",
        "coordinates": [
          [
            [
              144.975637,
              -37.810765
            ],
            [
              144.975638,
              -37.810768
            ],
            [
              144.97564,
              -37.81077
            ],
            [
              144.975643,
              -37.810771
            ],
            [
              144.975645,
              -37.810771
            ],
            [
              144.975679,
              -37.810774
            ],
            [
              144.975669,
              -37.810833
            ],
            [
              144.975667,
              -37.810843
            ],
            [
              144.975667,
              -37.810844
            ],
            [
              144.975663,
              -37.81087
            ],
            [
              144.976033,
              -37.810911
            ],
            [
              144.976035,
              -37.810911
            ],
            [
              144.976082,
              -37.810916
            ],
            [
              144.976083,
              -37.810917
            ],
            [
              144.976084,
              -37.810917
            ],
            [
              144.976117,
              -37.810921
            ],
            [
              144.97612,
              -37.810921
            ],
            [
              144.977931,
              -37.81112
            ],
            [
              144.977936,
              -37.811093
            ],
            [
              144.977954,
              -37.811095
            ],
            [
              144.97796,
              -37.811096
            ],
            [
              144.977966,
              -37.811101
            ],
            [
              144.97797,
              -37.811107
            ],
            [
              144.977972,
              -37.811115
            ],
            [
              144.977972,
              -37.811121
            ],
            [
              144.977977,
              -37.811121
            ],
            [
              144.977977,
              -37.811125
            ],
            [
              144.978073,
              -37.811135
            ],
            [
              144.978077,
              -37.811109
            ],
            [
              144.978079,
              -37.811105
            ],
            [
              144.978081,
              -37.811104
            ],
            [
              144.978086,
              -37.811104
            ],
            [
              144.978106,
              -37.811106
            ],
            [
              144.978127,
              -37.811108
            ],
            [
              144.978131,
              -37.81111
            ],
            [
              144.978132,
              -37.811111
            ],
            [
              144.978133,
              -37.811113
            ],
            [
              144.978133,
              -37.811116
            ],
            [
              144.978129,
              -37.811141
            ],
            [
              144.978222,
              -37.811151
            ],
            [
              144.978233,
              -37.811152
            ],
            [
              144.978235,
              -37.811152
            ],
            [
              144.978256,
              -37.811154
            ],
            [
              144.97827,
              -37.811072
            ],
            [
              144.978272,
              -37.811071
            ],
            [
              144.978273,
              -37.811071
            ],
            [
              144.978275,
              -37.811069
            ],
            [
              144.978288,
              -37.811069
            ],
            [
              144.978291,
              -37.811051
            ],
            [
              144.978294,
              -37.811031
            ],
            [
              144.978303,
              -37.810981
            ],
            [
              144.978301,
              -37.81098
            ],
            [
              144.978296,
              -37.810977
            ],
            [
              144.978292,
              -37.810975
            ],
            [
              144.97829,
              -37.810972
            ],
            [
              144.978289,
              -37.810969
            ],
            [
              144.978288,
              -37.810963
            ],
            [
              144.978301,
              -37.810889
            ],
            [
              144.97828,
              -37.810886
            ],
            [
              144.978278,
              -37.810886
            ],
            [
              144.978267,
              -37.810885
            ],
            [
              144.978171,
              -37.810875
            ],
            [
              144.978167,
              -37.8109
            ],
            [
              144.978166,
              -37.810902
            ],
            [
              144.978166,
              -37.810903
            ],
            [
              144.978165,
              -37.810904
            ],
            [
              144.978161,
              -37.810906
            ],
            [
              144.978158,
              -37.810906
            ],
            [
              144.978126,
              -37.810902
            ],
            [
              144.97812,
              -37.810899
            ],
            [
              144.97812,
              -37.810897
            ],
            [
              144.978119,
              -37.810895
            ],
            [
              144.978124,
              -37.810869
            ],
            [
              144.978021,
              -37.810858
            ],
            [
              144.978018,
              -37.810878
            ],
            [
              144.978015,
              -37.810883
            ],
            [
              144.978011,
              -37.810887
            ],
            [
              144.978006,
              -37.810889
            ],
            [
              144.977999,
              -37.810891
            ],
            [
              144.977991,
              -37.810891
            ],
            [
              144.977975,
              -37.810889
            ],
            [
              144.977975,
              -37.810887
            ],
            [
              144.977967,
              -37.810886
            ],
            [
              144.977967,
              -37.810884
            ],
            [
              144.977976,
              -37.810885
            ],
            [
              144.977982,
              -37.810854
            ],
            [
              144.975803,
              -37.810617
            ],
            [
              144.975775,
              -37.810588
            ],
            [
              144.975773,
              -37.810586
            ],
            [
              144.975748,
              -37.810562
            ],
            [
              144.97572,
              -37.810534
            ],
            [
              144.975714,
              -37.810569
            ],
            [
              144.975705,
              -37.810568
            ],
            [
              144.975697,
              -37.810568
            ],
            [
              144.97569,
              -37.810566
            ],
            [
              144.975683,
              -37.810563
            ],
            [
              144.975677,
              -37.81056
            ],
            [
              144.97567,
              -37.810556
            ],
            [
              144.975665,
              -37.810552
            ],
            [
              144.975663,
              -37.810554
            ],
            [
              144.975658,
              -37.810557
            ],
            [
              144.975654,
              -37.81056
            ],
            [
              144.975653,
              -37.810561
            ],
            [
              144.975652,
              -37.810561
            ],
            [
              144.975708,
              -37.810607
            ],
            [
              144.97569,
              -37.810709
            ],
            [
              144.975656,
              -37.810705
            ],
            [
              144.975653,
              -37.810705
            ],
            [
              144.975647,
              -37.810708
            ],
            [
              144.975647,
              -37.81071
            ],
            [
              144.975642,
              -37.810736
            ],
            [
              144.975637,
              -37.810763
            ],
            [
              144.975637,
              -37.810765
            ]
          ],
          [
            [
              144.975907,
              -37.810799
            ],
            [
              144.975907,
              -37.810797
            ],
            [
              144.976646,
              -37.81088
            ],
            [
              144.976658,
              -37.810878
            ],
            [
              144.976666,
              -37.810874
            ],
            [
              144.976672,
              -37.810868
            ],
            [
              144.976675,
              -37.810862
            ],
            [
              144.97668,
              -37.810835
            ],
            [
              144.97668,
              -37.810831
            ],
            [
              144.976678,
              -37.810827
            ],
            [
              144.976675,
              -37.810824
            ],
            [
              144.976667,
              -37.810818
            ],
            [
              144.976661,
              -37.810817
            ],
            [
              144.975919,
              -37.810735
            ],
            [
              144.975919,
              -37.810733
            ],
            [
              144.97592,
              -37.810733
            ],
            [
              144.976662,
              -37.810816
            ],
            [
              144.976668,
              -37.810817
            ],
            [
              144.976673,
              -37.810819
            ],
            [
              144.97668,
              -37.810826
            ],
            [
              144.976682,
              -37.81083
            ],
            [
              144.976682,
              -37.810835
            ],
            [
              144.97668,
              -37.81085
            ],
            [
              144.976678,
              -37.810862
            ],
            [
              144.976674,
              -37.810869
            ],
            [
              144.976668,
              -37.810875
            ],
            [
              144.976659,
              -37.810879
            ],
            [
              144.976649,
              -37.810881
            ],
            [
              144.976645,
              -37.810881
            ],
            [
              144.975907,
              -37.810799
            ]
          ]
        ]
      }
    }
  ]
}