{
  "type": "FeatureCollection",
  "features": [
    {
      "type": "Feature",
      "properties": {
        "name": "polygon182"
      },
      "geometry": {
        "type": "MultiPolygon",
        "coordinates": [
          [
            [
              [
                144.942791,
                -37.819986
              ],
              [
                144.942792,
                -37.819989
              ],
              [
                144.942794,
                -37.819993
              ],
              [
                144.942799,
                -37.819998
              ],
              [
                144.942805,
                -37.820003
              ],
              [
                144.942811,
                -37.820007
              ],
              [
                144.942819,
                -37.82001
              ],
              [
                144.942826,
                -37.820012
              ],
              [
                144.942843,
                -37.820012
              ],
              [
                144.942852,
                -37.820009
              ],
              [
                144.942847,
                -37.819999
              ],
              [
                144.94286,
                -37.819996
              ],
              [
                144.942865,
                -37.820006
              ],
              [
                144.942876,
                -37.820002
              ],
              [
                144.942952,
                -37.81998
              ],
              [
                144.942947,
                -37.81997
              ],
              [
                144.94296,
                -37.819966
              ],
              [
                144.942963,
                -37.819974
              ],
              [
                144.942964,
                -37.819977
              ],
              [
                144.942983,
                -37.819971
              ],
              [
                144.94306,
                -37.819949
              ],
              [
                144.943059,
                -37.819946
              ],
              [
                144.943056,
                -37.819938
              ],
              [
                144.943068,
                -37.819935
              ],
              [
                144.943072,
                -37.819942
              ],
              [
                144.943073,
                -37.819945
              ],
              [
                144.943094,
                -37.819939
              ],
              [
                144.943164,
                -37.819918
              ],
              [
                144.943171,
                -37.819916
              ],
              [
                144.943167,
                -37.819906
              ],
              [
                144.943179,
                -37.819902
              ],
              [
                144.943184,
                -37.819912
              ],
              [
                144.9432,
                -37.819908
              ],
              [
                144.943289,
                -37.819882
              ],
              [
                144.943284,
                -37.819869
              ],
              [
                144.9433,
                -37.819864
              ],
              [
                144.943305,
                -37.819877
              ],
              [
                144.943311,
                -37.819875
              ],
              [
                144.943397,
                -37.81985
              ],
              [
                144.943409,
                -37.819847
              ],
              [
                144.943403,
                -37.819834
              ],
              [
                144.943419,
                -37.819829
              ],
              [
                144.943425,
                -37.819842
              ],
              [
                144.943515,
                -37.819816
              ],
              [
                144.943509,
                -37.819803
              ],
              [
                144.943525,
                -37.819799
              ],
              [
                144.943531,
                -37.819811
              ],
              [
                144.943537,
                -37.81981
              ],
              [
                144.943573,
                -37.819799
              ],
              [
                144.943575,
                -37.819798
              ],
              [
                144.943582,
                -37.819796
              ],
              [
                144.943588,
                -37.819793
              ],
              [
                144.943594,
                -37.819788
              ],
              [
                144.943599,
                -37.819783
              ],
              [
                144.943602,
                -37.819778
              ],
              [
                144.943603,
                -37.819776
              ],
              [
                144.943604,
                -37.819772
              ],
              [
                144.943605,
                -37.819766
              ],
              [
                144.943605,
                -37.81976
              ],
              [
                144.943603,
                -37.819753
              ],
              [
                144.943602,
                -37.819752
              ],
              [
                144.943602,
                -37.819751
              ],
              [
                144.943549,
                -37.819765
              ],
              [
                144.943499,
                -37.81978
              ],
              [
                144.942835,
                -37.819972
              ],
              [
                144.942813,
                -37.819978
              ],
              [
                144.942814,
                -37.81998
              ],
              [
                144.942791,
                -37.819986
              ]
            ]
          ],
          [
            [
              [
                144.94285,
                -37.820081
              ],
              [
                144.942861,
                -37.820105
              ],
              [
                144.942874,
                -37.820132
              ],
              [
                144.942874,
                -37.820133
              ],
              [
                144.942875,
                -37.820134
              ],
              [
                144.942876,
                -37.820134
              ],
              [
                144.942876,
                -37.820135
              ],
              [
                144.942879,
                -37.820135
              ],
              [
                144.942879,
                -37.820136
              ],
              [
                144.942881,
                -37.820136
              ],
              [
                144.942881,
                -37.820135
              ],
              [
                144.942882,
                -37.820135
              ],
              [
                144.94289,
                -37.820133
              ],
              [
                144.942911,
                -37.820193
              ],
              [
                144.943712,
                -37.819959
              ],
              [
                144.943852,
                -37.819919
              ],
              [
                144.944194,
                -37.81982
              ],
              [
                144.944334,
                -37.819781
              ],
              [
                144.944494,
                -37.819734
              ],
              [
                144.94451,
                -37.819729
              ],
              [
                144.944482,
                -37.819668
              ],
              [
                144.944479,
                -37.819668
              ],
              [
                144.944479,
                -37.819669
              ],
              [
                144.944475,
                -37.819669
              ],
              [
                144.944475,
                -37.819668
              ],
              [
                144.944473,
                -37.819668
              ],
              [
                144.94447,
                -37.819665
              ],
              [
                144.944461,
                -37.819645
              ],
              [
                144.944451,
                -37.819623
              ],
              [
                144.944451,
                -37.819618
              ],
              [
                144.944452,
                -37.819618
              ],
              [
                144.944452,
                -37.819617
              ],
              [
                144.944453,
                -37.819617
              ],
              [
                144.944453,
                -37.819616
              ],
              [
                144.944455,
                -37.819616
              ],
              [
                144.944457,
                -37.819615
              ],
              [
                144.94443,
                -37.819556
              ],
              [
                144.944428,
                -37.819552
              ],
              [
                144.944412,
                -37.819516
              ],
              [
                144.94382,
                -37.819687
              ],
              [
                144.943787,
                -37.819697
              ],
              [
                144.943788,
                -37.819699
              ],
              [
                144.943775,
                -37.819702
              ],
              [
                144.943774,
                -37.8197
              ],
              [
                144.943772,
                -37.819701
              ],
              [
                144.943769,
                -37.819702
              ],
              [
                144.943714,
                -37.819718
              ],
              [
                144.943726,
                -37.819744
              ],
              [
                144.943726,
                -37.81975
              ],
              [
                144.943725,
                -37.81975
              ],
              [
                144.943725,
                -37.819751
              ],
              [
                144.943724,
                -37.819752
              ],
              [
                144.943722,
                -37.819753
              ],
              [
                144.94372,
                -37.819755
              ],
              [
                144.943719,
                -37.819755
              ],
              [
                144.943688,
                -37.819763
              ],
              [
                144.943686,
                -37.819764
              ],
              [
                144.943682,
                -37.819764
              ],
              [
                144.94368,
                -37.819763
              ],
              [
                144.943679,
                -37.819763
              ],
              [
                144.943677,
                -37.819762
              ],
              [
                144.943675,
                -37.81976
              ],
              [
                144.943675,
                -37.819759
              ],
              [
                144.943674,
                -37.819759
              ],
              [
                144.943662,
                -37.819732
              ],
              [
                144.943606,
                -37.819749
              ],
              [
                144.943606,
                -37.81975
              ],
              [
                144.943607,
                -37.81975
              ],
              [
                144.943607,
                -37.819752
              ],
              [
                144.943608,
                -37.819752
              ],
              [
                144.94361,
                -37.819759
              ],
              [
                144.94361,
                -37.819766
              ],
              [
                144.943609,
                -37.819772
              ],
              [
                144.943608,
                -37.819779
              ],
              [
                144.943608,
                -37.81978
              ],
              [
                144.943604,
                -37.819785
              ],
              [
                144.943604,
                -37.819786
              ],
              [
                144.943599,
                -37.819791
              ],
              [
                144.943599,
                -37.819792
              ],
              [
                144.943598,
                -37.819792
              ],
              [
                144.943593,
                -37.819796
              ],
              [
                144.943592,
                -37.819796
              ],
              [
                144.943592,
                -37.819797
              ],
              [
                144.943584,
                -37.8198
              ],
              [
                144.943577,
                -37.819803
              ],
              [
                144.943575,
                -37.819804
              ],
              [
                144.943539,
                -37.819814
              ],
              [
                144.943519,
                -37.81982
              ],
              [
                144.943399,
                -37.819855
              ],
              [
                144.943313,
                -37.81988
              ],
              [
                144.943293,
                -37.819886
              ],
              [
                144.943202,
                -37.819912
              ],
              [
                144.943202,
                -37.819913
              ],
              [
                144.943183,
                -37.819918
              ],
              [
                144.943096,
                -37.819943
              ],
              [
                144.943075,
                -37.81995
              ],
              [
                144.942985,
                -37.819976
              ],
              [
                144.942965,
                -37.819982
              ],
              [
                144.942878,
                -37.820007
              ],
              [
                144.942859,
                -37.820013
              ],
              [
                144.942858,
                -37.820013
              ],
              [
                144.94285,
                -37.820015
              ],
              [
                144.942869,
                -37.82007
              ],
              [
                144.942854,
                -37.820074
              ],
              [
                144.942853,
                -37.820075
              ],
              [
                144.942852,
                -37.820075
              ],
              [
                144.942852,
                -37.820076
              ],
              [
                144.942851,
                -37.820076
              ],
              [
                144.942851,
                -37.820077
              ],
              [
                144.94285,
                -37.820077
              ],
              [
                144.94285,
                -37.820081
              ]
            ],
            [
              [
                144.943828,
                -37.819715
              ],
              [
                144.943841,
                -37.819711
              ],
              [
                144.943846,
                -37.819722
              ],
              [
                144.943835,
                -37.819725
              ],
              [
                144.943833,
                -37.819725
              ],
              [
                144.943828,
                -37.819715
              ]
            ],
            [
              [
                144.943929,
                -37.819686
              ],
              [
                144.943942,
                -37.819682
              ],
              [
                144.943946,
                -37.819692
              ],
              [
                144.943934,
                -37.819696
              ],
              [
                144.943929,
                -37.819686
              ]
            ],
            [
              [
                144.944028,
                -37.819657
              ],
              [
                144.944041,
                -37.819653
              ],
              [
                144.944046,
                -37.819663
              ],
              [
                144.944033,
                -37.819667
              ],
              [
                144.944028,
                -37.819657
              ]
            ],
            [
              [
                144.944127,
                -37.819628
              ],
              [
                144.94414,
                -37.819624
              ],
              [
                144.944145,
                -37.819634
              ],
              [
                144.944132,
                -37.819638
              ],
              [
                144.944127,
                -37.819628
              ]
            ],
            [
              [
                144.944224,
                -37.8196
              ],
              [
                144.944237,
                -37.819596
              ],
              [
                144.944242,
                -37.819606
              ],
              [
                144.944229,
                -37.81961
              ],
              [
                144.944224,
                -37.8196
              ]
            ],
            [
              [
                144.944322,
                -37.819571
              ],
              [
                144.944335,
                -37.819567
              ],
              [
                144.94434,
                -37.819578
              ],
              [
                144.944327,
                -37.819581
              ],
              [
                144.944322,
                -37.819571
              ]
            ]
          ],
          [
            [
              [
                144.942873,
                -37.820232
              ],
              [
                144.942874,
                -37.820235
              ],
              [
                144.942874,
                -37.820238
              ],
              [
                144.942875,
                -37.820241
              ],
              [
                144.942877,
                -37.82024
              ],
              [
                144.942878,
                -37.82024
              ],
              [
                144.942878,
                -37.820237
              ],
              [
                144.942877,
                -37.820234
              ],
              [
                144.942877,
                -37.820232
              ],
              [
                144.942876,
                -37.820229
              ],
              [
                144.942877,
                -37.820226
              ],
              [
                144.942877,
                -37.820223
              ],
              [
                144.942878,
                -37.820221
              ],
              [
                144.942879,
                -37.820218
              ],
              [
                144.942881,
                -37.820215
              ],
              [
                144.942889,
                -37.820207
              ],
              [
                144.942895,
                -37.820203
              ],
              [
                144.942901,
                -37.820201
              ],
              [
                144.942909,
                -37.820199
              ],
              [
                144.942925,
                -37.820234
              ],
              [
                144.943489,
                -37.82007
              ],
              [
                144.943697,
                -37.82001
              ],
              [
                144.943771,
                -37.819989
              ],
              [
                144.943774,
                -37.819988
              ],
              [
                144.94377,
                -37.81998
              ],
              [
                144.943768,
                -37.819975
              ],
              [
                144.94376,
                -37.819967
              ],
              [
                144.943755,
                -37.819964
              ],
              [
                144.943749,
                -37.819961
              ],
              [
                144.943743,
                -37.81996
              ],
              [
                144.943736,
                -37.819959
              ],
              [
                144.94373,
                -37.819958
              ],
              [
                144.943723,
                -37.819959
              ],
              [
                144.943717,
                -37.81996
              ],
              [
                144.9429,
                -37.820198
              ],
              [
                144.942897,
                -37.8202
              ],
              [
                144.942891,
                -37.820202
              ],
              [
                144.942885,
                -37.820206
              ],
              [
                144.942883,
                -37.820208
              ],
              [
                144.942881,
                -37.820211
              ],
              [
                144.942879,
                -37.820213
              ],
              [
                144.942877,
                -37.820216
              ],
              [
                144.942876,
                -37.820218
              ],
              [
                144.942873,
                -37.820227
              ],
              [
                144.942873,
                -37.820232
              ]
            ],
            [
              [
                144.942935,
                -37.820191
              ],
              [
                144.942948,
                -37.820188
              ],
              [
                144.942952,
                -37.820198
              ],
              [
                144.942939,
                -37.820201
              ],
              [
                144.942935,
                -37.820191
              ]
            ],
            [
              [
                144.943045,
                -37.820159
              ],
              [
                144.943058,
                -37.820155
              ],
              [
                144.943063,
                -37.820165
              ],
              [
                144.94305,
                -37.820169
              ],
              [
                144.943045,
                -37.820159
              ]
            ],
            [
              [
                144.943156,
                -37.820127
              ],
              [
                144.943169,
                -37.820123
              ],
              [
                144.943173,
                -37.820133
              ],
              [
                144.943161,
                -37.820137
              ],
              [
                144.943156,
                -37.820127
              ]
            ],
            [
              [
                144.943265,
                -37.820095
              ],
              [
                144.943278,
                -37.820091
              ],
              [
                144.943283,
                -37.820101
              ],
              [
                144.94327,
                -37.820105
              ],
              [
                144.943265,
                -37.820095
              ]
            ],
            [
              [
                144.943375,
                -37.820063
              ],
              [
                144.943387,
                -37.820059
              ],
              [
                144.943392,
                -37.820069
              ],
              [
                144.943379,
                -37.820073
              ],
              [
                144.943375,
                -37.820063
              ]
            ],
            [
              [
                144.943486,
                -37.820031
              ],
              [
                144.943498,
                -37.820027
              ],
              [
                144.943503,
                -37.820038
              ],
              [
                144.943491,
                -37.820041
              ],
              [
                144.943486,
                -37.820031
              ]
            ],
            [
              [
                144.943594,
                -37.819999
              ],
              [
                144.943606,
                -37.819995
              ],
              [
                144.943611,
                -37.820006
              ],
              [
                144.943599,
                -37.82001
              ],
              [
                144.943594,
                -37.819999
              ]
            ]
          ],
          [
            [
              [
                144.943665,
                -37.819732
              ],
              [
                144.943677,
                -37.819758
              ],
              [
                144.943677,
                -37.819759
              ],
              [
                144.943679,
                -37.819761
              ],
              [
                144.94368,
                -37.819761
              ],
              [
                144.943681,
                -37.819762
              ],
              [
                144.943687,
                -37.819762
              ],
              [
                144.943719,
                -37.819753
              ],
              [
                144.94372,
                -37.819752
              ],
              [
                144.943721,
                -37.819752
              ],
              [
                144.943723,
                -37.81975
              ],
              [
                144.943723,
                -37.819749
              ],
              [
                144.943724,
                -37.819748
              ],
              [
                144.943724,
                -37.819745
              ],
              [
                144.943711,
                -37.819718
              ],
              [
                144.943665,
                -37.819732
              ]
            ]
          ],
          [
            [
              [
                144.943732,
                -37.819956
              ],
              [
                144.943739,
                -37.819957
              ],
              [
                144.943747,
                -37.819958
              ],
              [
                144.943754,
                -37.819961
              ],
              [
                144.94376,
                -37.819964
              ],
              [
                144.94377,
                -37.819974
              ],
              [
                144.943773,
                -37.819979
              ],
              [
                144.943777,
                -37.819987
              ],
              [
                144.943835,
                -37.81997
              ],
              [
                144.943831,
                -37.81996
              ],
              [
                144.943829,
                -37.819954
              ],
              [
                144.943829,
                -37.819943
              ],
              [
                144.943831,
                -37.819938
              ],
              [
                144.943834,
                -37.819932
              ],
              [
                144.943838,
                -37.819928
              ],
              [
                144.943843,
                -37.819924
              ],
              [
                144.943732,
                -37.819956
              ]
            ]
          ],
          [
            [
              [
                144.943832,
                -37.819954
              ],
              [
                144.943833,
                -37.819959
              ],
              [
                144.943838,
                -37.819969
              ],
              [
                144.94384,
                -37.819969
              ],
              [
                144.94386,
                -37.819963
              ],
              [
                144.943911,
                -37.819948
              ],
              [
                144.944202,
                -37.819864
              ],
              [
                144.944246,
                -37.819851
              ],
              [
                144.944249,
                -37.819851
              ],
              [
                144.944242,
                -37.819836
              ],
              [
                144.944242,
                -37.819835
              ],
              [
                144.944237,
                -37.81983
              ],
              [
                144.944234,
                -37.819828
              ],
              [
                144.944233,
                -37.819828
              ],
              [
                144.944229,
                -37.819826
              ],
              [
                144.944228,
                -37.819826
              ],
              [
                144.944224,
                -37.819824
              ],
              [
                144.944223,
                -37.819824
              ],
              [
                144.944217,
                -37.819822
              ],
              [
                144.944212,
                -37.819822
              ],
              [
                144.944207,
                -37.819821
              ],
              [
                144.944202,
                -37.819822
              ],
              [
                144.944196,
                -37.819822
              ],
              [
                144.944196,
                -37.819823
              ],
              [
                144.944195,
                -37.819823
              ],
              [
                144.943857,
                -37.81992
              ],
              [
                144.943851,
                -37.819922
              ],
              [
                144.943845,
                -37.819925
              ],
              [
                144.943841,
                -37.819929
              ],
              [
                144.943837,
                -37.819934
              ],
              [
                144.943834,
                -37.819938
              ],
              [
                144.943832,
                -37.819943
              ],
              [
                144.943832,
                -37.819954
              ]
            ],
            [
              [
                144.943858,
                -37.819922
              ],
              [
                144.94399925373048,
                -37.819881462686816
              ],
              [
                144.943956,
                -37.819894
              ],
              [
                144.943961,
                -37.819907
              ],
              [
                144.943945,
                -37.819912
              ],
              [
                144.943939,
                -37.819899
              ],
              [
                144.943858,
                -37.819922
              ]
            ],
            [
              [
                144.9440250301447,
                -37.819874065313506
              ],
              [
                144.944196,
                -37.819825
              ],
              [
                144.944138,
                -37.819842
              ],
              [
                144.944144,
                -37.819855
              ],
              [
                144.944128,
                -37.819859
              ],
              [
                144.944122,
                -37.819847
              ],
              [
                144.944041,
                -37.81987
              ],
              [
                144.944047,
                -37.819882
              ],
              [
                144.944031,
                -37.819887
              ],
              [
                144.9440250301447,
                -37.819874065313506
              ]
            ]
          ],
          [
            [
              [
                144.944208,
                -37.819819
              ],
              [
                144.944213,
                -37.819819
              ],
              [
                144.944218,
                -37.81982
              ],
              [
                144.944224,
                -37.819822
              ],
              [
                144.944225,
                -37.819822
              ],
              [
                144.944229,
                -37.819823
              ],
              [
                144.94423,
                -37.819823
              ],
              [
                144.94423,
                -37.819824
              ],
              [
                144.944235,
                -37.819826
              ],
              [
                144.944236,
                -37.819826
              ],
              [
                144.944239,
                -37.819829
              ],
              [
                144.94424,
                -37.819829
              ],
              [
                144.94424,
                -37.81983
              ],
              [
                144.944244,
                -37.819834
              ],
              [
                144.944245,
                -37.819834
              ],
              [
                144.944245,
                -37.819835
              ],
              [
                144.944252,
                -37.81985
              ],
              [
                144.944312,
                -37.819832
              ],
              [
                144.944307,
                -37.819819
              ],
              [
                144.944307,
                -37.819818
              ],
              [
                144.944306,
                -37.819815
              ],
              [
                144.944306,
                -37.819811
              ],
              [
                144.944307,
                -37.819806
              ],
              [
                144.944307,
                -37.819805
              ],
              [
                144.944308,
                -37.819805
              ],
              [
                144.94431,
                -37.8198
              ],
              [
                144.944312,
                -37.819796
              ],
              [
                144.944313,
                -37.819796
              ],
              [
                144.944315,
                -37.819792
              ],
              [
                144.944316,
                -37.819792
              ],
              [
                144.944319,
                -37.819788
              ],
              [
                144.94432,
                -37.819788
              ],
              [
                144.944322,
                -37.819786
              ],
              [
                144.944208,
                -37.819819
              ]
            ]
          ],
          [
            [
              [
                144.944309,
                -37.819818
              ],
              [
                144.94431,
                -37.819818
              ],
              [
                144.944315,
                -37.819832
              ],
              [
                144.944318,
                -37.819831
              ],
              [
                144.944362,
                -37.819818
              ],
              [
                144.944528,
                -37.81977
              ],
              [
                144.944512,
                -37.819733
              ],
              [
                144.944511,
                -37.819731
              ],
              [
                144.944495,
                -37.819736
              ],
              [
                144.944335,
                -37.819783
              ],
              [
                144.944328,
                -37.819786
              ],
              [
                144.944327,
                -37.819786
              ],
              [
                144.944322,
                -37.819789
              ],
              [
                144.944322,
                -37.81979
              ],
              [
                144.944318,
                -37.819793
              ],
              [
                144.944318,
                -37.819794
              ],
              [
                144.944315,
                -37.819797
              ],
              [
                144.944313,
                -37.819801
              ],
              [
                144.944312,
                -37.819801
              ],
              [
                144.94431,
                -37.819806
              ],
              [
                144.94431,
                -37.819807
              ],
              [
                144.944309,
                -37.819811
              ],
              [
                144.944309,
                -37.819818
              ]
            ],
            [
              [
                144.94440125575449,
                -37.81976666496164
              ],
              [
                144.944417,
                -37.81976200000001
              ],
              [
                144.944422,
                -37.819774
              ],
              [
                144.944406,
                -37.819779
              ],
              [
                144.94440125575449,
                -37.81976666496164
              ]
            ],
            [
              [
                144.9444170000065,
                -37.81976199999808
              ],
              [
                144.944498,
                -37.819738
              ],
              [
                144.944498,
                -37.819737
              ],
              [
                144.94450105454547,
                -37.81973612727273
              ],
              [
                144.944507,
                -37.81975
              ],
              [
                144.944491,
                -37.819754
              ],
              [
                144.944485,
                -37.819742
              ],
              [
                144.9444170000065,
                -37.81976199999808
              ]
            ]
          ]
        ]
      }
    }
  ]
}