{
  "type": "FeatureCollection",
  "features": [
    {
      "type": "Feature",
      "properties": {
        "name": "polygon69"
      },
      "geometry": {
        "type": "Polygon",
        "coordinates": [
          [
            [
              144.973072,
              -37.807609
            ],
            [
              144.973109,
              -37.807613
            ],
            [
              144.973114,
              -37.807613
            ],
            [
              144.973208,
              -37.807623
            ],
            [
              144.97323,
              -37.807498
            ],
            [
              144.973262,
              -37.807306
            ],
            [
              144.973284,
              -37.807184
            ],
            [
              144.973314,
              -37.807
            ],
            [
              144.973347,
              -37.806809
            ],
            [
              144.973381,
              -37.8066
            ],
            [
              144.973406,
              -37.80645
            ],
            [
              144.973444,
              -37.806223
            ],
            [
              144.973474,
              -37.806057
            ],
            [
              144.97353,
              -37.805708
            ],
            [
              144.973559,
              -37.805547
            ],
            [
              144.973585,
              -37.805384
            ],
            [
              144.973608,
              -37.805257
            ],
            [
              144.973687,
              -37.804795
            ],
            [
              144.973732,
              -37.804526
            ],
            [
              144.973759,
              -37.804369
            ],
            [
              144.973812,
              -37.804052
            ],
            [
              144.97388,
              -37.803651
            ],
            [
              144.973938,
              -37.803301
            ],
            [
              144.973961,
              -37.803175
            ],
            [
              144.974021,
              -37.802816
            ],
            [
              144.974104,
              -37.802324
            ],
            [
              144.974154,
              -37.802034
            ],
            [
              144.974192,
              -37.801812
            ],
            [
              144.974245,
              -37.801499
            ],
            [
              144.974278,
              -37.801299
            ],
            [
              144.974176,
              -37.801288
            ],
            [
              144.974173,
              -37.801288
            ],
            [
              144.974169,
              -37.801287
            ],
            [
              144.974142,
              -37.801285
            ],
            [
              144.97413,
              -37.801358
            ],
            [
              144.974089,
              -37.801604
            ],
            [
              144.974072,
              -37.801701
            ],
            [
              144.973968,
              -37.802326
            ],
            [
              144.973894,
              -37.802764
            ],
            [
              144.973893,
              -37.80277
            ],
            [
              144.973892,
              -37.802778
            ],
            [
              144.973863,
              -37.802951
            ],
            [
              144.97383,
              -37.80315
            ],
            [
              144.973829,
              -37.803152
            ],
            [
              144.973828,
              -37.803161
            ],
            [
              144.973827,
              -37.803162
            ],
            [
              144.973827,
              -37.803168
            ],
            [
              144.973814,
              -37.803244
            ],
            [
              144.973813,
              -37.803246
            ],
            [
              144.973787,
              -37.803406
            ],
            [
              144.973717,
              -37.803815
            ],
            [
              144.973633,
              -37.804305
            ],
            [
              144.973442,
              -37.805421
            ],
            [
              144.973404,
              -37.805633
            ],
            [
              144.973395,
              -37.805699
            ],
            [
              144.973395,
              -37.8057
            ],
            [
              144.973198,
              -37.806866
            ],
            [
              144.973131,
              -37.807259
            ],
            [
              144.973099,
              -37.807448
            ],
            [
              144.973085,
              -37.807534
            ],
            [
              144.973072,
              -37.807609
            ]
          ]
        ]
      }
    }
  ]
}