{
  "type": "FeatureCollection",
  "features": [
    {
      "type": "Feature",
      "properties": {
        "name": "polygon98"
      },
      "geometry": {
        "type": "Polygon",
        "coordinates": [
          [
            [
              144.958781,
              -37.811183
            ],
            [
              144.958797,
              -37.811217
            ],
            [
              144.95916,
              -37.812022
            ],
            [
              144.959166,
              -37.812039
            ],
            [
              144.959167,
              -37.812041
            ],
            [
              144.959168,
              -37.812044
            ],
            [
              144.959186,
              -37.8121
            ],
            [
              144.959203,
              -37.812095
            ],
            [
              144.959212,
              -37.812094
            ],
            [
              144.95922,
              -37.812095
            ],
            [
              144.959227,
              -37.812097
            ],
            [
              144.959235,
              -37.8121
            ],
            [
              144.95924,
              -37.812104
            ],
            [
              144.959364,
              -37.812064
            ],
            [
              144.959489,
              -37.812023
            ],
            [
              144.959491,
              -37.812019
            ],
            [
              144.959492,
              -37.812019
            ],
            [
              144.959497,
              -37.812014
            ],
            [
              144.959497,
              -37.812013
            ],
            [
              144.959498,
              -37.812013
            ],
            [
              144.959502,
              -37.81201
            ],
            [
              144.959509,
              -37.812007
            ],
            [
              144.959509,
              -37.812006
            ],
            [
              144.95951,
              -37.812006
            ],
            [
              144.959519,
              -37.812004
            ],
            [
              144.959503,
              -37.811966
            ],
            [
              144.959502,
              -37.811963
            ],
            [
              144.959501,
              -37.811961
            ],
            [
              144.959483,
              -37.81192
            ],
            [
              144.959303,
              -37.811524
            ],
            [
              144.959302,
              -37.811521
            ],
            [
              144.959301,
              -37.81152
            ],
            [
              144.9593,
              -37.811516
            ],
            [
              144.959287,
              -37.811487
            ],
            [
              144.959285,
              -37.811484
            ],
            [
              144.959284,
              -37.811482
            ],
            [
              144.959117,
              -37.811123
            ],
            [
              144.959104,
              -37.811093
            ],
            [
              144.959103,
              -37.81109
            ],
            [
              144.959102,
              -37.811088
            ],
            [
              144.959095,
              -37.81109
            ],
            [
              144.959094,
              -37.81109
            ],
            [
              144.959084,
              -37.811095
            ],
            [
              144.959083,
              -37.811096
            ],
            [
              144.95908,
              -37.811098
            ],
            [
              144.959076,
              -37.811102
            ],
            [
              144.959076,
              -37.811103
            ],
            [
              144.959073,
              -37.811106
            ],
            [
              144.959073,
              -37.811107
            ],
            [
              144.959071,
              -37.811111
            ],
            [
              144.95907,
              -37.811116
            ],
            [
              144.95907,
              -37.811122
            ],
            [
              144.959072,
              -37.811134
            ],
            [
              144.959073,
              -37.811135
            ],
            [
              144.959073,
              -37.811136
            ],
            [
              144.958835,
              -37.811206
            ],
            [
              144.958826,
              -37.811187
            ],
            [
              144.958821,
              -37.811181
            ],
            [
              144.958821,
              -37.81118
            ],
            [
              144.958817,
              -37.811178
            ],
            [
              144.958816,
              -37.811177
            ],
            [
              144.958811,
              -37.811175
            ],
            [
              144.958809,
              -37.811175
            ],
            [
              144.958805,
              -37.811174
            ],
            [
              144.958799,
              -37.811174
            ],
            [
              144.958798,
              -37.811175
            ],
            [
              144.958794,
              -37.811175
            ],
            [
              144.958792,
              -37.811176
            ],
            [
              144.958793,
              -37.811178
            ],
            [
              144.958793,
              -37.81118
            ],
            [
              144.958788,
              -37.811181
            ],
            [
              144.958781,
              -37.811183
            ]
          ],
          [
            [
              144.959105,
              -37.811192
            ],
            [
              144.959121,
              -37.811188
            ],
            [
              144.959131,
              -37.81121
            ],
            [
              144.959115,
              -37.811214
            ],
            [
              144.959105,
              -37.811192
            ]
          ],
          [
            [
              144.959151,
              -37.811293
            ],
            [
              144.959168,
              -37.811288
            ],
            [
              144.959176,
              -37.811307
            ],
            [
              144.959159,
              -37.811312
            ],
            [
              144.959151,
              -37.811293
            ]
          ],
          [
            [
              144.959199,
              -37.811399
            ],
            [
              144.959216,
              -37.811394
            ],
            [
              144.959231,
              -37.811428
            ],
            [
              144.959214,
              -37.811433
            ],
            [
              144.959199,
              -37.811399
            ]
          ],
          [
            [
              144.959292,
              -37.811605
            ],
            [
              144.959309,
              -37.8116
            ],
            [
              144.959318,
              -37.811621
            ],
            [
              144.959301,
              -37.811626
            ],
            [
              144.959292,
              -37.811605
            ]
          ],
          [
            [
              144.959336,
              -37.811704
            ],
            [
              144.959359,
              -37.811697
            ],
            [
              144.959377,
              -37.811737
            ],
            [
              144.959354,
              -37.811744
            ],
            [
              144.959336,
              -37.811704
            ]
          ]
        ]
      }
    }
  ]
}