{
  "type": "FeatureCollection",
  "features": [
    {
      "type": "Feature",
      "properties": {
        "name": "polygon129"
      },
      "geometry": {
        "type": "Polygon",
        "coordinates": [
          [
            [
              144.967949,
              -37.812877
            ],
            [
              144.967962,
              -37.812907
            ],
            [
              144.967963,
              -37.812909
            ],
            [
              144.967965,
              -37.812911
            ],
            [
              144.967997,
              -37.812983
            ],
            [
              144.968092,
              -37.813188
            ],
            [
              144.968092,
              -37.813189
            ],
            [
              144.968093,
              -37.81319
            ],
            [
              144.968093,
              -37.813191
            ],
            [
              144.968101,
              -37.813208
            ],
            [
              144.968101,
              -37.813211
            ],
            [
              144.968109,
              -37.813229
            ],
            [
              144.968111,
              -37.813231
            ],
            [
              144.968111,
              -37.813232
            ],
            [
              144.968112,
              -37.813234
            ],
            [
              144.968208,
              -37.813441
            ],
            [
              144.968209,
              -37.813444
            ],
            [
              144.968216,
              -37.813461
            ],
            [
              144.968218,
              -37.813468
            ],
            [
              144.968227,
              -37.813489
            ],
            [
              144.968228,
              -37.81349
            ],
            [
              144.968228,
              -37.813491
            ],
            [
              144.968365,
              -37.813791
            ],
            [
              144.968372,
              -37.813802
            ],
            [
              144.968373,
              -37.813805
            ],
            [
              144.968374,
              -37.813807
            ],
            [
              144.968399,
              -37.813852
            ],
            [
              144.9684,
              -37.813852
            ],
            [
              144.968404,
              -37.813851
            ],
            [
              144.96841,
              -37.813851
            ],
            [
              144.968413,
              -37.813852
            ],
            [
              144.968416,
              -37.813852
            ],
            [
              144.96842,
              -37.813853
            ],
            [
              144.968423,
              -37.813854
            ],
            [
              144.968427,
              -37.813855
            ],
            [
              144.968435,
              -37.813859
            ],
            [
              144.968445,
              -37.813865
            ],
            [
              144.968448,
              -37.813868
            ],
            [
              144.968448,
              -37.813869
            ],
            [
              144.968572,
              -37.813839
            ],
            [
              144.968696,
              -37.813808
            ],
            [
              144.968695,
              -37.813806
            ],
            [
              144.968694,
              -37.813801
            ],
            [
              144.968694,
              -37.813796
            ],
            [
              144.968695,
              -37.81379
            ],
            [
              144.968695,
              -37.813789
            ],
            [
              144.968697,
              -37.813785
            ],
            [
              144.968698,
              -37.813784
            ],
            [
              144.968701,
              -37.81378
            ],
            [
              144.968701,
              -37.813779
            ],
            [
              144.968702,
              -37.813779
            ],
            [
              144.968707,
              -37.813775
            ],
            [
              144.968711,
              -37.813772
            ],
            [
              144.968719,
              -37.813769
            ],
            [
              144.968725,
              -37.813767
            ],
            [
              144.968699,
              -37.813709
            ],
            [
              144.968698,
              -37.813707
            ],
            [
              144.968696,
              -37.813704
            ],
            [
              144.9687,
              -37.813704
            ],
            [
              144.968702,
              -37.813703
            ],
            [
              144.968694,
              -37.813688
            ],
            [
              144.968689,
              -37.813689
            ],
            [
              144.968617,
              -37.813531
            ],
            [
              144.968616,
              -37.81353
            ],
            [
              144.968616,
              -37.813529
            ],
            [
              144.968615,
              -37.813527
            ],
            [
              144.9686,
              -37.813495
            ],
            [
              144.968599,
              -37.813493
            ],
            [
              144.968599,
              -37.813492
            ],
            [
              144.968598,
              -37.813491
            ],
            [
              144.968444,
              -37.813156
            ],
            [
              144.968443,
              -37.813154
            ],
            [
              144.968443,
              -37.813153
            ],
            [
              144.968442,
              -37.813151
            ],
            [
              144.968426,
              -37.813117
            ],
            [
              144.968425,
              -37.813115
            ],
            [
              144.96832,
              -37.812886
            ],
            [
              144.968301,
              -37.812844
            ],
            [
              144.968299,
              -37.812842
            ],
            [
              144.968298,
              -37.81284
            ],
            [
              144.968271,
              -37.812782
            ],
            [
              144.968251,
              -37.812788
            ],
            [
              144.9682,
              -37.812803
            ],
            [
              144.968199,
              -37.812803
            ],
            [
              144.968113,
              -37.812829
            ],
            [
              144.967949,
              -37.812877
            ]
          ],
          [
            [
              144.968155,
              -37.812969
            ],
            [
              144.968161,
              -37.81296
            ],
            [
              144.968163,
              -37.812961
            ],
            [
              144.968158,
              -37.812969
            ],
            [
              144.96816,
              -37.812974
            ],
            [
              144.968168,
              -37.812991
            ],
            [
              144.968165,
              -37.812992
            ],
            [
              144.968155,
              -37.812969
            ]
          ],
          [
            [
              144.968173,
              -37.812971
            ],
            [
              144.968176,
              -37.81297
            ],
            [
              144.968183,
              -37.812984
            ],
            [
              144.968196,
              -37.81298
            ],
            [
              144.968188,
              -37.812963
            ],
            [
              144.968174,
              -37.812957
            ],
            [
              144.968175,
              -37.812955
            ],
            [
              144.96819,
              -37.812961
            ],
            [
              144.9682,
              -37.812982
            ],
            [
              144.968181,
              -37.812987
            ],
            [
              144.968173,
              -37.812971
            ]
          ],
          [
            [
              144.968205,
              -37.813034
            ],
            [
              144.968222,
              -37.81303
            ],
            [
              144.968223,
              -37.813029
            ],
            [
              144.96824,
              -37.813068
            ],
            [
              144.968239,
              -37.813068
            ],
            [
              144.968223,
              -37.813072
            ],
            [
              144.968221,
              -37.813069
            ],
            [
              144.968216,
              -37.813058
            ],
            [
              144.96821,
              -37.813046
            ],
            [
              144.968213,
              -37.813045
            ],
            [
              144.968225,
              -37.81307
            ],
            [
              144.968237,
              -37.813067
            ],
            [
              144.968221,
              -37.813031
            ],
            [
              144.968206,
              -37.813036
            ],
            [
              144.968205,
              -37.813034
            ]
          ]
        ]
      }
    }
  ]
}