{
  "type": "FeatureCollection",
  "features": [
    {
      "type": "Feature",
      "properties": {
        "name": "polygon37"
      },
      "geometry": {
        "type": "Polygon",
        "coordinates": [
          [
            [
              144.961285,
              -37.815852
            ],
            [
              144.961289,
              -37.815862
            ],
            [
              144.961297,
              -37.815885
            ],
            [
              144.961298,
              -37.815888
            ],
            [
              144.961298,
              -37.81589
            ],
            [
              144.961314,
              -37.815937
            ],
            [
              144.961315,
              -37.81594
            ],
            [
              144.961315,
              -37.815942
            ],
            [
              144.961319,
              -37.815953
            ],
            [
              144.961748,
              -37.815828
            ],
            [
              144.961755,
              -37.815844
            ],
            [
              144.961757,
              -37.815843
            ],
            [
              144.961786,
              -37.815835
            ],
            [
              144.961788,
              -37.815834
            ],
            [
              144.961789,
              -37.815834
            ],
            [
              144.962197,
              -37.815711
            ],
            [
              144.962198,
              -37.815711
            ],
            [
              144.9622,
              -37.81571
            ],
            [
              144.96227,
              -37.815689
            ],
            [
              144.962271,
              -37.815689
            ],
            [
              144.962266,
              -37.815677
            ],
            [
              144.962286,
              -37.815671
            ],
            [
              144.962289,
              -37.81567
            ],
            [
              144.962295,
              -37.815669
            ],
            [
              144.962298,
              -37.815668
            ],
            [
              144.9623,
              -37.815667
            ],
            [
              144.962301,
              -37.815667
            ],
            [
              144.962394,
              -37.81564
            ],
            [
              144.962399,
              -37.815651
            ],
            [
              144.962613,
              -37.815589
            ],
            [
              144.962779,
              -37.815541
            ],
            [
              144.962773,
              -37.81553
            ],
            [
              144.962777,
              -37.815529
            ],
            [
              144.962812,
              -37.815519
            ],
            [
              144.962815,
              -37.815518
            ],
            [
              144.96282,
              -37.815528
            ],
            [
              144.96282,
              -37.815529
            ],
            [
              144.962992,
              -37.815479
            ],
            [
              144.963006,
              -37.815475
            ],
            [
              144.963001,
              -37.815464
            ],
            [
              144.963005,
              -37.815463
            ],
            [
              144.963007,
              -37.815462
            ],
            [
              144.963036,
              -37.815453
            ],
            [
              144.96304,
              -37.815452
            ],
            [
              144.963274,
              -37.815384
            ],
            [
              144.963279,
              -37.815395
            ],
            [
              144.963475,
              -37.815337
            ],
            [
              144.963456,
              -37.815294
            ],
            [
              144.963454,
              -37.815292
            ],
            [
              144.963453,
              -37.81529
            ],
            [
              144.963433,
              -37.815244
            ],
            [
              144.963432,
              -37.815242
            ],
            [
              144.963431,
              -37.815239
            ],
            [
              144.96343,
              -37.815239
            ],
            [
              144.963426,
              -37.81523
            ],
            [
              144.963426,
              -37.815229
            ],
            [
              144.962882,
              -37.815387
            ],
            [
              144.962879,
              -37.815388
            ],
            [
              144.962812,
              -37.815407
            ],
            [
              144.962817,
              -37.815419
            ],
            [
              144.962798,
              -37.815424
            ],
            [
              144.962795,
              -37.815424
            ],
            [
              144.962777,
              -37.815429
            ],
            [
              144.962774,
              -37.81543
            ],
            [
              144.962651,
              -37.815466
            ],
            [
              144.962651,
              -37.815464
            ],
            [
              144.962563,
              -37.81549
            ],
            [
              144.962559,
              -37.81548
            ],
            [
              144.962343,
              -37.815543
            ],
            [
              144.962347,
              -37.815552
            ],
            [
              144.962132,
              -37.815613
            ],
            [
              144.962133,
              -37.815616
            ],
            [
              144.96196,
              -37.815666
            ],
            [
              144.961959,
              -37.815666
            ],
            [
              144.961958,
              -37.815667
            ],
            [
              144.961956,
              -37.815667
            ],
            [
              144.961938,
              -37.815673
            ],
            [
              144.961932,
              -37.815674
            ],
            [
              144.961925,
              -37.815676
            ],
            [
              144.961885,
              -37.815688
            ],
            [
              144.961882,
              -37.815688
            ],
            [
              144.961878,
              -37.81569
            ],
            [
              144.961862,
              -37.815694
            ],
            [
              144.961541,
              -37.815787
            ],
            [
              144.96154,
              -37.815788
            ],
            [
              144.961538,
              -37.815788
            ],
            [
              144.961536,
              -37.815789
            ],
            [
              144.961489,
              -37.815803
            ],
            [
              144.961485,
              -37.815805
            ],
            [
              144.961474,
              -37.815808
            ],
            [
              144.961301,
              -37.815858
            ],
            [
              144.961285,
              -37.815852
            ]
          ]
        ]
      }
    }
  ]
}