{"type": "Feature", "properties": {"seg_id": "10716", "street_id": "10716", "name": "Banana Alley Wharf from Banana Alley", "str_type": "Parks Victoria", "status_id": "7", "seg_part": "1", "poly_area": "585", "gisid": "3021"}, "geometry": {"type": "MultiPolygon", "coordinates": [[[[144.961824280175, -37.819970965378], [144.962813616815, -37.819751028582], [144.962827451219, -37.819790245568], [144.962760088948, -37.819819501013], [144.96190995061, -37.820009587568], [144.96183998612, -37.820014730658], [144.961838369667, -37.820010224739], [144.961704894957, -37.820039860807], [144.961694071075, -37.820011275606], [144.961827900393, -37.819981053616], [144.961824280175, -37.819970965378]]]]}}