{"type": "Feature", "properties": {"seg_id": "10714", "street_id": "10714", "name": "Banana Alley between Queens Bridge and Flinders Walk", "str_type": "Private", "status_id": "4", "seg_part": "1", "poly_area": "1526", "gisid": "2595"}, "geometry": {"type": "MultiPolygon", "coordinates": [[[[144.96165062306, -37.81981927431], [144.961655350556, -37.819826449296], [144.96166052656, -37.819833408945], [144.961666436883, -37.819839992798], [144.961673037381, -37.819846151681], [144.961680278755, -37.819851839595], [144.96168810692, -37.819857014056], [144.961696463409, -37.819861636418], [144.961705285806, -37.819865672155], [144.961714508219, -37.819869091126], [144.961724061765, -37.819871867794], [144.961733875091, -37.819873981421], [144.961743874901, -37.81987541622], [144.961753986508, -37.819876161474], [144.961764131433, -37.819876159613], [144.96299340764, -37.819599002816], [144.963001946081, -37.819617554333], [144.963038746779, -37.81969750612], [144.96305113805, -37.819724426814], [144.962922258931, -37.819753259727], [144.962880765698, -37.819736100801], [144.962813616815, -37.819751028582], [144.961824280175, -37.819970965378], [144.961755196899, -37.819986322268], [144.961713254914, -37.81999316156], [144.961654999618, -37.81999231437], [144.96165062306, -37.81981927431]]]]}}