{"type": "Feature", "properties": {"seg_id": "10717", "street_id": "10717", "name": "Southern Cross Station Walkway between Spencer Street and Concourse - Station Walkway", "str_type": "Private", "status_id": "4", "seg_part": "4", "poly_area": "903", "gisid": "408"}, "geometry": {"type": "MultiPolygon", "coordinates": [[[[144.950528886246, -37.81770314201], [144.950168900701, -37.817803470785], [144.950113511674, -37.817771812581], [144.950060604181, -37.817737587437], [144.950010366991, -37.817700917468], [144.949907659592, -37.817547958267], [144.949891711229, -37.817518975501], [144.949890582019, -37.817516923693], [144.949988085438, -37.817525791543], [144.950084445895, -37.817540749246], [144.950178980839, -37.817561973799], [144.950271041793, -37.81758931961], [144.950359997254, -37.817622599097], [144.950445237018, -37.817661583974], [144.950528886246, -37.81770314201]]], [[[144.95162316541, -37.817486971522], [144.952379671677, -37.817268086673], [144.95241505331, -37.817257849131], [144.952412329343, -37.817251924305], [144.95272868969, -37.817160387917], [144.953050906698, -37.817067155544], [144.953077222834, -37.817124158104], [144.953134877838, -37.817249046588], [144.952763574527, -37.817356481633], [144.952750615691, -37.817328296491], [144.952702038011, -37.817309273367], [144.952601103552, -37.817338478138], [144.952627488328, -37.817395864987], [144.952540365571, -37.817421066237], [144.952528301597, -37.817394826948], [144.952493091697, -37.81740501434], [144.952478770969, -37.817373866759], [144.952369300403, -37.817405540799], [144.952383621064, -37.817436689292], [144.952323336914, -37.817454131197], [144.952299584216, -37.817424047864], [144.951745507681, -37.817584362012], [144.95171313616, -37.817600723822], [144.95162316541, -37.817486971522]]], [[[144.950675872694, -37.817952841848], [144.950668820867, -37.817952167592], [144.950655911477, -37.817950842857], [144.950643021945, -37.817949401575], [144.95063015394, -37.817947843932], [144.95053292604, -37.817930550769], [144.950437597062, -37.81790756515], [144.950345078865, -37.817878107562], [144.950256071594, -37.817842400929], [144.950168900701, -37.817803470785], [144.950528886246, -37.81770314201], [144.950572080681, -37.817779768164], [144.950605162818, -37.817836528158], [144.950639002481, -37.817893006432], [144.95067359586, -37.817949196624], [144.950675872694, -37.817952841848]]], [[[144.950675872694, -37.817952841848], [144.95067359586, -37.817949196624], [144.950639002481, -37.817893006432], [144.950605162818, -37.817836528158], [144.950572080681, -37.817779768164], [144.950528886246, -37.81770314201], [144.950535281355, -37.817706975842], [144.950541643595, -37.817710843934], [144.950547972677, -37.81771474611], [144.950574013022, -37.817731388586], [144.950599450479, -37.817748607848], [144.950624264752, -37.817766390157], [144.951130371893, -37.817619960994], [144.95113426266, -37.817628424933], [144.95162316541, -37.817486971522], [144.95171313616, -37.817600723822], [144.951670355431, -37.817622347629], [144.951480326928, -37.81767732866], [144.951488810484, -37.817695780899], [144.951304650623, -37.8177490632], [144.951299202838, -37.817737213501], [144.950733074837, -37.817901008839], [144.950776955439, -37.817956779287], [144.950759935358, -37.817957127392], [144.950742909021, -37.817956962319], [144.950725885385, -37.817956613186], [144.950709191862, -37.817955549914], [144.950692519772, -37.817954292712], [144.950675872694, -37.817952841848]]]]}}