{"type": "Feature", "properties": {"seg_id": "20016", "street_id": "20016", "name": "La Trobe Street between Victoria Street and Exhibition Street", "str_type": "Council Major", "status_id": "2", "seg_part": "1", "poly_area": "4122", "gisid": "3272"}, "geometry": {"type": "MultiPolygon", "coordinates": [[[[144.968984302536, -37.808230701715], [144.968879782828, -37.807972394982], [144.970224788627, -37.807581154269], [144.970571072781, -37.807766686919], [144.968984302536, -37.808230701715]]]]}}