{"type": "Feature", "properties": {"seg_id": "20014", "street_id": "20014", "name": "Lonsdale Street between King Street and Spencer Street", "str_type": "Council Major", "status_id": "2", "seg_part": "1", "poly_area": "6149", "gisid": "3101"}, "geometry": {"type": "MultiPolygon", "coordinates": [[[[144.95381912514, -37.814567587317], [144.953854248899, -37.814553716711], [144.954604758112, -37.814339195261], [144.954726671134, -37.81459994196], [144.953993417578, -37.814809093805], [144.953954088944, -37.814820312222], [144.953523999226, -37.814942986421], [144.95324675468, -37.81502206412], [144.952567668012, -37.815215755262], [144.952452513601, -37.814960526494], [144.95381912514, -37.814567587317]]]]}}