{"type": "Feature", "properties": {"seg_id": "20026", "street_id": "20026", "name": "La Trobe Street between Queen Street and Wills Street", "str_type": "Council Major", "status_id": "2", "seg_part": "1", "poly_area": "3079", "gisid": "3091"}, "geometry": {"type": "MultiPolygon", "coordinates": [[[[144.957721403062, -37.81152955945], [144.957601972083, -37.811271021546], [144.958462661254, -37.811020787944], [144.958673702525, -37.810958075151], [144.958796840794, -37.811216867331], [144.957721403062, -37.81152955945]]]]}}