{"type": "Feature", "properties": {"seg_id": "20028", "street_id": "20028", "name": "La Trobe Street between William Street and King Street", "str_type": "Council Major", "status_id": "2", "seg_part": "1", "poly_area": "6209", "gisid": "3089"}, "geometry": {"type": "MultiPolygon", "coordinates": [[[[144.954021899007, -37.812294280514], [144.956198371604, -37.811673460558], [144.956315837954, -37.811937013207], [144.955039326401, -37.812295467628], [144.954972362829, -37.812314040381], [144.954356159038, -37.812487993808], [144.954322291231, -37.812496444206], [144.954141189206, -37.812547476378], [144.954021899007, -37.812294280514]]]]}}