{"type": "Feature", "properties": {"seg_id": "20032", "street_id": "20032", "name": "Spencer Street between La Trobe Street and Little Lonsdale Street", "str_type": "Arterial", "status_id": "1", "seg_part": "1", "poly_area": "2950", "gisid": "3085"}, "geometry": {"type": "MultiPolygon", "coordinates": [[[[144.951332579478, -37.813344011382], [144.951658321454, -37.81324800523], [144.951817691356, -37.813594441248], [144.951856394004, -37.813678568609], [144.952034680076, -37.814066115108], [144.951709685367, -37.81416057442], [144.951332579478, -37.813344011382]]]]}}