{"type": "Feature", "properties": {"seg_id": "20036", "street_id": "20036", "name": "Little Lonsdale Street between Exhibition Street and Russell Street", "str_type": "Council Major", "status_id": "2", "seg_part": "1", "poly_area": "2177", "gisid": "3268"}, "geometry": {"type": "MultiPolygon", "coordinates": [[[[144.96846012002, -37.809399199941], [144.968402289469, -37.809416971021], [144.968401436774, -37.809415093577], [144.967576148549, -37.809657908215], [144.967581672649, -37.80966999192], [144.967198093167, -37.80978261534], [144.967124468227, -37.809803594366], [144.966930587132, -37.809861860522], [144.966925142388, -37.809850282817], [144.966888851893, -37.809763415401], [144.966882916785, -37.809750459439], [144.966904788455, -37.809758771035], [144.967114824856, -37.809697565721], [144.967167135113, -37.809680887733], [144.967315788822, -37.809638176995], [144.967310740646, -37.809627213547], [144.967495516797, -37.809574124562], [144.967500570749, -37.809585085399], [144.967557499079, -37.809566344848], [144.967932847468, -37.809455048009], [144.967982218349, -37.80943950758], [144.96835382685, -37.809330714099], [144.968422662097, -37.809310814176], [144.968785672427, -37.809204861978], [144.968781763651, -37.80919624959], [144.968835233936, -37.809180736256], [144.969027974658, -37.809126205158], [144.969070631976, -37.809218906937], [144.96846012002, -37.809399199941]]]]}}