{"type": "Feature", "properties": {"seg_id": "20040", "street_id": "20040", "name": "Little Lonsdale Street between Swanston Street and Elizabeth Street", "str_type": "Council Major", "status_id": "2", "seg_part": "1", "poly_area": "2097", "gisid": "3080"}, "geometry": {"type": "MultiPolygon", "coordinates": [[[[144.964094073738, -37.810580221144], [144.964133431832, -37.810667204597], [144.96411915259, -37.810671378887], [144.963904491982, -37.810734131754], [144.963849798725, -37.810751083379], [144.96331582054, -37.810908581595], [144.962953904916, -37.811015326869], [144.962873357427, -37.811039084331], [144.962844615667, -37.811047561], [144.961991342367, -37.811299224944], [144.961947074886, -37.81121079506], [144.962912927511, -37.81092713088], [144.963275027241, -37.810820781824], [144.963616797566, -37.810720401819], [144.96366227313, -37.810707045198], [144.964094073738, -37.810580221144]]]]}}