{"type": "Feature", "properties": {"seg_id": "20042", "street_id": "20042", "name": "Little Lonsdale Street between Elizabeth Street and Queen Street", "str_type": "Council Major", "status_id": "2", "seg_part": "1", "poly_area": "2041", "gisid": "3078"}, "geometry": {"type": "MultiPolygon", "coordinates": [[[[144.9595225364, -37.812011998002], [144.959482977144, -37.811919994549], [144.960060443563, -37.811750298526], [144.960066113539, -37.811762820363], [144.960963280537, -37.811500762364], [144.961014834398, -37.811485703374], [144.961196306203, -37.811432695154], [144.961344499898, -37.811389407337], [144.961400587086, -37.811373023532], [144.961624819888, -37.811307523884], [144.961666747817, -37.811390516243], [144.961417278397, -37.811463202104], [144.961370023159, -37.811478127522], [144.961113824156, -37.811551718155], [144.9611192476, -37.811563586828], [144.960815324772, -37.811646440909], [144.960776024074, -37.811657154766], [144.960771417579, -37.811647013362], [144.960409137494, -37.811753574075], [144.960344485086, -37.81177115359], [144.959942604412, -37.811888912492], [144.959903614449, -37.811900337059], [144.9595225364, -37.812011998002]]]]}}