{"type": "Feature", "properties": {"seg_id": "20049", "street_id": "20049", "name": "Little Bourke Street between Spring Street and Exhibition Street", "str_type": "Council Major", "status_id": "2", "seg_part": "1", "poly_area": "2229", "gisid": "3267"}, "geometry": {"type": "MultiPolygon", "coordinates": [[[[144.972020511918, -37.810488599261], [144.972407582426, -37.810375588531], [144.972453714153, -37.810460175268], [144.971843226451, -37.810637458238], [144.97180052445, -37.810649882628], [144.971616615069, -37.810703392524], [144.971559845371, -37.810719910061], [144.9712403842, -37.810814562424], [144.971178810231, -37.81083179995], [144.97118323349, -37.810844992799], [144.970926711112, -37.810920570254], [144.970920898865, -37.810907786027], [144.970854256103, -37.810928269492], [144.970859868375, -37.810940267153], [144.970303192367, -37.81110426226], [144.970250651256, -37.810992069311], [144.97049612999, -37.810920772839], [144.970501182794, -37.810931628995], [144.970683594423, -37.810877818387], [144.970678442372, -37.810866852386], [144.970716929618, -37.810855539019], [144.97072207032, -37.810866504822], [144.971080828334, -37.810762527918], [144.971151802655, -37.810741275452], [144.971758020068, -37.810563850454], [144.971792093727, -37.810553877359], [144.971977360204, -37.810499654292], [144.972020511918, -37.810488599261]]]]}}