{"type": "Feature", "properties": {"seg_id": "20056", "street_id": "20056", "name": "Intersection of Elizabeth Street and Little Bourke Street", "str_type": "Council Major", "status_id": "2", "seg_part": "1", "poly_area": "330", "gisid": "3069"}, "geometry": {"type": "MultiPolygon", "coordinates": [[[[144.962845251498, -37.813169765048], [144.962850308681, -37.813180673862], [144.962888648835, -37.813256661961], [144.962566335586, -37.81335956259], [144.962535003862, -37.813272149796], [144.962528744361, -37.813258823037], [144.962845251498, -37.813169765048]]]]}}