{"type": "Feature", "properties": {"seg_id": "20058", "street_id": "20058", "name": "Intersection of Queen Street and Little Bourke Street", "str_type": "Council Major", "status_id": "2", "seg_part": "1", "poly_area": "346", "gisid": "3067"}, "geometry": {"type": "MultiPolygon", "coordinates": [[[[144.960375595598, -37.813898614753], [144.960413574504, -37.813984098461], [144.960418878018, -37.813995703744], [144.960106488784, -37.814088281564], [144.960101676779, -37.814077598575], [144.960052380955, -37.813990169527], [144.960375595598, -37.813898614753]]]]}}