{"type": "Feature", "properties": {"seg_id": "20057", "street_id": "20057", "name": "Little Bourke Street between Elizabeth Street and Queen Street", "str_type": "Council Major", "status_id": "2", "seg_part": "1", "poly_area": "2150", "gisid": "3068"}, "geometry": {"type": "MultiPolygon", "coordinates": [[[[144.962386625256, -37.81341170037], [144.962321419331, -37.813430617733], [144.962052694283, -37.81350858054], [144.962013716078, -37.813519887947], [144.961835308108, -37.813571646391], [144.9617876994, -37.813585458295], [144.961618057806, -37.813634673635], [144.961581793283, -37.813645194287], [144.961490883457, -37.813671567713], [144.961459235822, -37.813680749806], [144.961320259013, -37.813721067497], [144.961243016649, -37.813743476085], [144.961087438237, -37.813788610307], [144.961039160539, -37.813802615787], [144.960848078651, -37.813858049033], [144.960852397344, -37.813867219388], [144.960418878018, -37.813995703744], [144.960413574504, -37.813984098461], [144.960375595598, -37.813898614753], [144.960660912418, -37.813815845232], [144.960655440589, -37.813804039686], [144.96069442235, -37.813792657097], [144.96069992419, -37.813804528045], [144.96080724231, -37.813773394619], [144.960846212819, -37.813762089285], [144.961199816475, -37.81365950722], [144.961268965361, -37.813639446673], [144.961631644881, -37.813534230396], [144.961667475361, -37.813523835589], [144.961756094809, -37.813498126194], [144.96179650442, -37.813486402074], [144.96209736598, -37.813399117364], [144.962137470872, -37.813387482475], [144.962130950535, -37.813373192331], [144.962528744361, -37.813258823037], [144.962535003862, -37.813272149796], [144.962566335586, -37.81335956259], [144.962386625256, -37.81341170037]]]]}}