{"type": "Feature", "properties": {"seg_id": "20069", "street_id": "20069", "name": "Spencer Street between Flinders Lane and Collins Street", "str_type": "Arterial", "status_id": "1", "seg_part": "1", "poly_area": "2956", "gisid": "3058"}, "geometry": {"type": "MultiPolygon", "coordinates": [[[[144.954173134355, -37.819501742169], [144.954142371306, -37.819433920593], [144.95407534878, -37.81928615935], [144.954055468047, -37.819243097351], [144.954381709528, -37.819147399078], [144.95475454984, -37.819964537929], [144.954425639129, -37.820058417305], [144.954173134355, -37.819501742169]]]]}}