{"type": "Feature", "properties": {"seg_id": "20077", "street_id": "20077", "name": "Spencer Street between Lonsdale Street and Little Lonsdale Street", "str_type": "Arterial", "status_id": "1", "seg_part": "1", "poly_area": "2846", "gisid": "3050"}, "geometry": {"type": "MultiPolygon", "coordinates": [[[[144.952090971454, -37.814180192437], [144.952452513601, -37.814960526494], [144.952122694187, -37.815056186268], [144.951831643434, -37.814424653726], [144.951762796235, -37.814275576149], [144.952090971454, -37.814180192437]]]]}}