{"type": "Feature", "properties": {"seg_id": "20073", "street_id": "20073", "name": "Spencer Street between Little Collins Street and Bourke Street", "str_type": "Arterial", "status_id": "1", "seg_part": "1", "poly_area": "2772", "gisid": "3054"}, "geometry": {"type": "MultiPolygon", "coordinates": [[[[144.953500614836, -37.818041266484], [144.953147497867, -37.817276383201], [144.953474039278, -37.81718151712], [144.953732890039, -37.817739707211], [144.953826372507, -37.817946628262], [144.953500614836, -37.818041266484]]]]}}