{"type": "Feature", "properties": {"seg_id": "20070", "street_id": "20070", "name": "Intersection of Spencer Street and Collins Street", "str_type": "Arterial", "status_id": "1", "seg_part": "1", "poly_area": "925", "gisid": "3057"}, "geometry": {"type": "MultiPolygon", "coordinates": [[[[144.954381709528, -37.819147399078], [144.954055468047, -37.819243097351], [144.954028719578, -37.819185161091], [144.95393758927, -37.818987773153], [144.954265904571, -37.818892264424], [144.954381709528, -37.819147399078]]]]}}