{"type": "Feature", "properties": {"seg_id": "20084", "street_id": "20084", "name": "Bourke Street between Elizabeth Street and Queen Street", "str_type": "Council Major", "status_id": "2", "seg_part": "1", "poly_area": "6130", "gisid": "3045"}, "geometry": {"type": "MultiPolygon", "coordinates": [[[[144.961615729895, -37.814557408346], [144.961693399497, -37.814535394426], [144.962943296261, -37.814172264835], [144.963060062872, -37.814430791033], [144.962530514307, -37.814583844309], [144.962469689156, -37.8146014245], [144.961805342138, -37.814793433677], [144.961567116138, -37.814862284255], [144.961509144323, -37.814879400571], [144.960909441701, -37.815050411619], [144.960784702685, -37.814796100695], [144.961615729895, -37.814557408346]]]]}}