{"type": "Feature", "properties": {"seg_id": "20086", "street_id": "20086", "name": "Bourke Street between Queen Street and William Street", "str_type": "Council Major", "status_id": "2", "seg_part": "1", "poly_area": "6095", "gisid": "3043"}, "geometry": {"type": "MultiPolygon", "coordinates": [[[[144.959717421849, -37.815392902059], [144.959626790936, -37.815419275234], [144.95907406396, -37.815580116309], [144.958428917749, -37.815763266836], [144.95831241117, -37.815509718853], [144.958641968008, -37.815415097788], [144.958696347519, -37.815398528915], [144.959553343423, -37.8151498596], [144.959603296174, -37.815134882566], [144.960169890225, -37.814972913893], [144.960211786851, -37.81496093763], [144.960466770766, -37.814888046335], [144.960583518512, -37.815141695588], [144.960346408223, -37.815210581912], [144.960301584681, -37.815222908542], [144.959717421849, -37.815392902059]]]]}}