{"type": "Feature", "properties": {"seg_id": "20080", "street_id": "20080", "name": "Bourke Street between Russell Street and Swanston Street", "str_type": "Council Major", "status_id": "2", "seg_part": "1", "poly_area": "6012", "gisid": "3049"}, "geometry": {"type": "MultiPolygon", "coordinates": [[[[144.966327337392, -37.813182810567], [144.966400789237, -37.813161151418], [144.966833225563, -37.813033630032], [144.966851428414, -37.81302826242], [144.967011212654, -37.812981142948], [144.967218240386, -37.812920092007], [144.967402689269, -37.812865698142], [144.96749903513, -37.812837286262], [144.967879627613, -37.812725048511], [144.967997076779, -37.812982769854], [144.967169396521, -37.813226337299], [144.967104222777, -37.813244834334], [144.9667523689, -37.813344696074], [144.966681980151, -37.813364673571], [144.966420529577, -37.813438875345], [144.966362252035, -37.813455415654], [144.965853682817, -37.813599747229], [144.965736833973, -37.813356937868], [144.966327337392, -37.813182810567]]]]}}