{"type": "Feature", "properties": {"seg_id": "20097", "street_id": "20097", "name": "Little Collins Street between Swanston Street and Elizabeth Street", "str_type": "Council Major", "status_id": "2", "seg_part": "1", "poly_area": "2190", "gisid": "3036"}, "geometry": {"type": "MultiPolygon", "coordinates": [[[[144.964985635573, -37.814886944068], [144.964478495851, -37.815033531847], [144.96444136187, -37.81504426454], [144.964258840596, -37.815097021608], [144.96422648108, -37.81510882627], [144.964079857651, -37.815150727229], [144.964025079902, -37.815164433192], [144.963792628802, -37.815231298311], [144.963754580657, -37.815140522757], [144.96400027652, -37.815069533148], [144.96403401184, -37.815059749344], [144.96408897131, -37.815043808898], [144.964131500849, -37.815031474495], [144.9641832506, -37.815016465295], [144.964259720236, -37.814994787599], [144.964327088074, -37.81497569027], [144.964486679964, -37.814930449935], [144.964518532441, -37.814921385022], [144.964793528128, -37.81484343219], [144.964788732421, -37.814832832575], [144.964808302836, -37.814827284358], [144.964825415172, -37.814822434418], [144.964830210884, -37.814833034032], [144.96489063593, -37.814815905301], [144.964920046454, -37.814807568578], [144.964948797568, -37.814797928164], [144.965214167682, -37.814719841319], [144.965267124595, -37.81470185068], [144.96526220518, -37.814690996616], [144.965643468517, -37.814578833745], [144.965648405161, -37.814589682685], [144.965689036321, -37.814579571459], [144.965907623023, -37.814515264792], [144.96594966456, -37.81461045324], [144.965594399976, -37.81471604164], [144.96558902188, -37.814704638959], [144.965216884888, -37.814815241713], [144.965160462703, -37.814835939955], [144.965022788579, -37.814875843851], [144.964985635573, -37.814886944068]]]]}}