{"type": "Feature", "properties": {"seg_id": "20099", "street_id": "20099", "name": "Little Collins Street between Elizabeth Street and Queen Street", "str_type": "Council Major", "status_id": "2", "seg_part": "2", "poly_area": "137", "gisid": "4022"}, "geometry": {"type": "MultiPolygon", "coordinates": [[[[144.963430649926, -37.815239479362], [144.962816823261, -37.815418616958], [144.962806932678, -37.815397120416], [144.963060057349, -37.815324513945], [144.963146033607, -37.815299851831], [144.963422037949, -37.815220681476], [144.963430649926, -37.815239479362]]], [[[144.962991607719, -37.815478939396], [144.962819040504, -37.81552923948], [144.962813910603, -37.815518160889], [144.962773393697, -37.815529951076], [144.9627785633, -37.815541114165], [144.962613181216, -37.815589333081], [144.962399027672, -37.815650632747], [144.962394406794, -37.81563984141], [144.962298159699, -37.815667846114], [144.96226450774, -37.815677637164], [144.96226972195, -37.815689075905], [144.961788242437, -37.815833878224], [144.961754789033, -37.815843507649], [144.961747686, -37.815828013343], [144.961318734595, -37.815952819332], [144.961289222222, -37.815861974528], [144.961284716048, -37.815852345849], [144.96130136609, -37.81585841157], [144.961474119709, -37.815807717743], [144.96154058657, -37.815787439408], [144.961861864368, -37.815694127668], [144.961877861622, -37.815689482352], [144.961956804574, -37.815667057752], [144.962133005183, -37.815615943182], [144.962131729134, -37.815613147279], [144.962346636693, -37.815551571873], [144.962342540735, -37.815542677581], [144.962558636059, -37.815479989558], [144.962563043086, -37.815489552491], [144.962650596293, -37.815464440408], [144.962651144203, -37.815465625021], [144.962777312325, -37.815429022322], [144.962816823261, -37.815418616958], [144.963430649926, -37.815239479362], [144.963475147553, -37.815337370503], [144.963278987139, -37.81539473305], [144.963274375858, -37.81538379502], [144.963040305681, -37.815451903989], [144.963007217063, -37.815461912271], [144.963012160709, -37.815472948881], [144.962991607719, -37.815478939396]]]]}}