{"type": "Feature", "properties": {"seg_id": "20091", "street_id": "20091", "name": "Little Collins Street between Spring Street and Exhibition Street", "str_type": "Council Major", "status_id": "2", "seg_part": "1", "poly_area": "2364", "gisid": "3260"}, "geometry": {"type": "MultiPolygon", "coordinates": [[[[144.971832496388, -37.812871749934], [144.971784793713, -37.812885175886], [144.971490080268, -37.8129700997], [144.971441902051, -37.812985581015], [144.97119575575, -37.813058219635], [144.971156729149, -37.812966374217], [144.971533546834, -37.812858660056], [144.971597968564, -37.812839863725], [144.971591343785, -37.812825381234], [144.971965252504, -37.812717986847], [144.972043204628, -37.812695597807], [144.97241444673, -37.812588967108], [144.972419531751, -37.812600154471], [144.972485698119, -37.812580848784], [144.97248045799, -37.812569766895], [144.972714135872, -37.812500614721], [144.972719577463, -37.812512181298], [144.972845301187, -37.812475268035], [144.972912654597, -37.812455206627], [144.973312136839, -37.812341424442], [144.973349858572, -37.812428319984], [144.97335497718, -37.812440111674], [144.97273677211, -37.812622384928], [144.972731206199, -37.812610088962], [144.972697881406, -37.812617612292], [144.972703460694, -37.81263000041], [144.972486522719, -37.812694121149], [144.972480637639, -37.812681534904], [144.972291641944, -37.812737145365], [144.972235280594, -37.812752801503], [144.971832496388, -37.812871749934]]]]}}