{"type": "Feature", "properties": {"seg_id": "20094", "street_id": "20094", "name": "Intersection of Russell Street and Little Collins Street", "str_type": "Council Major", "status_id": "2", "seg_part": "1", "poly_area": "353", "gisid": "3257"}, "geometry": {"type": "MultiPolygon", "coordinates": [[[[144.968365419788, -37.813790981064], [144.968689442455, -37.813689323173], [144.968692907326, -37.813696856404], [144.968732317857, -37.813781930571], [144.968739498091, -37.813797597932], [144.968412856151, -37.813877354527], [144.968365419788, -37.813790981064]]]]}}