{"type": "Feature", "properties": {"seg_id": "20100", "street_id": "20100", "name": "Intersection of Queen Street and Little Collins Street", "str_type": "Council Major", "status_id": "2", "seg_part": "1", "poly_area": "399", "gisid": "3033"}, "geometry": {"type": "MultiPolygon", "coordinates": [[[[144.960996954861, -37.816058568806], [144.960928769511, -37.815948867593], [144.961284716048, -37.815852345849], [144.961289222222, -37.815861974528], [144.961318734595, -37.815952819332], [144.960996954861, -37.816058568806]]]]}}