{"type": "Feature", "properties": {"seg_id": "20114", "street_id": "20114", "name": "Collins Street between Elizabeth Street and Queen Street", "str_type": "Council Major", "status_id": "2", "seg_part": "1", "poly_area": "6030", "gisid": "3023"}, "geometry": {"type": "MultiPolygon", "coordinates": [[[[144.963837279943, -37.816137511455], [144.963959146923, -37.816388073853], [144.961805310549, -37.817012441518], [144.961688208381, -37.81675862512], [144.963363708936, -37.816274384246], [144.963409594352, -37.816261122276], [144.963837279943, -37.816137511455]]]]}}