{"type": "Feature", "properties": {"seg_id": "20110", "street_id": "20110", "name": "Collins Street between Russell Street and Swanston Street", "str_type": "Council Major", "status_id": "2", "seg_part": "1", "poly_area": "6124", "gisid": "3027"}, "geometry": {"type": "MultiPolygon", "coordinates": [[[[144.96664015648, -37.815317952995], [144.968787983654, -37.814686727733], [144.968900633165, -37.814945380098], [144.967415890477, -37.815381736686], [144.967314505002, -37.81541153307], [144.966752729377, -37.815576628525], [144.96664015648, -37.815317952995]]]]}}