{"type": "Feature", "properties": {"seg_id": "20123", "street_id": "20123", "name": "Flinders Lane between Exhibition Street and Russell Street", "str_type": "Council Major", "status_id": "2", "seg_part": "1", "poly_area": "2209", "gisid": "3250"}, "geometry": {"type": "MultiPolygon", "coordinates": [[[[144.97041452369, -37.815417332583], [144.970483846937, -37.81539672711], [144.971156258015, -37.815199735856], [144.971402928572, -37.815126926221], [144.971453247472, -37.815110481516], [144.971744017619, -37.815023481271], [144.971788145527, -37.815126024815], [144.971405024875, -37.815240278117], [144.971397957326, -37.81522507516], [144.97134947203, -37.815239768002], [144.971268255617, -37.815264315391], [144.971216518256, -37.815279953353], [144.970836514716, -37.815394809108], [144.970788013087, -37.81540946809], [144.97028159978, -37.815562527892], [144.970212606936, -37.815583380453], [144.969938329349, -37.815666276983], [144.969893914339, -37.815679701145], [144.969634982887, -37.815757959145], [144.969592913317, -37.815664593664], [144.97041452369, -37.815417332583]]]]}}