{"type": "Feature", "properties": {"seg_id": "20127", "street_id": "20127", "name": "Flinders Lane between Swanston Street and Elizabeth Street", "str_type": "Council Major", "status_id": "2", "seg_part": "1", "poly_area": "2225", "gisid": "3494"}, "geometry": {"type": "MultiPolygon", "coordinates": [[[[144.966796670195, -37.816469437175], [144.966843246896, -37.816569163535], [144.966457390891, -37.816681959171], [144.9664159752, -37.816693878374], [144.966325983915, -37.8167200668], [144.966293240025, -37.816729595321], [144.966204421294, -37.816755441633], [144.966206680058, -37.816760351504], [144.966168316259, -37.816771499659], [144.966166048315, -37.816766593233], [144.965635877089, -37.816919300809], [144.965561464862, -37.816946334564], [144.965316556437, -37.817016436186], [144.965281193441, -37.817026558097], [144.9651295372, -37.817069966624], [144.965094157395, -37.817079664635], [144.964699223819, -37.817193504225], [144.964646348844, -37.817099011252], [144.965513354562, -37.816846705583], [144.965519735406, -37.816860607431], [144.965614416623, -37.816833048865], [144.965649890321, -37.816819386243], [144.965729803517, -37.816796299996], [144.965724047545, -37.816783594001], [144.965943260344, -37.816720389505], [144.96594903003, -37.816732969561], [144.966165937201, -37.816670316888], [144.966213079104, -37.816656008534], [144.966568362143, -37.816550474584], [144.966562722171, -37.816537966187], [144.966603155343, -37.816526121883], [144.966796670195, -37.816469437175]]]]}}