{"type": "Feature", "properties": {"seg_id": "20135", "street_id": "20135", "name": "Flinders Lane between William Street and King Street", "str_type": "Council Major", "status_id": "2", "seg_part": "1", "poly_area": "4062", "gisid": "3487"}, "geometry": {"type": "MultiPolygon", "coordinates": [[[[144.957309591974, -37.819432075593], [144.957231449256, -37.819263634053], [144.957456860583, -37.819196858292], [144.957524528346, -37.819176890592], [144.958952296437, -37.818763020674], [144.959380132819, -37.818637696014], [144.959460886845, -37.818809278783], [144.958745196728, -37.819016476097], [144.958696011253, -37.819030715349], [144.957892562294, -37.819263312099], [144.957823179299, -37.819283398053], [144.957549515343, -37.819362620808], [144.957504940997, -37.819375524701], [144.957309591974, -37.819432075593]]]]}}