{"type": "Feature", "properties": {"seg_id": "20138", "street_id": "20138", "name": "Exhibition Street between Flinders Street and Flinders Lane", "str_type": "Council Major", "status_id": "2", "seg_part": "1", "poly_area": "2862", "gisid": "3247"}, "geometry": {"type": "MultiPolygon", "coordinates": [[[[144.972481640437, -37.815831829505], [144.972160153072, -37.815923782583], [144.972064582737, -37.815718838334], [144.972047777452, -37.81568279831], [144.971788145527, -37.815126024815], [144.972106838833, -37.815025020028], [144.972237025938, -37.815305266173], [144.972254624755, -37.815343151931], [144.972481640437, -37.815831829505]]]]}}