{"type": "Feature", "properties": {"seg_id": "20139", "street_id": "20139", "name": "Exhibition Street between Flinders Lane and Collins Street", "str_type": "Council Major", "status_id": "2", "seg_part": "1", "poly_area": "2854", "gisid": "3246"}, "geometry": {"type": "MultiPolygon", "coordinates": [[[[144.971369543776, -37.814221602768], [144.971694067513, -37.814127252856], [144.972061841467, -37.814924554156], [144.971744017619, -37.815023481271], [144.971481360176, -37.814457133145], [144.971465990723, -37.814426923156], [144.971369543776, -37.814221602768]]]]}}