{"type": "Feature", "properties": {"seg_id": "20137", "street_id": "20137", "name": "Flinders Lane between King Street and Spencer Street", "str_type": "Council Major", "status_id": "2", "seg_part": "1", "poly_area": "4020", "gisid": "3485"}, "geometry": {"type": "MultiPolygon", "coordinates": [[[[144.954999141078, -37.819895438935], [144.955024614142, -37.819888243012], [144.956401556937, -37.819499233967], [144.95647074047, -37.819479687002], [144.956901992496, -37.819357847101], [144.956983402335, -37.819523919579], [144.956734205038, -37.819594838877], [144.956680303444, -37.819610179577], [144.956380595437, -37.819695473004], [144.95631782214, -37.81971333694], [144.955633048066, -37.819908212675], [144.955528627566, -37.819937928932], [144.954831886252, -37.820136204052], [144.95475454984, -37.819964537929], [144.954999141078, -37.819895438935]]]]}}