{"type": "Feature", "properties": {"seg_id": "20145", "street_id": "20145", "name": "Exhibition Street between Little Lonsdale Street and La Trobe Street", "str_type": "Council Major", "status_id": "2", "seg_part": "1", "poly_area": "2862", "gisid": "3240"}, "geometry": {"type": "MultiPolygon", "coordinates": [[[[144.969350432156, -37.809032090728], [144.969027974658, -37.809126205158], [144.968661909763, -37.808323603318], [144.968984302536, -37.808230701715], [144.969350432156, -37.809032090728]]]]}}