{"type": "Feature", "properties": {"seg_id": "20144", "street_id": "20144", "name": "Exhibition Street between Lonsdale Street and Little Lonsdale Street", "str_type": "Council Major", "status_id": "2", "seg_part": "1", "poly_area": "2916", "gisid": "3241"}, "geometry": {"type": "MultiPolygon", "coordinates": [[[[144.969070631976, -37.809218906937], [144.969395251726, -37.809123992489], [144.96976706343, -37.809935005433], [144.969443572501, -37.810030394519], [144.969070631976, -37.809218906937]]]]}}