{"type": "Feature", "properties": {"seg_id": "20142", "street_id": "20142", "name": "Exhibition Street between Bourke Street and Little Bourke Street", "str_type": "Council Major", "status_id": "2", "seg_part": "1", "poly_area": "2827", "gisid": "3243"}, "geometry": {"type": "MultiPolygon", "coordinates": [[[[144.97035381073, -37.811994748054], [144.97026257236, -37.811798671594], [144.970247175907, -37.811765585323], [144.970244816921, -37.811760514289], [144.970220972431, -37.811709272365], [144.969977313846, -37.811185632531], [144.970303192367, -37.81110426226], [144.970553256194, -37.811654158598], [144.970572079614, -37.811691026657], [144.970670261728, -37.811901153856], [144.97035381073, -37.811994748054]]]]}}