{"type": "Feature", "properties": {"seg_id": "20147", "street_id": "20147", "name": "Russell Street between Flinders Lane and Collins Street", "str_type": "Council Major", "status_id": "2", "seg_part": "1", "poly_area": "2842", "gisid": "3238"}, "geometry": {"type": "MultiPolygon", "coordinates": [[[[144.968900633165, -37.814945380098], [144.969215368681, -37.814852779661], [144.96931209721, -37.815060773175], [144.969329033839, -37.81509718983], [144.969592913317, -37.815664593664], [144.969269916846, -37.8157496278], [144.968900633165, -37.814945380098]]]]}}