{"type": "Feature", "properties": {"seg_id": "20157", "street_id": "20157", "name": "Swanston Street between Little Collins Street and Bourke Street", "str_type": "Council Major", "status_id": "2", "seg_part": "1", "poly_area": "2869", "gisid": "3477"}, "geometry": {"type": "MultiPolygon", "coordinates": [[[[144.966215952343, -37.814415960614], [144.965907623023, -37.814515264792], [144.965533012387, -37.813707445308], [144.965853682817, -37.813599747229], [144.966215952343, -37.814415960614]]]]}}