{"type": "Feature", "properties": {"seg_id": "20150", "street_id": "20150", "name": "Russell Street between Bourke Street and Little Bourke Street", "str_type": "Council Major", "status_id": "2", "seg_part": "1", "poly_area": "2892", "gisid": "3484"}, "geometry": {"type": "MultiPolygon", "coordinates": [[[[144.967829953964, -37.811816312435], [144.968198959934, -37.81263165676], [144.967879627613, -37.812725048511], [144.967794760254, -37.81253938693], [144.967778751092, -37.812504363962], [144.967776064467, -37.812498487882], [144.967718496356, -37.81237254616], [144.967508509207, -37.811913159729], [144.967829953964, -37.811816312435]]]]}}