{"type": "Feature", "properties": {"seg_id": "20153", "street_id": "20153", "name": "Russell Street between Little Lonsdale Street and La Trobe Street", "str_type": "Council Major", "status_id": "2", "seg_part": "1", "poly_area": "2916", "gisid": "3481"}, "geometry": {"type": "MultiPolygon", "coordinates": [[[[144.966195174954, -37.809047735264], [144.966516039117, -37.808949542221], [144.966882916785, -37.809750459439], [144.966888851893, -37.809763415401], [144.966564325311, -37.809859644687], [144.966195174954, -37.809047735264]]]]}}