{"type": "Feature", "properties": {"seg_id": "20159", "street_id": "20159", "name": "Swanston Street between Little Bourke Street and Lonsdale Street", "str_type": "Council Major", "status_id": "2", "seg_part": "1", "poly_area": "2895", "gisid": "3475"}, "geometry": {"type": "MultiPolygon", "coordinates": [[[[144.965323609131, -37.812457970646], [144.964994502913, -37.81253841327], [144.964623345016, -37.811736927245], [144.964949476919, -37.811646168007], [144.965323609131, -37.812457970646]]]]}}