{"type": "Feature", "properties": {"seg_id": "20165", "street_id": "20165", "name": "Elizabeth Street between Little Collins Street and Bourke Street", "str_type": "Council Major", "status_id": "2", "seg_part": "1", "poly_area": "2774", "gisid": "3469"}, "geometry": {"type": "MultiPolygon", "coordinates": [[[[144.963358276672, -37.814325445531], [144.963535640511, -37.814690231664], [144.963551785469, -37.814723438056], [144.963754580657, -37.815140522757], [144.963430649926, -37.815239479362], [144.963422037949, -37.815220681476], [144.963321464866, -37.815001152053], [144.96330284468, -37.814960506869], [144.963280111424, -37.814910885116], [144.963237672468, -37.814818249121], [144.963185817325, -37.814705126913], [144.96309716794, -37.814511737591], [144.963060062872, -37.814430791033], [144.963358276672, -37.814325445531]], [[144.963342360437, -37.81490998737], [144.963303158957, -37.814921173279], [144.963319097339, -37.814955818009], [144.963337787387, -37.814996442771], [144.963384941376, -37.815098936239], [144.963423674348, -37.815087853946], [144.963342360437, -37.81490998737]]], [[[144.963342360437, -37.81490998737], [144.963423674348, -37.815087853946], [144.963384941376, -37.815098936239], [144.963337787387, -37.814996442771], [144.963319097339, -37.814955818009], [144.963303158957, -37.814921173279], [144.963342360437, -37.81490998737]]]]}}