{"type": "Feature", "properties": {"seg_id": "20164", "street_id": "20164", "name": "Elizabeth Street between Collins Street and Little Collins Street", "str_type": "Council Major", "status_id": "2", "seg_part": "1", "poly_area": "2892", "gisid": "3470"}, "geometry": {"type": "MultiPolygon", "coordinates": [[[[144.963792628802, -37.815231298311], [144.96396422311, -37.815608677086], [144.963990234907, -37.815665883821], [144.964163211964, -37.816046299745], [144.963837279943, -37.816137511455], [144.963475147553, -37.815337370503], [144.963792628802, -37.815231298311]]]]}}