{"type": "Feature", "properties": {"seg_id": "20169", "street_id": "20169", "name": "Elizabeth Street between Little Lonsdale Street and La Trobe Street", "str_type": "Council Major", "status_id": "2", "seg_part": "1", "poly_area": "2868", "gisid": "3465"}, "geometry": {"type": "MultiPolygon", "coordinates": [[[[144.961947074886, -37.81121079506], [144.961624819888, -37.811307523884], [144.961539195867, -37.811111384901], [144.961260187633, -37.810492585063], [144.961575562055, -37.810399105775], [144.961947074886, -37.81121079506]]]]}}