{"type": "Feature", "properties": {"seg_id": "20162", "street_id": "20162", "name": "Elizabeth Street between Flinders Street and Flinders Lane", "str_type": "Council Major", "status_id": "2", "seg_part": "1", "poly_area": "2922", "gisid": "3472"}, "geometry": {"type": "MultiPolygon", "coordinates": [[[[144.964746197146, -37.818099414594], [144.964582817481, -37.817746340411], [144.964572074788, -37.817723123361], [144.96446020627, -37.817481365909], [144.964378410876, -37.817304597473], [144.964375592768, -37.817298508172], [144.964699223819, -37.817193504225], [144.965051577284, -37.817962335017], [144.965072985035, -37.818007638518], [144.964746197146, -37.818099414594]]]]}}