{"type": "Feature", "properties": {"seg_id": "20167", "street_id": "20167", "name": "Elizabeth Street between Little Bourke Street and Lonsdale Street", "str_type": "Council Major", "status_id": "2", "seg_part": "1", "poly_area": "2844", "gisid": "3467"}, "geometry": {"type": "MultiPolygon", "coordinates": [[[[144.962700037422, -37.812852630489], [144.962845251498, -37.813169765048], [144.962528744361, -37.813258823037], [144.962153493065, -37.812459830695], [144.96247599157, -37.812363329996], [144.9626676036, -37.812781797416], [144.962700037422, -37.812852630489]]]]}}