{"type": "Feature", "properties": {"seg_id": "20186", "street_id": "20186", "name": "William Street between Lonsdale Street and Little Lonsdale Street", "str_type": "Council Major", "status_id": "2", "seg_part": "1", "poly_area": "2768", "gisid": "3448"}, "geometry": {"type": "MultiPolygon", "coordinates": [[[[144.956723417737, -37.812826028808], [144.957038114517, -37.812744551993], [144.957403577838, -37.81354312977], [144.957092823901, -37.813635003393], [144.956723417737, -37.812826028808]]]]}}