{"type": "Feature", "properties": {"seg_id": "20188", "street_id": "20188", "name": "King Street between Flinders Street and Flinders Lane", "str_type": "Arterial", "status_id": "1", "seg_part": "1", "poly_area": "2645", "gisid": "3446"}, "geometry": {"type": "MultiPolygon", "coordinates": [[[[144.95720715274, -37.820010133692], [144.957191426594, -37.819975606312], [144.956983402335, -37.819523919579], [144.957309591974, -37.819432075593], [144.957648490363, -37.820159421237], [144.957320736307, -37.820256439656], [144.95720715274, -37.820010133692]]]]}}