{"type": "Feature", "properties": {"seg_id": "20180", "street_id": "20180", "name": "Market Street between Flinders Lane and Collins Street", "str_type": "Council Major", "status_id": "2", "seg_part": "1", "poly_area": "1134", "gisid": "3454"}, "geometry": {"type": "MultiPolygon", "coordinates": [[[[144.960267476646, -37.817462540868], [144.960414611502, -37.817418069043], [144.960611877414, -37.817859693112], [144.960735597266, -37.818130214863], [144.960593103877, -37.818171224946], [144.960267476646, -37.817462540868]]]]}}