{"type": "Feature", "properties": {"seg_id": "20194", "street_id": "20194", "name": "King Street between Lonsdale Street and Little Lonsdale Street", "str_type": "Arterial", "status_id": "1", "seg_part": "1", "poly_area": "2816", "gisid": "3440"}, "geometry": {"type": "MultiPolygon", "coordinates": [[[[144.954568477175, -37.813475663236], [144.954856946536, -37.814093249272], [144.954870182315, -37.814121576888], [144.954931127081, -37.814252054004], [144.954604758112, -37.814339195261], [144.954233642519, -37.813533395306], [144.954568477175, -37.813475663236]]]]}}