{"type": "Feature", "properties": {"seg_id": "20192", "street_id": "20192", "name": "King Street between Bourke Street and Little Bourke Street", "str_type": "Arterial", "status_id": "1", "seg_part": "1", "poly_area": "2891", "gisid": "3442"}, "geometry": {"type": "MultiPolygon", "coordinates": [[[[144.955631452973, -37.815773370231], [144.955647899366, -37.815809240462], [144.955833885575, -37.816214872765], [144.955509760339, -37.816303373791], [144.955137913867, -37.815492093877], [144.955462034028, -37.815403867698], [144.955631452973, -37.815773370231]]]]}}