{"type": "Feature", "properties": {"seg_id": "20196", "street_id": "20196", "name": "Spring Street between Flinders Street and Flinders Lane", "str_type": "Council Major", "status_id": "2", "seg_part": "1", "poly_area": "2865", "gisid": "3235"}, "geometry": {"type": "MultiPolygon", "coordinates": [[[[144.974467433787, -37.814861400505], [144.974262753849, -37.814408010739], [144.974582165794, -37.814314642693], [144.97491733498, -37.815036272239], [144.974941168213, -37.815115682944], [144.97462419149, -37.815208782902], [144.974493922253, -37.814920076726], [144.974467433787, -37.814861400505]]]]}}