{"type": "Feature", "properties": {"seg_id": "20193", "street_id": "20193", "name": "King Street between Little Bourke Street and Lonsdale Street", "str_type": "Arterial", "status_id": "1", "seg_part": "1", "poly_area": "2880", "gisid": "3441"}, "geometry": {"type": "MultiPolygon", "coordinates": [[[[144.955421491995, -37.815315289286], [144.955100025006, -37.815411447615], [144.954849560142, -37.814867049753], [144.954834802171, -37.814834972945], [144.954726671134, -37.81459994196], [144.955050538111, -37.814512243257], [144.955421491995, -37.815315289286]]]]}}