{"type": "Feature", "properties": {"seg_id": "20200", "street_id": "20200", "name": "Spring Street between Collins Street and Little Collins Street", "str_type": "Council Major", "status_id": "2", "seg_part": "1", "poly_area": "2877", "gisid": "3231"}, "geometry": {"type": "MultiPolygon", "coordinates": [[[[144.973443348541, -37.812635723738], [144.97335497718, -37.812440111674], [144.97368001375, -37.812347025714], [144.973861865651, -37.812746681225], [144.973863733949, -37.812750431632], [144.973934198821, -37.812891829481], [144.974044094571, -37.813134026548], [144.973715681349, -37.813238532758], [144.973546083774, -37.812863129553], [144.973532913577, -37.812833976], [144.973459925863, -37.812672417515], [144.973443348541, -37.812635723738]]]]}}