{"type": "Feature", "properties": {"seg_id": "20217", "street_id": "20217", "name": "Intersection of Queen Street and Flinders Street", "str_type": "Council Major", "status_id": "2", "seg_part": "1", "poly_area": "1122", "gisid": "3434"}, "geometry": {"type": "MultiPolygon", "coordinates": [[[[144.962588881885, -37.818722895925], [144.962708259154, -37.818979501176], [144.962730736525, -37.819028333667], [144.962405450865, -37.819124041134], [144.962258574467, -37.818809909885], [144.962588881885, -37.818722895925]]]]}}