{"type": "Feature", "properties": {"seg_id": "20218", "street_id": "20218", "name": "Flinders Street between Queen Street and Market Street", "str_type": "Council Major", "status_id": "2", "seg_part": "1", "poly_area": "3722", "gisid": "3433"}, "geometry": {"type": "MultiPolygon", "coordinates": [[[[144.962405450865, -37.819124041134], [144.961745410142, -37.819318238054], [144.961380980873, -37.819413094705], [144.961330390293, -37.819426262667], [144.961191083849, -37.81912373227], [144.961386594739, -37.819064261485], [144.961432577319, -37.819052044658], [144.961816007658, -37.818937297076], [144.961861684516, -37.818922560509], [144.962258574467, -37.818809909885], [144.962405450865, -37.819124041134]]]]}}