{"type": "Feature", "properties": {"seg_id": "20219", "street_id": "20219", "name": "Intersection of Market Street and Flinders Street", "str_type": "Council Major", "status_id": "2", "seg_part": "1", "poly_area": "1080", "gisid": "3432"}, "geometry": {"type": "MultiPolygon", "coordinates": [[[[144.961191083849, -37.81912373227], [144.961330390293, -37.819426262667], [144.961003977987, -37.819511222723], [144.960982509819, -37.819464599952], [144.960864901097, -37.819209187073], [144.961191083849, -37.81912373227]]]]}}