{"type": "Feature", "properties": {"seg_id": "20225", "street_id": "20225", "name": "Intersection of Spencer Street and Flinders Street", "str_type": "Arterial", "status_id": "1", "seg_part": "1", "poly_area": "1938", "gisid": "3426"}, "geometry": {"type": "MultiPolygon", "coordinates": [[[[144.95494153299, -37.82150298224], [144.954834007737, -37.821266047898], [144.954841655115, -37.82097555761], [144.955170495111, -37.820876057077], [144.955285596135, -37.821134190335], [144.955329288846, -37.821229726458], [144.95494153299, -37.82150298224]]]]}}