{"type": "Feature", "properties": {"seg_id": "20224", "street_id": "20224", "name": "Flinders Street between King Street and Spencer Street", "str_type": "Council Major", "status_id": "2", "seg_part": "1", "poly_area": "7044", "gisid": "3427"}, "geometry": {"type": "MultiPolygon", "coordinates": [[[[144.956105582675, -37.82091921583], [144.955975826728, -37.82095693125], [144.955917492021, -37.820973886126], [144.955823256214, -37.821021379367], [144.955798021192, -37.82103340083], [144.955772075498, -37.82104442935], [144.955745481174, -37.821054438555], [144.955710108158, -37.821066948184], [144.955662831815, -37.821083126104], [144.955615074982, -37.821098390199], [144.955566865726, -37.821112731499], [144.955445729479, -37.821147443692], [144.955414181837, -37.821169737016], [144.955329288846, -37.821229726458], [144.955285596135, -37.821134190335], [144.955170495111, -37.820876057077], [144.955873034228, -37.820675515119], [144.955885858921, -37.820671854612], [144.955969619978, -37.820647871332], [144.956111997424, -37.820606839705], [144.956244840756, -37.820568330612], [144.956240167769, -37.820558174372], [144.956454710706, -37.820495977354], [144.956459407663, -37.820506130397], [144.956626285871, -37.820457756159], [144.956735908861, -37.820426507102], [144.956730245101, -37.820414005955], [144.956886038061, -37.82036939963], [144.95689066521, -37.820379573074], [144.957320736307, -37.820256439656], [144.957442454253, -37.82050890016], [144.9574526685, -37.820531025453], [144.95757206684, -37.820789650167], [144.957541068108, -37.820776524833], [144.957331833035, -37.820589671004], [144.957315637496, -37.820578631812], [144.957080870768, -37.820635733922], [144.956860225062, -37.820699868243], [144.956735559246, -37.820736104797], [144.956105582675, -37.82091921583]]]]}}