{"type": "Feature", "properties": {"seg_id": "20223", "street_id": "20223", "name": "Intersection of King Street and Flinders Street", "str_type": "Arterial", "status_id": "1", "seg_part": "1", "poly_area": "996", "gisid": "3428"}, "geometry": {"type": "MultiPolygon", "coordinates": [[[[144.957648490363, -37.820159421237], [144.957764093968, -37.820415220552], [144.957774406906, -37.820437560206], [144.9574526685, -37.820531025453], [144.957442454253, -37.82050890016], [144.957320736307, -37.820256439656], [144.957648490363, -37.820159421237]]]]}}