{"type": "Feature", "properties": {"seg_id": "20222", "street_id": "20222", "name": "Flinders Street between William Street and King Street", "str_type": "Council Major", "status_id": "2", "seg_part": "1", "poly_area": "6543", "gisid": "3429"}, "geometry": {"type": "MultiPolygon", "coordinates": [[[[144.95992014263, -37.819793319142], [144.959826101626, -37.819817794909], [144.959108304567, -37.820025767949], [144.959005648773, -37.820055510687], [144.958741312202, -37.820132097023], [144.958731436454, -37.820117795394], [144.958694182669, -37.820128589033], [144.958682575147, -37.820131951935], [144.958660832283, -37.82013838274], [144.958639204067, -37.820145052392], [144.958617694669, -37.820151959606], [144.958526356656, -37.820184450947], [144.958437634537, -37.820221221668], [144.958351846582, -37.820262139863], [144.958199388069, -37.820339922321], [144.95814685938, -37.820364642758], [144.958092174966, -37.820386222035], [144.958035632806, -37.820404542564], [144.95780539944, -37.820471225836], [144.957791771751, -37.820475172716], [144.957774406906, -37.820437560206], [144.957764093968, -37.820415220552], [144.957648490363, -37.820159421237], [144.957747059118, -37.820131913104], [144.957742534803, -37.820121714441], [144.95798894162, -37.82005294259], [144.95799346599, -37.820063140343], [144.958077032674, -37.820039812733], [144.958072506147, -37.82002961044], [144.958155059097, -37.820006583308], [144.958222071467, -37.819980985028], [144.958716217434, -37.819838254881], [144.958720893412, -37.819848602128], [144.959018540408, -37.819762628055], [144.959013825464, -37.81975229186], [144.959026259409, -37.819748700833], [144.959083370446, -37.819736228153], [144.959797060672, -37.819526012232], [144.95992014263, -37.819793319142]]]]}}