{"type": "Feature", "properties": {"seg_id": "20229", "street_id": "20229", "name": "Harwood Place from Little Bourke Street", "str_type": "Council Minor", "status_id": "3", "seg_part": "1", "poly_area": "329", "gisid": "3214"}, "geometry": {"type": "MultiPolygon", "coordinates": [[[[144.971616615069, -37.810703392524], [144.971845979318, -37.811210973553], [144.97185726703, -37.811235953055], [144.97180219782, -37.811251791667], [144.971559845371, -37.810719910061], [144.971616615069, -37.810703392524]]]]}}