{"type": "Feature", "properties": {"seg_id": "20230", "street_id": "20230", "name": "Turnbull Alley from Spring Street", "str_type": "Council Minor", "status_id": "3", "seg_part": "1", "poly_area": "177", "gisid": "3213"}, "geometry": {"type": "MultiPolygon", "coordinates": [[[[144.972728403994, -37.811068320689], [144.972290149933, -37.811192417781], [144.972220786898, -37.811035661148], [144.972252118635, -37.811027224973], [144.972313917505, -37.811155716572], [144.972715754724, -37.811041157702], [144.972728403994, -37.811068320689]]]]}}