{"type": "Feature", "properties": {"seg_id": "20236", "street_id": "20236", "name": "Meyers Place between Bourke Street and Little Collins Street", "str_type": "Council Minor", "status_id": "3", "seg_part": "1", "poly_area": "615", "gisid": "3207"}, "geometry": {"type": "MultiPolygon", "coordinates": [[[[144.972054827817, -37.811787786119], [144.972112116912, -37.8117712016], [144.972391838031, -37.812384416969], [144.972508342701, -37.812348952116], [144.972521481314, -37.812376502042], [144.972405292489, -37.812410800816], [144.97248045799, -37.812569766895], [144.972485698119, -37.812580848784], [144.972419531751, -37.812600154471], [144.97241444673, -37.812588967108], [144.972225501388, -37.812173323863], [144.972233072291, -37.812171122895], [144.972187851016, -37.812073867691], [144.972050524598, -37.812112139468], [144.972038048867, -37.812083204083], [144.972173979845, -37.812044036849], [144.972054827817, -37.811787786119]]]]}}