{"type": "Feature", "properties": {"seg_id": "20238", "street_id": "20238", "name": "Westwood Place between Bourke Street and Little Collins Street", "str_type": "Council Minor", "status_id": "3", "seg_part": "1", "poly_area": "577", "gisid": "3205"}, "geometry": {"type": "MultiPolygon", "coordinates": [[[[144.971471183201, -37.812726319336], [144.971454493757, -37.812694048138], [144.971247452844, -37.81224528699], [144.971024339858, -37.812309867286], [144.971013187389, -37.812285678569], [144.971287544506, -37.812204848004], [144.971207156128, -37.812033039541], [144.971226349797, -37.812027474737], [144.971591343785, -37.812825381234], [144.971597968564, -37.812839863725], [144.971533546834, -37.812858660056], [144.971471183201, -37.812726319336]]]]}}