{"type": "Feature", "properties": {"seg_id": "20248", "street_id": "20248", "name": "Malthouse Lane between Exhibition Street and Flinders Lane", "str_type": "Council Minor", "status_id": "3", "seg_part": "1", "poly_area": "468", "gisid": "3195"}, "geometry": {"type": "MultiPolygon", "coordinates": [[[[144.972047777452, -37.81568279831], [144.972064582737, -37.815718838334], [144.971636226955, -37.815845966091], [144.97134947203, -37.815239768002], [144.971397957326, -37.81522507516], [144.971405024875, -37.815240278117], [144.971663700884, -37.815796689001], [144.972047777452, -37.81568279831]]]]}}