{"type": "Feature", "properties": {"seg_id": "20247", "street_id": "20247", "name": "Spark Lane from Flinders Street", "str_type": "Council Minor", "status_id": "3", "seg_part": "1", "poly_area": "375", "gisid": "3196"}, "geometry": {"type": "MultiPolygon", "coordinates": [[[[144.973594593087, -37.815504532808], [144.973549024933, -37.815517158095], [144.97337100431, -37.81513143366], [144.973151804747, -37.815195132698], [144.973134524686, -37.815157455321], [144.973567771595, -37.815030765766], [144.97356868656, -37.815030497641], [144.973586063045, -37.815068394702], [144.973415439167, -37.815118329333], [144.973594593087, -37.815504532808]]]]}}