{"type": "Feature", "properties": {"seg_id": "20245", "street_id": "20245", "name": "Howitt Lane from Flinders Lane", "str_type": "Council Minor", "status_id": "3", "seg_part": "1", "poly_area": "392", "gisid": "3198"}, "geometry": {"type": "MultiPolygon", "coordinates": [[[[144.973829680199, -37.814408885332], [144.973834797008, -37.814419877625], [144.973784743565, -37.814436246824], [144.97358419517, -37.813996505043], [144.973558511535, -37.813989232109], [144.973444560909, -37.814023398272], [144.973432489051, -37.813996445365], [144.973566719517, -37.813956094691], [144.973502146288, -37.813823388962], [144.973525855638, -37.81381653622], [144.973588388767, -37.813950445946], [144.973833465179, -37.813879615118], [144.973843882008, -37.813902873518], [144.973642901508, -37.81396174942], [144.973630610959, -37.813981219622], [144.973829680199, -37.814408885332]]]]}}