{"type": "Feature", "properties": {"seg_id": "20246", "street_id": "20246", "name": "Throssell Lane between Spring Street and Flinders Lane", "str_type": "Council Minor", "status_id": "3", "seg_part": "1", "poly_area": "509", "gisid": "3197"}, "geometry": {"type": "MultiPolygon", "coordinates": [[[[144.974467433787, -37.814861400505], [144.974493922253, -37.814920076726], [144.974055155903, -37.815042933066], [144.973825652045, -37.814531035483], [144.973821111335, -37.814520909221], [144.973861521745, -37.814510854442], [144.973867223185, -37.814523107628], [144.974074656046, -37.814968880004], [144.974467433787, -37.814861400505]]]]}}