{"type": "Feature", "properties": {"seg_id": "20251", "street_id": "20251", "name": "Higson Lane from Flinders Lane", "str_type": "Council Minor", "status_id": "3", "seg_part": "1", "poly_area": "487", "gisid": "3192"}, "geometry": {"type": "MultiPolygon", "coordinates": [[[[144.970212606936, -37.815583380453], [144.97028159978, -37.815562527892], [144.970410863191, -37.815846828858], [144.970518254871, -37.81581513271], [144.970530037157, -37.815840974265], [144.970422732555, -37.815872932364], [144.970545478404, -37.816142894865], [144.970430106065, -37.816177533691], [144.970417417174, -37.816150575263], [144.97046856217, -37.81613560694], [144.970323704436, -37.8158169295], [144.970250276389, -37.815839155621], [144.970249498818, -37.815837558849], [144.970238751971, -37.815815474099], [144.970313514645, -37.815792547346], [144.970212606936, -37.815583380453]]]]}}