{"type": "Feature", "properties": {"seg_id": "20268", "street_id": "20268", "name": "Golden Fleece Alley from Coverlid Place", "str_type": "Council Minor", "status_id": "3", "seg_part": "1", "poly_area": "116", "gisid": "3176"}, "geometry": {"type": "MultiPolygon", "coordinates": [[[[144.968508383896, -37.812305043455], [144.968560882738, -37.812290079458], [144.968572725481, -37.812316282722], [144.968391381846, -37.812367330987], [144.968381512947, -37.812370108462], [144.96836979004, -37.812344549786], [144.968308801679, -37.812211572417], [144.968351686106, -37.81219984006], [144.968411447091, -37.812332675474], [144.968508383896, -37.812305043455]]]]}}