{"type": "Feature", "properties": {"seg_id": "20271", "street_id": "20271", "name": "Pender Place from Little Bourke Street", "str_type": "Council Minor", "status_id": "3", "seg_part": "1", "poly_area": "110", "gisid": "3174"}, "geometry": {"type": "MultiPolygon", "coordinates": [[[[144.968766403997, -37.811434158997], [144.968771249815, -37.811445057614], [144.968728992996, -37.811459025062], [144.968723893604, -37.81144755613], [144.968624958946, -37.811225032208], [144.968668371112, -37.811213666598], [144.968766403997, -37.811434158997]]]]}}