{"type": "Feature", "properties": {"seg_id": "20272", "street_id": "20272", "name": "Lacey Place from Little Bourke Street", "str_type": "Council Minor", "status_id": "3", "seg_part": "1", "poly_area": "343", "gisid": "3173"}, "geometry": {"type": "MultiPolygon", "coordinates": [[[[144.968899329069, -37.811408821824], [144.968856402681, -37.811420613142], [144.968851556852, -37.811409714529], [144.968597319689, -37.810837890068], [144.968645579379, -37.810824378579], [144.968818971957, -37.81120547473], [144.968896365664, -37.811182795162], [144.968915397848, -37.81122324385], [144.968828046714, -37.811248495752], [144.968899329069, -37.811408821824]]]]}}