{"type": "Feature", "properties": {"seg_id": "20273", "street_id": "20273", "name": "Cohen Place from Little Bourke Street", "str_type": "Council Minor", "status_id": "3", "seg_part": "1", "poly_area": "535", "gisid": "3172"}, "geometry": {"type": "MultiPolygon", "coordinates": [[[[144.969260976172, -37.811302568127], [144.969181661717, -37.811126966666], [144.969080381487, -37.811156810639], [144.969069497812, -37.811132831847], [144.969170456582, -37.811102157762], [144.968985216571, -37.810692030904], [144.969009975166, -37.810684711426], [144.968909065342, -37.810476442716], [144.968930441922, -37.810470174266], [144.969031035997, -37.810678485275], [144.969061479854, -37.810703494444], [144.969235593672, -37.811085325193], [144.969352264913, -37.811051635337], [144.969363317441, -37.811074760897], [144.969246197354, -37.811108580002], [144.969325951504, -37.811283477976], [144.969260976172, -37.811302568127]]]]}}