{"type": "Feature", "properties": {"seg_id": "20285", "street_id": "20285", "name": "Celestial Avenue from Little Bourke Street", "str_type": "Council Minor", "status_id": "3", "seg_part": "1", "poly_area": "422", "gisid": "3512"}, "geometry": {"type": "MultiPolygon", "coordinates": [[[[144.966423693651, -37.811918549717], [144.966325269133, -37.811947154628], [144.966412993963, -37.81213822408], [144.966367408293, -37.812151604187], [144.96625778332, -37.811914126157], [144.966243600822, -37.811918247402], [144.966098755216, -37.811605031608], [144.966265128831, -37.811554049134], [144.966288389623, -37.811607584255], [144.966183399452, -37.811638151966], [144.966312580585, -37.811919517185], [144.966412271381, -37.811893611549], [144.966423693651, -37.811918549717]]]]}}