{"type": "Feature", "properties": {"seg_id": "20289", "street_id": "20289", "name": "Bullens Lane between Russell Street and Little Bourke Street", "str_type": "Council Minor", "status_id": "3", "seg_part": "1", "poly_area": "399", "gisid": "3516"}, "geometry": {"type": "MultiPolygon", "coordinates": [[[[144.967492744473, -37.812627164771], [144.967476504851, -37.812591354663], [144.967509097418, -37.81258205207], [144.967210049318, -37.812000712582], [144.967254253511, -37.811987745367], [144.96754950067, -37.81256690588], [144.967556309503, -37.812569014105], [144.967778751092, -37.812504363962], [144.967794760254, -37.81253938693], [144.967492744473, -37.812627164771]]]]}}