{"type": "Feature", "properties": {"seg_id": "20294", "street_id": "20294", "name": "Donaldson Lane from Russell Street", "str_type": "Council Minor", "status_id": "3", "seg_part": "1", "poly_area": "269", "gisid": "3167"}, "geometry": {"type": "MultiPolygon", "coordinates": [[[[144.9681093631, -37.813228920097], [144.967465900704, -37.81341707564], [144.967449235875, -37.813380486784], [144.967445494769, -37.813372220598], [144.96748816061, -37.813359872895], [144.967491786136, -37.813367963158], [144.968093080166, -37.813190987054], [144.9681093631, -37.813228920097]]]]}}