{"type": "Feature", "properties": {"seg_id": "20298", "street_id": "20298", "name": "Royal Lane between Bourke Street and Little Collins Street", "str_type": "Council Minor", "status_id": "3", "seg_part": "1", "poly_area": "611", "gisid": "3419"}, "geometry": {"type": "MultiPolygon", "coordinates": [[[[144.9667523689, -37.813344696074], [144.967117828771, -37.814144273017], [144.967049953587, -37.814164070628], [144.966955640698, -37.813959182823], [144.966681980151, -37.813364673571], [144.9667523689, -37.813344696074]]]]}}