{"type": "Feature", "properties": {"seg_id": "20295", "street_id": "20295", "name": "Portland Lane from Russell Street", "str_type": "Council Minor", "status_id": "3", "seg_part": "1", "poly_area": "358", "gisid": "3166"}, "geometry": {"type": "MultiPolygon", "coordinates": [[[[144.968208781093, -37.81344395495], [144.96822772409, -37.813490106648], [144.968034118618, -37.813546694046], [144.968063869565, -37.81361084133], [144.968033270372, -37.813619846837], [144.967951653019, -37.813566950531], [144.967941322497, -37.813569985847], [144.967940644763, -37.813569929092], [144.967582649036, -37.813673411876], [144.967562574879, -37.813629335791], [144.968208781093, -37.81344395495]]]]}}