{"type": "Feature", "properties": {"seg_id": "20299", "street_id": "20299", "name": "Rainbow Alley from Little Collins Street", "str_type": "Council Minor", "status_id": "3", "seg_part": "1", "poly_area": "479", "gisid": "3418"}, "geometry": {"type": "MultiPolygon", "coordinates": [[[[144.966437454943, -37.814352906385], [144.966257464647, -37.813942883297], [144.966187997492, -37.813784633647], [144.966121091097, -37.813632217344], [144.966178732951, -37.813615750887], [144.966245137757, -37.81376807018], [144.966314614208, -37.813927433813], [144.966413133307, -37.814153415594], [144.966428526339, -37.814149034075], [144.966504849612, -37.814323061729], [144.966488990486, -37.81432741358], [144.966493242802, -37.814337166552], [144.966437454943, -37.814352906385]]]]}}