{"type": "Feature", "properties": {"seg_id": "20308", "street_id": "20308", "name": "Lingham Lane from Flinders Lane", "str_type": "Council Minor", "status_id": "3", "seg_part": "1", "poly_area": "100", "gisid": "3502"}, "geometry": {"type": "MultiPolygon", "coordinates": [[[[144.965371753461, -37.817134909628], [144.965497598059, -37.817405019922], [144.96546558666, -37.817414459031], [144.965337376252, -37.817144749399], [144.965371753461, -37.817134909628]]], [[[144.965316556437, -37.817016436186], [144.965371753461, -37.817134909628], [144.965337376252, -37.817144749399], [144.965281193441, -37.817026558097], [144.965316556437, -37.817016436186]]]]}}