{"type": "Feature", "properties": {"seg_id": "20302", "street_id": "20302", "name": "Hosier Lane between Flinders Street and Flinders Lane", "str_type": "Council Minor", "status_id": "3", "seg_part": "1", "poly_area": "551", "gisid": "3164"}, "geometry": {"type": "MultiPolygon", "coordinates": [[[[144.968926956593, -37.815966313786], [144.969299889341, -37.816777651651], [144.969235755597, -37.816796984229], [144.969131845841, -37.816565364143], [144.969118321294, -37.816536167064], [144.969002698316, -37.81628057991], [144.968986863775, -37.816244070478], [144.96886758384, -37.81598309506], [144.968926956593, -37.815966313786]]]]}}