{"type": "Feature", "properties": {"seg_id": "20314", "street_id": "20314", "name": "Block Place from Little Collins Street", "str_type": "Council Minor", "status_id": "3", "seg_part": "1", "poly_area": "203", "gisid": "3406"}, "geometry": {"type": "MultiPolygon", "coordinates": [[[[144.964435462639, -37.815483246081], [144.964452496739, -37.815520495978], [144.964500324457, -37.815625079672], [144.964463886402, -37.81563532064], [144.964459234515, -37.815624902833], [144.964448431333, -37.815600715057], [144.96441683902, -37.815530699957], [144.964400024594, -37.815493434928], [144.96422648108, -37.81510882627], [144.964258840596, -37.815097021608], [144.964435462639, -37.815483246081]]]]}}