{"type": "Feature", "properties": {"seg_id": "20326", "street_id": "20326", "name": "Caledonian Lane between Lonsdale Street and Little Bourke Street", "str_type": "Council Minor", "status_id": "3", "seg_part": "1", "poly_area": "809", "gisid": "3394"}, "geometry": {"type": "MultiPolygon", "coordinates": [[[[144.964734603708, -37.812615694019], [144.964739969146, -37.812627051462], [144.964686449235, -37.812641851002], [144.964681070452, -37.812630069773], [144.964642773367, -37.81264142408], [144.964272619511, -37.81184155304], [144.964315352568, -37.811829142759], [144.964360801962, -37.811813368469], [144.964734603708, -37.812615694019]]]]}}