{"type": "Feature", "properties": {"seg_id": "20321", "street_id": "20321", "name": "Sugden Place from Little Collins Street", "str_type": "Council Minor", "status_id": "3", "seg_part": "1", "poly_area": "299", "gisid": "3399"}, "geometry": {"type": "MultiPolygon", "coordinates": [[[[144.965214167682, -37.814719841319], [144.964979580777, -37.814214794599], [144.965032396365, -37.814199333021], [144.96526220518, -37.814690996616], [144.965267124595, -37.81470185068], [144.965214167682, -37.814719841319]]]]}}