{"type": "Feature", "properties": {"seg_id": "20329", "street_id": "20329", "name": "Driver Lane from Little Bourke Street", "str_type": "Council Minor", "status_id": "3", "seg_part": "1", "poly_area": "181", "gisid": "3393"}, "geometry": {"type": "MultiPolygon", "coordinates": [[[[144.963060331525, -37.813107005263], [144.962923081041, -37.812810765515], [144.96295058146, -37.812803008128], [144.962951473253, -37.812802756808], [144.962976981706, -37.812795561533], [144.963117470024, -37.813101670136], [144.96306538876, -37.813117913168], [144.963060331525, -37.813107005263]]]]}}