{"type": "Feature", "properties": {"seg_id": "20336", "street_id": "20336", "name": "Zevenboom Lane from Little Lonsdale Street", "str_type": "Council Minor", "status_id": "3", "seg_part": "1", "poly_area": "215", "gisid": "3385"}, "geometry": {"type": "MultiPolygon", "coordinates": [[[[144.961400587086, -37.811373023532], [144.961344499898, -37.811389407337], [144.961188952072, -37.811038284414], [144.961244943124, -37.811022909234], [144.961293344193, -37.811133890777], [144.961400587086, -37.811373023532]]]]}}