{"type": "Feature", "properties": {"seg_id": "20337", "street_id": "20337", "name": "Sutherland Street between La Trobe Street and Little Lonsdale Street", "str_type": "Council Minor", "status_id": "3", "seg_part": "2", "poly_area": "121", "gisid": "4056"}, "geometry": {"type": "MultiPolygon", "coordinates": [[[[144.960963280537, -37.811500762364], [144.960867086055, -37.811292739903], [144.960920540817, -37.811277119997], [144.961014834398, -37.811485703374], [144.960963280537, -37.811500762364]]], [[[144.960761192389, -37.810924629415], [144.960920540817, -37.811277119997], [144.960867086055, -37.811292739903], [144.960852416159, -37.81125990835], [144.960780906586, -37.811101917623], [144.960759701514, -37.811060555898], [144.960687073164, -37.810901130893], [144.96067385915, -37.810868234413], [144.960589006803, -37.810687834546], [144.960643512733, -37.810671151554], [144.960748317898, -37.810898795032], [144.960761192389, -37.810924629415]]]]}}