{"type": "Feature", "properties": {"seg_id": "20334", "street_id": "20334", "name": "Knox Lane from Little Lonsdale Street", "str_type": "Council Minor", "status_id": "3", "seg_part": "1", "poly_area": "204", "gisid": "3388"}, "geometry": {"type": "MultiPolygon", "coordinates": [[[[144.963519986163, -37.810507266498], [144.963504161752, -37.8104724291], [144.96343303253, -37.810316122677], [144.963478931464, -37.810302976211], [144.96366227313, -37.810707045198], [144.963616797566, -37.810720401819], [144.963519986163, -37.810507266498]]]]}}