{"type": "Feature", "properties": {"seg_id": "20346", "street_id": "20346", "name": "Merlin Alley from Little Bourke Street", "str_type": "Council Minor", "status_id": "3", "seg_part": "1", "poly_area": "124", "gisid": "3377"}, "geometry": {"type": "MultiPolygon", "coordinates": [[[[144.959703609976, -37.814203859348], [144.959833873047, -37.814484329091], [144.959794190561, -37.814495976808], [144.959661423839, -37.814203465391], [144.959698503302, -37.814192864837], [144.959703609976, -37.814203859348]]]]}}