{"type": "Feature", "properties": {"seg_id": "20345", "street_id": "20345", "name": "Benjamin Lane from Bourke Street", "str_type": "Council Minor", "status_id": "3", "seg_part": "1", "poly_area": "158", "gisid": "3378"}, "geometry": {"type": "MultiPolygon", "coordinates": [[[[144.960169890225, -37.814972913893], [144.96012301626, -37.814869574229], [144.960116497993, -37.814871436681], [144.960006661475, -37.814629286759], [144.960047200769, -37.814617464568], [144.960138414454, -37.814818886735], [144.960164979282, -37.814857577504], [144.960211786851, -37.81496093763], [144.960169890225, -37.814972913893]]]]}}