{"type": "Feature", "properties": {"seg_id": "20347", "street_id": "20347", "name": "St Patricks Alley from Little Bourke Street", "str_type": "Council Minor", "status_id": "3", "seg_part": "1", "poly_area": "187", "gisid": "3376"}, "geometry": {"type": "MultiPolygon", "coordinates": [[[[144.959573945563, -37.814228474726], [144.959766730989, -37.814650422061], [144.959760352963, -37.814674835231], [144.95972805769, -37.814662627045], [144.959539210924, -37.814249420814], [144.959534758176, -37.814239678547], [144.959573945563, -37.814228474726]]]]}}