{"type": "Feature", "properties": {"seg_id": "20363", "street_id": "20363", "name": "Heape Court from Little Lonsdale Street", "str_type": "Council Minor", "status_id": "3", "seg_part": "1", "poly_area": "420", "gisid": "3361"}, "geometry": {"type": "MultiPolygon", "coordinates": [[[[144.961370023159, -37.811478127522], [144.961417278397, -37.811463202104], [144.961603000948, -37.811866705259], [144.961417756598, -37.811920393152], [144.961495243333, -37.812088206157], [144.961454257046, -37.812099860722], [144.961380093956, -37.811931308595], [144.961310079387, -37.811779237759], [144.961351188875, -37.811768053986], [144.961398633215, -37.811871139035], [144.961466010539, -37.811851081019], [144.961469951083, -37.811859709509], [144.961537180166, -37.811839629961], [144.961370023159, -37.811478127522]]]]}}