{"type": "Feature", "properties": {"seg_id": "20360", "street_id": "20360", "name": "Temple Court Place between Little Collins Street and Gurners Lane", "str_type": "Council Minor", "status_id": "3", "seg_part": "1", "poly_area": "341", "gisid": "3364"}, "geometry": {"type": "MultiPolygon", "coordinates": [[[[144.959454757595, -37.816836932519], [144.959427649235, -37.816785503981], [144.959786791981, -37.816683562198], [144.959673005295, -37.816429206539], [144.959667128249, -37.816416068302], [144.959706737575, -37.816404970894], [144.959848626422, -37.816723068725], [144.959454757595, -37.816836932519]]]]}}