{"type": "Feature", "properties": {"seg_id": "20370", "street_id": "20370", "name": "Cl1757 from Hardware Lane", "str_type": "Council Minor", "status_id": "3", "seg_part": "1", "poly_area": "89", "gisid": "3354"}, "geometry": {"type": "MultiPolygon", "coordinates": [[[[144.961178480316, -37.812968309128], [144.961247523313, -37.813128801813], [144.961228422433, -37.813134508067], [144.961148093027, -37.81295720587], [144.960983973372, -37.813005667919], [144.96097400999, -37.812982181971], [144.961160734862, -37.81292706055], [144.961166031463, -37.812939373106], [144.961178480316, -37.812968309128]]]]}}