{"type": "Feature", "properties": {"seg_id": "20379", "street_id": "20379", "name": "Kirks Lane from Little Bourke Street", "str_type": "Council Minor", "status_id": "3", "seg_part": "1", "poly_area": "544", "gisid": "3345"}, "geometry": {"type": "MultiPolygon", "coordinates": [[[[144.961039160539, -37.813802615787], [144.961087438237, -37.813788610307], [144.961386060518, -37.814441967601], [144.961360540197, -37.814449609299], [144.961357388233, -37.81444282655], [144.961327772673, -37.814436062338], [144.961242411295, -37.814248868307], [144.960880048597, -37.81435245408], [144.960832657767, -37.814366001712], [144.960814026066, -37.814324798119], [144.961220156311, -37.814208056233], [144.961039160539, -37.813802615787]]]]}}