{"type": "Feature", "properties": {"seg_id": "20382", "street_id": "20382", "name": "Gills Alley from Little Collins Street", "str_type": "Council Minor", "status_id": "3", "seg_part": "1", "poly_area": "169", "gisid": "3342"}, "geometry": {"type": "MultiPolygon", "coordinates": [[[[144.962816823261, -37.815418616958], [144.962777312325, -37.815429022322], [144.962628404597, -37.815100001303], [144.962593646403, -37.815026088339], [144.962631161698, -37.815015088873], [144.962806932678, -37.815397120416], [144.962816823261, -37.815418616958]]]]}}