{"type": "Feature", "properties": {"seg_id": "20391", "street_id": "20391", "name": "Flinders Court between Flinders Lane and Flinders Street", "str_type": "Council Minor", "status_id": "3", "seg_part": "1", "poly_area": "339", "gisid": "3333"}, "geometry": {"type": "MultiPolygon", "coordinates": [[[[144.964357489949, -37.817785685216], [144.964368236014, -37.817808901443], [144.964415859413, -37.817911786507], [144.964422140146, -37.817909934132], [144.964536987726, -37.818159879823], [144.964506147923, -37.818168792806], [144.964423230291, -37.817988351643], [144.964408993639, -37.817992619505], [144.964117316336, -37.817362477059], [144.964156400807, -37.817351251925], [144.964160792104, -37.817360737025], [144.964357489949, -37.817785685216]]]]}}