{"type": "Feature", "properties": {"seg_id": "20399", "street_id": "20399", "name": "Samuel Lane from Flinders Lane", "str_type": "Council Minor", "status_id": "3", "seg_part": "1", "poly_area": "220", "gisid": "3325"}, "geometry": {"type": "MultiPolygon", "coordinates": [[[[144.96136391927, -37.817462761999], [144.961403868381, -37.817451258972], [144.961427917663, -37.817504680673], [144.961361362038, -37.817523502887], [144.961354788961, -37.817535773029], [144.96156590435, -37.817991098906], [144.961533955028, -37.818000401933], [144.961529666071, -37.817991006825], [144.961297299229, -37.817481944434], [144.96136391927, -37.817462761999]]]]}}