{"type": "Feature", "properties": {"seg_id": "20395", "street_id": "20395", "name": "Tavistock Place between Flinders Street and Flinders Lane", "str_type": "Council Minor", "status_id": "3", "seg_part": "1", "poly_area": "481", "gisid": "3329"}, "geometry": {"type": "MultiPolygon", "coordinates": [[[[144.961816007658, -37.818937297076], [144.961440487574, -37.81812007738], [144.961503369449, -37.81810172502], [144.961510617506, -37.818117362432], [144.961664512977, -37.818449390885], [144.961644941257, -37.818454943045], [144.961861684516, -37.818922560509], [144.961816007658, -37.818937297076]]]]}}