{"type": "Feature", "properties": {"seg_id": "20390", "street_id": "20390", "name": "Staughton Alley from Flinders Lane", "str_type": "Council Minor", "status_id": "3", "seg_part": "1", "poly_area": "282", "gisid": "3334"}, "geometry": {"type": "MultiPolygon", "coordinates": [[[[144.964162338091, -37.81723839583], [144.964168393142, -37.817251412567], [144.964125106442, -37.817263845618], [144.964046175642, -37.817092461446], [144.963826475695, -37.81715642986], [144.963813490356, -37.817129593589], [144.963999194224, -37.817076304755], [144.964021772163, -37.817038305082], [144.96397739769, -37.816939675516], [144.963915238316, -37.816801522835], [144.963953844401, -37.816790168734], [144.964017847727, -37.816927777428], [144.964162338091, -37.81723839583]]]]}}