{"type": "Feature", "properties": {"seg_id": "20407", "street_id": "20407", "name": "Healeys Lane between Little Lonsdale Street and Lonsdale Street", "str_type": "Council Minor", "status_id": "3", "seg_part": "1", "poly_area": "559", "gisid": "3317"}, "geometry": {"type": "MultiPolygon", "coordinates": [[[[144.956039128758, -37.813935297924], [144.955994984118, -37.813947271527], [144.955888830778, -37.81371700705], [144.95576028888, -37.813754780442], [144.955746669737, -37.813725803728], [144.955855091231, -37.813693942419], [144.955601502967, -37.81315005233], [144.955664672041, -37.813131808064], [144.955679670149, -37.81316419985], [144.955682625525, -37.813163346381], [144.956039128758, -37.813935297924]]]]}}