{"type": "Feature", "properties": {"seg_id": "20408", "street_id": "20408", "name": "Chisholm Place from Little Lonsdale Street", "str_type": "Council Minor", "status_id": "3", "seg_part": "1", "poly_area": "484", "gisid": "3316"}, "geometry": {"type": "MultiPolygon", "coordinates": [[[[144.956048551494, -37.813057663037], [144.956033533742, -37.813025278164], [144.9561007641, -37.813005860537], [144.956115781853, -37.813038246303], [144.956319070348, -37.813476625093], [144.956504638598, -37.813424068409], [144.95652118457, -37.813460074532], [144.956181107461, -37.813554975756], [144.956165008176, -37.813520324597], [144.956251252043, -37.813494776396], [144.956048551494, -37.813057663037]]]]}}