{"type": "Feature", "properties": {"seg_id": "20403", "street_id": "20403", "name": "Park Street between La Trobe Street and Little Lonsdale Street", "str_type": "Council Minor", "status_id": "3", "seg_part": "1", "poly_area": "646", "gisid": "3321"}, "geometry": {"type": "MultiPolygon", "coordinates": [[[[144.955344877082, -37.813122433512], [144.954972362829, -37.812314040381], [144.955039326401, -37.812295467628], [144.955328191564, -37.812924680133], [144.955512625861, -37.812871037419], [144.955524291347, -37.812896912639], [144.955341345663, -37.812950121621], [144.95541183634, -37.813103505419], [144.955344877082, -37.813122433512]]]]}}