{"type": "Feature", "properties": {"seg_id": "20416", "street_id": "20416", "name": "Church Street between Bourke Street and Little Collins Street", "str_type": "Council Minor", "status_id": "3", "seg_part": "1", "poly_area": "1324", "gisid": "3310"}, "geometry": {"type": "MultiPolygon", "coordinates": [[[[144.957030073071, -37.816157971234], [144.957179965649, -37.816115135553], [144.957520253559, -37.816877414647], [144.957543828279, -37.81693022329], [144.957399249765, -37.816972184639], [144.957375698915, -37.816920244214], [144.957030073071, -37.816157971234]]]]}}