{"type": "Feature", "properties": {"seg_id": "20410", "street_id": "20410", "name": "Guests Lane between Lonsdale Street and Little Bourke Street", "str_type": "Council Minor", "status_id": "3", "seg_part": "3", "poly_area": "177", "gisid": "4051"}, "geometry": {"type": "MultiPolygon", "coordinates": [[[[144.956766916879, -37.814012477661], [144.956928383989, -37.814358511739], [144.956881072198, -37.8143722574], [144.956721817312, -37.814025551523], [144.956766916879, -37.814012477661]]], [[[144.9569600623, -37.81450811663], [144.956942455457, -37.814469577884], [144.956927678395, -37.81447372102], [144.956881072198, -37.8143722574], [144.956928383989, -37.814358511739], [144.956944154082, -37.814392308176], [144.956991437867, -37.814396801785], [144.95703348752, -37.814487319937], [144.9569600623, -37.81450811663]]], [[[144.95717024123, -37.814781702111], [144.957094886016, -37.814803231399], [144.9569600623, -37.81450811663], [144.95703348752, -37.814487319937], [144.95717024123, -37.814781702111]]]]}}