{"type": "Feature", "properties": {"seg_id": "20429", "street_id": "20429", "name": "Mercantile Place between King Street and Katherine Place", "str_type": "Council Minor", "status_id": "3", "seg_part": "1", "poly_area": "246", "gisid": "3297"}, "geometry": {"type": "MultiPolygon", "coordinates": [[[[144.95720715274, -37.820010133692], [144.956624820021, -37.820181293762], [144.956606435769, -37.820140712049], [144.956755107988, -37.820097531428], [144.957191426594, -37.819975606312], [144.95720715274, -37.820010133692]]]]}}