{"type": "Feature", "properties": {"seg_id": "20420", "street_id": "20420", "name": "Church Lane between Little Collins Street and Collins Street", "str_type": "Council Minor", "status_id": "3", "seg_part": "2", "poly_area": "456", "gisid": "3306"}, "geometry": {"type": "MultiPolygon", "coordinates": [[[[144.95779096435, -37.817636331283], [144.957719726354, -37.817656386828], [144.957709929573, -37.817659145719], [144.957437822924, -37.817071642357], [144.957432211896, -37.817059169189], [144.957498159642, -37.817040494561], [144.957694918959, -37.817467064931], [144.957719375017, -37.817518448749], [144.957733557774, -37.817514456525], [144.95779096435, -37.817636331283]]], [[[144.957893528489, -37.817854073053], [144.957821735017, -37.81787428574], [144.957719726354, -37.817656386828], [144.95779096435, -37.817636331283], [144.957893528489, -37.817854073053]]]]}}