{"type": "Feature", "properties": {"seg_id": "20426", "street_id": "20426", "name": "Cl0481 from Highlander Lane", "str_type": "Council Minor", "status_id": "3", "seg_part": "1", "poly_area": "89", "gisid": "3300"}, "geometry": {"type": "MultiPolygon", "coordinates": [[[[144.958026226184, -37.81955443234], [144.958182334902, -37.819509280924], [144.95818329454, -37.819511353144], [144.958248354817, -37.819494327205], [144.958264879629, -37.819531217662], [144.958041779756, -37.819588307775], [144.958026226184, -37.81955443234]]]]}}