{"type": "Feature", "properties": {"seg_id": "20430", "street_id": "20430", "name": "Katherine Place between Flinders Street and Flinders Lane", "str_type": "Council Minor", "status_id": "3", "seg_part": "2", "poly_area": "564", "gisid": "3296"}, "geometry": {"type": "MultiPolygon", "coordinates": [[[[144.956624820021, -37.820181293762], [144.956730245101, -37.820414005955], [144.956735908861, -37.820426507102], [144.956626285871, -37.820457756159], [144.956512138517, -37.820213842299], [144.956495129784, -37.820177142369], [144.956501088121, -37.820175377647], [144.956417970458, -37.819991459002], [144.956439381462, -37.819985439493], [144.95650378221, -37.819967394669], [144.956525158903, -37.819961300653], [144.956606435769, -37.820140712049], [144.956624820021, -37.820181293762]]], [[[144.95650378221, -37.819967394669], [144.956439381462, -37.819985439493], [144.95631782214, -37.81971333694], [144.956380595437, -37.819695473004], [144.95650378221, -37.819967394669]]]]}}