{"type": "Feature", "properties": {"seg_id": "20435", "street_id": "20435", "name": "Langs Lane between Little Bourke Street and Bourke Street", "str_type": "Council Minor", "status_id": "3", "seg_part": "1", "poly_area": "275", "gisid": "3291"}, "geometry": {"type": "MultiPolygon", "coordinates": [[[[144.954762890838, -37.816520423281], [144.954751411855, -37.816521818969], [144.954668730419, -37.816338850192], [144.954641906992, -37.816312578215], [144.954367347998, -37.815713523681], [144.954404753679, -37.8157037109], [144.954679017475, -37.81630034147], [144.954675742994, -37.816331312023], [144.954762890838, -37.816520423281]]]]}}