{"type": "Feature", "properties": {"seg_id": "20434", "street_id": "20434", "name": "Godfrey Street between Bourke Street and Little Collins Street", "str_type": "Council Major", "status_id": "2", "seg_part": "1", "poly_area": "934", "gisid": "3292"}, "geometry": {"type": "MultiPolygon", "coordinates": [[[[144.953904387421, -37.817056958024], [144.954225195163, -37.817748985588], [144.954260282133, -37.81782282462], [144.954151976791, -37.817851961229], [144.954099209145, -37.817747020931], [144.953793834296, -37.817088957038], [144.953904387421, -37.817056958024]]]]}}