{"type": "Feature", "properties": {"seg_id": "20437", "street_id": "20437", "name": "Uniacke Court from Little Bourke Street", "str_type": "Council Minor", "status_id": "3", "seg_part": "1", "poly_area": "371", "gisid": "4008"}, "geometry": {"type": "MultiPolygon", "coordinates": [[[[144.954886104533, -37.815472624937], [144.954839950659, -37.815485823936], [144.954521172809, -37.814803827151], [144.954573478216, -37.814789408604], [144.954622438013, -37.814896407542], [144.954642937992, -37.814941207772], [144.954886104533, -37.815472624937]]]]}}