{"type": "Feature", "properties": {"seg_id": "20448", "street_id": "20448", "name": "Cl1320 from Warner Lane", "str_type": "Council Minor", "status_id": "3", "seg_part": "1", "poly_area": "56", "gisid": "3284"}, "geometry": {"type": "MultiPolygon", "coordinates": [[[[144.953393149171, -37.813405288368], [144.953396967727, -37.813404194027], [144.953408780273, -37.813430026043], [144.953372462277, -37.813440430575], [144.953212062541, -37.813486382521], [144.953200268397, -37.813460544497], [144.953393149171, -37.813405288368]]]]}}