{"type": "Feature", "properties": {"seg_id": "20453", "street_id": "20453", "name": "Leicester Street between Victoria Street and Berkeley Street", "str_type": "Council Major", "status_id": "2", "seg_part": "1", "poly_area": "2715", "gisid": "1651"}, "geometry": {"type": "MultiPolygon", "coordinates": [[[[144.959929986811, -37.805364578833], [144.960268662842, -37.805401932821], [144.960127613314, -37.806207012206], [144.959819501678, -37.806173016115], [144.959795748813, -37.806121821488], [144.959929986811, -37.805364578833]]]]}}