{"type": "Feature", "properties": {"seg_id": "20459", "street_id": "20459", "name": "Intersection of Leicester Street and Pelham Street", "str_type": "Council Major", "status_id": "2", "seg_part": "1", "poly_area": "838", "gisid": "1645"}, "geometry": {"type": "MultiPolygon", "coordinates": [[[[144.960858031702, -37.802059115855], [144.960811864891, -37.802323736512], [144.960478956677, -37.80225222678], [144.960521626387, -37.802019441961], [144.960734121343, -37.80204450237], [144.960858031702, -37.802059115855]]]]}}