{"type": "Feature", "properties": {"seg_id": "20455", "street_id": "20455", "name": "Leicester Street between Berkeley Street and Queensberry Street", "str_type": "Council Major", "status_id": "2", "seg_part": "1", "poly_area": "2118", "gisid": "1649"}, "geometry": {"type": "MultiPolygon", "coordinates": [[[[144.960444613175, -37.80439761897], [144.960335367133, -37.805021190289], [144.959994721329, -37.804983619448], [144.960078314492, -37.804514101828], [144.960082190248, -37.804492334358], [144.960106396185, -37.804356375898], [144.960444613175, -37.80439761897]]]]}}