{"type": "Feature", "properties": {"seg_id": "20467", "street_id": "20467", "name": "Intersection of Bouverie Street and Lincoln Square North", "str_type": "Council Major", "status_id": "2", "seg_part": "1", "poly_area": "457", "gisid": "1637"}, "geometry": {"type": "MultiPolygon", "coordinates": [[[[144.962460834925, -37.801500605368], [144.962437619862, -37.801636125579], [144.962099106377, -37.80159889166], [144.962099308573, -37.801597733541], [144.962122773827, -37.801463421706], [144.962460834925, -37.801500605368]]]]}}