{"type": "Feature", "properties": {"seg_id": "20472", "street_id": "20472", "name": "Berkeley Street between Queensberry Street and Pelham Street", "str_type": "Council Major", "status_id": "2", "seg_part": "1", "poly_area": "4638", "gisid": "1632"}, "geometry": {"type": "MultiPolygon", "coordinates": [[[[144.958408492157, -37.802061311176], [144.958665262028, -37.802089786046], [144.958692139505, -37.802092766238], [144.958674603149, -37.802110099186], [144.959210935165, -37.803276397055], [144.959224557715, -37.80330602051], [144.959553674062, -37.804021260668], [144.959294010587, -37.803991401976], [144.958796455972, -37.802910487309], [144.958784355644, -37.80288465711], [144.958408492157, -37.802061311176]]]]}}