{"type": "Feature", "properties": {"seg_id": "20481", "street_id": "20481", "name": "Intersection of Barry Street and Grattan Street", "str_type": "Council Major", "status_id": "2", "seg_part": "1", "poly_area": "922", "gisid": "1623"}, "geometry": {"type": "MultiPolygon", "coordinates": [[[[144.96004887314, -37.800131173513], [144.959879872273, -37.800114280312], [144.959707659387, -37.800097066274], [144.959755044833, -37.799824311452], [144.960097208713, -37.799861735109], [144.96004887314, -37.800131173513]]]]}}