{"type": "Feature", "properties": {"seg_id": "20492", "street_id": "20492", "name": "Swanston Street between Faraday Street and Elgin Street", "str_type": "Council Major", "status_id": "2", "seg_part": "1", "poly_area": "4268", "gisid": "1612"}, "geometry": {"type": "MultiPolygon", "coordinates": [[[[144.964739144868, -37.796993673595], [144.964525258969, -37.798239376802], [144.964181410948, -37.798202213625], [144.964238070853, -37.797871622624], [144.964248674449, -37.797809752597], [144.964394945273, -37.796956284236], [144.964739144868, -37.796993673595]]]]}}