{"type": "Feature", "properties": {"seg_id": "20491", "street_id": "20491", "name": "Intersection of Swanston Street and Faraday Street", "str_type": "Council Major", "status_id": "2", "seg_part": "1", "poly_area": "914", "gisid": "1613"}, "geometry": {"type": "MultiPolygon", "coordinates": [[[[144.964136747076, -37.79846281199], [144.964181410948, -37.798202213625], [144.964525258969, -37.798239376802], [144.964478587826, -37.798508226948], [144.964135879036, -37.798467871518], [144.964136747076, -37.79846281199]]]]}}