{"type": "Feature", "properties": {"seg_id": "20501", "street_id": "20501", "name": "Keppel Street between Lygon Street and Palmerston Street", "str_type": "Council Major", "status_id": "2", "seg_part": "1", "poly_area": "3405", "gisid": "1606"}, "geometry": {"type": "MultiPolygon", "coordinates": [[[[144.967460026106, -37.796684733759], [144.967402743836, -37.797005988605], [144.967270186399, -37.796992043892], [144.967276891882, -37.796962241401], [144.967007917502, -37.796618562364], [144.966984205378, -37.796589287365], [144.966725543735, -37.796262738699], [144.966708265329, -37.796240797672], [144.966513348491, -37.795993277641], [144.966955752328, -37.796040380232], [144.967460026106, -37.796684733759]]]]}}