{"type": "Feature", "properties": {"seg_id": "20502", "street_id": "20502", "name": "Keppel Street between Cardigan Street and Swanston Street", "str_type": "Council Major", "status_id": "2", "seg_part": "1", "poly_area": "4728", "gisid": "1605"}, "geometry": {"type": "MultiPolygon", "coordinates": [[[[144.965199073219, -37.794327678385], [144.965267332091, -37.793908430782], [144.966191040135, -37.795073520108], [144.966230362539, -37.795067128536], [144.966222419632, -37.795113098379], [144.966157939747, -37.795535365838], [144.96547130225, -37.794670436325], [144.965452426313, -37.794647309505], [144.965199073219, -37.794327678385]]]]}}