{"type": "Feature", "properties": {"seg_id": "20508", "street_id": "20508", "name": "Cardigan Street between Argyle Place South and Pelham Street", "str_type": "Council Major", "status_id": "2", "seg_part": "1", "poly_area": "1560", "gisid": "1599"}, "geometry": {"type": "MultiPolygon", "coordinates": [[[[144.964863560074, -37.802965934068], [144.964897296897, -37.802777105798], [144.965242968173, -37.802814503177], [144.96516540689, -37.803265859641], [144.964817855796, -37.803228639498], [144.96485490112, -37.803010859523], [144.964863560074, -37.802965934068]]]]}}