{"type": "Feature", "properties": {"seg_id": "20520", "street_id": "20520", "name": "Intersection of Cardigan Street and Lytton Street", "str_type": "Council Major", "status_id": "2", "seg_part": "1", "poly_area": "912", "gisid": "1587"}, "geometry": {"type": "MultiPolygon", "coordinates": [[[[144.966805948811, -37.79373455731], [144.966467071255, -37.793697161502], [144.96650600101, -37.793471845024], [144.966513812521, -37.793426635274], [144.966851934383, -37.793464212544], [144.966805948811, -37.79373455731]]]]}}