{"type": "Feature", "properties": {"seg_id": "20525", "street_id": "20525", "name": "Intersection of Lygon Street and Argyle Place South", "str_type": "Council Major", "status_id": "2", "seg_part": "1", "poly_area": "911", "gisid": "1583"}, "geometry": {"type": "MultiPolygon", "coordinates": [[[[144.966634129732, -37.803476713429], [144.966622998703, -37.803542071095], [144.96659713573, -37.803693919942], [144.966252567173, -37.803656971794], [144.966272424015, -37.803566841895], [144.966287523852, -37.803478999935], [144.966303006276, -37.803388926954], [144.966642875084, -37.803425371139], [144.966634129732, -37.803476713429]]]]}}