{"type": "Feature", "properties": {"seg_id": "20536", "street_id": "20536", "name": "Lygon Street between Elgin Street and Palmerston Street", "str_type": "Council Major", "status_id": "2", "seg_part": "1", "poly_area": "3020", "gisid": "1572"}, "geometry": {"type": "MultiPolygon", "coordinates": [[[[144.967779039879, -37.796830126499], [144.967741974704, -37.797049708844], [144.967402743836, -37.797005988605], [144.967460026106, -37.796684733759], [144.967562605504, -37.79610739851], [144.967893258796, -37.796139737043], [144.967787683772, -37.796776619475], [144.967779039879, -37.796830126499]]]]}}