{"type": "Feature", "properties": {"seg_id": "20538", "street_id": "20538", "name": "Lygon Street between Palmerston Street and Lytton Street", "str_type": "Council Major", "status_id": "2", "seg_part": "1", "poly_area": "6603", "gisid": "1570"}, "geometry": {"type": "MultiPolygon", "coordinates": [[[[144.967694029227, -37.795329112221], [144.967705641501, -37.795274903028], [144.967820861453, -37.794609935878], [144.967946761021, -37.793862693096], [144.968282857132, -37.793899037266], [144.967944111021, -37.795874734273], [144.96760772091, -37.795843536011], [144.967694029227, -37.795329112221]]]]}}