{"type": "Feature", "properties": {"seg_id": "20546", "street_id": "20546", "name": "Drummond Street between Pelham Street and Grattan Street", "str_type": "Council Major", "status_id": "2", "seg_part": "1", "poly_area": "6147", "gisid": "1562"}, "geometry": {"type": "MultiPolygon", "coordinates": [[[[144.968520106018, -37.801253694092], [144.968513881035, -37.801282334295], [144.968466188546, -37.801566763316], [144.96846208801, -37.801591235266], [144.968374697249, -37.80211243803], [144.968370114941, -37.802146199118], [144.968247265491, -37.802865901673], [144.967905474425, -37.802825684576], [144.96821259563, -37.801018855181], [144.968553481434, -37.80105695504], [144.968520106018, -37.801253694092]]]]}}