{"type": "Feature", "properties": {"seg_id": "20542", "street_id": "20542", "name": "Drummond Street between Victoria Street and Queensberry Street", "str_type": "Council Major", "status_id": "2", "seg_part": "1", "poly_area": "6181", "gisid": "1566"}, "geometry": {"type": "MultiPolygon", "coordinates": [[[[144.967500915687, -37.805172033045], [144.967846913002, -37.80520959705], [144.967724815938, -37.805908809809], [144.967720136127, -37.805936493424], [144.967537054027, -37.807019494881], [144.967198755744, -37.806983357779], [144.967402713939, -37.805736215391], [144.967407893929, -37.805705537699], [144.967500915687, -37.805172033045]]]]}}