{"type": "Feature", "properties": {"seg_id": "20556", "street_id": "20556", "name": "Rathdowne Street between Queensberry Street and Pelham Street", "str_type": "Council Major", "status_id": "2", "seg_part": "1", "poly_area": "6141", "gisid": "1825"}, "geometry": {"type": "MultiPolygon", "coordinates": [[[[144.969034515282, -37.805060644368], [144.969341164363, -37.803258369643], [144.969684480337, -37.803295388979], [144.969385665657, -37.805040091049], [144.969375737761, -37.805097678148], [144.969034515282, -37.805060644368]]]]}}