{"type": "Feature", "properties": {"seg_id": "20552", "street_id": "20552", "name": "Drummond Street between Elgin Street and Palmerston Street", "str_type": "Council Major", "status_id": "2", "seg_part": "1", "poly_area": "3097", "gisid": "1829"}, "geometry": {"type": "MultiPolygon", "coordinates": [[[[144.968998839482, -37.796469677928], [144.96903062522, -37.796273860987], [144.969032104801, -37.796264745845], [144.969375536637, -37.796302404879], [144.969341164027, -37.796509693483], [144.969331496975, -37.796574105285], [144.969259207742, -37.797013933631], [144.969254984759, -37.797039580458], [144.969227893112, -37.797204457102], [144.968881440466, -37.797169505806], [144.968919790177, -37.796940263856], [144.968987174983, -37.79653747162], [144.968998839482, -37.796469677928]]]]}}