{"type": "Feature", "properties": {"seg_id": "20569", "street_id": "20569", "name": "Rathdowne Street between Pitt Street and Kay Street", "str_type": "Council Major", "status_id": "2", "seg_part": "1", "poly_area": "1509", "gisid": "1812"}, "geometry": {"type": "MultiPolygon", "coordinates": [[[[144.971086401754, -37.795125121303], [144.971009290544, -37.79555530817], [144.971008389168, -37.795560650152], [144.970672528392, -37.795524383518], [144.970749421015, -37.795075942439], [144.97108889706, -37.795111205923], [144.971086401754, -37.795125121303]]]]}}