{"type": "Feature", "properties": {"seg_id": "20565", "street_id": "20565", "name": "Rathdowne Street between Elgin Street and Palmerston Street", "str_type": "Council Major", "status_id": "2", "seg_part": "1", "poly_area": "3064", "gisid": "1816"}, "geometry": {"type": "MultiPolygon", "coordinates": [[[[144.970699668592, -37.797360447021], [144.970356714177, -37.797325429663], [144.970332746347, -37.797322866372], [144.970360026031, -37.797306419594], [144.970466426053, -37.796695636212], [144.970475890253, -37.796629057079], [144.970512861566, -37.796426334111], [144.970853764006, -37.796460158501], [144.970873190384, -37.796462085604], [144.970851493329, -37.796474742813], [144.970825357175, -37.796626339445], [144.970822407578, -37.796643447075], [144.970776262276, -37.796911101539], [144.97076460251, -37.796978736895], [144.970701820496, -37.797347798203], [144.970710143058, -37.797361567442], [144.970699668592, -37.797360447021]]]]}}