{"type": "Feature", "properties": {"seg_id": "20577", "street_id": "20577", "name": "Intersection of Canning Street and Murchison Street", "str_type": "Council Major", "status_id": "2", "seg_part": "1", "poly_area": "613", "gisid": "1805"}, "geometry": {"type": "MultiPolygon", "coordinates": [[[[144.972681092122, -37.799945598435], [144.972338059202, -37.799907579035], [144.972347252392, -37.799853858533], [144.972354108261, -37.799814963635], [144.972368440254, -37.799727823069], [144.972712898022, -37.799767243001], [144.972681092122, -37.799945598435]]]]}}