{"type": "Feature", "properties": {"seg_id": "20573", "street_id": "20573", "name": "Kay Street between Canning Street and Rathdowne Street", "str_type": "Council Major", "status_id": "2", "seg_part": "1", "poly_area": "5427", "gisid": "1809"}, "geometry": {"type": "MultiPolygon", "coordinates": [[[[144.97108889706, -37.795111205923], [144.971135060735, -37.79484590003], [144.972489045802, -37.794988731678], [144.972610191162, -37.795001875642], [144.973171703198, -37.795061523805], [144.973129230798, -37.795330732225], [144.973127203137, -37.795342260365], [144.973114807498, -37.795329169168], [144.972923875974, -37.795308480242], [144.972890948697, -37.795305696576], [144.972484097141, -37.795262444699], [144.972447238662, -37.795258400067], [144.971946485583, -37.795203448149], [144.971912181527, -37.79519968435], [144.971669852287, -37.795173090495], [144.97163798491, -37.795169592977], [144.971334615196, -37.795136327341], [144.97130015434, -37.795133150034], [144.971106571009, -37.795113041513], [144.971086401754, -37.795125121303], [144.97108889706, -37.795111205923]]]]}}