{"type": "Feature", "properties": {"seg_id": "20572", "street_id": "20572", "name": "Intersection of Rathdowne Street and Neill Street", "str_type": "Council Major", "status_id": "2", "seg_part": "1", "poly_area": "1253", "gisid": "1810"}, "geometry": {"type": "MultiPolygon", "coordinates": [[[[144.97121191968, -37.794374270631], [144.971157725639, -37.794707352933], [144.971135060735, -37.79484590003], [144.970795015432, -37.794810026698], [144.970841670035, -37.794537931779], [144.97121191968, -37.794374270631]]]]}}