{"type": "Feature", "properties": {"seg_id": "20583", "street_id": "20583", "name": "Canning Street between Elgin Street and Palmerston Street", "str_type": "Council Major", "status_id": "2", "seg_part": "1", "poly_area": "3035", "gisid": "1799"}, "geometry": {"type": "MultiPolygon", "coordinates": [[[[144.972789998081, -37.797322412812], [144.972897747126, -37.796698026191], [144.972899927042, -37.79668425494], [144.973235585706, -37.796720090951], [144.973081327302, -37.797623344057], [144.972737952216, -37.79758862737], [144.972784283502, -37.797346997746], [144.972789998081, -37.797322412812]]]]}}