{"type": "Feature", "properties": {"seg_id": "20590", "street_id": "20590", "name": "Intersection of Canning Street and Neill Street", "str_type": "Council Major", "status_id": "2", "seg_part": "1", "poly_area": "851", "gisid": "1792"}, "geometry": {"type": "MultiPolygon", "coordinates": [[[[144.973404266619, -37.79372087009], [144.973465240707, -37.793381304808], [144.973726286069, -37.793356635183], [144.973757615122, -37.793403212793], [144.973776793355, -37.793557056982], [144.973404266619, -37.79372087009]]]]}}