{"type": "Feature", "properties": {"seg_id": "20616", "street_id": "20616", "name": "Faraday Street between Nicholson Street and Canning Street", "str_type": "Council Major", "status_id": "2", "seg_part": "1", "poly_area": "4016", "gisid": "1764"}, "geometry": {"type": "MultiPolygon", "coordinates": [[[[144.973451739425, -37.799206233021], [144.973505978224, -37.799211790331], [144.974108567851, -37.799278458487], [144.974148643049, -37.799282774238], [144.974471097479, -37.799316498943], [144.97442603069, -37.799585529689], [144.974147248551, -37.799555534536], [144.974106399693, -37.799551138786], [144.973855754244, -37.799524925294], [144.973842173475, -37.799523255154], [144.973518159969, -37.799488294311], [144.973510777916, -37.799487499506], [144.973503914499, -37.799486760487], [144.973042522485, -37.799436830335], [144.97301238894, -37.799433569383], [144.972773814167, -37.799407751507], [144.973125137767, -37.7991717817], [144.973451739425, -37.799206233021]]]]}}