{"type": "Feature", "properties": {"seg_id": "20619", "street_id": "20619", "name": "Kay Street between Station Street and Canning Street", "str_type": "Council Major", "status_id": "2", "seg_part": "1", "poly_area": "1996", "gisid": "1753"}, "geometry": {"type": "MultiPolygon", "coordinates": [[[[144.974203018234, -37.795448867647], [144.973468218821, -37.79537022863], [144.973512598195, -37.795096480302], [144.973785458308, -37.795126254137], [144.973820786607, -37.795130108008], [144.974007864258, -37.795150521005], [144.974017981433, -37.795151657512], [144.974247676922, -37.795176687367], [144.974203018234, -37.795448867647]]]]}}