{"type": "Feature", "properties": {"seg_id": "20613", "street_id": "20613", "name": "Cl1127 from Faraday Street", "str_type": "Council Minor", "status_id": "3", "seg_part": "1", "poly_area": "217", "gisid": "1766"}, "geometry": {"type": "MultiPolygon", "coordinates": [[[[144.974089376822, -37.799918897479], [144.974048676187, -37.799914556525], [144.974075803041, -37.799744595779], [144.973823647361, -37.799718223758], [144.973826131471, -37.799703667394], [144.973828392507, -37.799690416606], [144.974079452736, -37.79971680762], [144.974106399693, -37.799551138786], [144.974147248551, -37.799555534536], [144.974089376822, -37.799918897479]]]]}}