{"type": "Feature", "properties": {"seg_id": "20614", "street_id": "20614", "name": "Murchison Street between Nicholson Street and Barrup Street", "str_type": "Council Major", "status_id": "2", "seg_part": "1", "poly_area": "1022", "gisid": "1767"}, "geometry": {"type": "MultiPolygon", "coordinates": [[[[144.974362362098, -37.79994969335], [144.97433157795, -37.800130283746], [144.97406621254, -37.80010028666], [144.974027897722, -37.8000959552], [144.973761960815, -37.800065892626], [144.973793427699, -37.799886384741], [144.974048676187, -37.799914556525], [144.974089376822, -37.799918897479], [144.974362362098, -37.79994969335]]]]}}