{"type": "Feature", "properties": {"seg_id": "20622", "street_id": "20622", "name": "Druce Lane from Station Street", "str_type": "Council Minor", "status_id": "3", "seg_part": "1", "poly_area": "160", "gisid": "1750"}, "geometry": {"type": "MultiPolygon", "coordinates": [[[[144.974521262977, -37.79494107358], [144.974526013729, -37.794913993722], [144.974802164877, -37.794945051908], [144.97481588942, -37.794870524221], [144.974844035762, -37.794873630665], [144.974855088016, -37.794817028352], [144.974887002172, -37.794821100756], [144.974859975039, -37.794981200155], [144.974521262977, -37.79494107358]]]]}}