{"type": "Feature", "properties": {"seg_id": "20627", "street_id": "20627", "name": "Princes Street between Nicholson Street and Station Street", "str_type": "Arterial", "status_id": "1", "seg_part": "1", "poly_area": "910", "gisid": "1745"}, "geometry": {"type": "MultiPolygon", "coordinates": [[[[144.974847789224, -37.793094738498], [144.974870637839, -37.792961661183], [144.975547848292, -37.793034883697], [144.975524425298, -37.793171323498], [144.975215832615, -37.793136629987], [144.975181544272, -37.7931327764], [144.974847789224, -37.793094738498]]]]}}