{"type": "Feature", "properties": {"seg_id": "20621", "street_id": "20621", "name": "Kay Street between Nicholson Street and Station Street", "str_type": "Council Major", "status_id": "2", "seg_part": "1", "poly_area": "1871", "gisid": "1751"}, "geometry": {"type": "MultiPolygon", "coordinates": [[[[144.974434257096, -37.795476178448], [144.974475808949, -37.795200130843], [144.974775824028, -37.795232336706], [144.974799791109, -37.795234908987], [144.975160031095, -37.795273579125], [144.975117835919, -37.795549155433], [144.974809475218, -37.795515968815], [144.974777085579, -37.795511997253], [144.974744415244, -37.795507991116], [144.974434257096, -37.795476178448]]]]}}