{"type": "Feature", "properties": {"seg_id": "20639", "street_id": "20639", "name": "Rathdowne Street between Neill Street and Princes Street", "str_type": "Council Major", "status_id": "2", "seg_part": "1", "poly_area": "5827", "gisid": "1734"}, "geometry": {"type": "MultiPolygon", "coordinates": [[[[144.97121191968, -37.794374270631], [144.970841670035, -37.794537931779], [144.970928612525, -37.794030859879], [144.970946981469, -37.793923730514], [144.971028871468, -37.793446114803], [144.971048081995, -37.793334072258], [144.971157522878, -37.792695764044], [144.971494449831, -37.792730375839], [144.971439528487, -37.793050625669], [144.971303507882, -37.793829076532], [144.971217930511, -37.79433849191], [144.971217748715, -37.794340081127], [144.971217764315, -37.794341678714], [144.971217957175, -37.794343270127], [144.971218325796, -37.794344842985], [144.97121886731, -37.794346385053], [144.971219577504, -37.794347884336], [144.971220450854, -37.794349329171], [144.971221480566, -37.794350708318], [144.97122265863, -37.794352011049], [144.971223975882, -37.79435322723], [144.971225422075, -37.794354347401], [144.971226985959, -37.794355362848], [144.971228655369, -37.794356265671], [144.971230417318, -37.794357048848], [144.9712322581, -37.794357706286], [144.971234163396, -37.794358232872], [144.971236118385, -37.794358624508], [144.971238107859, -37.794358878148], [144.971240116341, -37.79435899182], [144.971242128208, -37.794358964638], [144.97124412781, -37.794358796815], [144.971246099592, -37.794358489656], [144.971248028214, -37.79435804555], [144.971249898676, -37.794357467952], [144.971251657137, -37.794356705387], [144.97121191968, -37.794374270631]]]]}}