{"type": "Feature", "properties": {"seg_id": "20632", "street_id": "20632", "name": "Cl1150 from Neill Street", "str_type": "Council Minor", "status_id": "3", "seg_part": "1", "poly_area": "535", "gisid": "1740"}, "geometry": {"type": "MultiPolygon", "coordinates": [[[[144.974424482296, -37.794174348624], [144.97441948969, -37.794201427926], [144.974076125145, -37.794164591403], [144.974062899237, -37.79424088218], [144.974011620926, -37.794235211177], [144.974158055037, -37.79339049293], [144.974214757262, -37.79336487356], [144.974081049689, -37.794136183507], [144.974424482296, -37.794174348624]]]]}}