{"type": "Feature", "properties": {"seg_id": "20643", "street_id": "20643", "name": "Princes Street between Rathdowne Street and Drummond Street", "str_type": "Arterial", "status_id": "1", "seg_part": "1", "poly_area": "1784", "gisid": "1730"}, "geometry": {"type": "MultiPolygon", "coordinates": [[[[144.970252162014, -37.792596414523], [144.970012157241, -37.792570076396], [144.969801955915, -37.792547009164], [144.969824469097, -37.79241592956], [144.971180393052, -37.792562591458], [144.971157522878, -37.792695764044], [144.970292650059, -37.79260085762], [144.970252162014, -37.792596414523]]]]}}