{"type": "Feature", "properties": {"seg_id": "20646", "street_id": "20646", "name": "Cl1170 from Charles Street", "str_type": "Council Minor", "status_id": "3", "seg_part": "1", "poly_area": "679", "gisid": "1727"}, "geometry": {"type": "MultiPolygon", "coordinates": [[[[144.973214979447, -37.794809387622], [144.973213239492, -37.794821235228], [144.972951487631, -37.794794901834], [144.972945800797, -37.794827040955], [144.972629289275, -37.79479592347], [144.972634465921, -37.794768742885], [144.972901063345, -37.794794953117], [144.972917584543, -37.794781417895], [144.973029240551, -37.79415651685], [144.973018889892, -37.794152959276], [144.972720612498, -37.794283745559], [144.972603827479, -37.794337169437], [144.972245786321, -37.794495163211], [144.97223105603, -37.794471109426], [144.973036232513, -37.79411505675], [144.973080681025, -37.79386049135], [144.973118551319, -37.793843820644], [144.972953735959, -37.79478219785], [144.973214979447, -37.794809387622]]]]}}