{"type": "Feature", "properties": {"seg_id": "20640", "street_id": "20640", "name": "Drummond Street between Palmerston Street and Princes Street", "str_type": "Council Major", "status_id": "2", "seg_part": "1", "poly_area": "5480", "gisid": "1733"}, "geometry": {"type": "MultiPolygon", "coordinates": [[[[144.969801955915, -37.792547009164], [144.970012157241, -37.792570076396], [144.9699894324, -37.792704832806], [144.969904294675, -37.79320970024], [144.96988539383, -37.793321776757], [144.969804825951, -37.793799536049], [144.969786754331, -37.79390669738], [144.96974898962, -37.794130629286], [144.969735748275, -37.794209146975], [144.96939634845, -37.794175506679], [144.969425330137, -37.794007731857], [144.969679514469, -37.792536242556], [144.969801955915, -37.792547009164]]]]}}