{"type": "Feature", "properties": {"seg_id": "20658", "street_id": "20658", "name": "Casamento Place from Elgin Street", "str_type": "Council Minor", "status_id": "3", "seg_part": "1", "poly_area": "133", "gisid": "1715"}, "geometry": {"type": "MultiPolygon", "coordinates": [[[[144.970925565117, -37.797384314013], [144.970892253941, -37.797381044638], [144.97095804896, -37.796997671236], [144.970993377243, -37.797000722112], [144.970971835637, -37.797128471618], [144.970925565117, -37.797384314013]]]]}}