{"type": "Feature", "properties": {"seg_id": "20651", "street_id": "20651", "name": "Pitt Street between Canning Street and Rathdowne Street", "str_type": "Council Major", "status_id": "2", "seg_part": "1", "poly_area": "3673", "gisid": "1722"}, "geometry": {"type": "MultiPolygon", "coordinates": [[[[144.972759350636, -37.795934536476], [144.972131103451, -37.795866685438], [144.972095343589, -37.795862822724], [144.971430519534, -37.79579092625], [144.971398506727, -37.795786674575], [144.971206992369, -37.795766095377], [144.970977875462, -37.795741477781], [144.971008389168, -37.795560650152], [144.971009290544, -37.79555530817], [144.97101916316, -37.795561813554], [144.971224011821, -37.795583557285], [144.971255900594, -37.795586942638], [144.973049679634, -37.795782884464], [144.97301903564, -37.795962548809], [144.972794005444, -37.795938279035], [144.972759350636, -37.795934536476]]]]}}