{"type": "Feature", "properties": {"seg_id": "20675", "street_id": "20675", "name": "Little Barkly Street between Faraday Street and Rathdowne Street", "str_type": "Council Minor", "status_id": "3", "seg_part": "1", "poly_area": "721", "gisid": "1698"}, "geometry": {"type": "MultiPolygon", "coordinates": [[[[144.971724728505, -37.799289119534], [144.971805048614, -37.799297597862], [144.970798754035, -37.799863874134], [144.970627038038, -37.799981456811], [144.970532337588, -37.800040456138], [144.970482726771, -37.800076216053], [144.97021180676, -37.800227657014], [144.970218773831, -37.800188891239], [144.970457693939, -37.800053900412], [144.97051337193, -37.80001556406], [144.970588798216, -37.799965225461], [144.97078066573, -37.799837175032], [144.970771736749, -37.799826630581], [144.970923145918, -37.799741233056], [144.971029576345, -37.799681204492], [144.971724728505, -37.799289119534]]]]}}