{"type": "Feature", "properties": {"seg_id": "20671", "street_id": "20671", "name": "MacArthur Place South between Canning Street and Rathdowne Street", "str_type": "Council Major", "status_id": "2", "seg_part": "1", "poly_area": "3665", "gisid": "1702"}, "geometry": {"type": "MultiPolygon", "coordinates": [[[[144.971859269157, -37.798672243739], [144.971817941007, -37.798668038106], [144.971534525765, -37.798636819728], [144.971498317501, -37.798632320974], [144.971303384123, -37.798610288839], [144.971278622123, -37.798607512895], [144.971078484509, -37.798585127592], [144.971049528841, -37.798581213253], [144.970511054619, -37.798522988083], [144.970495173255, -37.798529779634], [144.970496587659, -37.798521423045], [144.970529851664, -37.798340663767], [144.972569859716, -37.798567919964], [144.97253814189, -37.798747966621], [144.972213818718, -37.798711686581], [144.972179843295, -37.798709010817], [144.971859269157, -37.798672243739]]]]}}