{"type": "Feature", "properties": {"seg_id": "20677", "street_id": "20677", "name": "Barkly Street between Canning Street and Rathdowne Street", "str_type": "Council Major", "status_id": "2", "seg_part": "1", "poly_area": "6631", "gisid": "1696"}, "geometry": {"type": "MultiPolygon", "coordinates": [[[[144.970161667478, -37.800492125925], [144.972198519742, -37.799343361497], [144.972394675649, -37.799568296572], [144.971904463041, -37.799842220786], [144.971871822165, -37.799861322372], [144.971530665738, -37.800054055473], [144.971509024948, -37.800066281189], [144.971263200779, -37.800205155568], [144.971239483493, -37.800218553942], [144.97077872148, -37.800478851116], [144.970747041341, -37.800495569999], [144.970367294127, -37.800708398704], [144.970161667478, -37.800492125925]]]]}}