{"type": "Feature", "properties": {"seg_id": "20682", "street_id": "20682", "name": "Carlton Street between Canning Street and Rathdowne Street", "str_type": "Council Major", "status_id": "2", "seg_part": "1", "poly_area": "3384", "gisid": "1691"}, "geometry": {"type": "MultiPolygon", "coordinates": [[[[144.97010151471, -37.80086027582], [144.970367294127, -37.800708398704], [144.971155473645, -37.800788365669], [144.971190339661, -37.800792147507], [144.972165039951, -37.800898888594], [144.972135861517, -37.801073875409], [144.97010151471, -37.80086027582]]]]}}