{"type": "Feature", "properties": {"seg_id": "20681", "street_id": "20681", "name": "Austin Place from Carlton Street", "str_type": "Council Minor", "status_id": "3", "seg_part": "1", "poly_area": "100", "gisid": "1692"}, "geometry": {"type": "MultiPolygon", "coordinates": [[[[144.971190339661, -37.800792147507], [144.971155473645, -37.800788365669], [144.971171658461, -37.800699941479], [144.971205693537, -37.800680504545], [144.971235422405, -37.800664202513], [144.971424145156, -37.800558426287], [144.971412241407, -37.800625426643], [144.971362151967, -37.800617993292], [144.971202086615, -37.800713577848], [144.971190339661, -37.800792147507]]]]}}