{"type": "Feature", "properties": {"seg_id": "20685", "street_id": "20685", "name": "Palmerston Street between Drummond Street and Lygon Street", "str_type": "Council Major", "status_id": "2", "seg_part": "1", "poly_area": "3021", "gisid": "1560"}, "geometry": {"type": "MultiPolygon", "coordinates": [[[[144.969032104801, -37.796264745845], [144.96903062522, -37.796273860987], [144.969020632637, -37.796263487311], [144.967893258796, -37.796139737043], [144.967944111021, -37.795874734273], [144.969077829834, -37.795996392754], [144.969032104801, -37.796264745845]]]]}}