{"type": "Feature", "properties": {"seg_id": "20691", "street_id": "20691", "name": "Cochrane Place from Elgin Street", "str_type": "Council Minor", "status_id": "3", "seg_part": "1", "poly_area": "307", "gisid": "1554"}, "geometry": {"type": "MultiPolygon", "coordinates": [[[[144.968148838299, -37.79765478217], [144.968144748828, -37.797677074364], [144.96813003559, -37.797757284055], [144.967897959169, -37.797731692847], [144.967870555135, -37.7978749012], [144.967840099164, -37.797871461243], [144.967874097436, -37.797692560153], [144.968088396156, -37.797715311459], [144.968152564038, -37.79736550228], [144.968200900366, -37.797370963785], [144.968167778555, -37.797551527465], [144.968163853254, -37.797572926721], [144.968148838299, -37.79765478217]]]]}}