{"type": "Feature", "properties": {"seg_id": "20704", "street_id": "20704", "name": "Markov Place from Elgin Street", "str_type": "Council Minor", "status_id": "3", "seg_part": "1", "poly_area": "113", "gisid": "1680"}, "geometry": {"type": "MultiPolygon", "coordinates": [[[[144.969493449064, -37.797508732169], [144.969452898246, -37.7977304818], [144.969450828243, -37.797741168335], [144.969444934806, -37.79777240882], [144.969402599009, -37.797767822697], [144.969416612903, -37.797685273027], [144.969451567775, -37.797504474723], [144.969493449064, -37.797508732169]]]]}}