{"type": "Feature", "properties": {"seg_id": "20713", "street_id": "20713", "name": "Glennon Lane from Drummond Street", "str_type": "Council Minor", "status_id": "3", "seg_part": "1", "poly_area": "103", "gisid": "1671"}, "geometry": {"type": "MultiPolygon", "coordinates": [[[[144.968753406146, -37.799882734643], [144.969094296352, -37.799920329201], [144.969075881385, -37.800020223579], [144.969049827694, -37.800018359407], [144.969062843758, -37.799942045886], [144.968749314138, -37.799906778698], [144.968753406146, -37.799882734643]]]]}}