{"type": "Feature", "properties": {"seg_id": "20719", "street_id": "20719", "name": "Sartori Lane from Drummond Street", "str_type": "Council Minor", "status_id": "3", "seg_part": "1", "poly_area": "92", "gisid": "1665"}, "geometry": {"type": "MultiPolygon", "coordinates": [[[[144.968520106018, -37.801253694092], [144.968802445733, -37.8012843119], [144.968790274561, -37.801355675353], [144.968779363697, -37.801354503971], [144.968758648509, -37.801351569292], [144.968765977288, -37.80130792457], [144.968513881035, -37.801282334295], [144.968520106018, -37.801253694092]]]]}}