{"type": "Feature", "properties": {"seg_id": "20718", "street_id": "20718", "name": "Grattan Street between Rathdowne Street and Drummond Street", "str_type": "Council Major", "status_id": "2", "seg_part": "1", "poly_area": "3452", "gisid": "1666"}, "geometry": {"type": "MultiPolygon", "coordinates": [[[[144.969186387056, -37.801129480318], [144.969123915164, -37.801122436265], [144.968553481434, -37.80105695504], [144.968599856321, -37.800784939487], [144.969281840284, -37.800859184063], [144.969320384125, -37.800862087171], [144.96935904973, -37.800862728292], [144.969397618823, -37.800860771677], [144.969435815014, -37.800856231348], [144.969473364584, -37.80084913984], [144.969509998451, -37.800839547973], [144.969545454092, -37.800827524483], [144.969579477429, -37.800813155531], [144.969611824647, -37.800796544086], [144.969642263944, -37.800777809187], [144.969670577188, -37.800757085091], [144.969696561483, -37.800734520309], [144.969718629082, -37.800709490328], [144.969771031077, -37.80071243312], [144.969752894544, -37.800823668326], [144.969693537877, -37.801187710604], [144.969186387056, -37.801129480318]]]]}}