{"type": "Feature", "properties": {"seg_id": "20714", "street_id": "20714", "name": "Registry Lane from Drummond Street", "str_type": "Council Minor", "status_id": "3", "seg_part": "1", "poly_area": "162", "gisid": "1670"}, "geometry": {"type": "MultiPolygon", "coordinates": [[[[144.968718236333, -37.800089381945], [144.968722435342, -37.800064708011], [144.969045241458, -37.800099548595], [144.969020832231, -37.800242678158], [144.968955061361, -37.800237018113], [144.968970226237, -37.800118170893], [144.968718236333, -37.800089381945]]]]}}