{"type": "Feature", "properties": {"seg_id": "20722", "street_id": "20722", "name": "O'Connell Lane from Drummond Street", "str_type": "Council Minor", "status_id": "3", "seg_part": "1", "poly_area": "345", "gisid": "1663"}, "geometry": {"type": "MultiPolygon", "coordinates": [[[[144.968370114941, -37.802146199118], [144.968374697249, -37.80211243803], [144.968721103781, -37.802149902746], [144.968791064515, -37.802159270563], [144.968843263824, -37.802159822161], [144.968882811058, -37.802170684882], [144.968922865987, -37.802147800913], [144.968974362048, -37.801847490965], [144.968999851928, -37.80185005917], [144.96901685047, -37.801857742001], [144.968956304407, -37.802211465522], [144.968370114941, -37.802146199118]]]]}}