{"type": "Feature", "properties": {"seg_id": "20725", "street_id": "20725", "name": "Cl1147 from Ormond Place", "str_type": "Council Minor", "status_id": "3", "seg_part": "1", "poly_area": "109", "gisid": "1547"}, "geometry": {"type": "MultiPolygon", "coordinates": [[[[144.967409669206, -37.802539947981], [144.967416477994, -37.802503621865], [144.967667973718, -37.802533397349], [144.967641355321, -37.802690814436], [144.967610300414, -37.802687151384], [144.9676316565, -37.802567698431], [144.967617597115, -37.802555216887], [144.967420034263, -37.802531827037], [144.967409669206, -37.802539947981]]]]}}