{"type": "Feature", "properties": {"seg_id": "20728", "street_id": "20728", "name": "Finlay Place from Lygon Street", "str_type": "Council Minor", "status_id": "3", "seg_part": "1", "poly_area": "395", "gisid": "1544"}, "geometry": {"type": "MultiPolygon", "coordinates": [[[[144.966943359025, -37.803730139565], [144.966938720426, -37.803757227288], [144.966881653555, -37.80409050508], [144.966812251757, -37.804083519465], [144.96683942163, -37.803928072208], [144.966562460477, -37.803897513632], [144.96657150928, -37.803844387753], [144.966849068375, -37.803874754766], [144.966874157481, -37.80372133076], [144.96688258626, -37.803722403596], [144.966943359025, -37.803730139565]]]]}}