{"type": "Feature", "properties": {"seg_id": "20737", "street_id": "20737", "name": "Cl1315 from Lygon Street", "str_type": "Council Minor", "status_id": "3", "seg_part": "1", "poly_area": "194", "gisid": "1535"}, "geometry": {"type": "MultiPolygon", "coordinates": [[[[144.966285021993, -37.805502964611], [144.966686989594, -37.805546453328], [144.966645566067, -37.805785847784], [144.966606185996, -37.805781587408], [144.966639809365, -37.80558726855], [144.966620395923, -37.805566982161], [144.966282065286, -37.805530378732], [144.966285021993, -37.805502964611]]]]}}