{"type": "Feature", "properties": {"seg_id": "20749", "street_id": "20749", "name": "Magenta Place from Lygon Street", "str_type": "Council Minor", "status_id": "3", "seg_part": "1", "poly_area": "220", "gisid": "1991"}, "geometry": {"type": "MultiPolygon", "coordinates": [[[[144.96613412839, -37.804346692716], [144.966128609215, -37.804378830711], [144.965560743956, -37.804318821318], [144.965568103182, -37.804275970403], [144.965765420503, -37.804296822349], [144.965779152199, -37.804298273444], [144.965930095566, -37.80431422456], [144.965928255805, -37.804324937522], [144.96613412839, -37.804346692716]]]]}}