{"type": "Feature", "properties": {"seg_id": "20748", "street_id": "20748", "name": "Cl1045 between Magenta Place and Rush Place", "str_type": "Council Minor", "status_id": "3", "seg_part": "1", "poly_area": "23", "gisid": "1992"}, "geometry": {"type": "MultiPolygon", "coordinates": [[[[144.965765420503, -37.804296822349], [144.965789680001, -37.804155549276], [144.965820281221, -37.804158876948], [144.965837720646, -37.804160764271], [144.965835803883, -37.804171923786], [144.96580149046, -37.804168197655], [144.965779152199, -37.804298273444], [144.965765420503, -37.804296822349]]]]}}