{"type": "Feature", "properties": {"seg_id": "20751", "street_id": "20751", "name": "Argyle Place South between Lygon Street and Cardigan Street", "str_type": "Council Major", "status_id": "2", "seg_part": "1", "poly_area": "2837", "gisid": "1989"}, "geometry": {"type": "MultiPolygon", "coordinates": [[[[144.96516540689, -37.803265859641], [144.966303006276, -37.803388926954], [144.966287523852, -37.803478999935], [144.966069780733, -37.80345565039], [144.966066539287, -37.803455300048], [144.966063278653, -37.803455137758], [144.966060014915, -37.803455202023], [144.966056773016, -37.803455492353], [144.966053577734, -37.803456006527], [144.966050453489, -37.803456740617], [144.96604742416, -37.803457689012], [144.966044512899, -37.803458844464], [144.966041741957, -37.803460198141], [144.966039132511, -37.803461739698], [144.966036704504, -37.803463457353], [144.966034476494, -37.803465337979], [144.966032465509, -37.803467367201], [144.966030686919, -37.803469529512], [144.966029154316, -37.803471808384], [144.966027879414, -37.803474186401], [144.966026871957, -37.803476645388], [144.966026139646, -37.803479166552], [144.966025712338, -37.803481732614], [144.966016955944, -37.803535614182], [144.966016917117, -37.803535921032], [144.966016915823, -37.80353622979], [144.966016947824, -37.803536537716], [144.966017012883, -37.803536842551], [144.966017110524, -37.803537142059], [144.966017240032, -37.803537434043], [144.966017400454, -37.80353771636], [144.966017590616, -37.80353798694], [144.966017809121, -37.803538243796], [144.966018054367, -37.803538485046], [144.966018324554, -37.803538708919], [144.966018617701, -37.803538913773], [144.966018931657, -37.803539098105], [144.966019264118, -37.803539260562], [144.966019612645, -37.803539399953], [144.966019974682, -37.803539515255], [144.966020347573, -37.803539605623], [144.966020727795, -37.803539674251], [144.966272424015, -37.803566841895], [144.966252567173, -37.803656971794], [144.965991091775, -37.803629340507], [144.965912637758, -37.803621049911], [144.965433137227, -37.803570376786], [144.965403386463, -37.803567233131], [144.965116356967, -37.803536899139], [144.96516540689, -37.803265859641]]]]}}