{"type": "Feature", "properties": {"seg_id": "20755", "street_id": "20755", "name": "Grattan Place between Argyle Place North and Grattan Street", "str_type": "Council Minor", "status_id": "3", "seg_part": "1", "poly_area": "681", "gisid": "1985"}, "geometry": {"type": "MultiPolygon", "coordinates": [[[[144.965758279185, -37.801235762306], [144.96583922048, -37.800762317184], [144.965883533829, -37.800766617042], [144.965892423277, -37.800767569034], [144.965828547344, -37.80113258366], [144.965847276416, -37.801134631131], [144.965828675214, -37.801244617609], [144.965837157401, -37.801245513006], [144.965765634016, -37.80164006945], [144.965761832035, -37.801662154726], [144.965728571424, -37.801855337914], [144.965659935143, -37.801847604272], [144.965767277524, -37.801245952361], [144.96575672867, -37.801244835617], [144.965758279185, -37.801235762306]]]]}}