{"type": "Feature", "properties": {"seg_id": "20769", "street_id": "20769", "name": "La Mama Place from University Street", "str_type": "Council Minor", "status_id": "3", "seg_part": "1", "poly_area": "103", "gisid": "1970"}, "geometry": {"type": "MultiPolygon", "coordinates": [[[[144.967589796807, -37.799368821518], [144.967616588671, -37.79921463717], [144.967626182564, -37.79915942893], [144.96771754778, -37.799167997924], [144.967708979488, -37.799223372566], [144.96765098332, -37.799217889229], [144.967624124224, -37.799372457228], [144.967589796807, -37.799368821518]]]]}}