{"type": "Feature", "properties": {"seg_id": "20765", "street_id": "20765", "name": "York Place from Lygon Street", "str_type": "Council Minor", "status_id": "3", "seg_part": "1", "poly_area": "301", "gisid": "1975"}, "geometry": {"type": "MultiPolygon", "coordinates": [[[[144.967215943208, -37.800105931962], [144.967221458776, -37.800073520767], [144.96746146419, -37.800099642247], [144.967475584007, -37.800016600849], [144.96750986312, -37.800020517831], [144.967497717401, -37.800091952784], [144.967794097379, -37.80012428601], [144.967786835758, -37.800177605981], [144.967489368501, -37.80014515484], [144.967477643616, -37.800215488604], [144.967443272234, -37.800212117034], [144.967456607753, -37.800132125209], [144.967215943208, -37.800105931962]]]]}}