{"type": "Feature", "properties": {"seg_id": "20761", "street_id": "20761", "name": "Cl1054a from Faraday Lane", "str_type": "Council Minor", "status_id": "3", "seg_part": "1", "poly_area": "59", "gisid": "1979"}, "geometry": {"type": "MultiPolygon", "coordinates": [[[[144.966787610172, -37.799012157971], [144.966793058195, -37.798980225054], [144.966820404849, -37.798983297093], [144.966848609716, -37.798832388775], [144.966877813487, -37.798835533416], [144.966846978764, -37.798995042244], [144.966837989216, -37.799006818644], [144.966816380667, -37.799015367242], [144.966787610172, -37.799012157971]]]]}}