{"type": "Feature", "properties": {"seg_id": "20760", "street_id": "20760", "name": "Faraday Lane between Dorrit Street and Lygon Street", "str_type": "Council Minor", "status_id": "3", "seg_part": "1", "poly_area": "104", "gisid": "1980"}, "geometry": {"type": "MultiPolygon", "coordinates": [[[[144.966734928981, -37.799014641347], [144.966526944844, -37.798991272931], [144.966534136515, -37.798951132463], [144.966793058195, -37.798980225054], [144.966787610172, -37.799012157971], [144.966786204079, -37.799020402908], [144.966734928981, -37.799014641347]]]]}}