{"type": "Feature", "properties": {"seg_id": "20776", "street_id": "20776", "name": "Challis Lane from Waterloo Street", "str_type": "Council Minor", "status_id": "3", "seg_part": "1", "poly_area": "67", "gisid": "1964"}, "geometry": {"type": "MultiPolygon", "coordinates": [[[[144.967325328106, -37.795288867382], [144.967357999756, -37.795292433118], [144.967327670821, -37.795476434143], [144.967275521708, -37.795471406637], [144.967281186949, -37.795440395725], [144.967304292905, -37.795421509312], [144.967325328106, -37.795288867382]]]]}}