{"type": "Feature", "properties": {"seg_id": "20770", "street_id": "20770", "name": "University Street between Drummond Street and Lygon Street", "str_type": "Council Minor", "status_id": "3", "seg_part": "1", "poly_area": "614", "gisid": "1971"}, "geometry": {"type": "MultiPolygon", "coordinates": [[[[144.968275855368, -37.799441487538], [144.96847573461, -37.799462658378], [144.968468075486, -37.799527025402], [144.968459174295, -37.799516350588], [144.967611420374, -37.799426558316], [144.967576479145, -37.799422857937], [144.96734642781, -37.799398490095], [144.967335209947, -37.799404510094], [144.967336414869, -37.799397428705], [144.967345719343, -37.79934296798], [144.967589796807, -37.799368821518], [144.967624124224, -37.799372457228], [144.968241009224, -37.799437797107], [144.968275855368, -37.799441487538]]]]}}