{"type": "Feature", "properties": {"seg_id": "20789", "street_id": "20789", "name": "Tyne Street between Lygon Street and Cardigan Street", "str_type": "Council Minor", "status_id": "3", "seg_part": "1", "poly_area": "586", "gisid": "1954"}, "geometry": {"type": "MultiPolygon", "coordinates": [[[[144.96632575491, -37.797916370627], [144.966290940879, -37.797912326019], [144.966082051072, -37.797889135864], [144.966090905903, -37.797837884676], [144.96629918968, -37.797861426622], [144.966331917818, -37.797865125202], [144.966935366158, -37.797933616464], [144.967023937684, -37.797943655335], [144.967230825666, -37.797966723657], [144.967220879131, -37.798019297949], [144.966821685847, -37.797973392846], [144.966781265097, -37.797969296642], [144.966681654649, -37.797957723335], [144.966647613814, -37.79795376788], [144.96632575491, -37.797916370627]]]]}}