{"type": "Feature", "properties": {"seg_id": "20784", "street_id": "20784", "name": "Little Elgin Street between Miller Lane and Cardigan Street", "str_type": "Council Minor", "status_id": "3", "seg_part": "1", "poly_area": "174", "gisid": "1959"}, "geometry": {"type": "MultiPolygon", "coordinates": [[[[144.966423935034, -37.797562628635], [144.966145524342, -37.797533327571], [144.966155012503, -37.797480140767], [144.9663852546, -37.797504898971], [144.966433839288, -37.797510123073], [144.966461635079, -37.797513155183], [144.96645857714, -37.797529288447], [144.966493601579, -37.797533150094], [144.96648898994, -37.797559183913], [144.96648716255, -37.797569497888], [144.966423935034, -37.797562628635]]]]}}