{"type": "Feature", "properties": {"seg_id": "20794", "street_id": "20794", "name": "Tesoriero Lane between Tyne Street and Little Elgin Street", "str_type": "Council Minor", "status_id": "3", "seg_part": "1", "poly_area": "256", "gisid": "1950"}, "geometry": {"type": "MultiPolygon", "coordinates": [[[[144.966941087919, -37.797608162683], [144.967012680578, -37.797615918638], [144.966985589192, -37.797781215546], [144.967019318596, -37.797784970872], [144.96701151766, -37.797824607017], [144.967003127127, -37.797868805563], [144.967015804762, -37.797870095018], [144.967036592555, -37.79787220757], [144.967023937684, -37.797943655335], [144.966935366158, -37.797933616464], [144.966943843415, -37.797889073368], [144.966930362535, -37.797887505092], [144.966941551992, -37.797828707115], [144.96691729363, -37.797825886683], [144.96692407523, -37.797790251303], [144.966909953598, -37.79778860888], [144.966941087919, -37.797608162683]]]]}}