{"type": "Feature", "properties": {"seg_id": "20792", "street_id": "20792", "name": "Powell Lane between Faraday Street and Tyne Street", "str_type": "Council Minor", "status_id": "3", "seg_part": "1", "poly_area": "276", "gisid": "1952"}, "geometry": {"type": "MultiPolygon", "coordinates": [[[[144.966264943831, -37.79842560554], [144.96621708064, -37.798419975676], [144.966284741043, -37.798025827816], [144.966268790598, -37.79802390681], [144.966290940879, -37.797912326019], [144.96632575491, -37.797916370627], [144.966296508784, -37.798069237135], [144.966323623282, -37.798072354842], [144.966301660403, -37.7982127135], [144.966484874408, -37.798235064301], [144.966478562208, -37.798268109659], [144.96629579699, -37.798246370387], [144.966264943831, -37.79842560554]]]]}}