{"type": "Feature", "properties": {"seg_id": "20802", "street_id": "20802", "name": "Gibbons Place from Cardigan Street", "str_type": "Council Minor", "status_id": "3", "seg_part": "1", "poly_area": "122", "gisid": "1944"}, "geometry": {"type": "MultiPolygon", "coordinates": [[[[144.964691918684, -37.803959767247], [144.964687808654, -37.803984947202], [144.964429773743, -37.803958200987], [144.964420860416, -37.804008404703], [144.964407827207, -37.804006998868], [144.964416404417, -37.803956668584], [144.964325783157, -37.803946949113], [144.964330606884, -37.803920186425], [144.964338797493, -37.803879469533], [144.964390807915, -37.803884873597], [144.96438339629, -37.803925969837], [144.964691918684, -37.803959767247]]]]}}