{"type": "Feature", "properties": {"seg_id": "20803", "street_id": "20803", "name": "Kelvin Place between Cardigan Street and Swanston Street", "str_type": "Council Minor", "status_id": "3", "seg_part": "1", "poly_area": "387", "gisid": "1943"}, "geometry": {"type": "MultiPolygon", "coordinates": [[[[144.964710502129, -37.803855857354], [144.963581410338, -37.803738322474], [144.963582517309, -37.803729861538], [144.96378743859, -37.803752131553], [144.963794360081, -37.803713053626], [144.963829594197, -37.803709092094], [144.963827618289, -37.803720244243], [144.964515373799, -37.803793061042], [144.964513715321, -37.803803286873], [144.964716176519, -37.803823960924], [144.964710502129, -37.803855857354]]]]}}