{"type": "Feature", "properties": {"seg_id": "20821", "street_id": "20821", "name": "Holmwood Place from Cardigan Street", "str_type": "Council Minor", "status_id": "3", "seg_part": "1", "poly_area": "228", "gisid": "1927"}, "geometry": {"type": "MultiPolygon", "coordinates": [[[[144.966017433031, -37.796324926575], [144.965448962766, -37.796262637666], [144.965476162461, -37.796117748365], [144.965510663384, -37.796121872507], [144.9654913547, -37.796232145991], [144.966023435282, -37.796292830228], [144.966017433031, -37.796324926575]]]]}}