{"type": "Feature", "properties": {"seg_id": "20833", "street_id": "20833", "name": "Lincoln Place from Swanston Street", "str_type": "Council Minor", "status_id": "3", "seg_part": "1", "poly_area": "298", "gisid": "1913"}, "geometry": {"type": "MultiPolygon", "coordinates": [[[[144.962637729129, -37.803800597455], [144.962651110953, -37.80380200321], [144.962973551272, -37.803835874683], [144.962971437331, -37.803846919891], [144.963208393972, -37.803873807577], [144.963200749842, -37.803918712594], [144.962628173299, -37.803857316232], [144.962637729129, -37.803800597455]]]]}}