{"type": "Feature", "properties": {"seg_id": "20838", "street_id": "20838", "name": "Lincoln Square South between Swanston Street and Bouverie Street", "str_type": "Council Major", "status_id": "2", "seg_part": "1", "poly_area": "1563", "gisid": "1908"}, "geometry": {"type": "MultiPolygon", "coordinates": [[[[144.963299976829, -37.803335834224], [144.962762066111, -37.80327647279], [144.962708264999, -37.803270535977], [144.962160988606, -37.803210138335], [144.962186593959, -37.803072612111], [144.963326142788, -37.803198374201], [144.963299976829, -37.803335834224]]]]}}