{"type": "Feature", "properties": {"seg_id": "20849", "street_id": "20849", "name": "Grattan Street between Leicester Street and Barry Street", "str_type": "Council Major", "status_id": "2", "seg_part": "1", "poly_area": "2122", "gisid": "1897"}, "geometry": {"type": "MultiPolygon", "coordinates": [[[[144.96004887314, -37.800131173513], [144.960097208713, -37.799861735109], [144.96050837315, -37.799906705192], [144.960597491296, -37.799916451983], [144.960887372323, -37.799948154722], [144.960839436779, -37.800217603109], [144.96004887314, -37.800131173513]]]]}}