{"type": "Feature", "properties": {"seg_id": "20844", "street_id": "20844", "name": "Little Grattan Street from Grattan Street", "str_type": "Council Minor", "status_id": "3", "seg_part": "1", "poly_area": "467", "gisid": "1902"}, "geometry": {"type": "MultiPolygon", "coordinates": [[[[144.962896044547, -37.800664215259], [144.963148862643, -37.800691859469], [144.963187143538, -37.800668761132], [144.963435864975, -37.800695957177], [144.963467958933, -37.800504837113], [144.963536626033, -37.800512345455], [144.963493280283, -37.800759169208], [144.963171670005, -37.800724002439], [144.963167242933, -37.800750666511], [144.96292356712, -37.800724022185], [144.962885896514, -37.800719902812], [144.962896044547, -37.800664215259]]]]}}