{"type": "Feature", "properties": {"seg_id": "20857", "street_id": "20857", "name": "Cl1014 from Berkeley Street", "str_type": "Council Minor", "status_id": "3", "seg_part": "1", "poly_area": "230", "gisid": "1890"}, "geometry": {"type": "MultiPolygon", "coordinates": [[[[144.958796455972, -37.802910487309], [144.958651328906, -37.802953273787], [144.958642428184, -37.802971823416], [144.958787778102, -37.803287253147], [144.958522873296, -37.803366501108], [144.958516835137, -37.803355212828], [144.958744419799, -37.803289190685], [144.958583927622, -37.802940898339], [144.958784355644, -37.80288465711], [144.958796455972, -37.802910487309]]]]}}