{"type": "Feature", "properties": {"seg_id": "20853", "street_id": "20853", "name": "Cl1593 from Berkeley Street", "str_type": "Council Minor", "status_id": "3", "seg_part": "1", "poly_area": "259", "gisid": "1894"}, "geometry": {"type": "MultiPolygon", "coordinates": [[[[144.958818479428, -37.800566262705], [144.958824135104, -37.800534672646], [144.95916444927, -37.80057065484], [144.959194472537, -37.800406637326], [144.959248554168, -37.8004129005], [144.959195159946, -37.800696902164], [144.959143391525, -37.800692003782], [144.959158925781, -37.800602481513], [144.958818479428, -37.800566262705]]]]}}