{"type": "Feature", "properties": {"seg_id": "20862", "street_id": "20862", "name": "Cl1568 from Leicester Street", "str_type": "Council Minor", "status_id": "3", "seg_part": "1", "poly_area": "139", "gisid": "1885"}, "geometry": {"type": "MultiPolygon", "coordinates": [[[[144.960376145083, -37.802839324734], [144.960124138006, -37.802812486092], [144.960091644894, -37.802572656245], [144.960097082158, -37.802571075144], [144.960123167647, -37.802573994431], [144.960137697075, -37.802672790716], [144.960149177739, -37.802723057176], [144.960160178089, -37.802788428051], [144.960381692553, -37.802814417663], [144.960376145083, -37.802839324734]]]]}}