{"type": "Feature", "properties": {"seg_id": "20860", "street_id": "20860", "name": "Cl1381 from Cl1028", "str_type": "Council Minor", "status_id": "3", "seg_part": "1", "poly_area": "144", "gisid": "1887"}, "geometry": {"type": "MultiPolygon", "coordinates": [[[[144.959227194277, -37.802790297498], [144.95930211599, -37.802948885466], [144.959374058523, -37.80307216502], [144.959398004483, -37.803117539683], [144.959361560432, -37.803128117891], [144.959264326734, -37.802959853974], [144.959184458519, -37.802786175665], [144.959220163483, -37.802775416181], [144.959227194277, -37.802790297498]]]]}}