{"type": "Feature", "properties": {"seg_id": "20868", "street_id": "20868", "name": "Queensberry Street between Bouverie Street and Leicester Street", "str_type": "Council Major", "status_id": "2", "seg_part": "1", "poly_area": "3143", "gisid": "1881"}, "geometry": {"type": "MultiPolygon", "coordinates": [[[[144.961270610635, -37.804489914612], [144.960444613175, -37.80439761897], [144.96049548004, -37.804120632016], [144.961350371643, -37.804217335898], [144.96163219407, -37.804248881245], [144.961588940435, -37.804525482343], [144.961325708086, -37.804496070989], [144.961270610635, -37.804489914612]]]]}}