{"type": "Feature", "properties": {"seg_id": "20867", "street_id": "20867", "name": "Lansdowne Place from Queensberry Street", "str_type": "Council Minor", "status_id": "3", "seg_part": "1", "poly_area": "387", "gisid": "1882"}, "geometry": {"type": "MultiPolygon", "coordinates": [[[[144.961270610635, -37.804489914612], [144.961325708086, -37.804496070989], [144.961229820528, -37.805033333573], [144.961160615729, -37.805026567017], [144.961218025342, -37.804706408606], [144.961058674992, -37.804688603559], [144.96106349531, -37.804660936183], [144.961236477616, -37.804680264117], [144.961270610635, -37.804489914612]]]]}}