{"type": "Feature", "properties": {"seg_id": "20877", "street_id": "20877", "name": "Station Street between Kay Street and Princes Street", "str_type": "Council Major", "status_id": "2", "seg_part": "1", "poly_area": "4512", "gisid": "1659"}, "geometry": {"type": "MultiPolygon", "coordinates": [[[[144.974424482296, -37.794174348624], [144.974584944492, -37.793272289243], [144.974795366564, -37.793162855733], [144.974795950361, -37.793162868832], [144.974796532957, -37.7931628427], [144.974797109933, -37.793162775683], [144.974797676752, -37.793162668306], [144.974798228959, -37.793162521413], [144.97479876221, -37.793162336161], [144.974799272314, -37.793162114006], [144.97479975526, -37.793161856693], [144.974800207251, -37.793161566247], [144.974800624732, -37.79316124495], [144.974801004422, -37.79316089533], [144.974801343335, -37.793160520134], [144.974801638806, -37.793160122314], [144.974801888513, -37.793159704996], [144.974802090491, -37.793159271463], [144.974802243153, -37.793158825122], [144.974802339186, -37.793158368802], [144.974814401006, -37.793093480361], [144.974847789224, -37.793094738498], [144.974746634035, -37.793656454755], [144.974742659122, -37.793681413075], [144.97469665145, -37.793938144034], [144.974692247016, -37.793963733901], [144.974640306292, -37.794265501101], [144.974634549108, -37.79429895573], [144.974526013729, -37.794913993722], [144.974521262977, -37.79494107358], [144.974475808949, -37.795200130843], [144.974247676922, -37.795176687367], [144.974307516354, -37.794832343042], [144.974312429582, -37.794800149088], [144.974369671252, -37.794472679678], [144.974375689557, -37.794439024988], [144.97441948969, -37.794201427926], [144.974424482296, -37.794174348624]]]]}}