{"type": "Feature", "properties": {"seg_id": "20875", "street_id": "20875", "name": "Scotts Place from Bouverie Street", "str_type": "Council Minor", "status_id": "3", "seg_part": "1", "poly_area": "247", "gisid": "1876"}, "geometry": {"type": "MultiPolygon", "coordinates": [[[[144.962091678619, -37.801641406832], [144.961520696891, -37.801578280982], [144.961528308944, -37.801535270688], [144.962099308573, -37.801597733541], [144.962099106377, -37.80159889166], [144.962091678619, -37.801641406832]]]]}}