{"type": "Feature", "properties": {"seg_id": "20889", "street_id": "20889", "name": "Albert Street between Nicholson Street and Gisborne Street", "str_type": "Council Major", "status_id": "2", "seg_part": "1", "poly_area": "6140", "gisid": "859"}, "geometry": {"type": "MultiPolygon", "coordinates": [[[[144.975404236557, -37.809654991914], [144.97311907369, -37.809402856608], [144.973164794783, -37.809134359022], [144.973820443539, -37.8092067271], [144.973885303751, -37.809214592951], [144.975447646486, -37.809380946521], [144.975404236557, -37.809654991914]]]]}}