{"type": "Feature", "properties": {"seg_id": "20882", "street_id": "20882", "name": "Nicholson Street between Palmerston Street and Kay Street", "str_type": "Arterial", "status_id": "1", "seg_part": "1", "poly_area": "1889", "gisid": "1655"}, "geometry": {"type": "MultiPolygon", "coordinates": [[[[144.975038553934, -37.796013010181], [144.975042773759, -37.795988401223], [144.975117835919, -37.795549155433], [144.975292048032, -37.795567777141], [144.975107775853, -37.796653353236], [144.974932343979, -37.796634600312], [144.975038553934, -37.796013010181]]]]}}