{"type": "Feature", "properties": {"seg_id": "20893", "street_id": "20893", "name": "Albert Street between Lansdowne Street and Eades Street", "str_type": "Council Major", "status_id": "2", "seg_part": "1", "poly_area": "6091", "gisid": "855"}, "geometry": {"type": "MultiPolygon", "coordinates": [[[[144.978517049128, -37.809719904294], [144.979161202854, -37.809791378504], [144.979193767878, -37.809796028719], [144.980790265967, -37.809969178048], [144.980743022649, -37.810239545247], [144.978473002352, -37.809989844144], [144.978517049128, -37.809719904294]]]]}}