{"type": "Feature", "properties": {"seg_id": "20898", "street_id": "20898", "name": "Albert Street between Clarendon Street and Eades Street", "str_type": "Council Major", "status_id": "2", "seg_part": "1", "poly_area": "6026", "gisid": "850"}, "geometry": {"type": "MultiPolygon", "coordinates": [[[[144.983352783216, -37.810526561995], [144.981081422622, -37.810276764629], [144.981127873765, -37.810010915728], [144.982939756089, -37.81020869177], [144.982974176396, -37.810212759922], [144.983392928178, -37.810258407043], [144.983352783216, -37.810526561995]]]]}}