{"type": "Feature", "properties": {"seg_id": "20899", "street_id": "20899", "name": "Intersection of Gracie Street and Boundary Road", "str_type": "Council Major", "status_id": "2", "seg_part": "1", "poly_area": "649", "gisid": "2810"}, "geometry": {"type": "MultiPolygon", "coordinates": [[[[144.93896353352, -37.797104826218], [144.938771816921, -37.797205051782], [144.93840201281, -37.797188962091], [144.938668628284, -37.797042150743], [144.938804621854, -37.796960173011], [144.93896353352, -37.797104826218]]]]}}