{"type": "Feature", "properties": {"seg_id": "20895", "street_id": "20895", "name": "Gisborne Street between Albert Street and Victoria Parade", "str_type": "Council Major", "status_id": "2", "seg_part": "1", "poly_area": "4165", "gisid": "853"}, "geometry": {"type": "MultiPolygon", "coordinates": [[[[144.975447646486, -37.809380946521], [144.975593657912, -37.808484120556], [144.976011151454, -37.808530173199], [144.976045992439, -37.80853401629], [144.97629162124, -37.80856123145], [144.976269622367, -37.808560077591], [144.97624759969, -37.808560312671], [144.976225702048, -37.808562070671], [144.976204096141, -37.808565338207], [144.976182946452, -37.808570090404], [144.976162413989, -37.808576291086], [144.97614265506, -37.808583893047], [144.976123820087, -37.808592838415], [144.976106052456, -37.808603059092], [144.976089487428, -37.808614477269], [144.976074251109, -37.808627006022], [144.976060459491, -37.808640549972], [144.976048217566, -37.808655006012], [144.976037618529, -37.808670264092], [144.976028743068, -37.808686208054], [144.976021658751, -37.808702716521], [144.976016419509, -37.808719663818], [144.976013256598, -37.808736938801], [144.975900375577, -37.809436637922], [144.975447646486, -37.809380946521]]]]}}