{"type": "Feature", "properties": {"seg_id": "20910", "street_id": "20910", "name": "Intersection of Dryburgh Street and Haines Street", "str_type": "Council Major", "status_id": "2", "seg_part": "1", "poly_area": "2298", "gisid": "2821"}, "geometry": {"type": "MultiPolygon", "coordinates": [[[[144.944233685516, -37.797860902847], [144.944535089088, -37.798111599078], [144.944485399319, -37.798385417228], [144.9443350784, -37.798435625643], [144.94431666941, -37.798424620863], [144.944196075551, -37.798438363778], [144.94417047988, -37.798442473291], [144.944144418884, -37.798454763656], [144.944082543868, -37.79849632797], [144.943947914212, -37.798370388547], [144.943948395792, -37.798369936454], [144.943967910019, -37.798351546021], [144.943984151803, -37.798331212299], [144.943998043445, -37.798309799509], [144.944009475233, -37.798287476765], [144.944018356883, -37.798264420365], [144.944024618249, -37.798240812402], [144.944028209881, -37.798216839324], [144.944029103414, -37.798192690463], [144.944027291791, -37.798168556541], [144.944022789319, -37.79814462816], [144.944015631557, -37.798121094299], [144.944005875036, -37.798098140823], [144.943994611167, -37.798075557058], [144.944233685516, -37.797860902847]]]]}}