{"type": "Feature", "properties": {"seg_id": "20916", "street_id": "20916", "name": "Intersection of Errol Street and Courtney Street", "str_type": "Council Major", "status_id": "2", "seg_part": "1", "poly_area": "817", "gisid": "2614"}, "geometry": {"type": "MultiPolygon", "coordinates": [[[[144.950209441324, -37.798766143209], [144.950592963326, -37.798825256713], [144.950595176037, -37.798879336901], [144.950603594616, -37.798933071118], [144.950616623695, -37.798986324738], [144.950485086762, -37.799013361654], [144.950471815254, -37.798985977902], [144.950455473744, -37.798959660056], [144.950436196465, -37.798934624291], [144.950414141762, -37.798911076249], [144.950410382153, -37.798907713476], [144.950406447111, -37.798904497684], [144.950402169864, -37.798901570428], [144.950397584378, -37.798898954953], [144.95039272707, -37.798896672031], [144.950387636511, -37.798894739791], [144.950382353129, -37.798893173578], [144.95037691888, -37.798891985829], [144.95037137692, -37.798891185977], [144.95036577126, -37.798890780373], [144.950360148367, -37.798890802688], [144.950353935561, -37.798891280007], [144.950347811819, -37.798892228849], [144.95034182013, -37.798893599059], [144.950336006231, -37.798895380177], [144.950330414505, -37.798897558606], [144.950325087639, -37.798900117717], [144.950320066295, -37.798903037974], [144.950315388806, -37.798906297084], [144.950311090878, -37.798909870168], [144.950307205321, -37.79891372995], [144.950303761796, -37.798917846966], [144.950300786591, -37.798922189787], [144.950298302417, -37.798926725261], [144.950296328238, -37.798931418765], [144.950294977712, -37.798936250182], [144.950293978098, -37.798942233932], [144.950293182061, -37.798948236883], [144.950292590178, -37.798954254677], [144.950284817468, -37.799071667894], [144.950280221528, -37.799097539967], [144.95027758954, -37.799112596064], [144.950146504723, -37.799098166543], [144.950209441324, -37.798766143209]]]]}}