{"type": "Feature", "properties": {"seg_id": "20914", "street_id": "20914", "name": "Intersection of Arden Street and Courtney Street", "str_type": "Council Major", "status_id": "2", "seg_part": "1", "poly_area": "2150", "gisid": "2612"}, "geometry": {"type": "MultiPolygon", "coordinates": [[[[144.952539807136, -37.801121683556], [144.952574109438, -37.801068732066], [144.953034632538, -37.801035464078], [144.953278421247, -37.801231613227], [144.953105805611, -37.801485203968], [144.953089219982, -37.801492947862], [144.952754037244, -37.801415549846], [144.952539807136, -37.801121683556]]]]}}