{"type": "Feature", "properties": {"seg_id": "20913", "street_id": "20913", "name": "Intersection of Harker Street and Molesworth Street", "str_type": "Arterial", "status_id": "1", "seg_part": "1", "poly_area": "764", "gisid": "2611"}, "geometry": {"type": "MultiPolygon", "coordinates": [[[[144.949126817941, -37.798499213848], [144.948758721102, -37.798393444551], [144.948988875683, -37.798177884402], [144.949230289481, -37.798373195679], [144.949144786708, -37.798497336918], [144.949144019112, -37.798496819236], [144.949143227253, -37.798496329176], [144.949142384695, -37.798495895993], [144.949141497976, -37.79849552305], [144.949140573979, -37.798495213241], [144.949139619876, -37.798494968971], [144.949138643072, -37.798494792136], [144.949137651149, -37.798494684107], [144.949136651805, -37.798494645725], [144.949135652798, -37.798494677286], [144.949134661881, -37.798494778547], [144.949133686746, -37.798494948719], [144.949132734961, -37.798495186484], [144.949131813914, -37.798495489995], [144.949130930753, -37.798495856897], [144.949130092334, -37.798496284342], [144.949129305164, -37.798496769013], [144.949128575352, -37.798497307146], [144.949127908563, -37.798497894567], [144.949127309974, -37.798498526714], [144.949126817941, -37.798499213848]]]]}}