{"type": "Feature", "properties": {"seg_id": "20921", "street_id": "20921", "name": "Intersection of Flemington Road and Gatehouse Street", "str_type": "Arterial", "status_id": "1", "seg_part": "1", "poly_area": "2889", "gisid": "2616"}, "geometry": {"type": "MultiPolygon", "coordinates": [[[[144.950859092264, -37.796706767781], [144.95061416297, -37.796510975081], [144.951211707212, -37.796223542331], [144.951340590642, -37.796326153001], [144.951503061313, -37.796458754969], [144.951094430416, -37.796894891718], [144.950859092264, -37.796706767781]]]]}}