{"type": "Feature", "properties": {"seg_id": "20922", "street_id": "20922", "name": "Intersection of Queen Street and Franklin Street", "str_type": "Council Major", "status_id": "2", "seg_part": "1", "poly_area": "2751", "gisid": "1080"}, "geometry": {"type": "MultiPolygon", "coordinates": [[[[144.958391648505, -37.809547907078], [144.958072514848, -37.809639959082], [144.958002718904, -37.809467531658], [144.957791799349, -37.809007228246], [144.957780784476, -37.809006005367], [144.957820390921, -37.808778481209], [144.958025559348, -37.808718330613], [144.958128896968, -37.808974535313], [144.958391648505, -37.809547907078]]]]}}