{"type": "Feature", "properties": {"seg_id": "20938", "street_id": "20938", "name": "Peel Street between Princess Street and Queensberry Street", "str_type": "Arterial", "status_id": "1", "seg_part": "1", "poly_area": "4146", "gisid": "2632"}, "geometry": {"type": "MultiPolygon", "coordinates": [[[[144.955992344925, -37.804522058307], [144.956103668031, -37.803909921913], [144.956560407447, -37.803962186395], [144.956530803336, -37.804124565693], [144.956525776086, -37.804152140059], [144.956394557802, -37.804871856455], [144.95593968369, -37.804821730601], [144.955986912176, -37.804551931717], [144.955992344925, -37.804522058307]]]]}}