{"type": "Feature", "properties": {"seg_id": "20930", "street_id": "20930", "name": "Cl1730 from Cobden Street", "str_type": "Council Minor", "status_id": "3", "seg_part": "1", "poly_area": "128", "gisid": "2624"}, "geometry": {"type": "MultiPolygon", "coordinates": [[[[144.957288119919, -37.805667403993], [144.957630742267, -37.805706344403], [144.957735808975, -37.805718285941], [144.957738744117, -37.805740995119], [144.957719060177, -37.805746569959], [144.957282027944, -37.805694423718], [144.957288119919, -37.805667403993]]]]}}