{"type": "Feature", "properties": {"seg_id": "20931", "street_id": "20931", "name": "Cobden Street between Victoria Street and Princess Street", "str_type": "Council Major", "status_id": "2", "seg_part": "1", "poly_area": "1632", "gisid": "2625"}, "geometry": {"type": "MultiPolygon", "coordinates": [[[[144.957282027944, -37.805694423718], [144.957250065783, -37.805886096444], [144.957021256279, -37.805860425779], [144.957055257608, -37.805679805377], [144.957060442984, -37.805652260771], [144.957118512837, -37.805320678328], [144.957121113193, -37.805305617023], [144.957148355617, -37.805147799833], [144.957149954116, -37.805139417788], [144.957378752902, -37.805166017106], [144.957288119919, -37.805667403993], [144.957282027944, -37.805694423718]]]]}}