{"type": "Feature", "properties": {"seg_id": "20937", "street_id": "20937", "name": "Peel Street between Victoria Street and Princess Street", "str_type": "Arterial", "status_id": "1", "seg_part": "1", "poly_area": "3271", "gisid": "2631"}, "geometry": {"type": "MultiPolygon", "coordinates": [[[[144.955896673141, -37.805067434929], [144.955901359438, -37.805040662132], [144.955906638783, -37.8050105058], [144.955908847204, -37.804997886216], [144.956364314592, -37.805048077469], [144.956233524081, -37.805772047318], [144.955782192262, -37.805721408229], [144.955809808769, -37.805563645649], [144.955815152875, -37.805533120967], [144.955896673141, -37.805067434929]]]]}}