{"type": "Feature", "properties": {"seg_id": "20948", "street_id": "20948", "name": "Anderson Lane from Peel Street", "str_type": "Council Minor", "status_id": "3", "seg_part": "1", "poly_area": "160", "gisid": "2642"}, "geometry": {"type": "MultiPolygon", "coordinates": [[[[144.955793916394, -37.804530801372], [144.955759025793, -37.80452709654], [144.955804461274, -37.804256844847], [144.95584321041, -37.804260083148], [144.955802678417, -37.804501292165], [144.955992344925, -37.804522058307], [144.955986912176, -37.804551931717], [144.955793916394, -37.804530801372]]]]}}