{"type": "Feature", "properties": {"seg_id": "20940", "street_id": "20940", "name": "Meeks Lane from Peel Street", "str_type": "Council Minor", "status_id": "3", "seg_part": "1", "poly_area": "221", "gisid": "2634"}, "geometry": {"type": "MultiPolygon", "coordinates": [[[[144.957309398382, -37.804255142383], [144.956934020044, -37.804214092695], [144.956893834564, -37.804204037668], [144.956825420482, -37.804196730772], [144.956812764881, -37.804186120627], [144.956525776086, -37.804152140059], [144.956530803336, -37.804124565693], [144.956838391178, -37.804160467193], [144.956918964776, -37.804183196002], [144.957314209352, -37.804228069788], [144.957309398382, -37.804255142383]]]]}}