{"type": "Feature", "properties": {"seg_id": "20958", "street_id": "20958", "name": "Little Howard Street between Howard Street and Capel Street", "str_type": "Council Minor", "status_id": "3", "seg_part": "1", "poly_area": "298", "gisid": "2651"}, "geometry": {"type": "MultiPolygon", "coordinates": [[[[144.954649441812, -37.804469518432], [144.954643723015, -37.804502083125], [144.954642410076, -37.804509244495], [144.954066831404, -37.804445795189], [144.954074737232, -37.804404615434], [144.954280311823, -37.804426253689], [144.954311761981, -37.804265731974], [144.954343394626, -37.804268994933], [144.954313014536, -37.804429266696], [144.954650374559, -37.804464692615], [144.954649441812, -37.804469518432]]]]}}