{"type": "Feature", "properties": {"seg_id": "20951", "street_id": "20951", "name": "Victoria Street between Capel Street and Howard Street", "str_type": "Council Major", "status_id": "2", "seg_part": "1", "poly_area": "2993", "gisid": "2644"}, "geometry": {"type": "MultiPolygon", "coordinates": [[[[144.95438615812, -37.80583959781], [144.954344607206, -37.805835951681], [144.953861461032, -37.80578091174], [144.953880380878, -37.805510374118], [144.955013935195, -37.805638230568], [144.954973596801, -37.805906585086], [144.95438615812, -37.80583959781]]]]}}