{"type": "Feature", "properties": {"seg_id": "20980", "street_id": "20980", "name": "Leveson Street between Victoria Street and Queensberry Street", "str_type": "Council Major", "status_id": "2", "seg_part": "1", "poly_area": "6037", "gisid": "2673"}, "geometry": {"type": "MultiPolygon", "coordinates": [[[[144.950586422824, -37.805136179985], [144.950631150517, -37.804897529647], [144.950641292196, -37.804843416641], [144.950711339796, -37.804448349218], [144.950720108093, -37.804394279888], [144.950772534923, -37.804106301529], [144.950779422615, -37.804060930052], [144.950907689499, -37.803336362222], [144.951245889972, -37.803368461889], [144.950992674302, -37.804782086452], [144.950987422258, -37.804814799651], [144.950923931846, -37.80517714881], [144.950586422824, -37.805136179985]]]]}}