{"type": "Feature", "properties": {"seg_id": "20985", "street_id": "20985", "name": "Webbs Lane from Errol Street", "str_type": "Council Minor", "status_id": "3", "seg_part": "1", "poly_area": "99", "gisid": "2678"}, "geometry": {"type": "MultiPolygon", "coordinates": [[[[144.949492016941, -37.804772402451], [144.949497676244, -37.804740593087], [144.949782681921, -37.804768080417], [144.949777899978, -37.804798519965], [144.949774188928, -37.804822148151], [144.949728176433, -37.804797839879], [144.949680119649, -37.804792663992], [144.949668303915, -37.804791391271], [144.949492016941, -37.804772402451]]]]}}