{"type": "Feature", "properties": {"seg_id": "20983", "street_id": "20983", "name": "Victoria Street between Leveson Street and Errol Street", "str_type": "Council Major", "status_id": "2", "seg_part": "1", "poly_area": "3035", "gisid": "2676"}, "geometry": {"type": "MultiPolygon", "coordinates": [[[[144.949885054603, -37.80533382899], [144.949850976756, -37.80532944175], [144.949401661555, -37.805277780618], [144.949448810615, -37.805015216106], [144.950586422824, -37.805136179985], [144.950531106314, -37.805411205782], [144.949885054603, -37.80533382899]]]]}}