{"type": "Feature", "properties": {"seg_id": "20990", "street_id": "20990", "name": "Queensberry Street between Leveson Street and Errol Street", "str_type": "Council Major", "status_id": "2", "seg_part": "1", "poly_area": "3082", "gisid": "2683"}, "geometry": {"type": "MultiPolygon", "coordinates": [[[[144.94977444391, -37.803208995602], [144.949823464937, -37.802936376563], [144.950061668655, -37.802963379948], [144.950130394237, -37.802970361844], [144.950953152148, -37.803062404686], [144.950907689499, -37.803336362222], [144.950679641719, -37.803311199944], [144.950638584818, -37.803306094006], [144.94977444391, -37.803208995602]]]]}}