{"type": "Feature", "properties": {"seg_id": "20995", "street_id": "20995", "name": "Intersection of Victoria Street and Curzon Street", "str_type": "Arterial", "status_id": "1", "seg_part": "1", "poly_area": "1610", "gisid": "2826"}, "geometry": {"type": "MultiPolygon", "coordinates": [[[[144.947638457139, -37.804810110506], [144.947974301184, -37.804849357325], [144.948343658844, -37.80509354204], [144.948343206779, -37.805093495906], [144.948342752269, -37.805093476085], [144.948342297632, -37.805093487727], [144.948341846318, -37.805093530741], [144.948341401753, -37.805093604802], [144.948340967311, -37.805093709347], [144.948340546289, -37.805093843584], [144.948340141884, -37.805094006493], [144.948339757163, -37.805094196837], [144.948339395049, -37.805094413173], [144.948339058288, -37.805094653857], [144.948338749437, -37.805094917064], [144.94833847084, -37.805095200796], [144.948338224611, -37.805095502898], [144.94833801262, -37.805095821079], [144.948337836475, -37.805096152923], [144.948337697514, -37.805096495911], [144.94833759679, -37.80509684744], [144.94833753507, -37.805097204843], [144.94833751282, -37.805097565406], [144.94833753021, -37.805097926393], [144.948337587108, -37.805098285063], [144.948337683081, -37.805098638696], [144.948337817403, -37.805098984606], [144.948337989052, -37.805099320168], [144.948338196727, -37.805099642835], [144.948338422371, -37.805099959091], [144.947917987005, -37.805162421926], [144.947591848996, -37.805074695979], [144.947638457139, -37.804810110506]]]]}}