{"type": "Feature", "properties": {"seg_id": "20999", "street_id": "20999", "name": "Queensberry Street between Errol Street and Curzon Street", "str_type": "Council Major", "status_id": "2", "seg_part": "1", "poly_area": "3061", "gisid": "2687"}, "geometry": {"type": "MultiPolygon", "coordinates": [[[[144.948353210917, -37.802778139874], [144.948586459601, -37.802803860443], [144.948655192975, -37.802810755018], [144.948989942201, -37.802844604267], [144.949022404784, -37.802847395566], [144.94919410973, -37.802864625453], [144.949238446968, -37.802869669161], [144.949462100655, -37.802894344961], [144.949482414691, -37.802879739176], [144.949479187852, -37.802896333105], [144.949426959618, -37.803164916549], [144.949176063883, -37.803139531938], [144.949142699624, -37.803136156334], [144.948856131556, -37.803104660719], [144.948814459009, -37.803100386924], [144.948569923515, -37.803075309168], [144.948530296388, -37.803071245734], [144.948290154046, -37.803046134889], [144.948336340579, -37.802776279708], [144.948353210917, -37.802778139874]]]]}}