{"type": "Feature", "properties": {"seg_id": "21009", "street_id": "21009", "name": "Abbotsford Street between Victoria Street and Elm Street", "str_type": "Council Major", "status_id": "2", "seg_part": "1", "poly_area": "3005", "gisid": "2835"}, "geometry": {"type": "MultiPolygon", "coordinates": [[[[144.945342663387, -37.804586733915], [144.945006268736, -37.804557901097], [144.944989141338, -37.804555879158], [144.94500872881, -37.804544300245], [144.945170269595, -37.803651177665], [144.945503386919, -37.803689107826], [144.945430765691, -37.804090540635], [144.94542685222, -37.804118309641], [144.945342663387, -37.804586733915]]]]}}