{"type": "Feature", "properties": {"seg_id": "21004", "street_id": "21004", "name": "Curzon Place from Curzon Street", "str_type": "Council Minor", "status_id": "3", "seg_part": "1", "poly_area": "295", "gisid": "2799"}, "geometry": {"type": "MultiPolygon", "coordinates": [[[[144.948149353121, -37.80384365032], [144.948718189238, -37.803907938333], [144.948736565667, -37.803804806231], [144.948805116382, -37.803812753725], [144.948769374853, -37.804011657642], [144.948700835287, -37.804003711222], [144.948712743252, -37.803935764578], [144.948145600604, -37.803872125151], [144.948149353121, -37.80384365032]]]]}}