{"type": "Feature", "properties": {"seg_id": "21006", "street_id": "21006", "name": "Elm Street between Curzon Street and Abbotsford Street", "str_type": "Council Major", "status_id": "2", "seg_part": "1", "poly_area": "4215", "gisid": "2832"}, "geometry": {"type": "MultiPolygon", "coordinates": [[[[144.945943859156, -37.803556496924], [144.946613434235, -37.803637206226], [144.946734827384, -37.803655589143], [144.947821269097, -37.803781410624], [144.947789249325, -37.803970586005], [144.94737944296, -37.803919915783], [144.947343429543, -37.803914908322], [144.945948544079, -37.803746051551], [144.945911694027, -37.803741731977], [144.945503386919, -37.803689107826], [144.945536785491, -37.803507146754], [144.945885135306, -37.803549263494], [144.945943859156, -37.803556496924]]]]}}