{"type": "Feature", "properties": {"seg_id": "21017", "street_id": "21017", "name": "Danaher Lane from Union Street", "str_type": "Council Minor", "status_id": "3", "seg_part": "1", "poly_area": "113", "gisid": "2843"}, "geometry": {"type": "MultiPolygon", "coordinates": [[[[144.946494829784, -37.803069242511], [144.946436339796, -37.803063049789], [144.946266063985, -37.803043849207], [144.946270992301, -37.803018053413], [144.946441002212, -37.803037420574], [144.946719895156, -37.803069178442], [144.946714520831, -37.803093449802], [144.946494829784, -37.803069242511]]]]}}