{"type": "Feature", "properties": {"seg_id": "21015", "street_id": "21015", "name": "Queensberry Street between Curzon Street and Abbotsford Street", "str_type": "Council Major", "status_id": "2", "seg_part": "1", "poly_area": "6132", "gisid": "2841"}, "geometry": {"type": "MultiPolygon", "coordinates": [[[[144.947348836248, -37.802943324083], [144.947315818686, -37.802939657519], [144.94687442565, -37.802890714073], [144.946754485965, -37.802879111862], [144.946474284018, -37.802847482654], [144.945678128536, -37.80275761553], [144.945726597508, -37.802486102573], [144.945895989096, -37.802505109164], [144.945929645028, -37.802508886387], [144.947995625292, -37.802740684506], [144.9479510557, -37.803010100007], [144.947348836248, -37.802943324083]]]]}}