{"type": "Feature", "properties": {"seg_id": "21011", "street_id": "21011", "name": "Abbotsford Street between Elm Street and Queensberry Street", "str_type": "Council Major", "status_id": "2", "seg_part": "1", "poly_area": "2517", "gisid": "2837"}, "geometry": {"type": "MultiPolygon", "coordinates": [[[[144.945642930516, -37.80294326623], [144.945536785491, -37.803507146754], [144.945203190031, -37.803469162393], [144.945338707227, -37.802719890425], [144.945678128536, -37.80275761553], [144.945649529874, -37.802918490908], [144.945642930516, -37.80294326623]]]]}}