{"type": "Feature", "properties": {"seg_id": "21014", "street_id": "21014", "name": "Prendergast Lane between Abbotsford Street and Elm Place", "str_type": "Council Minor", "status_id": "3", "seg_part": "1", "poly_area": "178", "gisid": "2840"}, "geometry": {"type": "MultiPolygon", "coordinates": [[[[144.945976046606, -37.803171263602], [144.946009511156, -37.802985843906], [144.945642930516, -37.80294326623], [144.945649529874, -37.802918490908], [144.94605527611, -37.80296353602], [144.946013937926, -37.803174474847], [144.945976046606, -37.803171263602]]]]}}