{"type": "Feature", "properties": {"seg_id": "21019", "street_id": "21019", "name": "Victoria Street between Abbotsford Street and Lothian Street", "str_type": "Arterial", "status_id": "1", "seg_part": "1", "poly_area": "1804", "gisid": "2845"}, "geometry": {"type": "MultiPolygon", "coordinates": [[[[144.944277172494, -37.804745397323], [144.944330042242, -37.804478075784], [144.944989141338, -37.804555879158], [144.945006268736, -37.804557901097], [144.944963094106, -37.804821417981], [144.944277172494, -37.804745397323]]]]}}