{"type": "Feature", "properties": {"seg_id": "21049", "street_id": "21049", "name": "Arden Street between Dryburgh Street and Munster Terrace", "str_type": "Council Major", "status_id": "2", "seg_part": "1", "poly_area": "810", "gisid": "2876"}, "geometry": {"type": "MultiPolygon", "coordinates": [[[[144.943593300261, -37.800138729437], [144.943732946304, -37.800154152947], [144.943755516431, -37.800431402416], [144.943391581516, -37.800389758032], [144.943492246203, -37.800127567288], [144.943593300261, -37.800138729437]]]]}}