{"type": "Feature", "properties": {"seg_id": "21042", "street_id": "21042", "name": "Queensberry Street between Munster Terrace and Laurens Street", "str_type": "Council Major", "status_id": "2", "seg_part": "1", "poly_area": "1728", "gisid": "2868"}, "geometry": {"type": "MultiPolygon", "coordinates": [[[[144.94226338266, -37.802380520508], [144.941708305138, -37.802322848398], [144.941766496929, -37.802040691269], [144.941771923428, -37.802010545403], [144.941810444817, -37.802045689507], [144.942445216781, -37.802117877408], [144.94226338266, -37.802380520508]]]]}}