{"type": "Feature", "properties": {"seg_id": "21057", "street_id": "21057", "name": "Little Dryburgh Street North from Lothian Street", "str_type": "Council Minor", "status_id": "3", "seg_part": "1", "poly_area": "2084", "gisid": "2883"}, "geometry": {"type": "MultiPolygon", "coordinates": [[[[144.944530181447, -37.802075728619], [144.944335280691, -37.802053824485], [144.944300328751, -37.802049898019], [144.944077542552, -37.802024858114], [144.944093113333, -37.801939274135], [144.944144114102, -37.801944814582], [144.944337433191, -37.800861160695], [144.944286068343, -37.800852802318], [144.944296041522, -37.8007917596], [144.944064655254, -37.800766496587], [144.944067065757, -37.800753291399], [144.944298901724, -37.800777489859], [144.944300136288, -37.800770238928], [144.94475306827, -37.800813504091], [144.94473603282, -37.800905542971], [144.944455466702, -37.800874775022], [144.944257980638, -37.801952300483], [144.944547191121, -37.801982510604], [144.944530181447, -37.802075728619]]]]}}