{"type": "Feature", "properties": {"seg_id": "21053", "street_id": "21053", "name": "Arden Street between Lothian Street and Dryburgh Street", "str_type": "Council Major", "status_id": "2", "seg_part": "1", "poly_area": "1889", "gisid": "2880"}, "geometry": {"type": "MultiPolygon", "coordinates": [[[[144.944118622399, -37.80047014925], [144.944177045426, -37.800103235645], [144.944294930628, -37.800215508177], [144.944841243223, -37.800275006571], [144.944798896557, -37.800545295945], [144.944118622399, -37.80047014925]]]]}}