{"type": "Feature", "properties": {"seg_id": "21052", "street_id": "21052", "name": "Arden Street between Munster Terrace and Laurens Street", "str_type": "Council Major", "status_id": "2", "seg_part": "1", "poly_area": "2821", "gisid": "2879"}, "geometry": {"type": "MultiPolygon", "coordinates": [[[[144.942116595714, -37.8002481167], [144.942089718233, -37.800245146253], [144.942137813595, -37.799977958423], [144.943222971531, -37.800097824505], [144.943122320301, -37.800359251949], [144.94311225451, -37.800358139814], [144.942116595714, -37.8002481167]]]]}}