{"type": "Feature", "properties": {"seg_id": "21063", "street_id": "21063", "name": "Baillie Street between Curzon Street and Abbotsford Street", "str_type": "Council Major", "status_id": "2", "seg_part": "1", "poly_area": "4013", "gisid": "2889"}, "geometry": {"type": "MultiPolygon", "coordinates": [[[[144.947769719949, -37.801427019268], [144.947884358454, -37.801436966304], [144.948217793232, -37.80147674794], [144.948183184381, -37.80165724875], [144.947993532451, -37.801634091268], [144.947961125619, -37.801630373352], [144.947865604521, -37.801619414082], [144.947835262754, -37.80161593308], [144.947385693236, -37.801564354688], [144.947355438705, -37.801560883195], [144.946974340216, -37.801517159104], [144.946934037721, -37.801512499406], [144.94592075038, -37.801399418997], [144.945953058252, -37.801223496395], [144.946296253294, -37.801260303192], [144.94640983557, -37.801272692547], [144.947769719949, -37.801427019268]]]]}}