{"type": "Feature", "properties": {"seg_id": "21073", "street_id": "21073", "name": "Curzon Street between Baillie Street and Provost Street", "str_type": "Arterial", "status_id": "1", "seg_part": "1", "poly_area": "1224", "gisid": "2899"}, "geometry": {"type": "MultiPolygon", "coordinates": [[[[144.948183184381, -37.80165724875], [144.948525006107, -37.801694712746], [144.948489665932, -37.801897724886], [144.948474538999, -37.801985471049], [144.948462517125, -37.802054133942], [144.948120496008, -37.802016429264], [144.948183184381, -37.80165724875]]]]}}