{"type": "Feature", "properties": {"seg_id": "21080", "street_id": "21080", "name": "Cl0306 from Queensberry Place", "str_type": "Council Minor", "status_id": "3", "seg_part": "1", "poly_area": "98", "gisid": "2693"}, "geometry": {"type": "MultiPolygon", "coordinates": [[[[144.948690986626, -37.802618490062], [144.94869339615, -37.802593389242], [144.948910471351, -37.802614789262], [144.948926125813, -37.802517815187], [144.948961581626, -37.802521199342], [144.948940199494, -37.802644982758], [144.948690986626, -37.802618490062]]]]}}