{"type": "Feature", "properties": {"seg_id": "21095", "street_id": "21095", "name": "Bendigo Street between Leveson Street and Errol Street", "str_type": "Council Minor", "status_id": "3", "seg_part": "1", "poly_area": "1028", "gisid": "2708"}, "geometry": {"type": "MultiPolygon", "coordinates": [[[[144.950299887805, -37.802115885937], [144.951104230439, -37.802202871413], [144.951088829275, -37.802295758886], [144.95079821395, -37.802263010759], [144.950763948003, -37.802259149514], [144.95028259851, -37.802206783976], [144.950247847744, -37.802203083564], [144.949960107531, -37.802172439902], [144.949974914682, -37.802080588515], [144.950264211186, -37.80211268759], [144.950299887805, -37.802115885937]]]]}}