{"type": "Feature", "properties": {"seg_id": "21092", "street_id": "21092", "name": "Haddows Lane from Lancashire Lane", "str_type": "Council Minor", "status_id": "3", "seg_part": "1", "poly_area": "81", "gisid": "2705"}, "geometry": {"type": "MultiPolygon", "coordinates": [[[[144.950171896056, -37.802730072988], [144.950425513458, -37.802758201855], [144.950419470708, -37.802789934314], [144.950367949546, -37.802784895782], [144.950332695167, -37.802781448868], [144.950167222508, -37.802761903163], [144.950171896056, -37.802730072988]]]]}}