{"type": "Feature", "properties": {"seg_id": "21098", "street_id": "21098", "name": "Chetwynd Street between Queensberry Street and Courtney Street", "str_type": "Council Major", "status_id": "2", "seg_part": "1", "poly_area": "6062", "gisid": "2711"}, "geometry": {"type": "MultiPolygon", "coordinates": [[[[144.952432919608, -37.803228339788], [144.952489178961, -37.802921438489], [144.952498319065, -37.802869108423], [144.952556038442, -37.802538640572], [144.952560547151, -37.802512823673], [144.952653933041, -37.801990050306], [144.952666300284, -37.801931771787], [144.952754037244, -37.801415549846], [144.953089219982, -37.801492947862], [144.953064773774, -37.801630398375], [144.953058612154, -37.801665041524], [144.952775543413, -37.803256518861], [144.952432919608, -37.803228339788]]]]}}