{"type": "Feature", "properties": {"seg_id": "21090", "street_id": "21090", "name": "Cooks Lane from Bendigo Street", "str_type": "Council Minor", "status_id": "3", "seg_part": "1", "poly_area": "93", "gisid": "2703"}, "geometry": {"type": "MultiPolygon", "coordinates": [[[[144.95079821395, -37.802263010759], [144.950778723858, -37.802373230536], [144.950771453384, -37.802424280882], [144.950735504156, -37.802420091146], [144.950735554714, -37.802419823475], [144.950596022119, -37.802404644497], [144.950600878397, -37.80237745403], [144.950740345249, -37.802392626451], [144.950763948003, -37.802259149514], [144.95079821395, -37.802263010759]]]]}}