{"type": "Feature", "properties": {"seg_id": "21115", "street_id": "21115", "name": "Elizabeth Street between Queensberry Street and Pelham Street", "str_type": "Arterial", "status_id": "1", "seg_part": "1", "poly_area": "14758", "gisid": "1837"}, "geometry": {"type": "MultiPolygon", "coordinates": [[[[144.958019005439, -37.803854260944], [144.957130586021, -37.801912132143], [144.957762092503, -37.801712219275], [144.957894347305, -37.802004292493], [144.958516835137, -37.803355212828], [144.958522873296, -37.803366501108], [144.958785184431, -37.803936972767], [144.958019005439, -37.803854260944]]]]}}