{"type": "Feature", "properties": {"seg_id": "21119", "street_id": "21119", "name": "McInerney Lane from Capel Street", "str_type": "Council Minor", "status_id": "3", "seg_part": "1", "poly_area": "103", "gisid": "2728"}, "geometry": {"type": "MultiPolygon", "coordinates": [[[[144.955882767939, -37.80266842112], [144.956060149018, -37.8026879411], [144.956079710328, -37.802676201254], [144.956085985916, -37.802640301873], [144.956118150938, -37.802643842139], [144.956092083647, -37.802789236087], [144.956057778424, -37.802785461309], [144.956059944565, -37.80277338259], [144.956067588242, -37.802730746331], [144.95605254153, -37.802714846151], [144.955877580182, -37.802695592555], [144.955882767939, -37.80266842112]]]]}}