{"type": "Feature", "properties": {"seg_id": "21122", "street_id": "21122", "name": "Blackwood Street between Flemington Road and Courtney Street", "str_type": "Council Major", "status_id": "2", "seg_part": "1", "poly_area": "6169", "gisid": "2731"}, "geometry": {"type": "MultiPolygon", "coordinates": [[[[144.955970062007, -37.800787234483], [144.954530755457, -37.801922776204], [144.954506693149, -37.801941759668], [144.954334861776, -37.802077322569], [144.954096216935, -37.801884141491], [144.954722017386, -37.801389397254], [144.954767023623, -37.801348228256], [144.955044698638, -37.801130545532], [144.955096304956, -37.801088448353], [144.955726653869, -37.800589346455], [144.955970062007, -37.800787234483]]]]}}