{"type": "Feature", "properties": {"seg_id": "21132", "street_id": "21132", "name": "Courtney Street between Wreckyn Street and Villiers Street", "str_type": "Council Major", "status_id": "2", "seg_part": "1", "poly_area": "2747", "gisid": "2741"}, "geometry": {"type": "MultiPolygon", "coordinates": [[[[144.951967279107, -37.800582929471], [144.952217573585, -37.800389293769], [144.952811519677, -37.800859403318], [144.952861713326, -37.800897918014], [144.953034632538, -37.801035464078], [144.952574109438, -37.801068732066], [144.95225237143, -37.800807247952], [144.952210705131, -37.800776510642], [144.951967279107, -37.800582929471]]]]}}