{"type": "Feature", "properties": {"seg_id": "21147", "street_id": "21147", "name": "Molesworth Street between Haines Street and Harker Street", "str_type": "Council Major", "status_id": "2", "seg_part": "1", "poly_area": "588", "gisid": "2756"}, "geometry": {"type": "MultiPolygon", "coordinates": [[[[144.949144786708, -37.798497336918], [144.949230289481, -37.798373195679], [144.949240071584, -37.798365669984], [144.949239810837, -37.798380928661], [144.949632517806, -37.798699898914], [144.949366623438, -37.798676141691], [144.949144786708, -37.798497336918]]]]}}