{"type": "Feature", "properties": {"seg_id": "21154", "street_id": "21154", "name": "O'Shanassy Street between Curzon Street and Abbotsford Street", "str_type": "Council Major", "status_id": "2", "seg_part": "1", "poly_area": "6024", "gisid": "2900"}, "geometry": {"type": "MultiPolygon", "coordinates": [[[[144.946174721271, -37.799960385833], [144.946221000693, -37.799693926873], [144.948493450521, -37.799947426138], [144.948436980284, -37.800213061494], [144.946174721271, -37.799960385833]]]]}}