{"type": "Feature", "properties": {"seg_id": "21150", "street_id": "21150", "name": "O'Shanassy Street between Errol Street and Curzon Street", "str_type": "Council Major", "status_id": "2", "seg_part": "1", "poly_area": "3074", "gisid": "2759"}, "geometry": {"type": "MultiPolygon", "coordinates": [[[[144.948834164426, -37.799981961762], [144.94944964356, -37.800048086593], [144.949493351525, -37.800052785796], [144.949724936379, -37.800077843327], [144.949976605178, -37.800104764907], [144.94992504873, -37.800375616967], [144.949719297543, -37.800353181431], [144.949678243966, -37.800348715069], [144.94901478668, -37.800276387504], [144.948785245978, -37.800251364177], [144.948834164426, -37.799981961762]]]]}}