{"type": "Feature", "properties": {"seg_id": "21162", "street_id": "21162", "name": "Dryburgh Street between O'Shanassy Street and Haines Street", "str_type": "Council Major", "status_id": "2", "seg_part": "1", "poly_area": "1368", "gisid": "2907"}, "geometry": {"type": "MultiPolygon", "coordinates": [[[[144.944377254908, -37.798989480712], [144.94428881567, -37.79948347062], [144.944160504533, -37.799468890902], [144.944340035966, -37.798466095307], [144.9443350784, -37.798435625643], [144.944485399319, -37.798385417228], [144.944396242796, -37.798883422111], [144.944377254908, -37.798989480712]]]]}}