{"type": "Feature", "properties": {"seg_id": "21163", "street_id": "21163", "name": "MacAulay Road between Dryburgh Street and Haines Street", "str_type": "Arterial", "status_id": "1", "seg_part": "1", "poly_area": "3756", "gisid": "2908"}, "geometry": {"type": "MultiPolygon", "coordinates": [[[[144.943593300261, -37.800138729437], [144.943604341321, -37.800136031936], [144.943614930994, -37.800132365281], [144.943625094423, -37.800128012341], [144.943634761732, -37.800123003045], [144.943643866455, -37.800117371833], [144.943652345994, -37.800111157421], [144.943659713371, -37.800104115211], [144.943672194854, -37.800064521954], [144.94364948205, -37.80000617835], [144.943620169576, -37.799949717754], [144.943584500897, -37.799895609091], [144.94300540121, -37.79936677884], [144.943266291934, -37.799190442753], [144.944089446691, -37.799942027151], [144.944189472613, -37.80003335469], [144.943732946304, -37.800154152947], [144.943593300261, -37.800138729437]]]]}}