{"type": "Feature", "properties": {"seg_id": "21167", "street_id": "21167", "name": "Abbotsford Street between O'Shanassy Street and Haines Street", "str_type": "Council Major", "status_id": "2", "seg_part": "1", "poly_area": "3712", "gisid": "2912"}, "geometry": {"type": "MultiPolygon", "coordinates": [[[[144.946221000693, -37.799693926873], [144.945879747874, -37.799656803254], [144.945967684782, -37.799158271268], [144.94598639756, -37.799052183257], [144.94607222834, -37.79856558381], [144.946414327216, -37.798604910528], [144.946299890028, -37.799248717985], [144.946221000693, -37.799693926873]]]]}}