{"type": "Feature", "properties": {"seg_id": "21175", "street_id": "21175", "name": "Cl0255 from Falshaws Lane", "str_type": "Council Minor", "status_id": "3", "seg_part": "1", "poly_area": "103", "gisid": "2764"}, "geometry": {"type": "MultiPolygon", "coordinates": [[[[144.949577693878, -37.799570646449], [144.949749069844, -37.799589771201], [144.949759054963, -37.799526195858], [144.949794927604, -37.799530104279], [144.949785073688, -37.799594028862], [144.949772312733, -37.799682581535], [144.949733658561, -37.799679045528], [144.949744556855, -37.799616947793], [144.949573068941, -37.79959858348], [144.949577693878, -37.799570646449]]]]}}