{"type": "Feature", "properties": {"seg_id": "21186", "street_id": "21186", "name": "Cl1646 from Mary Street", "str_type": "Council Minor", "status_id": "3", "seg_part": "1", "poly_area": "122", "gisid": "2775"}, "geometry": {"type": "MultiPolygon", "coordinates": [[[[144.952040123011, -37.799161274242], [144.952013782851, -37.799139999899], [144.952150461844, -37.799031754672], [144.952197868426, -37.799067829456], [144.95233553344, -37.799177645276], [144.952309291361, -37.799198998344], [144.952151461961, -37.799073097306], [144.952040123011, -37.799161274242]]]]}}