{"type": "Feature", "properties": {"seg_id": "21183", "street_id": "21183", "name": "Courtney Place between Courtney Street and Mary Street", "str_type": "Council Minor", "status_id": "3", "seg_part": "1", "poly_area": "529", "gisid": "2772"}, "geometry": {"type": "MultiPolygon", "coordinates": [[[[144.951828573991, -37.799286206473], [144.951962280321, -37.79918350878], [144.951988338932, -37.799203463422], [144.95186905668, -37.799295988103], [144.952103454204, -37.799480225866], [144.951592136077, -37.799889363303], [144.951543041697, -37.799849749738], [144.951692723536, -37.799731630878], [144.952025278517, -37.799458995426], [144.95186120855, -37.799330824455], [144.951816886266, -37.799295418685], [144.951828573991, -37.799286206473]]]]}}