{"type": "Feature", "properties": {"seg_id": "21190", "street_id": "21190", "name": "Murphy Street between Flemington Road and Errol Street", "str_type": "Council Major", "status_id": "2", "seg_part": "1", "poly_area": "2857", "gisid": "2778"}, "geometry": {"type": "MultiPolygon", "coordinates": [[[[144.950930628684, -37.798056910416], [144.951152104053, -37.797884168417], [144.951176850568, -37.797864448648], [144.951399100465, -37.797692035053], [144.951423993032, -37.797672655712], [144.9517507118, -37.797418288915], [144.951909368847, -37.797548574671], [144.950594810884, -37.798576013631], [144.950629566429, -37.798371807255], [144.950873400513, -37.7981820631], [144.950873894531, -37.798181680917], [144.950874319657, -37.798181248941], [144.95087469543, -37.798180788888], [144.95087501899, -37.79818030426], [144.950875287873, -37.798179798746], [144.950875500032, -37.798179276195], [144.950875653854, -37.798178740583], [144.950875748166, -37.798178195988], [144.950875782252, -37.798177646554], [144.950875755851, -37.798177096465], [144.950875669165, -37.798176549907], [144.950875522853, -37.798176011042], [144.950875318029, -37.798175483969], [144.950875056252, -37.798174972703], [144.950874739515, -37.798174481133], [144.950874370229, -37.798174013003], [144.950873951205, -37.798173571875], [144.950873508457, -37.798173143333], [144.950828384736, -37.79813665626], [144.950930628684, -37.798056910416]]]]}}