{"type": "Feature", "properties": {"seg_id": "21199", "street_id": "21199", "name": "Cl0313 from Murphy Street", "str_type": "Council Minor", "status_id": "3", "seg_part": "1", "poly_area": "174", "gisid": "2784"}, "geometry": {"type": "MultiPolygon", "coordinates": [[[[144.951399100465, -37.797692035053], [144.951231665495, -37.797575753389], [144.951122300408, -37.797562576981], [144.951167393373, -37.79732441278], [144.951201137969, -37.797328811828], [144.951170303749, -37.797512512794], [144.951195438081, -37.79754365405], [144.951252719001, -37.797551580625], [144.951423993032, -37.797672655712], [144.951399100465, -37.797692035053]]]]}}