{"type": "Feature", "properties": {"seg_id": "21201", "street_id": "21201", "name": "Harker Street between Chapman Street and Flemington Road", "str_type": "Arterial", "status_id": "1", "seg_part": "1", "poly_area": "3027", "gisid": "2786"}, "geometry": {"type": "MultiPolygon", "coordinates": [[[[144.950532942182, -37.796963577905], [144.950859092264, -37.796706767781], [144.951094430416, -37.796894891718], [144.95085330737, -37.797088343274], [144.950454212784, -37.797407481679], [144.950283591209, -37.797543040919], [144.950041094914, -37.797350850831], [144.950532942182, -37.796963577905]]]]}}