{"type": "Feature", "properties": {"seg_id": "21210", "street_id": "21210", "name": "Wood Street between Abbotsford Street and Dryburgh Street", "str_type": "Council Major", "status_id": "2", "seg_part": "1", "poly_area": "2820", "gisid": "2916"}, "geometry": {"type": "MultiPolygon", "coordinates": [[[[144.946077519352, -37.797379170268], [144.946281104043, -37.797401988834], [144.946248311819, -37.797582545163], [144.944662696932, -37.79739836149], [144.944692620984, -37.797220747487], [144.9450049583, -37.797257316685], [144.945039638727, -37.79726026491], [144.945567115618, -37.797322502239], [144.945602732103, -37.797327369912], [144.945822096732, -37.79735121703], [144.945830033976, -37.797352080025], [144.946041053894, -37.797375019686], [144.946077519352, -37.797379170268]]]]}}