{"type": "Feature", "properties": {"seg_id": "21217", "street_id": "21217", "name": "Donovans Lane from Wood Street", "str_type": "Council Minor", "status_id": "3", "seg_part": "1", "poly_area": "496", "gisid": "2923"}, "geometry": {"type": "MultiPolygon", "coordinates": [[[[144.945039638727, -37.79726026491], [144.9450049583, -37.797257316685], [144.945061037416, -37.796923398582], [144.945131115356, -37.796932094835], [144.945153569442, -37.796920844344], [144.945164886855, -37.79685738908], [144.945152737847, -37.796844954451], [144.945115796312, -37.796840700656], [144.94511534684, -37.796840650458], [144.945116954254, -37.796839979193], [144.945149141643, -37.796844404166], [144.945152764117, -37.796817326668], [144.94512488639, -37.796814180865], [144.945073714237, -37.796807367231], [144.945191877061, -37.796821170455], [144.945207245761, -37.796822988635], [144.945186103867, -37.796935492892], [144.945434555298, -37.796964300944], [144.945433540031, -37.79697028416], [144.945659741389, -37.796996511895], [144.945886545194, -37.797022808281], [144.945881672564, -37.79705119864], [144.945654849451, -37.797024899203], [144.945602732103, -37.797327369912], [144.945567115618, -37.797322502239], [144.945621082864, -37.797020983919], [144.945428959349, -37.796997271955], [144.945377403195, -37.796990908648], [144.945359002685, -37.796985588795], [144.945109447489, -37.796956652282], [144.94508985944, -37.796968736797], [144.945039638727, -37.79726026491]]]]}}