{"type": "Feature", "properties": {"seg_id": "21211", "street_id": "21211", "name": "Canning Street between Abbotsford Street and Dryburgh Street", "str_type": "Council Major", "status_id": "2", "seg_part": "1", "poly_area": "2087", "gisid": "2917"}, "geometry": {"type": "MultiPolygon", "coordinates": [[[[144.944909971154, -37.796008171624], [144.945223433328, -37.796043435091], [144.945270057596, -37.796049394294], [144.945588696913, -37.796085134625], [144.945816297942, -37.79611243722], [144.946128070407, -37.796148506905], [144.94618258838, -37.796152350477], [144.946500367396, -37.796190524543], [144.946461469829, -37.796402003804], [144.946458602616, -37.796390849583], [144.946454699834, -37.796379897423], [144.946449591817, -37.796369255231], [144.946443318808, -37.796359006848], [144.946435930226, -37.796349233012], [144.946427484278, -37.796340010721], [144.946418047502, -37.79633141263], [144.946407694243, -37.796323506475], [144.946396506063, -37.796316354541], [144.946384571104, -37.796310013173], [144.946372198731, -37.796304180796], [144.944986330166, -37.796148884453], [144.944971585938, -37.796151739413], [144.94495734038, -37.796155893433], [144.944943640458, -37.796161062017], [144.94493059977, -37.796167202305], [144.944918326451, -37.796174263382], [144.94490692227, -37.796182186699], [144.94489648179, -37.796190906555], [144.944887091583, -37.796200350646], [144.944878829513, -37.796210440662], [144.944872225914, -37.796221267306], [144.944909971154, -37.796008171624]]], [[[144.944858278082, -37.796300010146], [144.944861698735, -37.79631144196], [144.94486613499, -37.796322646981], [144.944871796522, -37.796333505518], [144.94487863915, -37.796343932833], [144.944886609474, -37.796353847551], [144.944895645293, -37.796363172297], [144.944905676094, -37.796371834303], [144.944916623595, -37.79637976597], [144.944928049742, -37.79638730982], [144.946328609357, -37.79654538638], [144.946342752533, -37.79654325316], [144.946356525917, -37.796539933941], [144.946369860281, -37.796535648039], [144.946382648825, -37.796530429784], [144.946394789117, -37.79652432097], [144.94640618392, -37.796517370528], [144.946416741965, -37.796509634127], [144.946426378688, -37.796501173732], [144.946435016902, -37.796492057107], [144.94644258742, -37.796482357272], [144.946448596144, -37.796471996238], [144.946409703783, -37.796683439513], [144.946408235216, -37.796691646146], [144.94639779589, -37.796682057631], [144.946197800256, -37.796658845884], [144.946165759514, -37.796655277169], [144.945421396165, -37.796568970717], [144.945258531267, -37.796550088276], [144.945244539325, -37.796548465348], [144.944822927726, -37.796499580393], [144.944858278082, -37.796300010146]]]]}}