{"type": "Feature", "properties": {"seg_id": "21215", "street_id": "21215", "name": "Dryburgh Street between Haines Street and Wood Street", "str_type": "Council Major", "status_id": "2", "seg_part": "1", "poly_area": "2053", "gisid": "2921"}, "geometry": {"type": "MultiPolygon", "coordinates": [[[[144.944286093238, -37.797572509761], [144.944293971259, -37.797529218736], [144.944324888361, -37.797359119055], [144.944662696932, -37.79739836149], [144.944535089088, -37.798111599078], [144.944233685516, -37.797860902847], [144.944286093238, -37.797572509761]]]]}}