{"type": "Feature", "properties": {"seg_id": "21228", "street_id": "21228", "name": "Dryburgh Street between Canning Street and Erskine Street", "str_type": "Council Major", "status_id": "2", "seg_part": "1", "poly_area": "3338", "gisid": "2934"}, "geometry": {"type": "MultiPolygon", "coordinates": [[[[144.944678134622, -37.795377158836], [144.944680138395, -37.795366283272], [144.944750994733, -37.794981781485], [144.945086314865, -37.795020734046], [144.944909971154, -37.796008171624], [144.944568377768, -37.795972744368], [144.944678134622, -37.795377158836]]]]}}