{"type": "Feature", "properties": {"seg_id": "21233", "street_id": "21233", "name": "Erskine Street between Abbotsford Street and Dryburgh Street", "str_type": "Council Major", "status_id": "2", "seg_part": "1", "poly_area": "4287", "gisid": "2939"}, "geometry": {"type": "MultiPolygon", "coordinates": [[[[144.945813752666, -37.794828782201], [144.946484488858, -37.794902369855], [144.946519847225, -37.794906266678], [144.946728930328, -37.794927548244], [144.946678499867, -37.795199303579], [144.946362348039, -37.795162393023], [144.946312794426, -37.795159339031], [144.945994575237, -37.795122869062], [144.945764871336, -37.795097792114], [144.945448530898, -37.795061984268], [144.945402381992, -37.795055736047], [144.945086314865, -37.795020734046], [144.945129247947, -37.794750489676], [144.945779513391, -37.794824665876], [144.945813752666, -37.794828782201]]]]}}