{"type": "Feature", "properties": {"seg_id": "21235", "street_id": "21235", "name": "Abbotsford Street between Erskine Street and Brougham Street", "str_type": "Council Major", "status_id": "2", "seg_part": "1", "poly_area": "2951", "gisid": "2941"}, "geometry": {"type": "MultiPolygon", "coordinates": [[[[144.94688772507, -37.794032851583], [144.947218556676, -37.794072040601], [144.947167657919, -37.794355142866], [144.947163157369, -37.794382343021], [144.9470592108, -37.7949668489], [144.946728930328, -37.794927548244], [144.94688772507, -37.794032851583]]]]}}