{"type": "Feature", "properties": {"seg_id": "21231", "street_id": "21231", "name": "Carrolls Lane between Canning Street and Erskine Street", "str_type": "Council Minor", "status_id": "3", "seg_part": "1", "poly_area": "510", "gisid": "2937"}, "geometry": {"type": "MultiPolygon", "coordinates": [[[[144.946282092454, -37.795322286868], [144.946312794426, -37.795159339031], [144.946362348039, -37.795162393023], [144.946332466761, -37.79532699893], [144.946329863729, -37.795341314678], [144.94618258838, -37.796152350477], [144.946128070407, -37.796148506905], [144.946279484488, -37.795337723591], [144.946282092454, -37.795322286868]]]]}}