{"type": "Feature", "properties": {"seg_id": "21247", "street_id": "21247", "name": "Curran Street between Dryburgh Street and Melrose Street", "str_type": "Council Major", "status_id": "2", "seg_part": "1", "poly_area": "7160", "gisid": "2953"}, "geometry": {"type": "MultiPolygon", "coordinates": [[[[144.943349017945, -37.79244125212], [144.942439695705, -37.792341016938], [144.942485606238, -37.792068103988], [144.944477088909, -37.792291787738], [144.94453630967, -37.792297156004], [144.944987475038, -37.792346132982], [144.945034681491, -37.792350956117], [144.945066359338, -37.792354601696], [144.945162628346, -37.792640072631], [144.944748899179, -37.792596859296], [144.944709077249, -37.792592208175], [144.944031420467, -37.792517891439], [144.94399779162, -37.792512771441], [144.943379653725, -37.792444634835], [144.943349017945, -37.79244125212]]]]}}