{"type": "Feature", "properties": {"seg_id": "21253", "street_id": "21253", "name": "Dryburgh Street between Brougham Street and Curran Street", "str_type": "Council Major", "status_id": "2", "seg_part": "1", "poly_area": "2993", "gisid": "2959"}, "geometry": {"type": "MultiPolygon", "coordinates": [[[[144.945410758844, -37.793175863188], [144.945341147594, -37.793583381666], [144.945001884939, -37.793544316044], [144.945162628346, -37.792640072631], [144.945492747921, -37.792704869038], [144.945415592263, -37.793147571276], [144.945410758844, -37.793175863188]]]]}}