{"type": "Feature", "properties": {"seg_id": "21252", "street_id": "21252", "name": "De Gruchys Lane from Dryburgh Street", "str_type": "Council Minor", "status_id": "3", "seg_part": "1", "poly_area": "63", "gisid": "2958"}, "geometry": {"type": "MultiPolygon", "coordinates": [[[[144.945415592263, -37.793147571276], [144.945600995346, -37.793168376786], [144.945643425362, -37.79317313889], [144.945639923833, -37.793200743918], [144.945410758844, -37.793175863188], [144.945415592263, -37.793147571276]]]]}}