{"type": "Feature", "properties": {"seg_id": "21257", "street_id": "21257", "name": "Flemington Road between Gatehouse Street and Abbotsford Street", "str_type": "Arterial", "status_id": "1", "seg_part": "1", "poly_area": "24482", "gisid": "2793"}, "geometry": {"type": "MultiPolygon", "coordinates": [[[[144.95028165486, -37.796246304578], [144.950257692551, -37.796227476477], [144.949887890607, -37.795930929103], [144.949591027044, -37.795692868919], [144.949565937879, -37.795672831507], [144.947379641093, -37.793929533626], [144.947857216682, -37.793552420617], [144.949135025537, -37.794570133806], [144.951211707212, -37.796223542331], [144.95061416297, -37.796510975081], [144.95028165486, -37.796246304578]]]]}}