{"type": "Feature", "properties": {"seg_id": "21261", "street_id": "21261", "name": "Eastwood Street between Hardiman Street and MacAulay Road", "str_type": "Council Major", "status_id": "2", "seg_part": "1", "poly_area": "1645", "gisid": "2211"}, "geometry": {"type": "MultiPolygon", "coordinates": [[[[144.931480319185, -37.795363810293], [144.9312309504, -37.795335765124], [144.930987890463, -37.794633827917], [144.931236142955, -37.794660847355], [144.931354446603, -37.794996938401], [144.931363520919, -37.795028674931], [144.931480319185, -37.795363810293]]]]}}