{"type": "Feature", "properties": {"seg_id": "21267", "street_id": "21267", "name": "Albermarle Street between Hardiman Street and MacAulay Road", "str_type": "Council Major", "status_id": "2", "seg_part": "1", "poly_area": "1464", "gisid": "2217"}, "geometry": {"type": "MultiPolygon", "coordinates": [[[[144.933304645502, -37.795250118178], [144.93331143369, -37.79521518163], [144.933368658423, -37.794903098118], [144.933590522259, -37.794931476201], [144.933532342215, -37.79524567885], [144.933528203139, -37.795278472043], [144.933469963004, -37.795589104033], [144.933247354398, -37.795562523993], [144.933304645502, -37.795250118178]]]]}}