{"type": "Feature", "properties": {"seg_id": "21278", "street_id": "21278", "name": "Albermarle Street between Chelmsford Street and Hardiman Street", "str_type": "Council Major", "status_id": "2", "seg_part": "1", "poly_area": "1479", "gisid": "2228"}, "geometry": {"type": "MultiPolygon", "coordinates": [[[[144.933156425311, -37.796090036308], [144.933161422593, -37.796057182497], [144.933213118535, -37.795742068761], [144.933438653437, -37.795770430477], [144.933385249473, -37.796086392092], [144.933380126529, -37.79611373393], [144.933323627101, -37.796431129012], [144.93309970267, -37.796403182826], [144.933156425311, -37.796090036308]]]]}}