{"type": "Feature", "properties": {"seg_id": "21277", "street_id": "21277", "name": "Little Chelmsford Street between Eastwood Street and Albermarle Street", "str_type": "Council Minor", "status_id": "3", "seg_part": "1", "poly_area": "508", "gisid": "2227"}, "geometry": {"type": "MultiPolygon", "coordinates": [[[[144.933156425311, -37.796090036308], [144.932824701273, -37.796052807993], [144.932811695949, -37.796050434911], [144.931684043695, -37.79592688407], [144.931674978478, -37.795935529325], [144.931657137514, -37.795886660735], [144.932839570721, -37.796020127486], [144.932892514553, -37.796028342801], [144.933127379787, -37.796053929264], [144.933161422593, -37.796057182497], [144.933156425311, -37.796090036308]]]]}}