{"type": "Feature", "properties": {"seg_id": "21289", "street_id": "21289", "name": "Reynolds Street between Gracie Street and Langford Street", "str_type": "Council Major", "status_id": "2", "seg_part": "1", "poly_area": "1157", "gisid": "2965"}, "geometry": {"type": "MultiPolygon", "coordinates": [[[[144.937801583825, -37.797209791325], [144.937752012254, -37.797204858057], [144.936981608848, -37.797119070485], [144.936970400683, -37.79703314992], [144.93840201281, -37.797188962091], [144.938287343356, -37.797265374831], [144.937801583825, -37.797209791325]]]]}}