{"type": "Feature", "properties": {"seg_id": "21285", "street_id": "21285", "name": "Chelmsford Street between Eastwood Street and Elizabeth Street", "str_type": "Council Major", "status_id": "2", "seg_part": "1", "poly_area": "1591", "gisid": "2235"}, "geometry": {"type": "MultiPolygon", "coordinates": [[[[144.932406418914, -37.796325158732], [144.932476591383, -37.796520439596], [144.9316072135, -37.796422358093], [144.931554506607, -37.796270149607], [144.931539605467, -37.796227118173], [144.931786129077, -37.796255001909], [144.932406418914, -37.796325158732]]]]}}