{"type": "Feature", "properties": {"seg_id": "21283", "street_id": "21283", "name": "Cl0177 from Barrett Street", "str_type": "Council Minor", "status_id": "3", "seg_part": "1", "poly_area": "435", "gisid": "2233"}, "geometry": {"type": "MultiPolygon", "coordinates": [[[[144.932788927018, -37.796883399421], [144.934122568658, -37.797037660902], [144.934133671497, -37.797072497703], [144.933386458509, -37.796985829113], [144.932799360582, -37.796917737059], [144.932788927018, -37.796883399421]]]]}}