{"type": "Feature", "properties": {"seg_id": "21288", "street_id": "21288", "name": "Langford Street between Steel Street and MacAulay Road", "str_type": "Council Major", "status_id": "2", "seg_part": "1", "poly_area": "1021", "gisid": "2964"}, "geometry": {"type": "MultiPolygon", "coordinates": [[[[144.936765999379, -37.795555253799], [144.936768529572, -37.795582847936], [144.936807078993, -37.795866547099], [144.936629399867, -37.795846729048], [144.936545799203, -37.795259765724], [144.936725400529, -37.795272446917], [144.936765999379, -37.795555253799]]]]}}