{"type": "Feature", "properties": {"seg_id": "21295", "street_id": "21295", "name": "Fogarty Street between Green Street and Fogarty Street", "str_type": "Council Major", "status_id": "2", "seg_part": "1", "poly_area": "391", "gisid": "2971"}, "geometry": {"type": "MultiPolygon", "coordinates": [[[[144.940229903558, -37.798534269751], [144.940178032845, -37.798569911422], [144.940168992546, -37.798620567832], [144.939943810591, -37.798595768495], [144.939964924492, -37.798473542042], [144.940077122028, -37.798394993718], [144.940229903558, -37.798534269751]]]]}}