{"type": "Feature", "properties": {"seg_id": "21292", "street_id": "21292", "name": "Cl1740 from Gracie Street", "str_type": "Council Minor", "status_id": "3", "seg_part": "1", "poly_area": "853", "gisid": "2968"}, "geometry": {"type": "MultiPolygon", "coordinates": [[[[144.939444390386, -37.796805633868], [144.940716187727, -37.797961917517], [144.940679538145, -37.797985662427], [144.940339944821, -37.797672574292], [144.939910392281, -37.797965413284], [144.939878615531, -37.797937782502], [144.940312002429, -37.797646608471], [144.939415891131, -37.796831566665], [144.939444390386, -37.796805633868]]]]}}