{"type": "Feature", "properties": {"seg_id": "21306", "street_id": "21306", "name": "Intersection of Langford Street and Green Street", "str_type": "Council Major", "status_id": "2", "seg_part": "1", "poly_area": "443", "gisid": "2979"}, "geometry": {"type": "MultiPolygon", "coordinates": [[[[144.937213275762, -37.798295021215], [144.937269892575, -37.798487263738], [144.937025815826, -37.798461257334], [144.936972346163, -37.798269768243], [144.936974178687, -37.798268683791], [144.937213275762, -37.798295021215]]]]}}