{"type": "Feature", "properties": {"seg_id": "21309", "street_id": "21309", "name": "Gracie Street between Langford Street and Henderson Street", "str_type": "Council Major", "status_id": "2", "seg_part": "1", "poly_area": "3223", "gisid": "2982"}, "geometry": {"type": "MultiPolygon", "coordinates": [[[[144.938287343356, -37.797265374831], [144.93840201281, -37.797188962091], [144.938771816921, -37.797205051782], [144.937173474883, -37.798150766072], [144.937102554533, -37.797966971976], [144.938287343356, -37.797265374831]]]]}}