{"type": "Feature", "properties": {"seg_id": "21339", "street_id": "21339", "name": "Lothian Street between Miller Street and Victoria Street", "str_type": "Council Major", "status_id": "2", "seg_part": "1", "poly_area": "1474", "gisid": "1260"}, "geometry": {"type": "MultiPolygon", "coordinates": [[[[144.944215019707, -37.805093474111], [144.944159801978, -37.805399964668], [144.943933532472, -37.80537889813], [144.943988156152, -37.80507383379], [144.943996205355, -37.805028876859], [144.944050940015, -37.804723188989], [144.944277172494, -37.804745397323], [144.944222805667, -37.805047847501], [144.944215019707, -37.805093474111]]]]}}