{"type": "Feature", "properties": {"seg_id": "21336", "street_id": "21336", "name": "Intersection of Miller Street and Dryburgh Street", "str_type": "Arterial", "status_id": "1", "seg_part": "1", "poly_area": "946", "gisid": "1257"}, "geometry": {"type": "MultiPolygon", "coordinates": [[[[144.94290811718, -37.805266102193], [144.943245315575, -37.805303669429], [144.94320205711, -37.805569880408], [144.943197870199, -37.805592570035], [144.942858744685, -37.805535993861], [144.94290811718, -37.805266102193]]]]}}