{"type": "Feature", "properties": {"seg_id": "21333", "street_id": "21333", "name": "Intersection of Miller Street and Stawell Street", "str_type": "Council Major", "status_id": "2", "seg_part": "1", "poly_area": "132", "gisid": "1255"}, "geometry": {"type": "MultiPolygon", "coordinates": [[[[144.942396632571, -37.805208631384], [144.942622718235, -37.805233666427], [144.942517381348, -37.805288585538], [144.942511897038, -37.805291453698], [144.942505974778, -37.805293725516], [144.942499820684, -37.805295575942], [144.942493481905, -37.805296990798], [144.942487007009, -37.805297959243], [144.942480445603, -37.805298473858], [144.94247384796, -37.805298530701], [144.942467264627, -37.805298129335], [144.942460746044, -37.805297272836], [144.942454298375, -37.805296085017], [144.942430640386, -37.805292002482], [144.942406918837, -37.805288159138], [144.94238313757, -37.805284555606], [144.942396632571, -37.805208631384]]]]}}