{"type": "Feature", "properties": {"seg_id": "21343", "street_id": "21343", "name": "Spencer Street between Abbotsford Street and Dryburgh Street", "str_type": "Arterial", "status_id": "1", "seg_part": "1", "poly_area": "4428", "gisid": "1264"}, "geometry": {"type": "MultiPolygon", "coordinates": [[[[144.944604938613, -37.806204945595], [144.943197870199, -37.805592570035], [144.94320205711, -37.805569880408], [144.943245315575, -37.805303669429], [144.943896386977, -37.80558635052], [144.944109548234, -37.805678898324], [144.944761950719, -37.805964033798], [144.944604938613, -37.806204945595]]]]}}