{"type": "Feature", "properties": {"seg_id": "21350", "street_id": "21350", "name": "King Street between Hawke Street and Victoria Street", "str_type": "Arterial", "status_id": "1", "seg_part": "1", "poly_area": "1332", "gisid": "1271"}, "geometry": {"type": "MultiPolygon", "coordinates": [[[[144.947917987005, -37.805162421926], [144.948338422371, -37.805099959091], [144.948540392424, -37.805225870902], [144.9485801396, -37.805251302349], [144.948619582238, -37.805277030561], [144.948658716819, -37.805303053242], [144.94845187029, -37.805488643321], [144.947917987005, -37.805162421926]]]]}}