{"type": "Feature", "properties": {"seg_id": "21355", "street_id": "21355", "name": "Curzon Street between Hawke Street and Miller Street", "str_type": "Council Major", "status_id": "2", "seg_part": "1", "poly_area": "331", "gisid": "1273"}, "geometry": {"type": "MultiPolygon", "coordinates": [[[[144.947424953681, -37.806036135938], [144.94746036035, -37.806038030064], [144.947429431197, -37.806210629139], [144.947549234101, -37.806224990436], [144.947550027194, -37.806225107349], [144.947550806209, -37.806225273881], [144.947551564143, -37.806225494395], [144.947552295041, -37.80622576716], [144.94755299316, -37.806226090031], [144.947553653014, -37.806226460472], [144.947554269419, -37.806226875572], [144.947554837531, -37.80622733207], [144.947555352886, -37.806227826378], [144.947555811435, -37.806228354612], [144.947556209574, -37.806228912622], [144.947556544176, -37.806229496023], [144.947556812611, -37.806230100232], [144.94755701277, -37.8062307205], [144.947557143081, -37.806231351953], [144.947557202518, -37.806231989631], [144.947557190616, -37.806232628523], [144.947557097794, -37.806233262402], [144.947543320048, -37.806308422645], [144.947543832212, -37.80631191281], [144.947547536567, -37.806318296413], [144.947561338142, -37.806328503963], [144.947513809192, -37.806372740581], [144.947482057823, -37.80635011738], [144.947407371576, -37.80633909007], [144.947379153145, -37.806493976924], [144.947382947098, -37.806494540506], [144.9473400282, -37.806549607521], [144.947375296706, -37.806336724114], [144.94737993747, -37.806310643907], [144.947424953681, -37.806036135938]]]]}}