{"type": "Feature", "properties": {"seg_id": "21368", "street_id": "21368", "name": "Cl1098 from Nicholson Street", "str_type": "Council Minor", "status_id": "3", "seg_part": "1", "poly_area": "457", "gisid": "1757"}, "geometry": {"type": "MultiPolygon", "coordinates": [[[[144.974296916313, -37.796268106164], [144.97462119992, -37.796302534066], [144.974631178649, -37.796231780124], [144.974620419411, -37.796230528088], [144.974714337238, -37.795687836916], [144.974758131043, -37.795691942432], [144.974716112318, -37.795922320212], [144.974741053976, -37.795957994285], [144.975042773759, -37.795988401223], [144.975038553934, -37.796013010181], [144.974735853472, -37.795982912594], [144.974701499429, -37.796009942961], [144.974662381499, -37.796235347417], [144.974670934773, -37.796236326303], [144.97464764486, -37.796370656659], [144.974628233736, -37.796387544372], [144.974629542473, -37.79637975275], [144.974624343036, -37.796374982601], [144.974625931257, -37.796365607005], [144.974608826741, -37.796363781733], [144.974614819005, -37.796328422462], [144.974292420881, -37.796294022468], [144.974296916313, -37.796268106164]]]]}}