{"type": "Feature", "properties": {"seg_id": "21369", "street_id": "21369", "name": "Cl1540 from Station Street", "str_type": "Council Minor", "status_id": "3", "seg_part": "1", "poly_area": "125", "gisid": "1756"}, "geometry": {"type": "MultiPolygon", "coordinates": [[[[144.974127869397, -37.795893877957], [144.974125013953, -37.795915258893], [144.973781145437, -37.795877630535], [144.97377293908, -37.795927257897], [144.973731369239, -37.795922929837], [144.973751434806, -37.795812060481], [144.973757783707, -37.795799156681], [144.973776188813, -37.795801798391], [144.973795673026, -37.795794041026], [144.973784848675, -37.795855234147], [144.974127869397, -37.795893877957]]]]}}