{"type": "Feature", "properties": {"seg_id": "21362", "street_id": "21362", "name": "Dicks Place between Hawke Street and Ireland Street", "str_type": "Council Minor", "status_id": "3", "seg_part": "1", "poly_area": "503", "gisid": "1279"}, "geometry": {"type": "MultiPolygon", "coordinates": [[[[144.946479550329, -37.807329253297], [144.946206889639, -37.807209281094], [144.946194706735, -37.807212393941], [144.946081076137, -37.807382113656], [144.9460514521, -37.807362528088], [144.94577382625, -37.80775810489], [144.945736336992, -37.807741941671], [144.945979607021, -37.807391626447], [144.946122357799, -37.807186061378], [144.946143212563, -37.807195132273], [144.94617687942, -37.807147063274], [144.946513786269, -37.807297208896], [144.946479550329, -37.807329253297]]]]}}