{"type": "Feature", "properties": {"seg_id": "21361", "street_id": "21361", "name": "Spencer Street between Hawke Street and Abbotsford Street", "str_type": "Arterial", "status_id": "1", "seg_part": "1", "poly_area": "5537", "gisid": "1278"}, "geometry": {"type": "MultiPolygon", "coordinates": [[[[144.945210881178, -37.806164650248], [144.945224001923, -37.806170436742], [144.945703019745, -37.806381698334], [144.945730954849, -37.806393396283], [144.946106942018, -37.806558310154], [144.946134849743, -37.806570550037], [144.946435033481, -37.806702213888], [144.946935341042, -37.806921650479], [144.946698090469, -37.807127214351], [144.946690052367, -37.807134628734], [144.946688208084, -37.807122890319], [144.944907462611, -37.806343813982], [144.945078977083, -37.806106475683], [144.945210881178, -37.806164650248]]]]}}