{"type": "Feature", "properties": {"seg_id": "21375", "street_id": "21375", "name": "King Street between Stanley Street and Roden Street", "str_type": "Arterial", "status_id": "1", "seg_part": "1", "poly_area": "3032", "gisid": "1086"}, "geometry": {"type": "MultiPolygon", "coordinates": [[[[144.950806375759, -37.807017292689], [144.950533760383, -37.807178263533], [144.950350869108, -37.806995634681], [144.950263110724, -37.806911117913], [144.950173887943, -37.806826208812], [144.950121481444, -37.806777756846], [144.950069048391, -37.806729281866], [144.950031099568, -37.806694357656], [144.949987904061, -37.806655543641], [144.949793353557, -37.80648680624], [144.950042940687, -37.806309060946], [144.950241505474, -37.806480832682], [144.950434776376, -37.806656244615], [144.950622859212, -37.806835289601], [144.950806375759, -37.807017292689]]]]}}