{"type": "Feature", "properties": {"seg_id": "21388", "street_id": "21388", "name": "Rosslyn Street between Howard Street and King Street", "str_type": "Council Major", "status_id": "2", "seg_part": "1", "poly_area": "4386", "gisid": "1099"}, "geometry": {"type": "MultiPolygon", "coordinates": [[[[144.952139385302, -37.807775982903], [144.952166965661, -37.80776283588], [144.952373709982, -37.807662347208], [144.952408361055, -37.807645205611], [144.95322832576, -37.807251463646], [144.953423706154, -37.807473477459], [144.952102046697, -37.80811412402], [144.951732770718, -37.807966539362], [144.951981909025, -37.807853280194], [144.952139385302, -37.807775982903]]]]}}