{"type": "Feature", "properties": {"seg_id": "21384", "street_id": "21384", "name": "William Street between Rosslyn Street and Victoria Street", "str_type": "Council Major", "status_id": "2", "seg_part": "1", "poly_area": "3691", "gisid": "1095"}, "geometry": {"type": "MultiPolygon", "coordinates": [[[[144.954190858905, -37.806504794412], [144.954204158368, -37.806530102481], [144.954293960945, -37.80672767281], [144.954296225702, -37.806732656004], [144.953994878734, -37.806878858509], [144.953712931863, -37.806268519858], [144.953695103843, -37.806226433355], [144.953612074998, -37.806031008841], [144.953594805872, -37.805990322549], [144.953569557675, -37.805909282512], [144.953549730419, -37.805827298926], [144.953535379253, -37.805744599895], [144.953861461032, -37.80578091174], [144.953954462823, -37.805989420517], [144.953969773142, -37.806021948625], [144.954190858905, -37.806504794412]]]]}}