{"type": "Feature", "properties": {"seg_id": "21382", "street_id": "21382", "name": "Howard Street between Rosslyn Street and William Street", "str_type": "Council Major", "status_id": "2", "seg_part": "1", "poly_area": "2261", "gisid": "1093"}, "geometry": {"type": "MultiPolygon", "coordinates": [[[[144.953310367768, -37.806781336992], [144.953492122594, -37.805739796452], [144.953527852516, -37.805743724718], [144.953484802742, -37.805987121242], [144.953506638454, -37.805990294754], [144.953528636074, -37.80599245722], [144.953550765945, -37.805993238354], [144.953572890417, -37.805992633297], [144.953594805872, -37.805990322549], [144.953612074998, -37.806031008841], [144.953567418577, -37.806030487894], [144.953522922585, -37.806027113604], [144.953478680158, -37.806021739834], [144.95340875597, -37.806417081464], [144.953423934666, -37.806418785347], [144.953424364178, -37.806418796788], [144.953424793015, -37.806418779785], [144.953425218003, -37.806418732915], [144.953425635853, -37.80641865654], [144.953426043328, -37.806418551251], [144.953426437273, -37.806418417864], [144.95342681464, -37.806418257411], [144.953427172506, -37.806418071135], [144.9534275081, -37.806417860478], [144.953427818824, -37.806417627071], [144.953428102272, -37.80641737272], [144.95342835625, -37.806417099396], [144.953428578792, -37.806416809214], [144.953428768174, -37.806416504421], [144.95342892293, -37.806416187377], [144.953429041862, -37.806415860537], [144.953429118836, -37.806415525778], [144.953429617224, -37.806412942659], [144.953429763125, -37.80641231565], [144.953429986198, -37.806411703271], [144.953430274458, -37.806411108661], [144.953430625801, -37.806410536158], [144.953431037664, -37.806409989938], [144.953431507041, -37.806409473988], [144.953432030509, -37.806408992071], [144.953432604247, -37.806408547705], [144.95343322407, -37.806408144131], [144.953433885455, -37.806407784294], [144.953434583576, -37.806407470819], [144.953435313339, -37.806407205994], [144.95343606942, -37.806406991751], [144.953436846303, -37.806406829653], [144.953437638318, -37.806406720884], [144.953438439687, -37.806406666235], [144.953439244563, -37.806406666107], [144.953440047942, -37.806406714782], [144.953448037351, -37.806407578181], [144.953449054932, -37.806407647508], [144.953450075094, -37.8064076542], [144.953451091389, -37.806407590303], [144.953452096084, -37.806407456304], [144.953453081532, -37.806407253222], [144.953454040236, -37.806406982603], [144.9534549649, -37.806406646505], [144.953455848488, -37.806406247486], [144.953456684276, -37.806405788584], [144.953457465905, -37.806405273288], [144.953458187426, -37.806404705522], [144.95345884335, -37.806404089604], [144.953459428684, -37.806403430222], [144.953459938975, -37.806402732394], [144.95346037034, -37.80640200143], [144.953460719497, -37.806401242891], [144.953460965361, -37.806400459186], [144.953467140296, -37.806380931991], [144.953475999947, -37.80636206892], [144.953487042508, -37.806343957497], [144.953500171873, -37.806326755345], [144.953515273778, -37.806310612177], [144.953533008419, -37.806296289924], [144.953544762567, -37.80628526877], [144.953558266555, -37.806275574431], [144.953572767512, -37.80626683118], [144.953588160852, -37.806259102078], [144.953604335552, -37.806252442868], [144.953621386211, -37.80624735186], [144.953695103843, -37.806226433355], [144.953712931863, -37.806268519858], [144.953662209135, -37.806282807006], [144.953644549181, -37.806287282051], [144.953627688599, -37.806293404136], [144.953611634124, -37.806300752954], [144.953596525858, -37.806309264373], [144.953583056124, -37.806319333113], [144.953568162042, -37.806329916753], [144.953555221448, -37.806342033615], [144.953543751966, -37.806355054235], [144.953533851144, -37.806368867874], [144.953525603186, -37.806383357048], [144.953519515499, -37.806398502867], [144.953519094556, -37.80639972838], [144.953518849953, -37.806400985759], [144.953518747197, -37.806402256317], [144.9535187871, -37.806403530013], [144.953518969347, -37.806404796779], [144.953519292498, -37.806406046603], [144.953519753998, -37.806407269607], [144.9535203502, -37.806408456124], [144.953521076391, -37.806409596777], [144.953521926832, -37.806410682549], [144.953522894801, -37.80641170486], [144.953523972648, -37.806412655629], [144.953525151854, -37.806413527341], [144.953526423097, -37.806414313107], [144.953527776332, -37.806415006716], [144.953529200861, -37.806415602686], [144.953530685426, -37.806416096307], [144.953532218294, -37.806416483676], [144.953533787348, -37.806416761733], [144.953535379565, -37.806416934552], [144.953600981967, -37.806423991752], [144.953601733506, -37.806424093028], [144.953602472907, -37.806424240712], [144.953603193982, -37.806424438451], [144.953603891337, -37.806424684767], [144.953604559757, -37.806424977816], [144.953605194241, -37.806425315407], [144.953605790043, -37.806425695015], [144.953606342707, -37.806426113799], [144.953606848099, -37.806426568628], [144.953607302437, -37.806427056099], [144.953607702324, -37.806427572566], [144.953608044769, -37.806428114166], [144.953608327209, -37.806428676846], [144.953608547533, -37.8064292564], [144.953608704092, -37.80642984849], [144.953608795715, -37.806430448689], [144.953608821717, -37.806431052507], [144.953608781902, -37.806431655426], [144.953608664977, -37.806432251169], [144.95354290255, -37.806807767228], [144.953542868347, -37.806808082868], [144.953542872731, -37.806808400021], [144.953542911786, -37.806808715898], [144.953542985216, -37.806809028113], [144.953543092468, -37.80680933431], [144.953543232732, -37.806809632175], [144.953543404948, -37.806809919461], [144.953543607816, -37.806810193997], [144.953543839804, -37.806810453712], [144.953544099161, -37.806810696643], [144.953544383929, -37.806810920957], [144.953544691956, -37.806811124959], [144.953545020918, -37.80681130711], [144.95354536833, -37.806811466034], [144.953545731569, -37.806811600531], [144.953546107893, -37.806811709586], [144.95354649446, -37.806811792374], [144.95354688788, -37.806811851226], [144.953651220971, -37.806824229754], [144.953642754787, -37.806872233336], [144.953538275852, -37.806860650706], [144.953537828065, -37.806860643961], [144.953537381598, -37.806860667957], [144.953536939956, -37.806860723608], [144.953536506688, -37.806860810467], [144.953536085276, -37.806860927836], [144.953535679106, -37.806861074772], [144.95353529144, -37.806861250095], [144.953534925396, -37.806861452395], [144.953534583913, -37.806861680047], [144.953534269736, -37.806861931222], [144.953533985389, -37.806862203902], [144.953533733157, -37.806862495894], [144.953533515068, -37.806862804854], [144.953533332872, -37.806863128298], [144.953533188035, -37.806863463628], [144.953533088763, -37.806863809297], [144.953487329262, -37.807125100184], [144.95322832576, -37.807251463646], [144.953305885278, -37.806807024589], [144.953310367768, -37.806781336992]]]]}}