{"type": "Feature", "properties": {"seg_id": "21381", "street_id": "21381", "name": "Chetwynd Street between Rosslyn Street and Stanley Street", "str_type": "Council Major", "status_id": "2", "seg_part": "1", "poly_area": "2629", "gisid": "1092"}, "geometry": {"type": "MultiPolygon", "coordinates": [[[[144.951938672204, -37.806693378093], [144.952157846939, -37.806717820501], [144.952145181537, -37.80678930856], [144.951963786089, -37.807813216861], [144.951981909025, -37.807853280194], [144.951732770718, -37.807966539362], [144.951734759097, -37.807956116713], [144.951778956196, -37.807590111731], [144.951938672204, -37.806693378093]]]]}}