{"type": "Feature", "properties": {"seg_id": "21399", "street_id": "21399", "name": "Zeplin Place from Capel Street", "str_type": "Council Minor", "status_id": "3", "seg_part": "1", "poly_area": "86", "gisid": "1109"}, "geometry": {"type": "MultiPolygon", "coordinates": [[[[144.954812174755, -37.80681180717], [144.954808619269, -37.806834049515], [144.954608890577, -37.806811925187], [144.954591925702, -37.806833168606], [144.954602876908, -37.806942185696], [144.954599295316, -37.806948494796], [144.954586586513, -37.806944335906], [144.954574131048, -37.806851964434], [144.954583969002, -37.806848611724], [144.954557237461, -37.806671398916], [144.954568101732, -37.806672425724], [144.954583943893, -37.806779545188], [144.954608299181, -37.806790548041], [144.954812174755, -37.80681180717]]]]}}