{"type": "Feature", "properties": {"seg_id": "21398", "street_id": "21398", "name": "Cl1199 from Peel Street", "str_type": "Council Minor", "status_id": "3", "seg_part": "1", "poly_area": "74", "gisid": "1108"}, "geometry": {"type": "MultiPolygon", "coordinates": [[[[144.95550197976, -37.807299155065], [144.955498213261, -37.807320570994], [144.955290071091, -37.807298526122], [144.955278598178, -37.80730667179], [144.955268550828, -37.807370319486], [144.95524212151, -37.807367787851], [144.955259755129, -37.807264241667], [144.955284889505, -37.807266363306], [144.955293102655, -37.807277031652], [144.95550197976, -37.807299155065]]]]}}