{"type": "Feature", "properties": {"seg_id": "21407", "street_id": "21407", "name": "Cl1066 from Walsh Street", "str_type": "Council Minor", "status_id": "3", "seg_part": "1", "poly_area": "130", "gisid": "1117"}, "geometry": {"type": "MultiPolygon", "coordinates": [[[[144.953216507517, -37.808372364449], [144.953248580169, -37.808363250517], [144.953278294651, -37.808427731517], [144.953310400707, -37.808448671441], [144.953349574403, -37.80853150976], [144.95337049123, -37.808537268646], [144.953470777602, -37.808510104648], [144.953487288808, -37.808548473472], [144.953340067511, -37.808588351064], [144.953296231863, -37.808495653961], [144.953282677628, -37.80846562732], [144.953251953064, -37.808449283963], [144.953216507517, -37.808372364449]]]]}}