{"type": "Feature", "properties": {"seg_id": "21404", "street_id": "21404", "name": "William Street between Dudley Street and Walsh Street", "str_type": "Council Major", "status_id": "2", "seg_part": "1", "poly_area": "1148", "gisid": "1114"}, "geometry": {"type": "MultiPolygon", "coordinates": [[[[144.955024816467, -37.808337089176], [144.954708648759, -37.808429672928], [144.954574573815, -37.80814247711], [144.954509889745, -37.808003917042], [144.954926864647, -37.808114582934], [144.955024816467, -37.808337089176]]]]}}