{"type": "Feature", "properties": {"seg_id": "21409", "street_id": "21409", "name": "Cl1050 from King Street", "str_type": "Council Minor", "status_id": "3", "seg_part": "1", "poly_area": "135", "gisid": "1119"}, "geometry": {"type": "MultiPolygon", "coordinates": [[[[144.952159920554, -37.80824523316], [144.952425028505, -37.808166827975], [144.95243761006, -37.808162027205], [144.952475668301, -37.80814367418], [144.952536575842, -37.808117283441], [144.952611332912, -37.808090229595], [144.952625200699, -37.808112552209], [144.952520304278, -37.808153651309], [144.952478621249, -37.808176167831], [144.952451275934, -37.808189355059], [144.952171762795, -37.808272167959], [144.952159920554, -37.80824523316]]]]}}