{"type": "Feature", "properties": {"seg_id": "21418", "street_id": "21418", "name": "Cl1115 from Rosslyn Street", "str_type": "Council Minor", "status_id": "3", "seg_part": "1", "poly_area": "292", "gisid": "4081"}, "geometry": {"type": "MultiPolygon", "coordinates": [[[[144.950195553515, -37.8090434049], [144.950231638604, -37.809027024282], [144.950248490059, -37.809018859195], [144.950484067216, -37.8093614103], [144.950447119064, -37.809377204626], [144.950390858464, -37.809295744153], [144.950380194796, -37.809280304356], [144.950237282252, -37.809338374744], [144.950203323674, -37.809290589091], [144.950326727361, -37.809235855053], [144.950195553515, -37.8090434049]]]]}}