{"type": "Feature", "properties": {"seg_id": "21421", "street_id": "21421", "name": "Rosslyn Street between King Street and Spencer Street", "str_type": "Council Major", "status_id": "2", "seg_part": "1", "poly_area": "6143", "gisid": "1130"}, "geometry": {"type": "MultiPolygon", "coordinates": [[[[144.951225071518, -37.808545624629], [144.951187884824, -37.808563658972], [144.950248490059, -37.809018859195], [144.950231638604, -37.809027024282], [144.950195553515, -37.8090434049], [144.949850185307, -37.809214583082], [144.949821930589, -37.809228586539], [144.949628304636, -37.809324554352], [144.949446314163, -37.809088160405], [144.95094558037, -37.808359199954], [144.951001651455, -37.808331067698], [144.951393847707, -37.808142166263], [144.951584954792, -37.808371136983], [144.951397963477, -37.808461799018], [144.951385066782, -37.808468052293], [144.951225071518, -37.808545624629]]]]}}