{"type": "Feature", "properties": {"seg_id": "21430", "street_id": "21430", "name": "Cl1224 from Stanley Street", "str_type": "Council Minor", "status_id": "3", "seg_part": "1", "poly_area": "479", "gisid": "1138"}, "geometry": {"type": "MultiPolygon", "coordinates": [[[[144.950403172173, -37.807600544065], [144.950718570106, -37.807959848176], [144.950659111887, -37.807992589439], [144.950518566793, -37.807829778387], [144.950187525055, -37.808028546856], [144.95015611645, -37.807992899342], [144.950486891585, -37.807793417996], [144.950348973984, -37.807635100677], [144.950403172173, -37.807600544065]]]]}}