{"type": "Feature", "properties": {"seg_id": "21435", "street_id": "21435", "name": "Spencer Street between Roden Street and Hawke Street", "str_type": "Arterial", "status_id": "1", "seg_part": "1", "poly_area": "2352", "gisid": "1281"}, "geometry": {"type": "MultiPolygon", "coordinates": [[[[144.94753788898, -37.807263626261], [144.947605093648, -37.807309631958], [144.947648413894, -37.807345138994], [144.947892437603, -37.80753771752], [144.947646398, -37.807724631717], [144.947332207866, -37.807486356616], [144.947173710432, -37.807368893023], [144.947010751958, -37.807255283268], [144.94723864191, -37.807052418617], [144.94753788898, -37.807263626261]]]]}}