{"type": "Feature", "properties": {"seg_id": "21437", "street_id": "21437", "name": "Anderson Street between Ireland Street and Dynon Road", "str_type": "Council Major", "status_id": "2", "seg_part": "1", "poly_area": "881", "gisid": "1282"}, "geometry": {"type": "MultiPolygon", "coordinates": [[[[144.941967017095, -37.806096140926], [144.941947609098, -37.80608768215], [144.941765927544, -37.806007363504], [144.94176937597, -37.805997721863], [144.941772296326, -37.80598797105], [144.941774683162, -37.805978129261], [144.941831588964, -37.805659035916], [144.941845880429, -37.805597730116], [144.941872514688, -37.805578766319], [144.942014608764, -37.80559547117], [144.94202275105, -37.805550889105], [144.942045253072, -37.805553326226], [144.941950688222, -37.806070829942], [144.941967017095, -37.806096140926]]]]}}