{"type": "Feature", "properties": {"seg_id": "21438", "street_id": "21438", "name": "Stawell Street between Ireland Street and Dynon Road", "str_type": "Council Major", "status_id": "2", "seg_part": "1", "poly_area": "1484", "gisid": "1283"}, "geometry": {"type": "MultiPolygon", "coordinates": [[[[144.942430679021, -37.806298433904], [144.942217991371, -37.80620553358], [144.942190720913, -37.806193647259], [144.942222383925, -37.806181094803], [144.942329678291, -37.805584130583], [144.942354881131, -37.805586859958], [144.942376846561, -37.805573520697], [144.942508032155, -37.805587739052], [144.942527312904, -37.805608023422], [144.942516824696, -37.805665809992], [144.942544904333, -37.805669121284], [144.942430679021, -37.806298433904]]]]}}