{"type": "Feature", "properties": {"seg_id": "21444", "street_id": "21444", "name": "Cl1412 from Dryburgh Street", "str_type": "Council Minor", "status_id": "3", "seg_part": "1", "poly_area": "539", "gisid": "1289"}, "geometry": {"type": "MultiPolygon", "coordinates": [[[[144.943103955384, -37.806109243525], [144.943346891061, -37.806137206568], [144.943407327656, -37.806055831708], [144.943419442094, -37.806032462261], [144.943422702765, -37.806025942575], [144.943424983968, -37.806019154103], [144.943426540849, -37.806012233436], [144.943427362516, -37.806005228995], [144.94342744322, -37.805998189784], [144.943426893016, -37.805991155501], [144.943419941154, -37.805962644399], [144.943136748609, -37.805928688452], [144.943144128832, -37.805883794704], [144.943400305418, -37.805913466835], [144.943454266662, -37.805935992376], [144.943475815703, -37.806005497789], [144.943382556862, -37.806140442887], [144.943397887245, -37.806160617571], [144.94394980822, -37.806402752238], [144.943915315134, -37.806452642758], [144.943751179882, -37.806358738313], [144.943724752033, -37.806342261158], [144.943674494951, -37.806320163595], [144.943531236635, -37.806257417436], [144.943519206791, -37.806252149056], [144.943324772705, -37.806166987963], [144.943098652673, -37.806142424951], [144.943103955384, -37.806109243525]]]]}}