{"type": "Feature", "properties": {"seg_id": "21440", "street_id": "21440", "name": "Intersection of Ireland Street and Anderson Street", "str_type": "Council Major", "status_id": "2", "seg_part": "1", "poly_area": "791", "gisid": "1285"}, "geometry": {"type": "MultiPolygon", "coordinates": [[[[144.941781813149, -37.80636145105], [144.941708353144, -37.806268252705], [144.941629363739, -37.806171837797], [144.941752482077, -37.80603545419], [144.941757472536, -37.80602624722], [144.941761957148, -37.80601687783], [144.941765927544, -37.806007363504], [144.941947609098, -37.80608768215], [144.941916823477, -37.806295394572], [144.941882180437, -37.806488787494], [144.941781813149, -37.80636145105]]]]}}