{"type": "Feature", "properties": {"seg_id": "21457", "street_id": "21457", "name": "Tait Lane between Adderley Street and Ireland Street", "str_type": "Council Minor", "status_id": "3", "seg_part": "1", "poly_area": "411", "gisid": "1301"}, "geometry": {"type": "MultiPolygon", "coordinates": [[[[144.945094999152, -37.80825172118], [144.945283682794, -37.80807203033], [144.945070695055, -37.807978006087], [144.945087825419, -37.807951720393], [144.944956206005, -37.807895541332], [144.944988552845, -37.807875541054], [144.945125100963, -37.807681494152], [144.945160332037, -37.807697574], [144.945016497899, -37.807902054651], [144.945097643359, -37.807936654673], [144.945103176313, -37.80792816484], [144.945323348291, -37.808023660736], [144.945325553464, -37.808024498619], [144.945327801248, -37.808025248317], [144.945330121588, -37.808025839248], [144.945332496614, -37.808026266861], [144.945334908036, -37.808026527864], [144.945337337283, -37.808026620246], [144.945339765649, -37.808026543296], [144.945342174431, -37.808026297607], [144.945344545079, -37.80802588507], [144.945346859338, -37.808025308862], [144.945349099385, -37.808024573422], [144.945351247968, -37.808023684412], [144.945353288543, -37.808022648679], [144.945355205393, -37.8080214742], [144.945356983758, -37.808020170018], [144.945358524735, -37.808018689947], [144.945415168955, -37.807967241679], [144.945416804885, -37.807965813096], [144.945418670563, -37.807964571467], [144.945420668227, -37.807963466103], [144.94542278232, -37.807962505611], [144.945424996384, -37.807961697469], [144.945427293177, -37.807961047969], [144.945429654817, -37.807960562169], [144.945432062916, -37.807960243851], [144.945434498724, -37.807960095494], [144.945436943274, -37.807960118252], [144.945439377533, -37.807960311949], [144.945441782547, -37.807960675077], [144.945444139591, -37.807961204808], [144.94544643031, -37.807961897017], [144.945448636871, -37.807962746316], [144.945450742091, -37.80796374609], [144.945452796247, -37.807964821592], [144.945133472081, -37.808269280565], [144.945094999152, -37.80825172118]]]]}}