{"type": "Feature", "properties": {"seg_id": "21455", "street_id": "21455", "name": "Ireland Street between Hawke Street and Abbotsford Street", "str_type": "Council Major", "status_id": "2", "seg_part": "1", "poly_area": "3163", "gisid": "1300"}, "geometry": {"type": "MultiPolygon", "coordinates": [[[[144.94593587435, -37.807827600597], [144.945784281396, -37.807970541751], [144.945160332037, -37.807697574], [144.945125100963, -37.807681494152], [144.944553961479, -37.807432289544], [144.944529032911, -37.807422347016], [144.944242925117, -37.807296702387], [144.944350743963, -37.807137643056], [144.944523969918, -37.807212157999], [144.944552149647, -37.807224049744], [144.944836587237, -37.807349313016], [144.944867792739, -37.807363915959], [144.945134270938, -37.807478997221], [144.945151075844, -37.807486325941], [144.945167939113, -37.807493680008], [144.945736336992, -37.807741941671], [144.94577382625, -37.80775810489], [144.94593587435, -37.807827600597]]]]}}