{"type": "Feature", "properties": {"seg_id": "21461", "street_id": "21461", "name": "Hawke Street between Ireland Street and Spencer Street", "str_type": "Council Major", "status_id": "2", "seg_part": "1", "poly_area": "3107", "gisid": "1305"}, "geometry": {"type": "MultiPolygon", "coordinates": [[[[144.94593587435, -37.807827600597], [144.946479550329, -37.807329253297], [144.946513786269, -37.807297208896], [144.946690052367, -37.807134628734], [144.947010751958, -37.807255283268], [144.946716395603, -37.807529547458], [144.946689482602, -37.807552441118], [144.946414244873, -37.80780820785], [144.946248506189, -37.807961673751], [144.94593587435, -37.807827600597]]]]}}