{"type": "Feature", "properties": {"seg_id": "21472", "street_id": "21472", "name": "Cl1200 from Hawke Street", "str_type": "Council Minor", "status_id": "3", "seg_part": "1", "poly_area": "85", "gisid": "1315"}, "geometry": {"type": "MultiPolygon", "coordinates": [[[[144.945297613515, -37.809166563677], [144.945307611711, -37.809173272551], [144.945193317473, -37.809270047712], [144.945175077342, -37.809256048694], [144.945239896839, -37.809200117467], [144.945239522519, -37.809189855575], [144.94506431461, -37.809058812462], [144.945081816929, -37.809042473216], [144.945264976197, -37.809178422262], [144.945284522894, -37.809177249371], [144.945297613515, -37.809166563677]]]]}}