{"type": "Feature", "properties": {"seg_id": "21476", "street_id": "21476", "name": "McKendrick Lane between Stanley Street and Rosslyn Street", "str_type": "Council Minor", "status_id": "3", "seg_part": "1", "poly_area": "300", "gisid": "1248"}, "geometry": {"type": "MultiPolygon", "coordinates": [[[[144.948755980674, -37.809422205871], [144.948728189553, -37.809434797787], [144.948498357674, -37.809170668933], [144.94848095418, -37.8091811654], [144.948450716299, -37.80914960664], [144.948498516187, -37.80912090794], [144.948497065499, -37.809119273169], [144.948597269601, -37.809056922864], [144.948458499458, -37.808895946281], [144.948393908716, -37.808825689136], [144.948420894423, -37.808807677118], [144.948483772858, -37.808875205398], [144.948658172308, -37.809079499394], [144.948539944355, -37.809146936482], [144.948540645134, -37.809168730078], [144.948544005635, -37.809172688907], [144.948645057339, -37.809291732714], [144.948755980674, -37.809422205871]]]]}}