{"type": "Feature", "properties": {"seg_id": "21499", "street_id": "21499", "name": "Spencer Street between Jeffcott Street and Batman Street", "str_type": "Arterial", "status_id": "1", "seg_part": "1", "poly_area": "3001", "gisid": "1152"}, "geometry": {"type": "MultiPolygon", "coordinates": [[[[144.950743322364, -37.812062262844], [144.950350513152, -37.811214175134], [144.950672902615, -37.811123432864], [144.951057409454, -37.811963709688], [144.951061440375, -37.811972517617], [144.950743322364, -37.812062262844]]]]}}