{"type": "Feature", "properties": {"seg_id": "21504", "street_id": "21504", "name": "Adderley Street between La Trobe Street and Jeffcott Street", "str_type": "Council Major", "status_id": "2", "seg_part": "1", "poly_area": "2808", "gisid": "1156"}, "geometry": {"type": "MultiPolygon", "coordinates": [[[[144.950054266405, -37.81341504667], [144.95003722376, -37.813400067134], [144.949222539869, -37.812684021315], [144.94952186968, -37.812599326787], [144.949525568139, -37.812607253936], [144.950353549803, -37.81333025733], [144.950054266405, -37.81341504667]]]]}}