{"type": "Feature", "properties": {"seg_id": "21505", "street_id": "21505", "name": "La Trobe Street between Adderley Street and Spencer Street", "str_type": "Council Major", "status_id": "2", "seg_part": "1", "poly_area": "3113", "gisid": "1157"}, "geometry": {"type": "MultiPolygon", "coordinates": [[[[144.950353549803, -37.81333025733], [144.95122006035, -37.81308476117], [144.951332579478, -37.813344011382], [144.950331120038, -37.813626202686], [144.950303400756, -37.813634012769], [144.950054266405, -37.81341504667], [144.950353549803, -37.81333025733]]]]}}