{"type": "Feature", "properties": {"seg_id": "21507", "street_id": "21507", "name": "King Street between La Trobe Street and Jeffcott Street", "str_type": "Arterial", "status_id": "1", "seg_part": "1", "poly_area": "3042", "gisid": "1159"}, "geometry": {"type": "MultiPolygon", "coordinates": [[[[144.953612115474, -37.812194839581], [144.953599167779, -37.812165980633], [144.953501151696, -37.81195509015], [144.953487399557, -37.811925501675], [144.95330299708, -37.811528740037], [144.953626090742, -37.811439241006], [144.954021899007, -37.812294280514], [144.953699755157, -37.81238431076], [144.953612115474, -37.812194839581]]]]}}