{"type": "Feature", "properties": {"seg_id": "21516", "street_id": "21516", "name": "Batman Street between Spencer Street and King Street", "str_type": "Council Major", "status_id": "2", "seg_part": "1", "poly_area": "6135", "gisid": "1168"}, "geometry": {"type": "MultiPolygon", "coordinates": [[[[144.952506165586, -37.810601828512], [144.952467964098, -37.810612697481], [144.950672902615, -37.811123432864], [144.950553446188, -37.810862418417], [144.952710776939, -37.810255701493], [144.952825720784, -37.810510904823], [144.952506165586, -37.810601828512]]]]}}