{"type": "Feature", "properties": {"seg_id": "21514", "street_id": "21514", "name": "Jeffcott Street between Spencer Street and King Street", "str_type": "Council Major", "status_id": "2", "seg_part": "1", "poly_area": "4019", "gisid": "1166"}, "geometry": {"type": "MultiPolygon", "coordinates": [[[[144.951605829353, -37.812010305871], [144.951546836636, -37.812026879546], [144.951142822293, -37.812140336461], [144.951061440375, -37.811972517617], [144.951057409454, -37.811963709688], [144.951071796974, -37.811969541016], [144.951328547243, -37.811895762099], [144.951358725433, -37.811887689946], [144.951493649581, -37.811849890892], [144.951529067699, -37.811839968725], [144.951928598455, -37.811728040164], [144.951964518108, -37.811718914214], [144.952868147315, -37.811461985345], [144.952898925513, -37.811453233826], [144.953226813622, -37.81136000367], [144.95330299708, -37.811528740037], [144.953102244189, -37.811584348583], [144.953069692266, -37.811593695637], [144.951605829353, -37.812010305871]]]]}}