{"type": "Feature", "properties": {"seg_id": "21510", "street_id": "21510", "name": "Cl1316 from Jeffcott Street", "str_type": "Council Minor", "status_id": "3", "seg_part": "1", "poly_area": "362", "gisid": "1162"}, "geometry": {"type": "MultiPolygon", "coordinates": [[[[144.951546836636, -37.812026879546], [144.951605829353, -37.812010305871], [144.951797177342, -37.812434746979], [144.951745543004, -37.812448970515], [144.951648650601, -37.812237633995], [144.95124360358, -37.81235594863], [144.951238997937, -37.81234463085], [144.951406632225, -37.812296538282], [144.951394411697, -37.812272429227], [144.951631745268, -37.812206916261], [144.951546836636, -37.812026879546]]]]}}