{"type": "Feature", "properties": {"seg_id": "21527", "street_id": "21527", "name": "Franklin Street between Queen Street and William Street", "str_type": "Council Major", "status_id": "2", "seg_part": "1", "poly_area": "2961", "gisid": "1179"}, "geometry": {"type": "MultiPolygon", "coordinates": [[[[144.956860940412, -37.809504378457], [144.956451004396, -37.809458501724], [144.955644375024, -37.809690221013], [144.95556803547, -37.809499337882], [144.955657649634, -37.809563024377], [144.956439232425, -37.809335889851], [144.957965875762, -37.809503687745], [144.958002718904, -37.809467531658], [144.958072514848, -37.809639959082], [144.957437819544, -37.809568935614], [144.956905918564, -37.809509411518], [144.956860940412, -37.809504378457]]]]}}