{"type": "Feature", "properties": {"seg_id": "21524", "street_id": "21524", "name": "A'Beckett Street between Wills Street and Queen Street", "str_type": "Council Major", "status_id": "2", "seg_part": "1", "poly_area": "2143", "gisid": "1176"}, "geometry": {"type": "MultiPolygon", "coordinates": [[[[144.957679821237, -37.810069242098], [144.958200801849, -37.80991654657], [144.958274769105, -37.810099712518], [144.957854247256, -37.810223468309], [144.957819502665, -37.810232048715], [144.957209641944, -37.810410859506], [144.957126249407, -37.810228387324], [144.957647013921, -37.810078586007], [144.957679821237, -37.810069242098]]]]}}