{"type": "Feature", "properties": {"seg_id": "21520", "street_id": "21520", "name": "Singers Lane between Wills Street and La Trobe Street", "str_type": "Council Minor", "status_id": "3", "seg_part": "1", "poly_area": "747", "gisid": "1172"}, "geometry": {"type": "MultiPolygon", "coordinates": [[[[144.957218725616, -37.810968172432], [144.957242675112, -37.811019513337], [144.956839299456, -37.81114034566], [144.956984804551, -37.811453273856], [144.956919372012, -37.811473216148], [144.956589078316, -37.810761057044], [144.956654166186, -37.810742884262], [144.956814742888, -37.811088578701], [144.957218725616, -37.810968172432]]]]}}