{"type": "Feature", "properties": {"seg_id": "21537", "street_id": "21537", "name": "Dynon Road between Railway Place and Dryburgh Street", "str_type": "Arterial", "status_id": "1", "seg_part": "1", "poly_area": "370", "gisid": "3596"}, "geometry": {"type": "MultiPolygon", "coordinates": [[[[144.941083355465, -37.805554369398], [144.941277766324, -37.805479078834], [144.941399381434, -37.805632675179], [144.941216345464, -37.805703425539], [144.941083355465, -37.805554369398]]], [[[144.94290811718, -37.805266102193], [144.942858744685, -37.805535993861], [144.942574751471, -37.805504681958], [144.942576292229, -37.805496189178], [144.942334844725, -37.805468221736], [144.942257245311, -37.805462965054], [144.942179472107, -37.805461035368], [144.942101821957, -37.80546393429], [144.942060909336, -37.805467644961], [144.94203745765, -37.805470420529], [144.942014491142, -37.805475080079], [144.941992148016, -37.805481331719], [144.941970602214, -37.80548912678], [144.941950021471, -37.805498404578], [144.94193056601, -37.805509092883], [144.941912387291, -37.805521108487], [144.941895626837, -37.805534357849], [144.94188041513, -37.80554873782], [144.941866870592, -37.805564136453], [144.94185509867, -37.805580433868], [144.941845880429, -37.805597730116], [144.941838935418, -37.805612537004], [144.941833388709, -37.805627710658], [144.941829270645, -37.805643168078], [144.941810635998, -37.805633491793], [144.941801403427, -37.8056450952], [144.941790368618, -37.805655670699], [144.941778243304, -37.805665463733], [144.941765113636, -37.805674404721], [144.9417510729, -37.805682430138], [144.941736220854, -37.805689482963], [144.941720663024, -37.805695513087], [144.941704509946, -37.805700477665], [144.941687876389, -37.805704341424], [144.941670829059, -37.805706832323], [144.941478138697, -37.805732142962], [144.941399381434, -37.805632675179], [144.941277766324, -37.805479078834], [144.941260717268, -37.805457546403], [144.941260356996, -37.805399357613], [144.941316688689, -37.805362133578], [144.941386683773, -37.805315881608], [144.941463493795, -37.805278907361], [144.941546859235, -37.805264075051], [144.941660865609, -37.805264815269], [144.941831192427, -37.805265705284], [144.941863826211, -37.805265875539], [144.94194203861, -37.805260533221], [144.942020578845, -37.805259178344], [144.942099152814, -37.805260305216], [144.94219413567, -37.805265322562], [144.942288732102, -37.805274007035], [144.94238313757, -37.805284555606], [144.942406918837, -37.805288159138], [144.942430640386, -37.805292002482], [144.942454298375, -37.805296085017], [144.942460746044, -37.805297272836], [144.942467264627, -37.805298129335], [144.94247384796, -37.805298530701], [144.942480445603, -37.805298473858], [144.942487007009, -37.805297959243], [144.942493481905, -37.805296990798], [144.942499820684, -37.805295575942], [144.942505974778, -37.805293725516], [144.942511897038, -37.805291453698], [144.942517381348, -37.805288585538], [144.942622718235, -37.805233666427], [144.94290811718, -37.805266102193]]]]}}