{"type": "Feature", "properties": {"seg_id": "21531", "street_id": "21531", "name": "Intersection of Dudley Street and William Street", "str_type": "Arterial", "status_id": "1", "seg_part": "1", "poly_area": "843", "gisid": "1204"}, "geometry": {"type": "MultiPolygon", "coordinates": [[[[144.954708648759, -37.808429672928], [144.955024816467, -37.808337089176], [144.955141962492, -37.808598424169], [144.955042006539, -37.808604960746], [144.9549432828, -37.808618798988], [144.954847365936, -37.808641489296], [144.954815378255, -37.808688074212], [144.954708648759, -37.808429672928]]]]}}