{"type": "Feature", "properties": {"seg_id": "21535", "street_id": "21535", "name": "Miller Street between Anderson Street and Laurens Street", "str_type": "Council Major", "status_id": "2", "seg_part": "1", "poly_area": "602", "gisid": "3006"}, "geometry": {"type": "MultiPolygon", "coordinates": [[[[144.941773837012, -37.805147177991], [144.941753084516, -37.805256981084], [144.941195282931, -37.805194681655], [144.941211369907, -37.805088411708], [144.941759243666, -37.805145888369], [144.941773837012, -37.805147177991]]]]}}