{"type": "Feature", "properties": {"seg_id": "21532", "street_id": "21532", "name": "Dudley Street between William Street and Peel Street", "str_type": "Arterial", "status_id": "1", "seg_part": "1", "poly_area": "641", "gisid": "1205"}, "geometry": {"type": "MultiPolygon", "coordinates": [[[[144.955178594397, -37.808292574121], [144.955217441885, -37.808281328862], [144.955335216337, -37.808247235005], [144.955255213815, -37.808597747645], [144.95521744249, -37.808596896704], [144.955179667238, -37.808596880305], [144.955141962492, -37.808598424169], [144.955024816467, -37.808337089176], [144.955178594397, -37.808292574121]]]]}}