{"type": "Feature", "properties": {"seg_id": "21547", "street_id": "21547", "name": "Railway Place between Hawke Street and Abbotsford Street", "str_type": "Council Major", "status_id": "2", "seg_part": "1", "poly_area": "1449", "gisid": "1335"}, "geometry": {"type": "MultiPolygon", "coordinates": [[[[144.944104906516, -37.809119430473], [144.944127894795, -37.809151021461], [144.944276660274, -37.809335845072], [144.944309197616, -37.809358069215], [144.944214822428, -37.809448055651], [144.943817190369, -37.808943627096], [144.943655660592, -37.80873871093], [144.943438408648, -37.808463102956], [144.943507550241, -37.808362480557], [144.944104906516, -37.809119430473]]]]}}