{"type": "Feature", "properties": {"seg_id": "21552", "street_id": "21552", "name": "Grattan Street between Flemington Road and Elizabeth Street", "str_type": "Council Major", "status_id": "2", "seg_part": "1", "poly_area": "5142", "gisid": "2029"}, "geometry": {"type": "MultiPolygon", "coordinates": [[[[144.955584443945, -37.799704682518], [144.955087448828, -37.799314279812], [144.957228508962, -37.799545916682], [144.957199787733, -37.799815714775], [144.955632288962, -37.799641357449], [144.955584443945, -37.799704682518]]]]}}