{"type": "Feature", "properties": {"seg_id": "21554", "street_id": "21554", "name": "Nicholson Street between Albert Street and Victoria Street", "str_type": "Council Major", "status_id": "2", "seg_part": "1", "poly_area": "2969", "gisid": "848"}, "geometry": {"type": "MultiPolygon", "coordinates": [[[[144.9732408407, -37.808684544563], [144.973225382819, -37.808774225979], [144.973164794783, -37.809134359022], [144.972831582893, -37.808996215778], [144.972961558911, -37.808222062343], [144.972961831766, -37.808219699524], [144.972961815828, -37.808217324079], [144.972961541535, -37.808214956951], [144.972961010935, -37.808212615819], [144.972960227991, -37.808210318169], [144.972959198551, -37.808208081163], [144.972957930304, -37.808205921508], [144.972956432722, -37.808203855335], [144.97295471699, -37.808201898076], [144.972952795924, -37.808200064349], [144.972950683872, -37.808198367852], [144.972948396608, -37.808196821254], [144.972945951216, -37.808195436108], [144.972943365961, -37.808194222758], [144.972940660152, -37.808193190268], [144.972937853998, -37.808192346349], [144.972934968459, -37.808191697303], [144.972932029483, -37.808191223069], [144.97296610048, -37.808195007854], [144.972967334828, -37.808195144453], [144.973316444568, -37.808233785181], [144.9732408407, -37.808684544563]]]]}}