{"type": "Feature", "properties": {"seg_id": "21550", "street_id": "21550", "name": "Railway Place between Dryburgh Street and Ireland Street", "str_type": "Council Major", "status_id": "2", "seg_part": "1", "poly_area": "1447", "gisid": "1338"}, "geometry": {"type": "MultiPolygon", "coordinates": [[[[144.942579889562, -37.807123347811], [144.942437891098, -37.807193805917], [144.941882180437, -37.806488787494], [144.941916823477, -37.806295394572], [144.942060187283, -37.806474411281], [144.942579889562, -37.807123347811]]]]}}