{"type": "Feature", "properties": {"seg_id": "21559", "street_id": "21559", "name": "Intersection of Victoria Parade and Nicholson Street", "str_type": "Arterial", "status_id": "1", "seg_part": "1", "poly_area": "1480", "gisid": "847"}, "geometry": {"type": "MultiPolygon", "coordinates": [[[[144.972967334828, -37.808195144453], [144.973010003535, -37.807981680643], [144.973011861287, -37.807970318127], [144.973033664856, -37.807836994667], [144.973036254807, -37.807821161392], [144.973072252742, -37.807608883117], [144.973244646387, -37.807627311024], [144.973194494106, -37.807922664152], [144.973342414544, -37.807938632222], [144.973329173161, -37.808015846165], [144.973323902447, -37.808042114008], [144.973323667033, -37.808043683194], [144.973323630651, -37.808045265194], [144.973323769287, -37.808046844742], [144.973324081873, -37.808048409661], [144.973324566, -37.808049947886], [144.973325217934, -37.808051447558], [144.973326032649, -37.808052897114], [144.973327003865, -37.808054285378], [144.973328124093, -37.808055601648], [144.973329384697, -37.808056835775], [144.973330775958, -37.808057978245], [144.973332287149, -37.80805902025], [144.97333390662, -37.808059953755], [144.973335621885, -37.808060771565], [144.97333741972, -37.808061467373], [144.973339286264, -37.808062035815], [144.973341207126, -37.808062472509], [144.97334316458, -37.808062790524], [144.973316444568, -37.808233785181], [144.972967334828, -37.808195144453]]]]}}