{"type": "Feature", "properties": {"seg_id": "21567", "street_id": "21567", "name": "Morrison Place between Victoria Parade and Albert Street", "str_type": "Council Major", "status_id": "2", "seg_part": "1", "poly_area": "2069", "gisid": "839"}, "geometry": {"type": "MultiPolygon", "coordinates": [[[[144.976800212776, -37.808909698085], [144.976775893597, -37.809053895048], [144.976770381886, -37.809086578009], [144.976697034668, -37.809521475465], [144.976466104922, -37.809494774155], [144.976617776752, -37.808597368181], [144.976849204667, -37.808619201448], [144.976805137583, -37.808880497105], [144.976800212776, -37.808909698085]]]]}}