{"type": "Feature", "properties": {"seg_id": "21561", "street_id": "21561", "name": "Evelyn Place between Nicholson Street and Albert Street", "str_type": "Council Minor", "status_id": "3", "seg_part": "1", "poly_area": "891", "gisid": "845"}, "geometry": {"type": "MultiPolygon", "coordinates": [[[[144.973885303751, -37.809214592951], [144.973820443539, -37.8092067271], [144.973878690899, -37.808846093812], [144.973225382819, -37.808774225979], [144.9732408407, -37.808684544563], [144.973929100828, -37.808759654143], [144.973964647495, -37.80876319458], [144.973885303751, -37.809214592951]]]]}}