{"type": "Feature", "properties": {"seg_id": "21576", "street_id": "21576", "name": "Cl1245 from Simpson Street", "str_type": "Council Minor", "status_id": "3", "seg_part": "1", "poly_area": "216", "gisid": "1452"}, "geometry": {"type": "MultiPolygon", "coordinates": [[[[144.98874600738, -37.810126974587], [144.988739141089, -37.810169456085], [144.988441637494, -37.810137795763], [144.988424594672, -37.810240500472], [144.988410934211, -37.810239086564], [144.988393705695, -37.810345240514], [144.988365517727, -37.810342550177], [144.988405506883, -37.810091307587], [144.98874600738, -37.810126974587]]]]}}