{"type": "Feature", "properties": {"seg_id": "21571", "street_id": "21571", "name": "Intersection of Victoria Parade and Lansdowne Street", "str_type": "Arterial", "status_id": "1", "seg_part": "1", "poly_area": "782", "gisid": "836"}, "geometry": {"type": "MultiPolygon", "coordinates": [[[[144.97866525049, -37.808818084062], [144.978322147629, -37.808778215018], [144.978349351168, -37.808614024098], [144.978406676523, -37.80862033243], [144.97840866302, -37.80862047713], [144.978410655433, -37.808620499438], [144.978412641242, -37.808620383059], [144.97841460516, -37.80862012889], [144.978416532068, -37.808619738886], [144.978418407133, -37.808619216051], [144.978420215919, -37.808618564409], [144.978421944503, -37.808617788976], [144.978423579576, -37.808616895723], [144.978425108552, -37.808615891525], [144.978426519661, -37.808614784114], [144.978427802039, -37.808613582014], [144.978428945814, -37.808612294479], [144.978429942182, -37.808610931422], [144.978430783471, -37.808609503335], [144.978431463206, -37.808608021212], [144.978431976153, -37.808606496463], [144.978432297772, -37.808604938579], [144.978447848892, -37.808515187713], [144.978649798149, -37.808538852624], [144.978634169114, -37.808627179221], [144.978633974331, -37.808628737304], [144.978633972256, -37.808630304898], [144.978634141823, -37.808631867796], [144.978634481751, -37.808633414175], [144.978634989467, -37.808634932335], [144.97863566113, -37.808636410793], [144.978636491659, -37.808637838363], [144.978637474772, -37.808639204245], [144.97863860303, -37.808640498106], [144.978639867899, -37.808641710159], [144.978641259809, -37.808642831233], [144.97864276823, -37.808643852847], [144.978644381751, -37.808644767273], [144.978646088165, -37.808645567594], [144.978647874563, -37.808646247753], [144.978649727431, -37.808646802607], [144.978651632751, -37.808647227957], [144.978653573356, -37.808647536503], [144.978693241486, -37.80865185549], [144.97866525049, -37.808818084062]]]]}}