{"type": "Feature", "properties": {"seg_id": "21579", "street_id": "21579", "name": "Green Place from Victoria Parade", "str_type": "Council Minor", "status_id": "3", "seg_part": "1", "poly_area": "203", "gisid": "1449"}, "geometry": {"type": "MultiPolygon", "coordinates": [[[[144.987923124279, -37.809831319609], [144.987851813799, -37.810254362138], [144.987919206764, -37.810261746279], [144.987914079832, -37.810294532812], [144.987692478126, -37.810270755153], [144.987698252964, -37.810237537224], [144.987822319548, -37.81025113027], [144.987890586786, -37.809827808662], [144.987923124279, -37.809831319609]]]]}}