{"type": "Feature", "properties": {"seg_id": "21587", "street_id": "21587", "name": "Albert Street between Powlett Street and Clarendon Street", "str_type": "Council Major", "status_id": "2", "seg_part": "1", "poly_area": "6048", "gisid": "1441"}, "geometry": {"type": "MultiPolygon", "coordinates": [[[[144.983694973135, -37.810563108837], [144.98373838362, -37.810298255719], [144.984397586282, -37.81037147302], [144.984441802495, -37.810376383406], [144.986012845258, -37.8105508639], [144.985964933416, -37.81081938715], [144.98551857172, -37.81076928367], [144.98546184497, -37.81076385145], [144.983694973135, -37.810563108837]]]]}}