{"type": "Feature", "properties": {"seg_id": "21583", "street_id": "21583", "name": "Victoria Parade between Simpson Street and Powlett Street", "str_type": "Arterial", "status_id": "1", "seg_part": "1", "poly_area": "3615", "gisid": "1445"}, "geometry": {"type": "MultiPolygon", "coordinates": [[[[144.987923124279, -37.809831319609], [144.987890586786, -37.809827808662], [144.98736078107, -37.80977163085], [144.987323592642, -37.809766597464], [144.986968052579, -37.809730200653], [144.98695962511, -37.809729335639], [144.986502750208, -37.809682562716], [144.986678489849, -37.809529405766], [144.988804278664, -37.809758884391], [144.98877843093, -37.809922166593], [144.987923124279, -37.809831319609]]]]}}