{"type": "Feature", "properties": {"seg_id": "21580", "street_id": "21580", "name": "Albert Street between Simpson Street and Powlett Street", "str_type": "Council Major", "status_id": "2", "seg_part": "1", "poly_area": "6090", "gisid": "1448"}, "geometry": {"type": "MultiPolygon", "coordinates": [[[[144.988584351003, -37.811104350977], [144.986306534837, -37.810856457967], [144.9863519405, -37.810587528532], [144.986664460204, -37.810622997936], [144.986702892224, -37.810627384122], [144.988632118859, -37.810834765219], [144.988584351003, -37.811104350977]]]]}}