{"type": "Feature", "properties": {"seg_id": "21590", "street_id": "21590", "name": "Cl1160 from Albert Street", "str_type": "Council Minor", "status_id": "3", "seg_part": "1", "poly_area": "266", "gisid": "1440"}, "geometry": {"type": "MultiPolygon", "coordinates": [[[[144.98441514911, -37.809901077763], [144.984493715915, -37.809909600458], [144.984520944515, -37.809912554665], [144.984518982301, -37.809923435263], [144.984512983064, -37.809956708659], [144.984441802495, -37.810376383406], [144.984397586282, -37.81037147302], [144.984466655586, -37.809958937355], [144.984456361169, -37.809948574218], [144.984396140928, -37.809942189527], [144.984400701687, -37.809914949243], [144.98427204412, -37.809901309157], [144.984259315677, -37.809966830499], [144.9842495823, -37.809965994303], [144.98426084823, -37.809894607383], [144.984262273938, -37.809884493521], [144.98441514911, -37.809901077763]]]]}}