{"type": "Feature", "properties": {"seg_id": "21594", "street_id": "21594", "name": "Victoria Parade between Clarendon Street and Eades Street", "str_type": "Arterial", "status_id": "1", "seg_part": "1", "poly_area": "4014", "gisid": "829"}, "geometry": {"type": "MultiPolygon", "coordinates": [[[[144.983548510676, -37.809357915855], [144.98127413059, -37.809107662627], [144.981304542123, -37.808937762915], [144.981427550726, -37.808951622097], [144.982437530009, -37.809063264715], [144.982439516576, -37.809063410235], [144.982441509137, -37.8090634334], [144.982443495189, -37.809063317857], [144.982445459443, -37.809063064496], [144.982447386773, -37.809062675266], [144.982449262342, -37.809062153165], [144.982451071709, -37.809061502213], [144.982452800941, -37.809060727421], [144.982454436727, -37.809059834755], [144.982455966471, -37.809058831088], [144.982457378394, -37.809057724147], [144.982458661627, -37.809056522456], [144.98245980629, -37.809055235266], [144.982460803568, -37.809053872487], [144.982461645784, -37.809052444613], [144.982462326453, -37.809050962638], [144.982462840334, -37.80904943797], [144.982463162837, -37.809047880091], [144.982481216743, -37.808944041034], [144.982622521541, -37.808959175802], [144.982603981492, -37.809062520819], [144.982603782545, -37.809064078528], [144.98260377659, -37.80906564608], [144.982603942288, -37.809067209203], [144.982604278386, -37.80906875607], [144.982604782341, -37.809070274981], [144.982605450342, -37.809071754446], [144.982606277333, -37.809073183271], [144.982607257061, -37.809074550649], [144.982608382113, -37.809075846235], [144.982609643978, -37.809077060229], [144.98261103311, -37.809078183446], [144.982612539001, -37.80907920739], [144.982614150259, -37.809080124315], [144.982615854696, -37.809080927284], [144.982617639416, -37.809081610223], [144.98261949092, -37.809082167966], [144.9826213952, -37.809082596293], [144.982623335015, -37.809082908131], [144.983470535509, -37.809176493389], [144.983578259442, -37.809188392561], [144.983548510676, -37.809357915855]]]]}}