{"type": "Feature", "properties": {"seg_id": "21606", "street_id": "21606", "name": "Intersection of Victoria Street and Cardigan Street", "str_type": "Arterial", "status_id": "1", "seg_part": "1", "poly_area": "980", "gisid": "1850"}, "geometry": {"type": "MultiPolygon", "coordinates": [[[[144.964226214197, -37.806662017488], [144.964566608164, -37.806696509625], [144.964519171431, -37.806968057797], [144.964175676928, -37.806930284791], [144.964130110071, -37.806925301117], [144.964226214197, -37.806662017488]]]]}}