{"type": "Feature", "properties": {"seg_id": "21609", "street_id": "21609", "name": "MacKenzie Street between Victoria Street and Russell Street", "str_type": "Council Major", "status_id": "2", "seg_part": "1", "poly_area": "3010", "gisid": "1208"}, "geometry": {"type": "MultiPolygon", "coordinates": [[[[144.965930104382, -37.807675824299], [144.965936142399, -37.807642384984], [144.965976192422, -37.807662457505], [144.967123700946, -37.807329636278], [144.96713639163, -37.807256952822], [144.967491278533, -37.807294182097], [144.967786355182, -37.807325135969], [144.967099960675, -37.807526611296], [144.967080364079, -37.807532363139], [144.967039609524, -37.80754422376], [144.966699197343, -37.807643291073], [144.966667533868, -37.807652505879], [144.966626337804, -37.807664970631], [144.966007691656, -37.807844217499], [144.965930104382, -37.807675824299]]]]}}