{"type": "Feature", "properties": {"seg_id": "21600", "street_id": "21600", "name": "Exhibition Street between La Trobe Street and Victoria Street", "str_type": "Council Major", "status_id": "2", "seg_part": "1", "poly_area": "2933", "gisid": "1207"}, "geometry": {"type": "MultiPolygon", "coordinates": [[[[144.968966949046, -37.807449174331], [144.968879782828, -37.807972394982], [144.968548612702, -37.808070329365], [144.968351831433, -37.807639895276], [144.968340019128, -37.807614059285], [144.968229107795, -37.807371452869], [144.968499954684, -37.807399983573], [144.968498983063, -37.807399916331], [144.968498008878, -37.807399907644], [144.968497038012, -37.807399965265], [144.968496077613, -37.807400088771], [144.968495134751, -37.807400277251], [144.968494216367, -37.80740052932], [144.968493329222, -37.80740084312], [144.968492479847, -37.807401216342], [144.968491674495, -37.807401646238], [144.968490919095, -37.807402129643], [144.968490219208, -37.807402662999], [144.968489579986, -37.80740324238], [144.968489006136, -37.807403863519], [144.968488501881, -37.807404521845], [144.968488070933, -37.80740521251], [144.968487716467, -37.807405930431], [144.96848744109, -37.807406670322], [144.96848724683, -37.807407426736], [144.968487135118, -37.807408194105], [144.968487106775, -37.807408966779], [144.968487162011, -37.807409739071], [144.968487300418, -37.807410505294], [144.968487520978, -37.807411259808], [144.968487793128, -37.807412005444], [144.968615122875, -37.807688598897], [144.968615333988, -37.807688963569], [144.96861557087, -37.807689317429], [144.968615846131, -37.807689653503], [144.968616157608, -37.807689969151], [144.968616502854, -37.807690261895], [144.968616879158, -37.807690529433], [144.968617283564, -37.807690769665], [144.968617712894, -37.807690980704], [144.968618163776, -37.807691160891], [144.968618632669, -37.807691308812], [144.968619115888, -37.807691423304], [144.968619609638, -37.807691503468], [144.96862011004, -37.807691548674], [144.968620613164, -37.807691558566], [144.968621115057, -37.807691533069], [144.968621611777, -37.807691472381], [144.968622099421, -37.807691376979], [144.968622574159, -37.807691247613], [144.968623032261, -37.807691085299], [144.96862347013, -37.807690891312], [144.968623884325, -37.807690667175], [144.968624271592, -37.807690414651], [144.96862462889, -37.807690135722], [144.968624953412, -37.807689832579], [144.968625242608, -37.807689507604], [144.968625494207, -37.807689163349], [144.968625706233, -37.80768880252], [144.968625877019, -37.807688427949], [144.968626005224, -37.807688042581], [144.968626084849, -37.807687648913], [144.968669902569, -37.807426979515], [144.968669992567, -37.807426201144], [144.968669987023, -37.807425418602], [144.968669895967, -37.807424638845], [144.968669720084, -37.807423867754], [144.968669460701, -37.807423111143], [144.968669119774, -37.807422374717], [144.968668699873, -37.80742166403], [144.968668204165, -37.807420984439], [144.968667636387, -37.807420341069], [144.968667000821, -37.807419738772], [144.968666302259, -37.807419182089], [144.968665545969, -37.807418675218], [144.968664737654, -37.807418221981], [144.968663883407, -37.807417825795], [144.968662989672, -37.807417489649], [144.968662063187, -37.807417216075], [144.968661110937, -37.807417007139], [144.968660141392, -37.807416856723], [144.968966949046, -37.807449174331]]]]}}