{"type": "Feature", "properties": {"seg_id": "21608", "street_id": "21608", "name": "Intersection of Victoria Street and Swanston Street", "str_type": "Arterial", "status_id": "1", "seg_part": "1", "poly_area": "911", "gisid": "1852"}, "geometry": {"type": "MultiPolygon", "coordinates": [[[[144.962750319694, -37.806496554486], [144.963085981899, -37.806533343631], [144.963041387335, -37.806806217283], [144.962872254046, -37.806785379672], [144.962702558179, -37.806767740274], [144.962750319694, -37.806496554486]]]]}}