{"type": "Feature", "properties": {"seg_id": "21617", "street_id": "21617", "name": "Intersection of Victoria Street and Exhibition Street", "str_type": "Arterial", "status_id": "1", "seg_part": "1", "poly_area": "910", "gisid": "1853"}, "geometry": {"type": "MultiPolygon", "coordinates": [[[[144.968660141392, -37.807416856723], [144.968634757007, -37.807414183005], [144.9686808233, -37.807141664946], [144.969017674199, -37.807174635838], [144.968966949046, -37.807449174331], [144.968660141392, -37.807416856723]]]]}}