{"type": "Feature", "properties": {"seg_id": "21613", "street_id": "21613", "name": "Grange Place from MacKenzie Street", "str_type": "Council Minor", "status_id": "3", "seg_part": "1", "poly_area": "354", "gisid": "1212"}, "geometry": {"type": "MultiPolygon", "coordinates": [[[[144.966699197343, -37.807643291073], [144.96689919004, -37.808068266257], [144.966844748097, -37.808083937671], [144.96682252037, -37.808091067899], [144.966626337804, -37.807664970631], [144.966667533868, -37.807652505879], [144.966699197343, -37.807643291073]]]]}}