{"type": "Feature", "properties": {"seg_id": "21610", "street_id": "21610", "name": "Grant Lane from Exhibition Street", "str_type": "Council Minor", "status_id": "3", "seg_part": "1", "poly_area": "223", "gisid": "1209"}, "geometry": {"type": "MultiPolygon", "coordinates": [[[[144.968340019128, -37.807614059285], [144.968351831433, -37.807639895276], [144.967922846629, -37.807769430647], [144.96782550714, -37.80755766296], [144.967874434492, -37.807543132333], [144.967877319389, -37.807549476842], [144.967880201102, -37.807555813186], [144.96795901228, -37.807729107951], [144.968340019128, -37.807614059285]]]]}}