{"type": "Feature", "properties": {"seg_id": "21626", "street_id": "21626", "name": "Therry Street between Victoria Street and Elizabeth Street", "str_type": "Council Major", "status_id": "2", "seg_part": "1", "poly_area": "2833", "gisid": "1221"}, "geometry": {"type": "MultiPolygon", "coordinates": [[[[144.960085791541, -37.807153739546], [144.960008061257, -37.806983175483], [144.961199548193, -37.80663396431], [144.961210968791, -37.806622985652], [144.961208521446, -37.806605751533], [144.961194754084, -37.806596623962], [144.961291048817, -37.806607146117], [144.961771541445, -37.806661991674], [144.960085791541, -37.807153739546]]]]}}