{"type": "Feature", "properties": {"seg_id": "21629", "street_id": "21629", "name": "Therry Street between Elizabeth Street and Queen Street", "str_type": "Council Major", "status_id": "2", "seg_part": "1", "poly_area": "2893", "gisid": "1224"}, "geometry": {"type": "MultiPolygon", "coordinates": [[[[144.95820553639, -37.807700342534], [144.95824073412, -37.807490901321], [144.959686409136, -37.80706791683], [144.959759761149, -37.807241909011], [144.959304027031, -37.807376335673], [144.959261644247, -37.807388836744], [144.95820553639, -37.807700342534]]]]}}