{"type": "Feature", "properties": {"seg_id": "21635", "street_id": "21635", "name": "Cl1184 from Queen Street", "str_type": "Council Minor", "status_id": "3", "seg_part": "1", "poly_area": "323", "gisid": "1230"}, "geometry": {"type": "MultiPolygon", "coordinates": [[[[144.958054930659, -37.808552203511], [144.958061920602, -37.808512667577], [144.958503731398, -37.80836694704], [144.958510336884, -37.808355011034], [144.958409617576, -37.808135647052], [144.958463712073, -37.808133190187], [144.958537207968, -37.808292113409], [144.958563238651, -37.808349181073], [144.95857737018, -37.808380017383], [144.958650221219, -37.808535193078], [144.958640634409, -37.808538003467], [144.958567924989, -37.808383130313], [144.958054930659, -37.808552203511]]]]}}