{"type": "Feature", "properties": {"seg_id": "21633", "street_id": "21633", "name": "Franklin Street between Swanston Street and Elizabeth Street", "str_type": "Council Major", "status_id": "2", "seg_part": "1", "poly_area": "6312", "gisid": "1228"}, "geometry": {"type": "MultiPolygon", "coordinates": [[[[144.961485486225, -37.80800767201], [144.961446713148, -37.808019554167], [144.960594698341, -37.808263091704], [144.960473779409, -37.808000189799], [144.96087041132, -37.807884472755], [144.960903017538, -37.807875204651], [144.962615783854, -37.807380386379], [144.962738348774, -37.807647536672], [144.962151663034, -37.807817952867], [144.962043118449, -37.807848588804], [144.961485486225, -37.80800767201]]]]}}