{"type": "Feature", "properties": {"seg_id": "21637", "street_id": "21637", "name": "Anthony Street between Franklin Street and A'Beckett Street", "str_type": "Council Minor", "status_id": "3", "seg_part": "1", "poly_area": "877", "gisid": "1232"}, "geometry": {"type": "MultiPolygon", "coordinates": [[[[144.958828073348, -37.808774116604], [144.958915980414, -37.808747208277], [144.95932108839, -37.809599170327], [144.959224244823, -37.809627139751], [144.959140217068, -37.809446216053], [144.95912794139, -37.809419784482], [144.958919033013, -37.808969970606], [144.958912136037, -37.808955121336], [144.958828073348, -37.808774116604]]]]}}