{"type": "Feature", "properties": {"seg_id": "21647", "street_id": "21647", "name": "Elizabeth Street between La Trobe Street and Little La Trobe Street", "str_type": "Council Major", "status_id": "2", "seg_part": "1", "poly_area": "1376", "gisid": "1241"}, "geometry": {"type": "MultiPolygon", "coordinates": [[[[144.96146224624, -37.81014547894], [144.961138651022, -37.810239874478], [144.960961901465, -37.809854698165], [144.961283984369, -37.809761669224], [144.96146224624, -37.81014547894]]]]}}