{"type": "Feature", "properties": {"seg_id": "21643", "street_id": "21643", "name": "A'Beckett Street between Swanston Street and Elizabeth Street", "str_type": "Council Major", "status_id": "2", "seg_part": "1", "poly_area": "4071", "gisid": "1237"}, "geometry": {"type": "MultiPolygon", "coordinates": [[[[144.960992922707, -37.809115103858], [144.961385248941, -37.809004231022], [144.961420060818, -37.808994077261], [144.961717763493, -37.808907706434], [144.961751913579, -37.808898112464], [144.961756944572, -37.808896699089], [144.962439277604, -37.808696682774], [144.962547350638, -37.808666299671], [144.962750358031, -37.808605819521], [144.962802473618, -37.808590031369], [144.963128769253, -37.808496394269], [144.963208857311, -37.808667448605], [144.961071723901, -37.809290415184], [144.960992922707, -37.809115103858]]]]}}