{"type": "Feature", "properties": {"seg_id": "21645", "street_id": "21645", "name": "Literature Lane between Little La Trobe Street and Little La Trobe Street", "str_type": "Council Minor", "status_id": "3", "seg_part": "1", "poly_area": "995", "gisid": "1239"}, "geometry": {"type": "MultiPolygon", "coordinates": [[[[144.96295898064, -37.809175877623], [144.962893211639, -37.809194926203], [144.962822006025, -37.809039420135], [144.961669971302, -37.809377519379], [144.961739765133, -37.809535091503], [144.961675383224, -37.809553449672], [144.961578899628, -37.809343517648], [144.962860177383, -37.808966580554], [144.962861716881, -37.808969913604], [144.962878788644, -37.809004764558], [144.962889823552, -37.80902187595], [144.96295898064, -37.809175877623]]]]}}