{"type": "Feature", "properties": {"seg_id": "21640", "street_id": "21640", "name": "Stewart Street between Franklin Street and A'Beckett Street", "str_type": "Council Minor", "status_id": "3", "seg_part": "1", "poly_area": "1016", "gisid": "1235"}, "geometry": {"type": "MultiPolygon", "coordinates": [[[[144.962439277604, -37.808696682774], [144.962043118449, -37.807848588804], [144.962151663034, -37.807817952867], [144.962348460437, -37.808239886478], [144.962547350638, -37.808666299671], [144.962439277604, -37.808696682774]]]]}}