{"type": "Feature", "properties": {"seg_id": "21657", "street_id": "21657", "name": "Barrett Street between Chelmsford Street and Fink Street", "str_type": "Council Major", "status_id": "2", "seg_part": "1", "poly_area": "1268", "gisid": "2242"}, "geometry": {"type": "MultiPolygon", "coordinates": [[[[144.934133671497, -37.797072497703], [144.934122568658, -37.797037660902], [144.933995647669, -37.796690779413], [144.934182289567, -37.796711374183], [144.934373687381, -37.797243668425], [144.934444192036, -37.797437634668], [144.934256075611, -37.797416497155], [144.934133671497, -37.797072497703]]]]}}