{"type": "Feature", "properties": {"seg_id": "21651", "street_id": "21651", "name": "Spencer Street between Stanley Street and Roden Street", "str_type": "Arterial", "status_id": "1", "seg_part": "1", "poly_area": "2350", "gisid": "1339"}, "geometry": {"type": "MultiPolygon", "coordinates": [[[[144.948449738259, -37.808447743191], [144.948145035197, -37.808159724859], [144.948133497507, -37.808149169319], [144.948121959822, -37.808138613778], [144.947882291516, -37.807923236203], [144.948131702265, -37.807735875604], [144.948288866713, -37.80787544034], [144.948426610866, -37.808004257952], [144.948715914197, -37.808282355722], [144.948449738259, -37.808447743191]]]]}}