{"type": "Feature", "properties": {"seg_id": "21672", "street_id": "21672", "name": "Lloyd Street between Dynon Road and South Kensington Railway", "str_type": "Council Major", "status_id": "2", "seg_part": "1", "poly_area": "15468", "gisid": "2257"}, "geometry": {"type": "MultiPolygon", "coordinates": [[[[144.930844309391, -37.801716372127], [144.930955800439, -37.801648034192], [144.931890674826, -37.801074996266], [144.932089630208, -37.80095304325], [144.932145348034, -37.800918890324], [144.932568097448, -37.801010137429], [144.932625194109, -37.800891501857], [144.932807896824, -37.800930846257], [144.932750354241, -37.801049475895], [144.93278826423, -37.801057658076], [144.932612753139, -37.801203130855], [144.932456650108, -37.801293947316], [144.93187947571, -37.801629726684], [144.931857261408, -37.801605671743], [144.931924855685, -37.801566371839], [144.931858421787, -37.801491317033], [144.931060274106, -37.801887275666], [144.931248945773, -37.801978184348], [144.931262370285, -37.801988729603], [144.931189662488, -37.802031027599], [144.930953129005, -37.802168629102], [144.930651578691, -37.802344053419], [144.930545113522, -37.802408838628], [144.92953544431, -37.80299052636], [144.928885760909, -37.802916818849], [144.930130687179, -37.80215377924], [144.930429550403, -37.801970594995], [144.930844309391, -37.801716372127]]]]}}