{"type": "Feature", "properties": {"seg_id": "21671", "street_id": "21671", "name": "Arden Street between Elizabeth Street and Bellair Street", "str_type": "Council Major", "status_id": "2", "seg_part": "1", "poly_area": "1318", "gisid": "2256"}, "geometry": {"type": "MultiPolygon", "coordinates": [[[[144.933370800656, -37.799008842712], [144.933422728387, -37.799153343395], [144.932538258018, -37.799054070866], [144.932453485249, -37.799045479494], [144.932396602527, -37.798899498192], [144.933370800656, -37.799008842712]]]]}}