{"type": "Feature", "properties": {"seg_id": "21683", "street_id": "21683", "name": "Dynon Road between Kensington Road and Sims Street", "str_type": "Arterial", "status_id": "1", "seg_part": "1", "poly_area": "13093", "gisid": "2208"}, "geometry": {"type": "MultiPolygon", "coordinates": [[[[144.910931880788, -37.801091121577], [144.910933844649, -37.801080998426], [144.911015288529, -37.800900205886], [144.91067120505, -37.80087653141], [144.910713990104, -37.800828177638], [144.910984866994, -37.800857673491], [144.911031297774, -37.800803627599], [144.911140555221, -37.800709176531], [144.911167558184, -37.800773640407], [144.911976691404, -37.800895239341], [144.912459960286, -37.800967939125], [144.91253978761, -37.800946843877], [144.912813482127, -37.8009422176], [144.912862120707, -37.801030261604], [144.912941076806, -37.801103174263], [144.913043448484, -37.801154584482], [144.913372835429, -37.80121562631], [144.914905486594, -37.801382475399], [144.914366044, -37.801693937528], [144.913955589774, -37.801603407164], [144.91336333881, -37.801492597698], [144.912539533538, -37.801403616513], [144.912581187077, -37.801315307532], [144.912119974938, -37.801265163577], [144.911287491674, -37.801219137194], [144.911216551626, -37.801218315962], [144.911147967255, -37.801221641303], [144.911104352912, -37.801225501464], [144.910931880788, -37.801091121577]]]]}}