{"type": "Feature", "properties": {"seg_id": "21680", "street_id": "21680", "name": "Dynon Road between Lloyd Street and Kensington Road", "str_type": "Arterial", "status_id": "1", "seg_part": "1", "poly_area": "36536", "gisid": "2259"}, "geometry": {"type": "MultiPolygon", "coordinates": [[[[144.91716756104, -37.801634576004], [144.928885760909, -37.802916818849], [144.928501177638, -37.803152531776], [144.917434749708, -37.801937170107], [144.917376406892, -37.801930717752], [144.916883756062, -37.801876228035], [144.916742508098, -37.801860604657], [144.916494085647, -37.801833126978], [144.916403504537, -37.801823410144], [144.915487109963, -37.801725099911], [144.915004501845, -37.801673322328], [144.91522253949, -37.801419696525], [144.916360958976, -37.801547860605], [144.916695373683, -37.801582883327], [144.91716756104, -37.801634576004]]]]}}