{"type": "Feature", "properties": {"seg_id": "21681", "street_id": "21681", "name": "Intersection of Dynon Road and Kensington Road", "str_type": "Arterial", "status_id": "1", "seg_part": "1", "poly_area": "1719", "gisid": "2260"}, "geometry": {"type": "MultiPolygon", "coordinates": [[[[144.914905486594, -37.801382475399], [144.91522253949, -37.801419696525], [144.915004501845, -37.801673322328], [144.914936566328, -37.801687972858], [144.91487769701, -37.801806785283], [144.914653330661, -37.801757300444], [144.914366044, -37.801693937528], [144.914905486594, -37.801382475399]]]]}}