{"type": "Feature", "properties": {"seg_id": "21691", "street_id": "21691", "name": "Cl1662 from Derby Street", "str_type": "Council Minor", "status_id": "3", "seg_part": "1", "poly_area": "228", "gisid": "2266"}, "geometry": {"type": "MultiPolygon", "coordinates": [[[[144.926615957589, -37.795182153352], [144.927240681272, -37.794817251348], [144.927258749669, -37.794838773971], [144.926949030228, -37.795020569045], [144.926954060959, -37.795026262899], [144.926640982261, -37.795210359079], [144.926615957589, -37.795182153352]]]]}}