{"type": "Feature", "properties": {"seg_id": "21696", "street_id": "21696", "name": "La Nauze Lane from MacAulay Road", "str_type": "Council Minor", "status_id": "3", "seg_part": "1", "poly_area": "101", "gisid": "2271"}, "geometry": {"type": "MultiPolygon", "coordinates": [[[[144.929185892644, -37.794424421317], [144.929216644807, -37.79442750337], [144.929163610057, -37.794690399308], [144.929036496936, -37.794673348756], [144.929040063518, -37.794649332116], [144.929127798845, -37.794659651465], [144.929143061933, -37.794653548561], [144.929185892644, -37.794424421317]]]]}}