{"type": "Feature", "properties": {"seg_id": "21695", "street_id": "21695", "name": "Gower Street between Macaulay Road and Derby Street", "str_type": "Council Major", "status_id": "2", "seg_part": "1", "poly_area": "3870", "gisid": "2270"}, "geometry": {"type": "MultiPolygon", "coordinates": [[[[144.93006348172, -37.794524450885], [144.92810477237, -37.795662952896], [144.927994525578, -37.795727928052], [144.927421832372, -37.796060736996], [144.927331500857, -37.795960820184], [144.929839911907, -37.794499229048], [144.93006348172, -37.794524450885]]]]}}