{"type": "Feature", "properties": {"seg_id": "21693", "street_id": "21693", "name": "Macaulay Road between Henry Street and Gower Street", "str_type": "Council Major", "status_id": "2", "seg_part": "1", "poly_area": "1862", "gisid": "2268"}, "geometry": {"type": "MultiPolygon", "coordinates": [[[[144.928905112891, -37.794211235131], [144.930037589934, -37.794342640875], [144.929839911907, -37.794499229048], [144.929216644807, -37.79442750337], [144.929185892644, -37.794424421317], [144.928859327204, -37.794388290956], [144.928905112891, -37.794211235131]]]]}}