{"type": "Feature", "properties": {"seg_id": "21692", "street_id": "21692", "name": "Cl1700 from Henry Street", "str_type": "Council Minor", "status_id": "3", "seg_part": "1", "poly_area": "196", "gisid": "2267"}, "geometry": {"type": "MultiPolygon", "coordinates": [[[[144.928099293486, -37.794671031342], [144.928071185962, -37.794688524257], [144.92794559894, -37.794570531001], [144.927898561451, -37.794533521272], [144.927749383087, -37.794568300492], [144.927711327287, -37.794523819398], [144.927772005834, -37.794490444267], [144.927954865529, -37.794515262861], [144.927951827563, -37.794539450977], [144.927961181237, -37.794545283931], [144.927996144608, -37.794539699014], [144.928139070972, -37.794459846335], [144.928147194171, -37.794468667547], [144.92803039021, -37.794535822699], [144.928027209142, -37.794538266587], [144.927999949205, -37.794566070305], [144.927999651922, -37.794578864442], [144.928099293486, -37.794671031342]]]]}}