{"type": "Feature", "properties": {"seg_id": "21715", "street_id": "21715", "name": "Tennyson Street between Southey Street and Arden Street", "str_type": "Council Major", "status_id": "2", "seg_part": "1", "poly_area": "1574", "gisid": "2289"}, "geometry": {"type": "MultiPolygon", "coordinates": [[[[144.930478217829, -37.797832389139], [144.92995235633, -37.798139558564], [144.929918387645, -37.798161121306], [144.929561964865, -37.798368097348], [144.929459193569, -37.798258684949], [144.930429170305, -37.797689585167], [144.930478217829, -37.797832389139]]]]}}