{"type": "Feature", "properties": {"seg_id": "21718", "street_id": "21718", "name": "Derby Street between Tennyson Street and Ormond Street", "str_type": "Council Major", "status_id": "2", "seg_part": "1", "poly_area": "1541", "gisid": "2292"}, "geometry": {"type": "MultiPolygon", "coordinates": [[[[144.929030306369, -37.798099885036], [144.929006229698, -37.798073738537], [144.928759777368, -37.797806098468], [144.928944564941, -37.797701206713], [144.929190138795, -37.797967416113], [144.929213051264, -37.797992022726], [144.929459193569, -37.798258684949], [144.929275331521, -37.798365993594], [144.929030306369, -37.798099885036]]]]}}