{"type": "Feature", "properties": {"seg_id": "21724", "street_id": "21724", "name": "Intersection of Derby Street and Gower Street", "str_type": "Council Major", "status_id": "2", "seg_part": "1", "poly_area": "207", "gisid": "2298"}, "geometry": {"type": "MultiPolygon", "coordinates": [[[[144.927331500857, -37.795960820184], [144.927421832372, -37.796060736996], [144.927283344357, -37.796141214769], [144.927193845125, -37.796044272856], [144.927191895162, -37.79604216133], [144.927331500857, -37.795960820184]]]]}}