{"type": "Feature", "properties": {"seg_id": "21723", "street_id": "21723", "name": "Derby Street between Henry Street and Gower Street", "str_type": "Council Major", "status_id": "2", "seg_part": "1", "poly_area": "942", "gisid": "2297"}, "geometry": {"type": "MultiPolygon", "coordinates": [[[[144.927331500857, -37.795960820184], [144.927191895162, -37.79604216133], [144.926782734096, -37.795598969513], [144.926779642193, -37.795595621293], [144.926921888623, -37.795512871718], [144.927112961956, -37.795722884042], [144.927134894578, -37.795747962241], [144.927331500857, -37.795960820184]]]]}}