{"type": "Feature", "properties": {"seg_id": "21720", "street_id": "21720", "name": "Derby Street between Ormond Street and Wolseley Parade", "str_type": "Council Major", "status_id": "2", "seg_part": "1", "poly_area": "1563", "gisid": "2294"}, "geometry": {"type": "MultiPolygon", "coordinates": [[[[144.928290610419, -37.796994077694], [144.928537437833, -37.797259968036], [144.928564708835, -37.797286680882], [144.928809205668, -37.797553133457], [144.928622387909, -37.797659561841], [144.92810546647, -37.79710257047], [144.928290610419, -37.796994077694]]]]}}