{"type": "Feature", "properties": {"seg_id": "21722", "street_id": "21722", "name": "Intersection of Derby Street and Henry Street", "str_type": "Council Major", "status_id": "2", "seg_part": "1", "poly_area": "214", "gisid": "2296"}, "geometry": {"type": "MultiPolygon", "coordinates": [[[[144.926687207834, -37.795495497557], [144.926828660672, -37.795413020694], [144.926921888623, -37.795512871718], [144.926779642193, -37.795595621293], [144.926691481343, -37.795500126422], [144.926687207834, -37.795495497557]]]]}}