{"type": "Feature", "properties": {"seg_id": "21732", "street_id": "21732", "name": "Cl0179 from Derby Street", "str_type": "Council Minor", "status_id": "3", "seg_part": "1", "poly_area": "153", "gisid": "2306"}, "geometry": {"type": "MultiPolygon", "coordinates": [[[[144.927112961956, -37.795722884042], [144.927552952779, -37.795470417686], [144.927561617816, -37.795479885602], [144.927573067692, -37.795492393519], [144.927134894578, -37.795747962241], [144.927112961956, -37.795722884042]]]]}}