{"type": "Feature", "properties": {"seg_id": "21739", "street_id": "21739", "name": "Altona Street between Ormond Street and Kensington Road", "str_type": "Council Major", "status_id": "2", "seg_part": "1", "poly_area": "2529", "gisid": "2314"}, "geometry": {"type": "MultiPolygon", "coordinates": [[[[144.926942857323, -37.798639473972], [144.925849902221, -37.797456293939], [144.925991216084, -37.797373921151], [144.927085863293, -37.798556332145], [144.926942857323, -37.798639473972]]], [[[144.924688172373, -37.795966344841], [144.925868273928, -37.797241118258], [144.925727134521, -37.797323389438], [144.925125194015, -37.796671736158], [144.925085661715, -37.796694774725], [144.924508210862, -37.796069619865], [144.924547954627, -37.796046810508], [144.924688172373, -37.795966344841]]]]}}