{"type": "Feature", "properties": {"seg_id": "21735", "street_id": "21735", "name": "Tennyson Street between Altona Street and Childers Street", "str_type": "Council Major", "status_id": "2", "seg_part": "1", "poly_area": "886", "gisid": "2309"}, "geometry": {"type": "MultiPolygon", "coordinates": [[[[144.927326095623, -37.799677415567], [144.927232424997, -37.799732221731], [144.927002599571, -37.799697829257], [144.927190120341, -37.799588014913], [144.927596643034, -37.799346616372], [144.927700544717, -37.799458324818], [144.927448597651, -37.799605739437], [144.927326095623, -37.799677415567]]]]}}