{"type": "Feature", "properties": {"seg_id": "21742", "street_id": "21742", "name": "Intersection of Kensington Road and Hobsons Road", "str_type": "Council Major", "status_id": "2", "seg_part": "1", "poly_area": "472", "gisid": "2317"}, "geometry": {"type": "MultiPolygon", "coordinates": [[[[144.920165304193, -37.798343917406], [144.920368265346, -37.798445436643], [144.920203738299, -37.798539847695], [144.920136229194, -37.798578586321], [144.919954019326, -37.798467315763], [144.920137737304, -37.798359794014], [144.920165304193, -37.798343917406]]]]}}