{"type": "Feature", "properties": {"seg_id": "21747", "street_id": "21747", "name": "Younghusband Lane between Altona Street and Childers Street", "str_type": "Council Minor", "status_id": "3", "seg_part": "1", "poly_area": "296", "gisid": "2322"}, "geometry": {"type": "MultiPolygon", "coordinates": [[[[144.926566852248, -37.799492565807], [144.927326548706, -37.799050575885], [144.927350744259, -37.799077171795], [144.927069938031, -37.799240561034], [144.927056019476, -37.799248659986], [144.926621514856, -37.799501476586], [144.926566852248, -37.799492565807]]]]}}