{"type": "Feature", "properties": {"seg_id": "21749", "street_id": "21749", "name": "Kensington Road between Derby Street and Altona Street", "str_type": "Council Major", "status_id": "2", "seg_part": "1", "poly_area": "3533", "gisid": "2324"}, "geometry": {"type": "MultiPolygon", "coordinates": [[[[144.926027131763, -37.795196737605], [144.92596276645, -37.795233734488], [144.924688172373, -37.795966344841], [144.92455192802, -37.795817402283], [144.924814566786, -37.795666122322], [144.924900045703, -37.795617894616], [144.926140612436, -37.794903428822], [144.926278176159, -37.79505243877], [144.926027131763, -37.795196737605]]]]}}