{"type": "Feature", "properties": {"seg_id": "21744", "street_id": "21744", "name": "Cl0201 from Hampden Road", "str_type": "Council Minor", "status_id": "3", "seg_part": "1", "poly_area": "178", "gisid": "2319"}, "geometry": {"type": "MultiPolygon", "coordinates": [[[[144.930420334717, -37.794834851641], [144.930425402292, -37.79486161544], [144.930202500607, -37.794886751896], [144.930070532467, -37.79496102408], [144.930067273308, -37.794980954828], [144.930196910284, -37.795122807125], [144.930171740605, -37.795139622228], [144.930010984753, -37.794960418994], [144.930196510059, -37.794858881446], [144.930420334717, -37.794834851641]]]]}}