{"type": "Feature", "properties": {"seg_id": "21741", "street_id": "21741", "name": "Childers Street between Ormond Street and Kensington Road", "str_type": "Council Major", "status_id": "2", "seg_part": "1", "poly_area": "9217", "gisid": "2316"}, "geometry": {"type": "MultiPolygon", "coordinates": [[[[144.920368265346, -37.798445436643], [144.925856432283, -37.799272197099], [144.925817318292, -37.79929497651], [144.925917665283, -37.79944945572], [144.920136229194, -37.798578586321], [144.920203738299, -37.798539847695], [144.920368265346, -37.798445436643]]]]}}