{"type": "Feature", "properties": {"seg_id": "21758", "street_id": "21758", "name": "Bangalore Street between Epsom Road and Cairncross Lane", "str_type": "Council Major", "status_id": "2", "seg_part": "1", "poly_area": "4405", "gisid": "2333"}, "geometry": {"type": "MultiPolygon", "coordinates": [[[[144.926056076783, -37.793086424699], [144.926380008249, -37.792900150935], [144.926485744922, -37.793004627483], [144.926159476209, -37.793190330485], [144.926133652167, -37.793207349485], [144.923838353582, -37.794524371331], [144.923831227698, -37.79452845959], [144.923758263959, -37.794570325012], [144.923654286573, -37.794462457123], [144.9244254816, -37.794021848649], [144.924454913348, -37.794005712783], [144.925239627682, -37.793557913229], [144.926024235965, -37.793100571115], [144.926056076783, -37.793086424699]]]]}}