{"type": "Feature", "properties": {"seg_id": "21757", "street_id": "21757", "name": "Cl1674 from Cl0534", "str_type": "Council Minor", "status_id": "3", "seg_part": "1", "poly_area": "755", "gisid": "2332"}, "geometry": {"type": "MultiPolygon", "coordinates": [[[[144.926398027402, -37.793484627759], [144.92635197521, -37.793480257248], [144.924087973983, -37.794781478656], [144.924067816109, -37.794760716263], [144.926328954005, -37.793459215019], [144.926337626824, -37.793421563507], [144.926398027402, -37.793484627759]]]]}}