{"type": "Feature", "properties": {"seg_id": "21755", "street_id": "21755", "name": "The Ridgeway between Epsom Road and Cairncross Lane", "str_type": "Council Major", "status_id": "2", "seg_part": "1", "poly_area": "4384", "gisid": "2330"}, "geometry": {"type": "MultiPolygon", "coordinates": [[[[144.926632701017, -37.793682134252], [144.92695459826, -37.793496363826], [144.927061732779, -37.793608093686], [144.926738773307, -37.79379244888], [144.926709440721, -37.793810298399], [144.926128081567, -37.794143122606], [144.92609932905, -37.794159711528], [144.924424566403, -37.795128163833], [144.924318218456, -37.795018628122], [144.926260766057, -37.793897968972], [144.92660451262, -37.793700490522], [144.926632701017, -37.793682134252]]]]}}