{"type": "Feature", "properties": {"seg_id": "21762", "street_id": "21762", "name": "Westbourne Road between Epsom Road and Belmont Road", "str_type": "Council Major", "status_id": "2", "seg_part": "1", "poly_area": "2053", "gisid": "2337"}, "geometry": {"type": "MultiPolygon", "coordinates": [[[[144.925069815002, -37.791539297674], [144.923662951916, -37.792360599492], [144.923605403563, -37.79239063118], [144.923512660291, -37.792289338842], [144.923705843578, -37.792177948025], [144.923712585071, -37.792185310509], [144.924982664134, -37.791452959944], [144.925069815002, -37.791539297674]]]]}}