{"type": "Feature", "properties": {"seg_id": "21761", "street_id": "21761", "name": "Bayswater Road between Belmont Road and Westbourne Road", "str_type": "Council Major", "status_id": "2", "seg_part": "1", "poly_area": "4224", "gisid": "2336"}, "geometry": {"type": "MultiPolygon", "coordinates": [[[[144.921512546801, -37.794094622974], [144.921545243467, -37.794111979873], [144.922002900565, -37.794362075066], [144.923731073911, -37.793375875283], [144.923758149986, -37.793355896009], [144.924194105271, -37.793104718205], [144.924249135071, -37.79307055142], [144.924328946572, -37.793157567779], [144.924113491236, -37.793282012501], [144.924091092397, -37.793294950531], [144.923355272229, -37.793719946083], [144.923324075625, -37.793737987172], [144.923152942939, -37.793835903408], [144.923131208541, -37.7938483393], [144.92205359064, -37.794464901124], [144.922002822967, -37.794495992458], [144.921939548403, -37.794461392887], [144.921848190727, -37.794411435582], [144.921476016641, -37.794207922506], [144.921325604171, -37.794124348713], [144.920960540381, -37.793923444967], [144.920932767484, -37.793923687318], [144.920997738842, -37.793884441052], [144.921062710157, -37.793845193847], [144.921512546801, -37.794094622974]]]]}}