{"type": "Feature", "properties": {"seg_id": "21764", "street_id": "21764", "name": "Intersection of Epsom Road and Bayswater Road", "str_type": "Council Major", "status_id": "2", "seg_part": "1", "poly_area": "277", "gisid": "2339"}, "geometry": {"type": "MultiPolygon", "coordinates": [[[[144.92597172067, -37.792176144441], [144.926057458617, -37.792265160091], [144.925829740114, -37.792323810982], [144.925808846352, -37.792302770075], [144.925721819662, -37.79221513828], [144.92597172067, -37.792176144441]]]]}}