{"type": "Feature", "properties": {"seg_id": "21779", "street_id": "21779", "name": "Sherwin Street between Graham Street and McTaggart Street", "str_type": "Council Major", "status_id": "2", "seg_part": "1", "poly_area": "573", "gisid": "2354"}, "geometry": {"type": "MultiPolygon", "coordinates": [[[[144.921275226431, -37.792483707286], [144.921781964857, -37.792163542267], [144.921852666416, -37.792234012584], [144.921862677009, -37.792244945631], [144.92183934388, -37.792242429655], [144.921359225031, -37.792545775759], [144.921355912917, -37.792565126759], [144.92134546162, -37.792553711875], [144.921275226431, -37.792483707286]]]]}}