{"type": "Feature", "properties": {"seg_id": "21774", "street_id": "21774", "name": "Rogan Lane from Woodruff Street", "str_type": "Council Minor", "status_id": "3", "seg_part": "1", "poly_area": "621", "gisid": "2349"}, "geometry": {"type": "MultiPolygon", "coordinates": [[[[144.9229040934, -37.791869405101], [144.922927879916, -37.791872394767], [144.923253936862, -37.791684389081], [144.92347226817, -37.791922844961], [144.92313243484, -37.79211879455], [144.923088388602, -37.792070689971], [144.923353826919, -37.791917637562], [144.923357594208, -37.79189876043], [144.923247373511, -37.791778381056], [144.92322358701, -37.791775391455], [144.92295814896, -37.791928443581], [144.9229040934, -37.791869405101]]]]}}