{"type": "Feature", "properties": {"seg_id": "21775", "street_id": "21775", "name": "Epsom Road between Westbourne Road and Smithfield Road", "str_type": "Council Major", "status_id": "2", "seg_part": "1", "poly_area": "5448", "gisid": "2350"}, "geometry": {"type": "MultiPolygon", "coordinates": [[[[144.924760371368, -37.79091126602], [144.924930443321, -37.791089559024], [144.924745181243, -37.791204023024], [144.922941124653, -37.789312887969], [144.923124718346, -37.789196491352], [144.923158977334, -37.78923240888], [144.923535720366, -37.789627383824], [144.923686523697, -37.789785484203], [144.923911665338, -37.790021517141], [144.923966412527, -37.790078913706], [144.92475214794, -37.790902645577], [144.924760371368, -37.79091126602]]]]}}