{"type": "Feature", "properties": {"seg_id": "21780", "street_id": "21780", "name": "Graham Street between Westbourne Road and Sherwin Street", "str_type": "Council Major", "status_id": "2", "seg_part": "1", "poly_area": "1354", "gisid": "2355"}, "geometry": {"type": "MultiPolygon", "coordinates": [[[[144.921524482699, -37.792749241283], [144.921564522884, -37.792792973535], [144.921579472141, -37.792809300772], [144.921556509256, -37.792822540168], [144.921552741452, -37.792841417225], [144.921899094842, -37.793219702945], [144.921788876155, -37.793283253436], [144.921656072921, -37.793138206411], [144.921592008038, -37.7930682352], [144.921395141075, -37.792853215761], [144.921321716562, -37.792773049155], [144.921136851701, -37.792571134214], [144.921275226431, -37.792483707286], [144.92134546162, -37.792553711875], [144.921355912917, -37.792565126759], [144.921524482699, -37.792749241283]]]]}}