{"type": "Feature", "properties": {"seg_id": "21783", "street_id": "21783", "name": "Birch Lane between Neale Street and Graham Street", "str_type": "Council Minor", "status_id": "3", "seg_part": "1", "poly_area": "355", "gisid": "2358"}, "geometry": {"type": "MultiPolygon", "coordinates": [[[[144.921321716562, -37.792773049155], [144.921395141075, -37.792853215761], [144.921371354297, -37.792850226678], [144.920976401841, -37.79307794293], [144.920972633875, -37.793096819963], [144.920962624468, -37.793085885962], [144.920945960625, -37.793006402134], [144.921317949837, -37.792791926223], [144.921321716562, -37.792773049155]]]]}}