{"type": "Feature", "properties": {"seg_id": "21793", "street_id": "21793", "name": "Musgrove Mews between Stockmans Way and Halford Lane", "str_type": "Council Minor", "status_id": "3", "seg_part": "1", "poly_area": "1493", "gisid": "2369"}, "geometry": {"type": "MultiPolygon", "coordinates": [[[[144.9197939131, -37.791861614024], [144.920018142626, -37.79188998454], [144.920015979473, -37.791900749594], [144.920150517758, -37.791917771532], [144.920230684964, -37.791518735857], [144.920172881997, -37.791460634777], [144.920230800608, -37.791424346357], [144.920441853345, -37.791636484821], [144.920501651319, -37.791696590961], [144.920387524594, -37.791768096103], [144.920351557103, -37.791947130486], [144.920365692941, -37.791962603617], [144.920696433434, -37.792004448122], [144.92068481535, -37.792062280325], [144.920169084447, -37.791997030441], [144.920125292252, -37.792215010413], [144.920091656975, -37.792210754922], [144.920140901424, -37.791965638715], [144.919961517343, -37.791942942152], [144.919967934422, -37.791911001679], [144.919788550512, -37.791888305758], [144.9197939131, -37.791861614024]]]]}}