{"type": "Feature", "properties": {"seg_id": "21804", "street_id": "21804", "name": "Stockmans Way between Gatehouse Drive and Greenham Place", "str_type": "Council Major", "status_id": "2", "seg_part": "1", "poly_area": "1506", "gisid": "2380"}, "geometry": {"type": "MultiPolygon", "coordinates": [[[[144.920931558794, -37.792263028231], [144.920690303615, -37.792414184254], [144.920615990926, -37.792404782345], [144.920100257729, -37.792339532095], [144.920027382313, -37.792330312003], [144.919713438115, -37.79229059078], [144.919674464406, -37.792313012905], [144.919679824348, -37.792286337353], [144.919732887742, -37.792165363145], [144.919738250375, -37.792138671415], [144.919766521839, -37.792169618718], [144.920091656975, -37.792210754922], [144.920125292252, -37.792215010413], [144.920676945775, -37.792284804948], [144.920818172104, -37.792196320459], [144.920847135598, -37.792178173918], [144.920931558794, -37.792263028231]]]]}}