{"type": "Feature", "properties": {"seg_id": "21800", "street_id": "21800", "name": "Colonial Place between Howlett Street and Stockmans Way", "str_type": "Council Major", "status_id": "2", "seg_part": "1", "poly_area": "1249", "gisid": "2376"}, "geometry": {"type": "MultiPolygon", "coordinates": [[[[144.922805140064, -37.791060415936], [144.922581346007, -37.790835483715], [144.922567275971, -37.790821341236], [144.922377323529, -37.790630421089], [144.922366770196, -37.790619814648], [144.922321049527, -37.79057384667], [144.922310497345, -37.790563240244], [144.922120546213, -37.790372319714], [144.922096627712, -37.79037008725], [144.922109992953, -37.790361713252], [144.922216876733, -37.790294741265], [144.922230243082, -37.790286367272], [144.922227429975, -37.790305348618], [144.922443762827, -37.79052278549], [144.922503562775, -37.790582889765], [144.922674168111, -37.790754364483], [144.922744521843, -37.790825075059], [144.922957762903, -37.791039400593], [144.922896013042, -37.791078091118], [144.922805140064, -37.791060415936]]]]}}