{"type": "Feature", "properties": {"seg_id": "21802", "street_id": "21802", "name": "Gilbertson Walk between Colonial Place and Watkins Way", "str_type": "Council Minor", "status_id": "3", "seg_part": "1", "poly_area": "441", "gisid": "2378"}, "geometry": {"type": "MultiPolygon", "coordinates": [[[[144.921436345049, -37.791552905318], [144.92137302863, -37.791489264423], [144.921462133686, -37.791433435075], [144.921511381326, -37.791482933342], [144.922086111039, -37.79112282736], [144.921885605833, -37.790921299977], [144.921921248356, -37.790898967913], [144.92212175247, -37.791100495217], [144.922567275971, -37.790821341236], [144.922581346007, -37.790835483715], [144.921436345049, -37.791552905318]]]]}}