{"type": "Feature", "properties": {"seg_id": "21809", "street_id": "21809", "name": "Vincent Place from Stockmans Way", "str_type": "Council Minor", "status_id": "3", "seg_part": "1", "poly_area": "168", "gisid": "2386"}, "geometry": {"type": "MultiPolygon", "coordinates": [[[[144.920615990926, -37.792404782345], [144.920690303615, -37.792414184254], [144.920819806319, -37.792430567716], [144.920794735653, -37.792555363774], [144.920858053564, -37.792619005002], [144.920840231714, -37.792630171305], [144.920615990926, -37.792404782345]]]]}}