{"type": "Feature", "properties": {"seg_id": "21814", "street_id": "21814", "name": "Merino Mews between Francis Lane and Lascelles Square", "str_type": "Council Minor", "status_id": "3", "seg_part": "1", "poly_area": "1220", "gisid": "2176"}, "geometry": {"type": "MultiPolygon", "coordinates": [[[[144.91756503485, -37.794006814306], [144.917488902302, -37.794050611364], [144.917420913842, -37.794017392239], [144.91757683559, -37.793927694599], [144.917641916378, -37.793603814226], [144.917699301713, -37.793611092046], [144.917813927274, -37.793545150537], [144.918147914216, -37.793910745394], [144.91817169837, -37.793913754008], [144.918084373304, -37.793963990733], [144.918088165816, -37.793945116942], [144.917954890436, -37.7937992293], [144.917931106355, -37.793796219742], [144.917693675201, -37.793932810136], [144.91756503485, -37.794006814306]]]]}}