{"type": "Feature", "properties": {"seg_id": "21813", "street_id": "21813", "name": "Stockmans Way between Cakebread Mews and Willis Street", "str_type": "Council Major", "status_id": "2", "seg_part": "1", "poly_area": "1334", "gisid": "2175"}, "geometry": {"type": "MultiPolygon", "coordinates": [[[[144.918035092016, -37.792981370794], [144.917945043193, -37.792890857454], [144.91850003882, -37.792543151379], [144.918489485798, -37.792532544602], [144.918824167627, -37.792322863005], [144.918923194945, -37.79242240188], [144.918882311587, -37.792450584532], [144.918101969084, -37.792939472524], [144.918088602909, -37.792947846937], [144.918035092016, -37.792981370794]]]]}}