{"type": "Feature", "properties": {"seg_id": "21818", "street_id": "21818", "name": "Speakmen Street between Stockmans Way and The Crescent", "str_type": "Council Major", "status_id": "2", "seg_part": "1", "poly_area": "1576", "gisid": "2180"}, "geometry": {"type": "MultiPolygon", "coordinates": [[[[144.917341491883, -37.794326476624], [144.917448004885, -37.794339954702], [144.917907796389, -37.794398135746], [144.917968812974, -37.794386564743], [144.91838494022, -37.794147174523], [144.918464906269, -37.794234706675], [144.918474901622, -37.794245647845], [144.918451118507, -37.794242638407], [144.918212122779, -37.794380128585], [144.918198334964, -37.794388060286], [144.91808802883, -37.794451517379], [144.917975599807, -37.794516194871], [144.917426666848, -37.794446734824], [144.917320037141, -37.794433242045], [144.917090195228, -37.794404156958], [144.917051195384, -37.794426592142], [144.917083378033, -37.794266444548], [144.917111649154, -37.794297391568], [144.917341491883, -37.794326476624]]]]}}