{"type": "Feature", "properties": {"seg_id": "21812", "street_id": "21812", "name": "Willis Street between Stockmans Way and The Crescent", "str_type": "Council Major", "status_id": "2", "seg_part": "1", "poly_area": "1699", "gisid": "2174"}, "geometry": {"type": "MultiPolygon", "coordinates": [[[[144.918035092016, -37.792981370794], [144.918088602909, -37.792947846937], [144.918101969084, -37.792939472524], [144.91809859804, -37.792958788135], [144.918439087659, -37.793331501048], [144.918485047817, -37.793305061042], [144.918631651587, -37.793465536628], [144.918585691352, -37.79349197759], [144.918685648685, -37.793601392825], [144.91869564399, -37.793612333976], [144.918738959251, -37.793659746862], [144.918748954547, -37.793670688909], [144.91889889137, -37.793834811541], [144.918922674377, -37.793837820885], [144.918908886738, -37.793845752676], [144.918798583144, -37.793909210502], [144.918784794343, -37.793917142257], [144.918788586675, -37.793898268438], [144.918638649981, -37.793734145671], [144.918628654669, -37.793723204515], [144.918585339471, -37.793675790689], [144.918575344174, -37.793664849529], [144.918475386927, -37.793555434204], [144.918429426581, -37.793581875101], [144.918282824202, -37.793421398391], [144.91832878447, -37.79339495845], [144.917991576174, -37.793025836731], [144.917968213713, -37.793023269904], [144.91798158105, -37.793014895525], [144.918035092016, -37.792981370794]]]]}}