{"type": "Feature", "properties": {"seg_id": "21824", "street_id": "21824", "name": "McNamara Mews between Bateman Road and The Crescent", "str_type": "Council Minor", "status_id": "3", "seg_part": "1", "poly_area": "1498", "gisid": "2186"}, "geometry": {"type": "MultiPolygon", "coordinates": [[[[144.918876275816, -37.795107113955], [144.91887248343, -37.795125987772], [144.919149373557, -37.795429066731], [144.919173157085, -37.795432076039], [144.91941215458, -37.795294584881], [144.91941594684, -37.795275711043], [144.919492583443, -37.795359594319], [144.919559224521, -37.795432537365], [144.919099613719, -37.795696944942], [144.919002984937, -37.795591177337], [144.918979201367, -37.795588167994], [144.918763642321, -37.795712174595], [144.918736986343, -37.795682996672], [144.919035274235, -37.795511398505], [144.919039066605, -37.795492524683], [144.918925445029, -37.795368156644], [144.918976002696, -37.795339071665], [144.918812734318, -37.795160360564], [144.918788950894, -37.795157351186], [144.918876275816, -37.795107113955]]]]}}