{"type": "Feature", "properties": {"seg_id": "21822", "street_id": "21822", "name": "Simpson Walk from Stockmans Way", "str_type": "Council Minor", "status_id": "3", "seg_part": "1", "poly_area": "328", "gisid": "2184"}, "geometry": {"type": "MultiPolygon", "coordinates": [[[[144.916937662186, -37.794991559005], [144.916951965113, -37.794920381511], [144.916966101871, -37.794935855959], [144.917212763557, -37.794967068157], [144.917302575827, -37.794978433345], [144.917706161125, -37.795029502233], [144.917720464438, -37.794958325546], [144.917917910024, -37.794983308575], [144.91789191082, -37.794998266159], [144.917756130743, -37.794981085355], [144.917736630209, -37.794992302596], [144.917725009277, -37.795050133496], [144.917299000746, -37.794996227741], [144.917290954536, -37.795036265093], [144.916937662186, -37.794991559005]]]]}}