{"type": "Feature", "properties": {"seg_id": "21827", "street_id": "21827", "name": "Newman Street between Tankard Street and Mercantile Parade", "str_type": "Council Major", "status_id": "2", "seg_part": "1", "poly_area": "695", "gisid": "2189"}, "geometry": {"type": "MultiPolygon", "coordinates": [[[[144.920272863238, -37.795661071322], [144.920249078447, -37.795658062213], [144.919845082033, -37.795890479164], [144.919751783827, -37.795788359459], [144.920201740965, -37.795529501272], [144.920205533015, -37.795510628305], [144.920262178035, -37.795572629021], [144.920272863238, -37.795661071322]]]]}}