{"type": "Feature", "properties": {"seg_id": "21839", "street_id": "21839", "name": "Lincoln Mews between Kensington Road and Devon Street", "str_type": "Council Minor", "status_id": "3", "seg_part": "2", "poly_area": "39", "gisid": "2132"}, "geometry": {"type": "MultiPolygon", "coordinates": [[[[144.922189449621, -37.796534816019], [144.922159575786, -37.796552003273], [144.922079601725, -37.796464474342], [144.922109476676, -37.796447287128], [144.922189449621, -37.796534816019]]], [[[144.922159575786, -37.796552003273], [144.922129700777, -37.796569191399], [144.92204972676, -37.796481661548], [144.922079601725, -37.796464474342], [144.922159575786, -37.796552003273]]], [[[144.9232823702629, -37.79654865111944], [144.923283064213, -37.796548130141], [144.923283719127, -37.796547543572], [144.923284306604, -37.79654691346], [144.923284822162, -37.796546244609], [144.923285261871, -37.79654554212], [144.923285622376, -37.796544811352], [144.923285900929, -37.796544057878], [144.923286095403, -37.796543287444], [144.923286204318, -37.796542505925], [144.923286226841, -37.796541719283], [144.923286162801, -37.796540933517], [144.923286012687, -37.796540154619], [144.923285777642, -37.796539388529], [144.923285459461, -37.796538641091], [144.92328506057, -37.796537918005], [144.92328458401, -37.796537224786], [144.923284069563, -37.796536545927], [144.923244286759, -37.796493007133], [144.923191361506, -37.796523490469], [144.923177765227, -37.796508611146], [144.923152119701, -37.796523366161], [144.923059216045, -37.796421686745], [144.922937880552, -37.796491494572], [144.922919218964, -37.796471071083], [144.922746959132, -37.796570176101], [144.922918685112, -37.796758123856], [144.922891119388, -37.796774001148], [144.922719382423, -37.796586041445], [144.922290109415, -37.796833011029], [144.92207684642, -37.796599598879], [144.922129700777, -37.796569191399], [144.922159575786, -37.796552003273], [144.922189449621, -37.796534816019], [144.922242305022, -37.796504408505], [144.922402252647, -37.796679466989], [144.922426037872, -37.796682475674], [144.922703639626, -37.796522764587], [144.92346630505, -37.796083979657], [144.923509624815, -37.796131390901], [144.923337366517, -37.796230497736], [144.923356027031, -37.796250921141], [144.923234692091, -37.796320729292], [144.923327595875, -37.796422408574], [144.923302042756, -37.79643711028], [144.923315637888, -37.79645199047], [144.923262712667, -37.796482474742], [144.923302439225, -37.796525953962], [144.923303094449, -37.796526549749], [144.923303778361, -37.796527121642], [144.923304521913, -37.796527644504], [144.923305319458, -37.796528114363], [144.923306164937, -37.796528527651], [144.923307051931, -37.796528881229], [144.923307973703, -37.796529172412], [144.923308923252, -37.796529398989], [144.923309893367, -37.796529559238], [144.923310876681, -37.796529651943], [144.923311865725, -37.796529676399], [144.923312852988, -37.796529632422], [144.923313830972, -37.796529520344], [144.923314792249, -37.796529341017], [144.92331572952, -37.796529095804], [144.923316635666, -37.796528786565], [144.923317503805, -37.79652841565], [144.923318300663, -37.796527956709], [144.9232823702629, -37.79654865111944]]]]}}