{"type": "Feature", "properties": {"seg_id": "21838", "street_id": "21838", "name": "Newton Street between Mercantile Parade and Devon Street", "str_type": "Council Major", "status_id": "2", "seg_part": "1", "poly_area": "3268", "gisid": "2200"}, "geometry": {"type": "MultiPolygon", "coordinates": [[[[144.921886566116, -37.796575530529], [144.92182681713, -37.796609904849], [144.921679742033, -37.796694518484], [144.921675950256, -37.796713392405], [144.921559552893, -37.796685766479], [144.921502905951, -37.796623766341], [144.921526691139, -37.796626774306], [144.921956424728, -37.796379543489], [144.922016173466, -37.796345169095], [144.922262063474, -37.796203704238], [144.92229762242, -37.796137554781], [144.922343023149, -37.796075289969], [144.922395253067, -37.796016522679], [144.922453898254, -37.795961718639], [144.922518493951, -37.795911312166], [144.922588528241, -37.795865702729], [144.922663446108, -37.79582525178], [144.922742653832, -37.795790279889], [144.922825523696, -37.795761064207], [144.922911398963, -37.795737836266], [144.922999599077, -37.795720780146], [144.923089554098, -37.795710933481], [144.923113084762, -37.795697394709], [144.923123082142, -37.795708335528], [144.923216385022, -37.795810452695], [144.923226382432, -37.795821393506], [144.923202597441, -37.795818384989], [144.922109476676, -37.796447287128], [144.922079601725, -37.796464474342], [144.92204972676, -37.796481661548], [144.921886566116, -37.796575530529]]]]}}