{"type": "Feature", "properties": {"seg_id": "21834", "street_id": "21834", "name": "Leicester Mews from Mercantile Parade", "str_type": "Council Minor", "status_id": "3", "seg_part": "2", "poly_area": "1038", "gisid": "2196"}, "geometry": {"type": "MultiPolygon", "coordinates": [[[[144.921206341255, -37.796299175174], [144.921230126299, -37.796302184096], [144.921717309344, -37.79602190209], [144.921744886042, -37.79600603698], [144.921965496934, -37.795879115814], [144.922008815599, -37.79592652758], [144.92182956909, -37.796029651573], [144.921825777419, -37.796048524602], [144.92200238443, -37.796241819945], [144.921949529127, -37.796272227355], [144.921889780395, -37.796306602618], [144.921836926137, -37.796337009994], [144.921660319329, -37.796143715313], [144.921636534314, -37.796140706478], [144.921273443581, -37.796349596103], [144.921269651723, -37.79636847001], [144.921206341255, -37.796299175174]]], [[[144.922016173466, -37.796345169095], [144.921956424728, -37.796379543489], [144.921889780395, -37.796306602618], [144.921949529127, -37.796272227355], [144.922016173466, -37.796345169095]]]]}}