{"type": "Feature", "properties": {"seg_id": "21830", "street_id": "21830", "name": "Dennys Lane between Newman Street and Sambell Street", "str_type": "Council Minor", "status_id": "3", "seg_part": "1", "poly_area": "453", "gisid": "2192"}, "geometry": {"type": "MultiPolygon", "coordinates": [[[[144.92168846527, -37.795598929731], [144.921692256973, -37.795580055804], [144.921251747414, -37.795097911863], [144.921227962754, -37.795094902956], [144.921241751531, -37.795086970915], [144.921266690753, -37.795073284536], [144.921292372786, -37.795060492388], [144.921318746746, -37.795048619817], [144.921313848917, -37.795066114339], [144.921752006301, -37.795545681544], [144.921775789996, -37.79554869033], [144.92168846527, -37.795598929731]]]]}}