{"type": "Feature", "properties": {"seg_id": "21841", "street_id": "21841", "name": "Holgate Lane between Devon Street and Fisken Place", "str_type": "Council Minor", "status_id": "3", "seg_part": "1", "poly_area": "422", "gisid": "2203"}, "geometry": {"type": "MultiPolygon", "coordinates": [[[[144.923501689475, -37.795907824146], [144.924092455223, -37.795567930089], [144.924096132651, -37.795565814075], [144.924140984228, -37.795612343711], [144.923558796762, -37.795947302141], [144.923555005508, -37.795966176141], [144.923501689475, -37.795907824146]]]]}}