{"type": "Feature", "properties": {"seg_id": "21854", "street_id": "21854", "name": "MacArthur Street between Cathedral Place and St Andrews Place", "str_type": "Council Major", "status_id": "2", "seg_part": "1", "poly_area": "2298", "gisid": "821"}, "geometry": {"type": "MultiPolygon", "coordinates": [[[[144.974659461435, -37.811684185798], [144.975097513143, -37.810954758807], [144.975125426073, -37.810909416451], [144.975150925061, -37.810863187864], [144.975173965518, -37.810816153891], [144.975434398283, -37.810844927681], [144.97541607469, -37.810875423909], [144.974922239014, -37.811697337711], [144.974913437536, -37.811711987287], [144.974659461435, -37.811684185798]]]]}}