{"type": "Feature", "properties": {"seg_id": "21859", "street_id": "21859", "name": "Lansdowne Street between Wellington Parade and St Andrews Place", "str_type": "Arterial", "status_id": "1", "seg_part": "1", "poly_area": "8428", "gisid": "816"}, "geometry": {"type": "MultiPolygon", "coordinates": [[[[144.977632130089, -37.812887137532], [144.977973412382, -37.812923552137], [144.977862236836, -37.813579359617], [144.977566838082, -37.81540022933], [144.977135351627, -37.815349773462], [144.977232109349, -37.815301600567], [144.977632130089, -37.812887137532]]]]}}