{"type": "Feature", "properties": {"seg_id": "21851", "street_id": "21851", "name": "Cathedral Place between Lansdowne Street and Gisborne Street", "str_type": "Council Major", "status_id": "2", "seg_part": "1", "poly_area": "6038", "gisid": "824"}, "geometry": {"type": "MultiPolygon", "coordinates": [[[[144.977931324418, -37.811119801633], [144.976116824287, -37.810921031027], [144.976082896289, -37.810916574615], [144.975662648438, -37.810870145808], [144.975707754496, -37.810606238039], [144.975719792475, -37.810533797415], [144.975803154816, -37.810616634785], [144.977981569524, -37.810854013887], [144.977931324418, -37.811119801633]]]]}}