{"type": "Feature", "properties": {"seg_id": "21858", "street_id": "21858", "name": "Intersection of Lansdowne Street and St Andrews Place", "str_type": "Arterial", "status_id": "1", "seg_part": "1", "poly_area": "2919", "gisid": "817"}, "geometry": {"type": "MultiPolygon", "coordinates": [[[[144.977632130089, -37.812887137532], [144.977690613369, -37.812549202597], [144.977691946532, -37.812548652638], [144.977693181091, -37.812547971956], [144.97769433402, -37.812547206746], [144.977695396272, -37.812546363013], [144.97769635951, -37.812545447379], [144.977697216174, -37.812544467031], [144.977697959542, -37.81254342966], [144.977698583779, -37.81254234341], [144.977699083986, -37.812541216806], [144.977699456238, -37.812540058688], [144.977699683774, -37.812538876775], [144.977750330281, -37.812217239275], [144.977750450517, -37.812216104818], [144.977750435908, -37.812214965146], [144.977750300394, -37.812213829732], [144.977750044937, -37.812212706647], [144.977749671354, -37.812211603874], [144.97774922791, -37.812210514677], [144.977782304967, -37.812019380516], [144.978120569466, -37.812055473375], [144.977973412382, -37.812923552137], [144.977632130089, -37.812887137532]]]]}}