{"type": "Feature", "properties": {"seg_id": "21852", "street_id": "21852", "name": "Parliament Place between St Andrews Place and Gisborne Street", "str_type": "Council Major", "status_id": "2", "seg_part": "1", "poly_area": "1787", "gisid": "823"}, "geometry": {"type": "MultiPolygon", "coordinates": [[[[144.975662648438, -37.810870145808], [144.975505168939, -37.811769522918], [144.975307487877, -37.811755119736], [144.975284762624, -37.811752632841], [144.975286777631, -37.811752729975], [144.975288794118, -37.811752702843], [144.975290799045, -37.811752539885], [144.975292777927, -37.811752242278], [144.975294716468, -37.811751812171], [144.975296600665, -37.811751252672], [144.975298416904, -37.811750567823], [144.975300152066, -37.811749762571], [144.975301793614, -37.811748842734], [144.97530332969, -37.811747814957], [144.975304749196, -37.811746686664], [144.975306041879, -37.811745466007], [144.975307198399, -37.811744161804], [144.975308210401, -37.811742783478], [144.975309070574, -37.811741340984], [144.975309772705, -37.811739844745], [144.97531031172, -37.81173830557], [144.975310659607, -37.811736731668], [144.975456919708, -37.810888715633], [144.975457099125, -37.810887140088], [144.975457084317, -37.810885556319], [144.975456895258, -37.810883978521], [144.975456533394, -37.810882418756], [144.97545600149, -37.810880888947], [144.975455303614, -37.810879400791], [144.9754544451, -37.810877965662], [144.975453432512, -37.810876594533], [144.97545227359, -37.810875297885], [144.975450977194, -37.810874085631], [144.975449553235, -37.810872967039], [144.975448012599, -37.810871950659], [144.975446367063, -37.810871044262], [144.975444629206, -37.810870254777], [144.975442812316, -37.81086958824], [144.97544093028, -37.810869049745], [144.975438997488, -37.810868643409], [144.975437028714, -37.81086837234], [144.97543503901, -37.810868238608], [144.975433043585, -37.810868243237], [144.975431057696, -37.810868386191], [144.975429096523, -37.810868666377], [144.975427175059, -37.810869081653], [144.975425307993, -37.810869628845], [144.975423509599, -37.810870303769], [144.975421793624, -37.810871101266], [144.975420173187, -37.810872015239], [144.975418660677, -37.810873038702], [144.975417267654, -37.810874163829], [144.97541607469, -37.810875423909], [144.975434398283, -37.810844927681], [144.975662648438, -37.810870145808]]]]}}