{"type": "Feature", "properties": {"seg_id": "21861", "street_id": "21861", "name": "Intersection of Clarendon Street and Grey Street", "str_type": "Council Major", "status_id": "2", "seg_part": "1", "poly_area": "945", "gisid": "814"}, "geometry": {"type": "MultiPolygon", "coordinates": [[[[144.983542065588, -37.811469188108], [144.983498655714, -37.811748280631], [144.983155458484, -37.811711528464], [144.983194382885, -37.811482732457], [144.983202492975, -37.811433778737], [144.983542065588, -37.811469188108]]]]}}