{"type": "Feature", "properties": {"seg_id": "21869", "street_id": "21869", "name": "Grey Street between Hoddle Street and Darling Street", "str_type": "Council Major", "status_id": "2", "seg_part": "1", "poly_area": "1898", "gisid": "1432"}, "geometry": {"type": "MultiPolygon", "coordinates": [[[[144.990344350887, -37.812500871635], [144.990303983679, -37.812496550926], [144.989961779901, -37.812460012133], [144.990009305832, -37.812191747329], [144.990720382434, -37.812271038141], [144.990675913938, -37.812538994057], [144.990344350887, -37.812500871635]]]]}}