{"type": "Feature", "properties": {"seg_id": "21876", "street_id": "21876", "name": "St Helens Lane from Grey Street", "str_type": "Council Minor", "status_id": "3", "seg_part": "1", "poly_area": "210", "gisid": "1425"}, "geometry": {"type": "MultiPolygon", "coordinates": [[[[144.990303983679, -37.812496550926], [144.990344350887, -37.812500871635], [144.990289132647, -37.812855581628], [144.990245273127, -37.812850893989], [144.990242576024, -37.81286913019], [144.990220940861, -37.812866876554], [144.990244901484, -37.812721550323], [144.990147767406, -37.812710690463], [144.990151634164, -37.812687064447], [144.990267674485, -37.812699436547], [144.990303983679, -37.812496550926]]]]}}