{"type": "Feature", "properties": {"seg_id": "21870", "street_id": "21870", "name": "Cl0003 from Hoddle Street", "str_type": "Council Minor", "status_id": "3", "seg_part": "1", "poly_area": "189", "gisid": "1431"}, "geometry": {"type": "MultiPolygon", "coordinates": [[[[144.990822868538, -37.811673996054], [144.990514617355, -37.811639380985], [144.990515562959, -37.811634082863], [144.990190647035, -37.811599388025], [144.990195452954, -37.811570866602], [144.990829591958, -37.811641775534], [144.990822868538, -37.811673996054]]]]}}