{"type": "Feature", "properties": {"seg_id": "21878", "street_id": "21878", "name": "Hoddle Street between Gipps Street and Grey Street", "str_type": "Arterial", "status_id": "1", "seg_part": "1", "poly_area": "1397", "gisid": "1423"}, "geometry": {"type": "MultiPolygon", "coordinates": [[[[144.990675913938, -37.812538994057], [144.990831290323, -37.812555841612], [144.990674118824, -37.813468197875], [144.990521826941, -37.813451684801], [144.990554397658, -37.813258765453], [144.990560050391, -37.813225280356], [144.990675913938, -37.812538994057]]]]}}