{"type": "Feature", "properties": {"seg_id": "21882", "street_id": "21882", "name": "Simpson Street between Gipps Street and Grey Street", "str_type": "Council Major", "status_id": "2", "seg_part": "1", "poly_area": "3068", "gisid": "1419"}, "geometry": {"type": "MultiPolygon", "coordinates": [[[[144.988559723767, -37.813228748781], [144.988219207825, -37.813190620614], [144.988255690329, -37.812989100349], [144.988260079215, -37.812963419623], [144.98829400257, -37.812768289135], [144.988298756107, -37.812736747957], [144.988338737045, -37.812507178725], [144.988341135146, -37.812481184617], [144.98837660922, -37.812282890403], [144.988716159911, -37.812321695494], [144.988559723767, -37.813228748781]]]]}}