{"type": "Feature", "properties": {"seg_id": "21886", "street_id": "21886", "name": "Nunn Lane between Gipps Street and Grey Street", "str_type": "Council Minor", "status_id": "3", "seg_part": "1", "poly_area": "429", "gisid": "1415"}, "geometry": {"type": "MultiPolygon", "coordinates": [[[[144.986586754774, -37.812567265262], [144.986513315983, -37.81299833405], [144.98646735548, -37.812992924182], [144.986618037385, -37.812088659317], [144.986666947173, -37.812093740151], [144.986594755051, -37.812523280318], [144.986586754774, -37.812567265262]]]]}}