{"type": "Feature", "properties": {"seg_id": "21896", "street_id": "21896", "name": "Hotham Street between Powlett Street and Clarendon Street", "str_type": "Council Major", "status_id": "2", "seg_part": "1", "poly_area": "6153", "gisid": "1408"}, "geometry": {"type": "MultiPolygon", "coordinates": [[[[144.983117745998, -37.813990872084], [144.983168581885, -37.813719937423], [144.984721662791, -37.813892642151], [144.984755280088, -37.813897065539], [144.985433112178, -37.81397747581], [144.985384546439, -37.814246848978], [144.983611594597, -37.814046889711], [144.983563207996, -37.814042122055], [144.983117745998, -37.813990872084]]]]}}