{"type": "Feature", "properties": {"seg_id": "21892", "street_id": "21892", "name": "Singleton Lane between Powlett Street and Grey Street", "str_type": "Council Minor", "status_id": "3", "seg_part": "1", "poly_area": "388", "gisid": "1409"}, "geometry": {"type": "MultiPolygon", "coordinates": [[[[144.985722178934, -37.812245708335], [144.985335642265, -37.812203378175], [144.985300175873, -37.812217694883], [144.985276810302, -37.8123467585], [144.985245739757, -37.812343946894], [144.985237651157, -37.812393283231], [144.985052273751, -37.812372662577], [144.985058067986, -37.812337111081], [144.985209840667, -37.812353326721], [144.985274886229, -37.811943355971], [144.985311217152, -37.811947375033], [144.98527460296, -37.812168511649], [144.98572443235, -37.812215458249], [144.985722178934, -37.812245708335]]]]}}