{"type": "Feature", "properties": {"seg_id": "21907", "street_id": "21907", "name": "Simpson Street between Hotham Street and Gipps Street", "str_type": "Council Major", "status_id": "2", "seg_part": "1", "poly_area": "3030", "gisid": "1398"}, "geometry": {"type": "MultiPolygon", "coordinates": [[[[144.988375684145, -37.814306921875], [144.988035130271, -37.814266665694], [144.98813078413, -37.813720702063], [144.988133636772, -37.813692279843], [144.988188437703, -37.813369169165], [144.988526792183, -37.813409955033], [144.988466365474, -37.813766285479], [144.988452176973, -37.813856701742], [144.988414120946, -37.814080661563], [144.988409808956, -37.81410601918], [144.988375684145, -37.814306921875]]]]}}