{"type": "Feature", "properties": {"seg_id": "21900", "street_id": "21900", "name": "Hotham Place from Hotham Street", "str_type": "Council Minor", "status_id": "3", "seg_part": "1", "poly_area": "194", "gisid": "1404"}, "geometry": {"type": "MultiPolygon", "coordinates": [[[[144.984755280088, -37.813897065539], [144.984721662791, -37.813892642151], [144.984784863835, -37.813508892487], [144.984782142327, -37.813486577778], [144.984666482239, -37.813470700284], [144.984671478655, -37.813429827218], [144.984824866997, -37.813444771529], [144.984755280088, -37.813897065539]]]]}}