{"type": "Feature", "properties": {"seg_id": "21913", "street_id": "21913", "name": "Cl1656 from Gipps Street", "str_type": "Council Minor", "status_id": "3", "seg_part": "1", "poly_area": "159", "gisid": "1392"}, "geometry": {"type": "MultiPolygon", "coordinates": [[[[144.989728308817, -37.813544883164], [144.989660404609, -37.813968195661], [144.989741058389, -37.813976934373], [144.989736446887, -37.814003718905], [144.989625337239, -37.81399125111], [144.98969725001, -37.81354295338], [144.989728308817, -37.813544883164]]]]}}