{"type": "Feature", "properties": {"seg_id": "21910", "street_id": "21910", "name": "Hotham Street between Hoddle Street and Simpson Street", "str_type": "Council Major", "status_id": "2", "seg_part": "1", "poly_area": "5166", "gisid": "1395"}, "geometry": {"type": "MultiPolygon", "coordinates": [[[[144.988325831828, -37.814574946044], [144.988375684145, -37.814306921875], [144.990298397987, -37.814525523872], [144.990321623322, -37.814510962494], [144.990318521876, -37.814527812084], [144.990277575952, -37.814798249319], [144.989958811297, -37.814757812738], [144.989917896935, -37.814751842398], [144.98871097426, -37.814616475804], [144.988668788358, -37.814612159506], [144.988325831828, -37.814574946044]]]]}}