{"type": "Feature", "properties": {"seg_id": "21912", "street_id": "21912", "name": "Hayes Lane from Gipps Street", "str_type": "Council Minor", "status_id": "3", "seg_part": "1", "poly_area": "310", "gisid": "1393"}, "geometry": {"type": "MultiPolygon", "coordinates": [[[[144.990232837141, -37.813602224174], [144.990115262532, -37.814276272376], [144.990083346893, -37.814272374307], [144.9901142945, -37.814077455635], [144.989981852329, -37.814062864941], [144.989987417439, -37.814030654454], [144.989866043667, -37.81401762777], [144.989868275697, -37.814004649236], [144.99003994277, -37.814022479789], [144.990037591375, -37.814035714027], [144.99011651418, -37.814044407616], [144.990195994777, -37.813597755412], [144.990232837141, -37.813602224174]]]]}}