{"type": "Feature", "properties": {"seg_id": "21927", "street_id": "21927", "name": "Cl1207 from Simpson Street", "str_type": "Council Minor", "status_id": "3", "seg_part": "1", "poly_area": "344", "gisid": "1379"}, "geometry": {"type": "MultiPolygon", "coordinates": [[[[144.987947002596, -37.814760339803], [144.987530646977, -37.814710785272], [144.987492932378, -37.814706296246], [144.987483665445, -37.814765266927], [144.987331675394, -37.814747777082], [144.987337464125, -37.814713902477], [144.987412905105, -37.814722446449], [144.987420616448, -37.814680309346], [144.987502030454, -37.814653124469], [144.987955736131, -37.814703931032], [144.987947002596, -37.814760339803]]]]}}