{"type": "Feature", "properties": {"seg_id": "21921", "street_id": "21921", "name": "Simpson Street between George Street and Hotham Street", "str_type": "Council Major", "status_id": "2", "seg_part": "1", "poly_area": "3057", "gisid": "1385"}, "geometry": {"type": "MultiPolygon", "coordinates": [[[[144.988174362512, -37.815471211436], [144.987833092607, -37.815433287252], [144.987865396212, -37.815236362995], [144.987869910307, -37.815207755602], [144.987947002596, -37.814760339803], [144.987955736131, -37.814703931032], [144.987984210751, -37.814535879052], [144.988325831828, -37.814574946044], [144.988216818326, -37.815226634052], [144.988208317052, -37.815275370564], [144.988174362512, -37.815471211436]]]]}}