{"type": "Feature", "properties": {"seg_id": "21922", "street_id": "21922", "name": "Cl1039 from Hotham Street", "str_type": "Council Minor", "status_id": "3", "seg_part": "1", "poly_area": "303", "gisid": "1384"}, "geometry": {"type": "MultiPolygon", "coordinates": [[[[144.988669222134, -37.815065312309], [144.988594688327, -37.815057896689], [144.988668788358, -37.814612159506], [144.98871097426, -37.814616475804], [144.988642153176, -37.815022164667], [144.988940923511, -37.81505517105], [144.988934346169, -37.815096196648], [144.988702307117, -37.815069287511], [144.988669222134, -37.815065312309]]]]}}