{"type": "Feature", "properties": {"seg_id": "21931", "street_id": "21931", "name": "George Street between Powlett Street and Clarendon Street", "str_type": "Council Major", "status_id": "2", "seg_part": "1", "poly_area": "4070", "gisid": "1375"}, "geometry": {"type": "MultiPolygon", "coordinates": [[[[144.983424374945, -37.814942340648], [144.984072103055, -37.815013473903], [144.984118537228, -37.815021136761], [144.985228449229, -37.815146391536], [144.98519793116, -37.815326271812], [144.984547582106, -37.815252707226], [144.984519523364, -37.815248126588], [144.983410032164, -37.815125810169], [144.983370334118, -37.815121074977], [144.982933845533, -37.815072122735], [144.982963159818, -37.814891216765], [144.983318187714, -37.814930563094], [144.983424374945, -37.814942340648]]]]}}