{"type": "Feature", "properties": {"seg_id": "21939", "street_id": "21939", "name": "Wellington Parade between Powlett Street and Clarendon Street", "str_type": "Arterial", "status_id": "1", "seg_part": "1", "poly_area": "6115", "gisid": "1373"}, "geometry": {"type": "MultiPolygon", "coordinates": [[[[144.982781346836, -37.815974424953], [144.985042353814, -37.816224596319], [144.984994012858, -37.816496486435], [144.984971392081, -37.816493976145], [144.983499139343, -37.816330579784], [144.98284558721, -37.816258040387], [144.98273483424, -37.816245746999], [144.982781346836, -37.815974424953]]]]}}