{"type": "Feature", "properties": {"seg_id": "21948", "street_id": "21948", "name": "Mena Place from Simpson Street", "str_type": "Council Minor", "status_id": "3", "seg_part": "1", "poly_area": "157", "gisid": "1366"}, "geometry": {"type": "MultiPolygon", "coordinates": [[[[144.987245824984, -37.816166305504], [144.98728849766, -37.816170629741], [144.987300757385, -37.816184339864], [144.987697837103, -37.816228690488], [144.987689755866, -37.816261481458], [144.987238429694, -37.816212228431], [144.987245824984, -37.816166305504]]]]}}