{"type": "Feature", "properties": {"seg_id": "21946", "street_id": "21946", "name": "Cl1117 from Powlett Street", "str_type": "Council Minor", "status_id": "3", "seg_part": "1", "poly_area": "191", "gisid": "1368"}, "geometry": {"type": "MultiPolygon", "coordinates": [[[[144.9859726448, -37.816068718853], [144.98600339782, -37.816072488213], [144.985994748889, -37.816127017496], [144.985425692358, -37.816067802569], [144.985430108098, -37.816039507212], [144.985883683173, -37.81608676265], [144.985888380289, -37.81605839008], [144.9859726448, -37.816068718853]]]]}}