{"type": "Feature", "properties": {"seg_id": "21958", "street_id": "21958", "name": "Wellington Parade South between Punt Road and Vale Street", "str_type": "Council Major", "status_id": "2", "seg_part": "1", "poly_area": "2345", "gisid": "1356"}, "geometry": {"type": "MultiPolygon", "coordinates": [[[[144.988890217427, -37.817520906199], [144.988733848721, -37.817507608598], [144.988362313117, -37.817471475884], [144.988315847215, -37.817467418855], [144.987944245958, -37.817430833113], [144.987826603531, -37.817415331216], [144.987825628434, -37.81726721392], [144.987858253311, -37.817061885417], [144.987861665925, -37.817044564692], [144.987862799075, -37.817027032675], [144.987861971774, -37.817009477489], [144.987859190515, -37.816992036899], [144.987854477124, -37.816974847769], [144.987847868589, -37.816958044991], [144.98783941677, -37.816941760424], [144.987829187993, -37.816926121862], [144.987817262528, -37.816911252027], [144.98780373396, -37.81689726761], [144.987788708454, -37.816884278355], [144.987772303923, -37.816872386193], [144.987754649101, -37.816861684449], [144.987735882533, -37.816852257104], [144.987716447923, -37.816843661245], [144.987929920866, -37.816918851192], [144.98806581752, -37.816974366328], [144.988062799175, -37.81697374716], [144.988059743584, -37.816973280039], [144.988056650292, -37.816973026947], [144.988053543113, -37.816972989831], [144.988050445965, -37.816973168977], [144.988047382692, -37.816973563006], [144.988044376873, -37.816974168885], [144.988041451649, -37.81697498195], [144.988038629538, -37.816975995941], [144.988035932265, -37.816977203054], [144.988033380593, -37.816978593995], [144.988030994166, -37.816980158057], [144.988028791355, -37.816981883199], [144.988026789116, -37.816983756142], [144.988025002865, -37.816985762466], [144.98802344635, -37.816987886728], [144.988022221406, -37.816990142705], [144.98797214421, -37.817296441213], [144.987972101157, -37.81729683181], [144.987972105962, -37.817297224329], [144.987972153793, -37.8172976153], [144.987972244285, -37.817298001755], [144.987972376753, -37.817298380762], [144.987972550192, -37.817298749445], [144.987972763284, -37.817299105007], [144.987973014414, -37.817299444749], [144.987973301676, -37.817299766093], [144.98797362289, -37.817300066602], [144.987973975618, -37.817300343994], [144.987974357184, -37.817300596165], [144.987974764692, -37.817300821201], [144.987975195051, -37.817301017394], [144.987975644995, -37.817301183257], [144.987976111109, -37.81730131753], [144.987976589856, -37.817301419194], [144.987977077053, -37.817301491001], [144.988701803333, -37.817372843224], [144.988702299814, -37.817372874253], [144.988702797305, -37.81737287425], [144.988703292539, -37.817372839687], [144.988703781714, -37.81737277083], [144.988704261074, -37.817372668208], [144.988704726939, -37.817372532607], [144.988705175734, -37.817372365069], [144.988705604012, -37.817372166881], [144.988706008485, -37.817371939564], [144.988706386049, -37.817371684862], [144.988706733805, -37.817371404732], [144.988707049082, -37.817371101324], [144.988707329461, -37.817370776967], [144.98870757279, -37.817370434151], [144.988707777199, -37.817370075508], [144.98870794112, -37.817369703792], [144.988708063294, -37.817369321856], [144.988708138178, -37.817368932175], [144.988730289976, -37.817228440969], [144.988730334991, -37.81722789355], [144.988730314984, -37.817227344614], [144.988730235607, -37.817226798699], [144.988730097446, -37.817226259845], [144.988729901524, -37.81722573204], [144.988729649292, -37.817225219192], [144.988729342617, -37.817224725096], [144.988728983768, -37.817224253411], [144.988728575401, -37.817223807626], [144.98872812054, -37.817223391042], [144.988727622552, -37.817223006742], [144.988727085122, -37.817222657572], [144.988726512228, -37.817222346115], [144.988725919262, -37.817222057156], [144.988867223957, -37.817275538774], [144.988861497702, -37.817277243326], [144.988839670057, -37.817342055481], [144.988839399463, -37.817379900376], [144.988874634441, -37.817421056158], [144.988897354813, -37.817462898458], [144.988896193245, -37.817491716345], [144.988896652339, -37.817492229029], [144.988897142298, -37.817492721451], [144.988897685805, -37.817493177203], [144.988898278442, -37.81749359258], [144.98889891539, -37.817493964205], [144.988899591472, -37.817494289058], [144.988900301192, -37.817494564498], [144.98890103291, -37.817494802636], [144.989665772849, -37.81757064887], [144.989666528942, -37.817570711763], [144.989667287936, -37.817570730535], [144.989668045678, -37.817570698045], [144.989668796684, -37.817570614527], [144.989669535514, -37.817570480586], [144.98967025682, -37.817570297191], [144.989670955378, -37.817570065672], [144.98967162613, -37.817569787703], [144.989672264221, -37.817569465298], [144.989672865029, -37.817569100791], [144.989673398953, -37.817568676624], [144.989677904879, -37.817556137049], [144.98967804478, -37.817555594488], [144.989678110862, -37.81755504236], [144.989678115368, -37.81755448737], [144.989678058263, -37.817553933833], [144.989677939992, -37.817553386048], [144.989677761473, -37.817552848274], [144.989677524094, -37.817552324687], [144.989677229698, -37.817551819357], [144.989676880574, -37.817551336211], [144.989676479435, -37.817550879002], [144.989676029397, -37.817550451284], [144.989675533957, -37.817550056379], [144.989675015167, -37.817549678526], [144.989698793885, -37.817556716285], [144.989692852509, -37.817599973275], [144.989639008801, -37.817594927474], [144.988890217427, -37.817520906199]]]]}}