{"type": "Feature", "properties": {"seg_id": "21952", "street_id": "21952", "name": "Garden Avenue from Wellington Parade", "str_type": "Council Major", "status_id": "2", "seg_part": "1", "poly_area": "900", "gisid": "1362"}, "geometry": {"type": "MultiPolygon", "coordinates": [[[[144.988879167682, -37.816657795296], [144.988639280756, -37.816630641098], [144.988642305164, -37.816630869939], [144.988645339359, -37.816630913358], [144.988648364567, -37.816630745739], [144.988651357537, -37.816630368369], [144.988654295265, -37.816629784149], [144.988657155173, -37.81662899757], [144.98865991528, -37.816628014676], [144.988662554371, -37.816626843022], [144.988665052163, -37.816625491614], [144.988667389458, -37.816623970837], [144.988669548293, -37.816622292381], [144.988671512073, -37.816620469147], [144.988673265707, -37.816618515146], [144.988674795715, -37.816616445398], [144.988676090339, -37.81661427581], [144.988677139628, -37.816612023058], [144.988677935516, -37.816609704456], [144.988678439284, -37.816607334133], [144.98871287112, -37.816415898146], [144.988714165023, -37.816405929815], [144.988714245937, -37.816395897174], [144.988713253485, -37.816385888497], [144.988711194828, -37.816375976011], [144.988708084822, -37.816366231251], [144.988703945912, -37.816356724542], [144.988698807967, -37.81634752449], [144.988692708064, -37.816338697488], [144.988685690226, -37.816330307237], [144.988677805095, -37.816322414287], [144.988669109578, -37.816315075597], [144.988659666426, -37.816308344129], [144.988649543786, -37.816302268461], [144.988639057818, -37.816296553085], [144.988633770554, -37.81629366795], [144.988628705504, -37.816290559766], [144.988624018736, -37.81628709708], [144.988619750038, -37.816283309288], [144.98861593565, -37.816279228546], [144.988612607953, -37.816274889499], [144.988609605263, -37.816270393402], [144.988605877576, -37.816261803922], [144.988602766749, -37.81625308397], [144.988600647423, -37.816244184594], [144.988599536535, -37.816235176909], [144.98859944296, -37.816226132895], [144.988600367446, -37.816217124821], [144.988602302607, -37.816208224672], [144.988605232978, -37.816199503567], [144.988609135142, -37.816191031196], [144.988613977919, -37.816182875262], [144.988619722609, -37.816175100938], [144.988626323307, -37.816167770348], [144.988633727267, -37.816160942072], [144.988641875325, -37.816154670672], [144.988650702369, -37.816149006263], [144.988660380976, -37.816144309853], [144.988664074456, -37.816142575252], [144.988668035652, -37.816141249062], [144.988672142453, -37.816140232893], [144.988676367439, -37.816139587695], [144.988685541451, -37.816138645391], [144.988694802812, -37.816138477336], [144.988704052758, -37.81613896529], [144.988713217635, -37.816140105368], [144.988722224463, -37.816141888492], [144.988731001521, -37.816144300462], [144.98873947892, -37.816147322073], [144.988747589155, -37.816150929264], [144.988755267646, -37.816155093311], [144.988762453248, -37.816159781056], [144.988769088745, -37.816164955172], [144.988775121299, -37.816170574458], [144.988780502872, -37.816176594168], [144.988785498406, -37.816182839342], [144.988850624081, -37.816281331338], [144.988861982838, -37.816302213249], [144.988871947713, -37.816323473423], [144.988879489474, -37.816345339306], [144.988884547957, -37.816367636466], [144.988887082809, -37.816390187032], [144.988887073809, -37.81641281111], [144.988884219245, -37.816435293944], [144.988849787838, -37.816626729994], [144.988849483843, -37.816629099185], [144.988849472992, -37.816631483447], [144.98884972276, -37.816633861119], [144.988850231265, -37.816636214286], [144.988850994674, -37.816638525214], [144.988852007236, -37.816640776489], [144.98885326132, -37.816642951145], [144.988854747475, -37.816645032796], [144.988856454503, -37.816647005755], [144.988858369538, -37.816648855153], [144.988860478152, -37.816650567055], [144.988862764452, -37.81665212856], [144.988865211211, -37.8166535279], [144.988867799991, -37.816654754532], [144.988870511283, -37.816655799211], [144.988873324655, -37.816656654066], [144.988876218908, -37.816657312653], [144.988879167682, -37.816657795296]]]]}}