{"type": "Feature", "properties": {"seg_id": "21954", "street_id": "21954", "name": "Brahe Place from George Street", "str_type": "Council Minor", "status_id": "3", "seg_part": "1", "poly_area": "262", "gisid": "1360"}, "geometry": {"type": "MultiPolygon", "coordinates": [[[[144.989703156371, -37.816222423789], [144.989520888278, -37.816298659713], [144.989427121904, -37.81629434881], [144.989429548306, -37.81627789686], [144.989431999759, -37.816261526443], [144.989435398824, -37.816230955204], [144.989559288867, -37.81624436057], [144.989676761193, -37.816176512253], [144.989749461524, -37.815834905205], [144.989784795603, -37.815838816672], [144.989703156371, -37.816222423789]]]]}}