{"type": "Feature", "properties": {"seg_id": "21968", "street_id": "21968", "name": "Wellington Parade South between Jolimont Road and Wellington Crescent", "str_type": "Council Major", "status_id": "2", "seg_part": "1", "poly_area": "1358", "gisid": "797"}, "geometry": {"type": "MultiPolygon", "coordinates": [[[[144.978164181282, -37.816463606761], [144.978209731549, -37.816252239968], [144.978832519346, -37.816336701533], [144.978795344953, -37.816549204559], [144.978778702621, -37.816644331068], [144.978779745705, -37.816635949786], [144.97877977121, -37.816627517914], [144.978778893508, -37.816619109093], [144.978777118952, -37.816610784177], [144.978774460385, -37.816602603418], [144.978770937046, -37.81659462602], [144.978766574436, -37.816586909718], [144.978761404128, -37.816579510356], [144.978755463539, -37.816572481485], [144.978748795664, -37.816565873975], [144.978741448759, -37.816559735645], [144.978733475996, -37.81655411092], [144.978724935074, -37.816549040507], [144.978715887807, -37.816544561102], [144.978706399671, -37.816540705123], [144.978696539334, -37.816537500477], [144.978686378158, -37.816534970357], [144.978676013799, -37.816533021116], [144.978164181282, -37.816463606761]]]]}}