{"type": "Feature", "properties": {"seg_id": "21965", "street_id": "21965", "name": "Intersection of Wellington Parade and Jolimont Road", "str_type": "Arterial", "status_id": "1", "seg_part": "1", "poly_area": "972", "gisid": "800"}, "geometry": {"type": "MultiPolygon", "coordinates": [[[[144.978922584597, -37.815821861825], [144.978969264351, -37.815554114761], [144.979333670198, -37.815594097296], [144.979286964937, -37.815861993675], [144.979253128283, -37.81585830482], [144.978922584597, -37.815821861825]]]]}}