{"type": "Feature", "properties": {"seg_id": "21960", "street_id": "21960", "name": "Margaret Lane between Wellington Parade South and Vale Street South", "str_type": "Council Minor", "status_id": "3", "seg_part": "1", "poly_area": "795", "gisid": "1354"}, "geometry": {"type": "MultiPolygon", "coordinates": [[[[144.988021088054, -37.819193926283], [144.988315847215, -37.817467418855], [144.988362313117, -37.817471475884], [144.988312527569, -37.817762967735], [144.988306393162, -37.817798910082], [144.988067215922, -37.81919917533], [144.988021088054, -37.819193926283]]]]}}