{"type": "Feature", "properties": {"seg_id": "21983", "street_id": "21983", "name": "Agnes Street between Jolimont Street and Palmer Street", "str_type": "Council Major", "status_id": "2", "seg_part": "1", "poly_area": "876", "gisid": "782"}, "geometry": {"type": "MultiPolygon", "coordinates": [[[[144.979951420446, -37.818091871101], [144.97991095633, -37.818346738244], [144.979798160371, -37.818334699897], [144.979933883336, -37.817535062367], [144.980043304662, -37.817546749796], [144.979978389462, -37.817930143431], [144.979970419894, -37.817972206153], [144.979955930036, -37.818063465847], [144.979951420446, -37.818091871101]]]]}}