{"type": "Feature", "properties": {"seg_id": "21994", "street_id": "21994", "name": "Webb Lane from Berry Street", "str_type": "Council Minor", "status_id": "3", "seg_part": "1", "poly_area": "1229", "gisid": "1352"}, "geometry": {"type": "MultiPolygon", "coordinates": [[[[144.988836141741, -37.817842043193], [144.988846893575, -37.817778190869], [144.989157936082, -37.817811152297], [144.989156899798, -37.817817314885], [144.989175137129, -37.817819244856], [144.989174595475, -37.817822460024], [144.989406721909, -37.817847058286], [144.989212903419, -37.818998111824], [144.98918137917, -37.818994788819], [144.9891361188, -37.81899001733], [144.989311299743, -37.817949661003], [144.989207731173, -37.817938685914], [144.989217205445, -37.817882424896], [144.988836141741, -37.817842043193]]]]}}