{"type": "Feature", "properties": {"seg_id": "21996", "street_id": "21996", "name": "Hoddle Street between Grey Street and Albert Street", "str_type": "Arterial", "status_id": "1", "seg_part": "1", "poly_area": "1426", "gisid": "1350"}, "geometry": {"type": "MultiPolygon", "coordinates": [[[[144.990720382434, -37.812271038141], [144.990763450731, -37.812004437107], [144.990768274166, -37.811975681652], [144.990822868538, -37.811673996054], [144.990829591958, -37.811641775534], [144.990878594291, -37.811362821366], [144.991033902573, -37.81137966206], [144.990877418661, -37.812288065351], [144.990720382434, -37.812271038141]]]]}}