{"type": "Feature", "properties": {"seg_id": "22000", "street_id": "22000", "name": "Victoria Parade between Hoddle Street and Simpson Street", "str_type": "Arterial", "status_id": "1", "seg_part": "1", "poly_area": "3358", "gisid": "1346"}, "geometry": {"type": "MultiPolygon", "coordinates": [[[[144.990273956923, -37.810081232921], [144.990246704217, -37.810077983143], [144.989119439069, -37.809960453697], [144.989147126848, -37.809795891617], [144.990302304248, -37.809920573096], [144.990488795423, -37.809940880013], [144.990627495689, -37.809951078557], [144.990766617997, -37.809952802254], [144.990905304468, -37.80994490416], [144.991041902388, -37.809925214416], [144.991056252086, -37.809921638657], [144.991069994313, -37.80991678345], [144.991083146892, -37.809911000349], [144.991095611378, -37.809904332639], [144.99110729448, -37.809896830225], [144.991118108755, -37.80988854926], [144.99112797326, -37.809879551724], [144.991136286993, -37.809869625829], [144.991069566507, -37.810167875877], [144.990273956923, -37.810081232921]]]]}}