{"type": "Feature", "properties": {"seg_id": "22012", "street_id": "22012", "name": "Cecil Street between Whiteman Street and Haig Street", "str_type": "Council Major", "status_id": "2", "seg_part": "1", "poly_area": "541", "gisid": "3668"}, "geometry": {"type": "MultiPolygon", "coordinates": [[[[144.955518725792, -37.827721940267], [144.955536915258, -37.827759492599], [144.955550375824, -37.827788780159], [144.955228639667, -37.827763886018], [144.955248406627, -37.827721283029], [144.955383218422, -37.827431051305], [144.955518725792, -37.827721940267]]], [[[144.955579478058, -37.828254057342], [144.955411746003, -37.828218308957], [144.955244344183, -37.828181599904], [144.955077281346, -37.828143932103], [144.955087178907, -37.828115823457], [144.955097248479, -37.828087753274], [144.955107489825, -37.828059722216], [144.955610321478, -37.828171110977], [144.955641257525, -37.828201670741], [144.955579478058, -37.828254057342]]]]}}