{"type": "Feature", "properties": {"seg_id": "22015", "street_id": "22015", "name": "Clarendon Street between City Road and Westgate Freeway", "str_type": "Arterial", "status_id": "1", "seg_part": "1", "poly_area": "2852", "gisid": "3130"}, "geometry": {"type": "MultiPolygon", "coordinates": [[[[144.958409632298, -37.827912318974], [144.958456541237, -37.828016591607], [144.958626603812, -37.828384469674], [144.958715524666, -37.828577400824], [144.958717068413, -37.828580751117], [144.958596401703, -37.828586880953], [144.958475486733, -37.828588131569], [144.95835455045, -37.828586817503], [144.958303816206, -37.828476391073], [144.95803682747, -37.827895263966], [144.958299540726, -37.827673348092], [144.958409632298, -37.827912318974]]]]}}