{"type": "Feature", "properties": {"seg_id": "22013", "street_id": "22013", "name": "City Road between Westgate Freeway and Clarendon Street", "str_type": "Arterial", "status_id": "1", "seg_part": "1", "poly_area": "3280", "gisid": "3669"}, "geometry": {"type": "MultiPolygon", "coordinates": [[[[144.957621596298, -37.827850074328], [144.957818107141, -37.827682880217], [144.95803682747, -37.827895263966], [144.957293024917, -37.82852834367], [144.957154887394, -37.828514122313], [144.957016983895, -37.82849853764], [144.956879335807, -37.828481592071], [144.957592614729, -37.827874733225], [144.957621596298, -37.827850074328]]]]}}