{"type": "Feature", "properties": {"seg_id": "22016", "street_id": "22016", "name": "Clarendon Street between Haig Street and City Road", "str_type": "Arterial", "status_id": "1", "seg_part": "1", "poly_area": "2546", "gisid": "3672"}, "geometry": {"type": "MultiPolygon", "coordinates": [[[[144.957748700071, -37.82727070791], [144.957696410713, -37.827157284875], [144.957552759559, -37.826844812712], [144.957813835446, -37.826621743891], [144.957976564528, -37.826975624835], [144.958002901897, -37.827032934864], [144.958165401396, -37.827386304204], [144.957861172686, -37.827513727211], [144.957748700071, -37.82727070791]]]]}}