{"type": "Feature", "properties": {"seg_id": "22011", "street_id": "22011", "name": "Blakeney Place from Clarendon Street", "str_type": "Council Minor", "status_id": "3", "seg_part": "1", "poly_area": "1031", "gisid": "3667"}, "geometry": {"type": "MultiPolygon", "coordinates": [[[[144.957325431218, -37.827630862544], [144.957299104901, -37.827647979559], [144.956909889549, -37.827977060741], [144.956859275663, -37.827939633522], [144.957249195299, -37.827609857304], [144.957204031462, -37.827575359885], [144.957696410713, -37.827157284875], [144.957748700071, -37.82727070791], [144.957325431218, -37.827630862544]]]]}}