{"type": "Feature", "properties": {"seg_id": "22029", "street_id": "22029", "name": "Intersection of Moray Street and Hancock Street", "str_type": "Council Major", "status_id": "2", "seg_part": "1", "poly_area": "741", "gisid": "3685"}, "geometry": {"type": "MultiPolygon", "coordinates": [[[[144.960872748501, -37.827157208187], [144.960936825381, -37.827296603981], [144.960617183801, -37.827389376648], [144.960570448272, -37.827286341548], [144.960791350319, -37.826980129855], [144.960872748501, -37.827157208187]]]]}}