{"type": "Feature", "properties": {"seg_id": "22026", "street_id": "22026", "name": "Catherine Street between Moray Street and Clarke Street", "str_type": "Council Major", "status_id": "2", "seg_part": "1", "poly_area": "1114", "gisid": "3682"}, "geometry": {"type": "MultiPolygon", "coordinates": [[[[144.959377780202, -37.827091282415], [144.960079419269, -37.826886499189], [144.960116775894, -37.826875596097], [144.96035236088, -37.82680683576], [144.960398734541, -37.826910407186], [144.959425244704, -37.827194474795], [144.959377780202, -37.827091282415]]]]}}