{"type": "Feature", "properties": {"seg_id": "22035", "street_id": "22035", "name": "Sm0549 from Hancock Street", "str_type": "Council Minor", "status_id": "3", "seg_part": "1", "poly_area": "131", "gisid": "3691"}, "geometry": {"type": "MultiPolygon", "coordinates": [[[[144.960002012787, -37.827567919583], [144.960042335552, -37.827556217206], [144.96012325052, -37.827731613275], [144.960424651728, -37.827644136699], [144.960430632233, -37.82765710005], [144.960215918678, -37.827719192959], [144.960217379681, -37.827722125457], [144.960090244035, -37.827759174231], [144.960002012787, -37.827567919583]]]]}}