{"type": "Feature", "properties": {"seg_id": "22031", "street_id": "22031", "name": "Sm0459 from Hancock Street", "str_type": "Council Minor", "status_id": "3", "seg_part": "1", "poly_area": "134", "gisid": "3687"}, "geometry": {"type": "MultiPolygon", "coordinates": [[[[144.959161034515, -37.827812213167], [144.95924621619, -37.827996474719], [144.959245167107, -37.827996778254], [144.959244594403, -37.828000080139], [144.959032369337, -37.828061802159], [144.959017393343, -37.828029403994], [144.959199457051, -37.827976454789], [144.959127974516, -37.827821826952], [144.959161034515, -37.827812213167]]]]}}