{"type": "Feature", "properties": {"seg_id": "22036", "street_id": "22036", "name": "Moray Street between Hancock Street and Westgate Freeway", "str_type": "Council Major", "status_id": "2", "seg_part": "1", "poly_area": "2862", "gisid": "3692"}, "geometry": {"type": "MultiPolygon", "coordinates": [[[[144.960936825381, -37.827296603981], [144.961104882448, -37.827662202674], [144.961224079929, -37.827916666697], [144.961318652956, -37.828123333105], [144.961304734006, -37.828125133738], [144.961290843883, -37.828127069355], [144.961276984667, -37.828129139668], [144.961178915939, -37.828144795652], [144.961081693214, -37.828163478657], [144.960985464942, -37.828185160155], [144.960904488675, -37.828009795142], [144.960786037061, -37.827754727326], [144.960617183801, -37.827389376648], [144.960936825381, -37.827296603981]]]]}}