{"type": "Feature", "properties": {"seg_id": "22042", "street_id": "22042", "name": "Intersection of Kings Way and City Road", "str_type": "Arterial", "status_id": "1", "seg_part": "1", "poly_area": "3479", "gisid": "3698"}, "geometry": {"type": "MultiPolygon", "coordinates": [[[[144.959833291337, -37.825710987903], [144.959995134241, -37.825223690648], [144.960274837469, -37.825453606699], [144.960352417196, -37.825532380473], [144.960569475212, -37.825745931156], [144.960532430815, -37.825777538873], [144.960186890886, -37.826069783648], [144.960061900438, -37.826175495786], [144.959833291337, -37.825710987903]]]]}}