{"type": "Feature", "properties": {"seg_id": "22048", "street_id": "22048", "name": "City Road between Balston Street and Kings Way", "str_type": "Arterial", "status_id": "1", "seg_part": "1", "poly_area": "1970", "gisid": "3704"}, "geometry": {"type": "MultiPolygon", "coordinates": [[[[144.960569475212, -37.825745931156], [144.960352417196, -37.825532380473], [144.960382729963, -37.825506634582], [144.960843681403, -37.825115113276], [144.961092795822, -37.825299418188], [144.960569475212, -37.825745931156]]]]}}