{"type": "Feature", "properties": {"seg_id": "22053", "street_id": "22053", "name": "Balston Street between Kavanagh Street and Southern Link Road", "str_type": "Council Major", "status_id": "2", "seg_part": "1", "poly_area": "2022", "gisid": "3709"}, "geometry": {"type": "MultiPolygon", "coordinates": [[[[144.962180984997, -37.826103679899], [144.962337955838, -37.825972553433], [144.962651964587, -37.826204817638], [144.962701807233, -37.826241684739], [144.963106703285, -37.826541173676], [144.963156546385, -37.826578040595], [144.963173576085, -37.826590637141], [144.963017878174, -37.826723072711], [144.962957930864, -37.826678705267], [144.962180984997, -37.826103679899]]]]}}