{"type": "Feature", "properties": {"seg_id": "22051", "street_id": "22051", "name": "Kavanagh Street between Power Street and Balston Street", "str_type": "Council Major", "status_id": "2", "seg_part": "1", "poly_area": "5338", "gisid": "3707"}, "geometry": {"type": "MultiPolygon", "coordinates": [[[[144.962337955838, -37.825972553433], [144.962088185547, -37.825787736007], [144.963449040424, -37.824624087999], [144.963702570856, -37.824811799985], [144.963494741447, -37.824988584403], [144.963446391687, -37.825029711269], [144.962337955838, -37.825972553433]]]]}}