{"type": "Feature", "properties": {"seg_id": "22074", "street_id": "22074", "name": "Intersection of Southbank Boulevard and Kavanagh Street", "str_type": "Council Major", "status_id": "2", "seg_part": "1", "poly_area": "1830", "gisid": "3729"}, "geometry": {"type": "MultiPolygon", "coordinates": [[[[144.965317189468, -37.823372500734], [144.964886786104, -37.823281268944], [144.96520781168, -37.822913949104], [144.965225029729, -37.822919092287], [144.965520008438, -37.822976847223], [144.965640456351, -37.822995237917], [144.965317189468, -37.823372500734]]]]}}