{"type": "Feature", "properties": {"seg_id": "22078", "street_id": "22078", "name": "Moore Street between Southbank Boulevard and Southern Link Road", "str_type": "Council Major", "status_id": "2", "seg_part": "1", "poly_area": "4739", "gisid": "3733"}, "geometry": {"type": "MultiPolygon", "coordinates": [[[[144.965832480513, -37.823471541867], [144.966162543176, -37.82353732704], [144.966096386732, -37.823566238407], [144.965514294995, -37.825491511975], [144.965476079916, -37.825616704254], [144.965271788659, -37.82552262833], [144.96525355023, -37.825511884738], [144.965277036838, -37.825505116386], [144.965875200138, -37.823523454048], [144.965832480513, -37.823471541867]]]]}}