{"type": "Feature", "properties": {"seg_id": "22079", "street_id": "22079", "name": "Southbank Boulevard between Sturt Street and Moore Street", "str_type": "Council Major", "status_id": "2", "seg_part": "1", "poly_area": "4041", "gisid": "3734"}, "geometry": {"type": "MultiPolygon", "coordinates": [[[[144.967101548419, -37.8237429087], [144.967079078857, -37.823713552459], [144.966162543176, -37.82353732704], [144.966483782053, -37.823127780993], [144.967197455458, -37.823239275709], [144.96720439032, -37.823238914069], [144.967211246151, -37.823238028187], [144.967217968042, -37.823236653626], [144.967224500983, -37.823234801635], [144.967230791511, -37.823232487369], [144.967236788145, -37.823229729768], [144.96724244181, -37.823226551399], [144.967247706238, -37.823222978274], [144.967252538348, -37.823219039634], [144.967256898593, -37.823214767711], [144.967260751292, -37.823210197466], [144.967263850601, -37.823205282502], [144.967101548419, -37.8237429087]]]]}}