{"type": "Feature", "properties": {"seg_id": "22082", "street_id": "22082", "name": "Grant Street between St Kilda Road and Wells Street", "str_type": "Council Major", "status_id": "2", "seg_part": "1", "poly_area": "3336", "gisid": "3737"}, "geometry": {"type": "MultiPolygon", "coordinates": [[[[144.9704987045, -37.82492138592], [144.970508322048, -37.824941304081], [144.970517857961, -37.824961246923], [144.970527312137, -37.824981214235], [144.970557528098, -37.825046394751], [144.970586873093, -37.825111825171], [144.970615343834, -37.825177498171], [144.969439813329, -37.825520434388], [144.969346122619, -37.82531861522], [144.96932127086, -37.825265080334], [144.9704987045, -37.82492138592]]]]}}