{"type": "Feature", "properties": {"seg_id": "22080", "street_id": "22080", "name": "Southbank Boulevard between St Kilda Road and Sturt Street", "str_type": "Council Major", "status_id": "2", "seg_part": "1", "poly_area": "7720", "gisid": "3735"}, "geometry": {"type": "MultiPolygon", "coordinates": [[[[144.969741390912, -37.823273312244], [144.969858611424, -37.823529219888], [144.968752422356, -37.823849224343], [144.968710166396, -37.823861447918], [144.968462487968, -37.823904550244], [144.968410128712, -37.823894607099], [144.968411609544, -37.823889700519], [144.968218854705, -37.823855907415], [144.968218176138, -37.823858155852], [144.967936121339, -37.823804594053], [144.967923538394, -37.823846285133], [144.967449769362, -37.823756314802], [144.967569073293, -37.823363812786], [144.967572938489, -37.823364549982], [144.96877239421, -37.823553406635], [144.969741390912, -37.823273312244]]]]}}