{"type": "Feature", "properties": {"seg_id": "22098", "street_id": "22098", "name": "Wells Street between Coventry Street and Dorcas Street", "str_type": "Council Major", "status_id": "2", "seg_part": "2", "poly_area": "533", "gisid": "3749"}, "geometry": {"type": "MultiPolygon", "coordinates": [[[[144.969064831548, -37.829426599388], [144.969168526801, -37.829650797125], [144.968954058171, -37.829713365306], [144.968850369836, -37.829489516262], [144.969064831548, -37.829426599388]]], [[[144.969176989595, -37.829669094564], [144.968961593762, -37.829729633539], [144.968954058171, -37.829713365306], [144.969168526801, -37.829650797125], [144.969176989595, -37.829669094564]]], [[[144.969271787167, -37.829874053653], [144.969462624875, -37.830286653299], [144.969248664092, -37.830349370433], [144.969041573109, -37.829902297711], [144.968961593762, -37.829729633539], [144.969176989595, -37.829669094564], [144.969255767822, -37.829839419156], [144.969271787167, -37.829874053653]]]]}}