{"type": "Feature", "properties": {"seg_id": "22102", "street_id": "22102", "name": "Anthony Lane between Coventry Street and Dorcas Street", "str_type": "Council Minor", "status_id": "3", "seg_part": "1", "poly_area": "433", "gisid": "3755"}, "geometry": {"type": "MultiPolygon", "coordinates": [[[[144.970383473596, -37.830018712181], [144.970372089834, -37.829553895463], [144.970371134356, -37.829514877949], [144.97035974374, -37.829049814157], [144.970405149452, -37.82903660257], [144.970428879907, -37.830005500604], [144.970383473596, -37.830018712181]]]]}}