{"type": "Feature", "properties": {"seg_id": "22109", "street_id": "22109", "name": "Intersection of Dodds Street and Miles Street", "str_type": "Council Major", "status_id": "2", "seg_part": "1", "poly_area": "356", "gisid": "3762"}, "geometry": {"type": "MultiPolygon", "coordinates": [[[[144.96703270195, -37.828634080627], [144.967086455646, -37.828456312224], [144.967307861578, -37.8284995299], [144.967280391216, -37.828590323863], [144.967245808606, -37.828583904284], [144.967243143029, -37.828583914084], [144.967240490496, -37.828584107147], [144.96723787123, -37.82858448348], [144.967235305258, -37.828585040206], [144.967232812201, -37.828585773066], [144.967230411121, -37.828586676458], [144.96722812038, -37.828587743474], [144.967225957492, -37.828588965955], [144.967223938995, -37.828590334553], [144.967222080325, -37.828591838803], [144.967220395693, -37.828593467204], [144.96721889798, -37.828595207303], [144.96721759864, -37.828597045796], [144.967216507606, -37.828598968624], [144.967215695175, -37.828600976175], [144.967196457077, -37.828665243798], [144.96703270195, -37.828634080627]]]]}}