{"type": "Feature", "properties": {"seg_id": "22106", "street_id": "22106", "name": "Wells Street between Grant Street and Miles Street", "str_type": "Council Major", "status_id": "2", "seg_part": "1", "poly_area": "6400", "gisid": "3759"}, "geometry": {"type": "MultiPolygon", "coordinates": [[[[144.969246403538, -37.826156736439], [144.968577143209, -37.828372297594], [144.968354994307, -37.828330014815], [144.969113585803, -37.825822507541], [144.969182236223, -37.825595575441], [144.969439813329, -37.825520434388], [144.969378869577, -37.825721938637], [144.969288379208, -37.826021128874], [144.969246403538, -37.826156736439]]]]}}