{"type": "Feature", "properties": {"seg_id": "22113", "street_id": "22113", "name": "Dodds Street between Coventry Street and Dorcas Street", "str_type": "Council Major", "status_id": "2", "seg_part": "1", "poly_area": "2046", "gisid": "3766"}, "geometry": {"type": "MultiPolygon", "coordinates": [[[[144.96720981844, -37.830472896789], [144.967400634169, -37.830886175132], [144.967186618706, -37.830949434538], [144.96678903739, -37.830089131817], [144.967003479171, -37.830025990407], [144.967194136085, -37.830438931107], [144.96720981844, -37.830472896789]]]]}}