{"type": "Feature", "properties": {"seg_id": "22123", "street_id": "22123", "name": "Intersection of Lorimer Street and Hartley Street", "str_type": "Arterial", "status_id": "1", "seg_part": "1", "poly_area": "773", "gisid": "3789"}, "geometry": {"type": "MultiPolygon", "coordinates": [[[[144.94027806428, -37.823784323791], [144.940340953595, -37.823558930778], [144.940453463675, -37.823582629791], [144.940631301422, -37.82362008958], [144.94063731587, -37.823621356391], [144.940672596121, -37.823628787237], [144.940609739356, -37.823854064754], [144.94027806428, -37.823784323791]]]]}}