{"type": "Feature", "properties": {"seg_id": "22126", "street_id": "22126", "name": "Lorimer Street between Westgate Freeway and Hartley Street", "str_type": "Council Minor", "status_id": "3", "seg_part": "3", "poly_area": "4", "gisid": "4087"}, "geometry": {"type": "MultiPolygon", "coordinates": [[[[144.942913605877, -37.824340997862], [144.942988630869, -37.824348591641], [144.943002927335, -37.824359932138], [144.942913605877, -37.824340997862]]], [[[144.942863743584, -37.824295874626], [144.942776234319, -37.824225881318], [144.94268223484, -37.824161399975], [144.942582295435, -37.824102808067], [144.942477001159, -37.824050448589], [144.942534384997, -37.824011352862], [144.942674494682, -37.824132406217], [144.942725807751, -37.824160381254], [144.942863743584, -37.824295874626]]], [[[144.946418410192, -37.825097014012], [144.945763806611, -37.825397616167], [144.945217378568, -37.825338506511], [144.943828702164, -37.825188275886], [144.943703389838, -37.825168046839], [144.943580659027, -37.825139503542], [144.943461766375, -37.825101938585], [144.943345519771, -37.825058836132], [144.943235701161, -37.825009528715], [144.9430743791, -37.824928847362], [144.942923406192, -37.824836419282], [144.942784137328, -37.824733073988], [144.942465353209, -37.824456280505], [144.942450630722, -37.824419254517], [144.942352401549, -37.824341981806], [144.942058093214, -37.824158596973], [144.940609739356, -37.823854064754], [144.940672596121, -37.823628787237], [144.940764351194, -37.823648114518], [144.940809650589, -37.823649170845], [144.941014310125, -37.823692165548], [144.94106897859, -37.823712280484], [144.941845283117, -37.823875793218], [144.94191020346, -37.823889467873], [144.942156983085, -37.823941445295], [144.942203858924, -37.823951318669], [144.942297421626, -37.82397987981], [144.942388584803, -37.824012965131], [144.942477001159, -37.824050448589], [144.942582295435, -37.824102808067], [144.94268223484, -37.824161399975], [144.942776234319, -37.824225881318], [144.942863743584, -37.824295874626], [144.942880658088, -37.824310710404], [144.942897280188, -37.824325752691], [144.942913605877, -37.824340997862], [144.943002927335, -37.824359932138], [144.943187007662, -37.824505950465], [144.943363539698, -37.82464597994], [144.943490854885, -37.824695005287], [144.943798210087, -37.8248133597], [144.944453050695, -37.824884256375], [144.944522291785, -37.824891752708], [144.944582163154, -37.82489823472], [144.945292291795, -37.824975111464], [144.94539008976, -37.824985699228], [144.946418410192, -37.825097014012]]], [[[144.94063731587, -37.823621356391], [144.940645116521, -37.823598051562], [144.940752294704, -37.823620620683], [144.940754435047, -37.82361432829], [144.94075772859, -37.823615022122], [144.940758894476, -37.823611538759], [144.940844521188, -37.823629569245], [144.940843355306, -37.823633052609], [144.940846648851, -37.823633746438], [144.940844500443, -37.823640165757], [144.941583783938, -37.823795837767], [144.941582988448, -37.823798217371], [144.941852268345, -37.823854918931], [144.941845283117, -37.823875793218], [144.94106897859, -37.823712280484], [144.941014310125, -37.823692165548], [144.940809650589, -37.823649170845], [144.940764351194, -37.823648114518], [144.940672596121, -37.823628787237], [144.94063731587, -37.823621356391]]]]}}