{"type": "Feature", "properties": {"seg_id": "22130", "street_id": "22130", "name": "Rogers Street between Boundary Street and Ingles Street", "str_type": "Council Major", "status_id": "2", "seg_part": "1", "poly_area": "5097", "gisid": "3796"}, "geometry": {"type": "MultiPolygon", "coordinates": [[[[144.93781645031, -37.823961174544], [144.937694034522, -37.823944633231], [144.9375282465, -37.823992147835], [144.936416107977, -37.824850469227], [144.93608716361, -37.82461820034], [144.936161098298, -37.824619034996], [144.936814314248, -37.824164268391], [144.937468953275, -37.82365858788], [144.93781645031, -37.823961174544]]]]}}