{"type": "Feature", "properties": {"seg_id": "22148", "street_id": "22148", "name": "Turner Street between Salmon Street and Douglas Street", "str_type": "Council Major", "status_id": "2", "seg_part": "1", "poly_area": "5670", "gisid": "3646"}, "geometry": {"type": "MultiPolygon", "coordinates": [[[[144.923896532877, -37.823950694821], [144.922945663375, -37.823971739499], [144.921811031546, -37.824121504626], [144.921714671696, -37.82380195701], [144.921936044085, -37.823828151293], [144.922913888848, -37.823698616812], [144.92381261964, -37.823678311085], [144.923896532877, -37.823950694821]]]]}}