{"type": "Feature", "properties": {"seg_id": "22145", "street_id": "22145", "name": "Turner Street between Douglas Street and Hall Street", "str_type": "Council Major", "status_id": "2", "seg_part": "1", "poly_area": "6623", "gisid": "3643"}, "geometry": {"type": "MultiPolygon", "coordinates": [[[[144.924047564227, -37.82367300246], [144.924714487814, -37.823657928522], [144.92656383315, -37.823711302495], [144.926551251348, -37.823985717694], [144.924712697985, -37.823932374164], [144.924130716693, -37.823945483469], [144.924047564227, -37.82367300246]]]]}}