{"type": "Feature", "properties": {"seg_id": "22158", "street_id": "22158", "name": "Lorimer Street between Graham Street and Hall Street", "str_type": "Arterial", "status_id": "1", "seg_part": "1", "poly_area": "7766", "gisid": "3655"}, "geometry": {"type": "MultiPolygon", "coordinates": [[[[144.926910267439, -37.821131749097], [144.926919853257, -37.820918930901], [144.928537462853, -37.821090565163], [144.930548999306, -37.821514492282], [144.930539843624, -37.821734119569], [144.928469556547, -37.821299088002], [144.926910267439, -37.821131749097]]]]}}