{"type": "Feature", "properties": {"seg_id": "22168", "street_id": "22168", "name": "Lorimer Street between West Gate Bridge and Todd Road", "str_type": "Council Major", "status_id": "2", "seg_part": "1", "poly_area": "40406", "gisid": "3785"}, "geometry": {"type": "MultiPolygon", "coordinates": [[[[144.911038000042, -37.822798086826], [144.910529718675, -37.822953908949], [144.908786388226, -37.82348923233], [144.905192850361, -37.825519449566], [144.904897195866, -37.825686471789], [144.903971640781, -37.826209332715], [144.903406129037, -37.82672306775], [144.903367373268, -37.826758274606], [144.903167648969, -37.826939709821], [144.902249014931, -37.828094131115], [144.902213930566, -37.828138219989], [144.902094448371, -37.828288365334], [144.902051892381, -37.828341843628], [144.901209249483, -37.82940072064], [144.90080005119, -37.829914914749], [144.900561259166, -37.830435229185], [144.900520424722, -37.830524205623], [144.900494438515, -37.830580935522], [144.900206309907, -37.830410567356], [144.900488724726, -37.829795853295], [144.902892071086, -37.826776712607], [144.902892220339, -37.826776577387], [144.903253328625, -37.826462997963], [144.903903086649, -37.825914302401], [144.906901244455, -37.824220535433], [144.908520627496, -37.82330561646], [144.908624052585, -37.823247181833], [144.910166778012, -37.82277352758], [144.911633907097, -37.82232305795], [144.911511315787, -37.822380896894], [144.91139905405, -37.822450781727], [144.911294385335, -37.822527712755], [144.911198000135, -37.822611182466], [144.911110534299, -37.822700640216], [144.911038000042, -37.822798086826]]]]}}