{"type": "Feature", "properties": {"seg_id": "22164", "street_id": "22164", "name": "Intersection of Todd Road and Wharf Road", "str_type": "Arterial", "status_id": "1", "seg_part": "1", "poly_area": "6863", "gisid": "3783"}, "geometry": {"type": "MultiPolygon", "coordinates": [[[[144.911492389654, -37.826211799255], [144.9118305102, -37.82615177282], [144.91187441814, -37.826361203272], [144.911905807284, -37.826571686674], [144.911918340656, -37.826783302155], [144.911918038789, -37.827315922464], [144.911442582079, -37.827315751634], [144.911288957194, -37.827123757784], [144.911014591375, -37.827085261033], [144.910938631595, -37.827020608951], [144.911048505995, -37.826942101741], [144.91114421544, -37.826852542269], [144.911230128353, -37.82675690807], [144.911305648045, -37.826655863349], [144.911370250014, -37.826550109887], [144.911423485581, -37.82644038217], [144.911464985011, -37.826327442285], [144.911492389654, -37.826211799255]]]]}}