{"type": "Feature", "properties": {"seg_id": "22162", "street_id": "22162", "name": "Lorimer Street between Todd Road and Salmon Street", "str_type": "Arterial", "status_id": "1", "seg_part": "1", "poly_area": "19936", "gisid": "3659"}, "geometry": {"type": "MultiPolygon", "coordinates": [[[[144.919315431216, -37.821045387439], [144.917926637635, -37.821247491986], [144.917667025243, -37.821285270075], [144.91668239799, -37.821428545351], [144.916536947459, -37.821449709259], [144.914435032382, -37.821755530511], [144.911955266628, -37.822516875458], [144.911155979347, -37.822761917376], [144.911154285585, -37.822762437038], [144.91123771838, -37.822665126134], [144.911336686126, -37.822577348796], [144.91144509144, -37.822496899822], [144.911562090409, -37.822424405488], [144.911686772219, -37.822360430149], [144.91181816625, -37.822305471838], [144.91195695836, -37.822263580972], [144.914360547206, -37.82154931343], [144.919890738476, -37.820745483238], [144.920415999981, -37.820739287056], [144.920481376487, -37.820951542381], [144.919914125561, -37.820958256854], [144.91949875858, -37.821018707366], [144.919315431216, -37.821045387439]]]]}}