{"type": "Feature", "properties": {"seg_id": "22178", "street_id": "22178", "name": "King Street between Kings Bridge and Flinders Street", "str_type": "Arterial", "status_id": "1", "seg_part": "1", "poly_area": "4012", "gisid": "3780"}, "geometry": {"type": "MultiPolygon", "coordinates": [[[[144.9574526685, -37.820531025453], [144.957774406906, -37.820437560206], [144.957791771751, -37.820475172716], [144.95780539944, -37.820471225836], [144.957863322735, -37.820596689861], [144.957851405988, -37.820604343214], [144.957991899516, -37.820908654352], [144.958000963224, -37.820902171694], [144.958129804299, -37.821173875253], [144.95825666906, -37.821287299112], [144.958266827953, -37.821377938748], [144.957773914088, -37.821602747327], [144.957725710645, -37.821150292317], [144.957722218996, -37.821117507415], [144.957710095065, -37.821122246366], [144.957642997009, -37.820943287134], [144.95757206684, -37.820789650167], [144.9574526685, -37.820531025453]], [[144.957840202786, -37.820959726109], [144.957821429542, -37.820967104632], [144.957869144695, -37.821067466917], [144.957887917961, -37.821060088387], [144.957840202786, -37.820959726109]], [[144.957713030915, -37.820684145506], [144.957698797541, -37.82069345467], [144.957782421059, -37.820873464708], [144.957798149141, -37.820863179354], [144.957722615547, -37.820704305208], [144.957713030915, -37.820684145506]]]]}}