{"type": "Feature", "properties": {"seg_id": "22170", "street_id": "22170", "name": "Wharf Road from Todd Road", "str_type": "Council Major", "status_id": "2", "seg_part": "1", "poly_area": "15615", "gisid": "3786"}, "geometry": {"type": "MultiPolygon", "coordinates": [[[[144.911258511737, -37.826513627864], [144.911198412615, -37.826620080856], [144.911122338065, -37.826719940078], [144.911035389548, -37.826814003975], [144.9109382467, -37.826901537294], [144.910831668837, -37.82698185583], [144.910712531886, -37.827050011132], [144.909639385041, -37.827455926018], [144.907309821156, -37.828959031262], [144.907145823119, -37.829068856853], [144.906987119527, -37.829183471676], [144.906833932573, -37.829302715283], [144.906594874502, -37.829036337206], [144.907472947391, -37.828469800418], [144.907666800436, -37.828344723281], [144.909435657433, -37.827203393796], [144.911258511737, -37.826513627864]]]]}}