{"type": "Feature", "properties": {"seg_id": "22174", "street_id": "22174", "name": "Spencer Street between Spencer Street Bridge and Flinders Street", "str_type": "Arterial", "status_id": "1", "seg_part": "1", "poly_area": "5636", "gisid": "3776"}, "geometry": {"type": "MultiPolygon", "coordinates": [[[[144.95597173458, -37.822516337896], [144.955578371099, -37.822631710029], [144.955556822307, -37.822637957677], [144.955562794821, -37.82265091933], [144.955495487981, -37.822670435221], [144.955490793642, -37.822671796484], [144.955498018622, -37.822640404414], [144.955501043097, -37.822608537456], [144.955500529792, -37.822576560145], [144.955496482665, -37.822544719177], [144.955489789239, -37.822513104894], [144.955187886228, -37.821859134153], [144.95514919662, -37.821845998982], [144.95510325318, -37.821859332351], [144.95502869528, -37.821695044829], [144.95494153299, -37.82150298224], [144.955329288846, -37.821229726458], [144.955457269184, -37.821509557279], [144.955543237049, -37.821697526356], [144.955746971793, -37.82214298867], [144.955869399434, -37.822367987142], [144.955925412772, -37.822416966932], [144.95597173458, -37.822516337896]]]]}}