{"type": "Feature", "properties": {"seg_id": "22172", "street_id": "22172", "name": "Munro Street from Montague Street", "str_type": "Council Minor", "status_id": "3", "seg_part": "1", "poly_area": "167", "gisid": "3775"}, "geometry": {"type": "MultiPolygon", "coordinates": [[[[144.95026325775, -37.827198441539], [144.949900700764, -37.82714195342], [144.949912529559, -37.827135247403], [144.949929029594, -37.827125876097], [144.949946969089, -37.827118304659], [144.949965670485, -37.827111981944], [144.949984997115, -37.827106954157], [144.95000480774, -37.827103258043], [144.950024957586, -37.82710092061], [144.9500452994, -37.827099958942], [144.950065684524, -37.827100380066], [144.950085963986, -37.827102180904], [144.950105989585, -37.827105348297], [144.950125614975, -37.827109859097], [144.950144696736, -37.827115680339], [144.950163095419, -37.827122769482], [144.950180676569, -37.827131074719], [144.950197311702, -37.827140535357], [144.950212879252, -37.827151082257], [144.950227265452, -37.827162638344], [144.950241112067, -37.827174668759], [144.95026325775, -37.827198441539]]]]}}