{"type": "Feature", "properties": {"seg_id": "22175", "street_id": "22175", "name": "Spencer Street Bridge between Spencer Street and Clarendon Street", "str_type": "Arterial", "status_id": "1", "seg_part": "1", "poly_area": "4030", "gisid": "3777"}, "geometry": {"type": "MultiPolygon", "coordinates": [[[[144.95597173458, -37.822516337896], [144.956392057275, -37.823418036529], [144.955988820219, -37.823563183689], [144.955984271937, -37.823553279232], [144.955979150412, -37.823554762867], [144.955950628381, -37.823492813969], [144.955971753491, -37.823486694974], [144.955676957831, -37.822845982581], [144.955578371099, -37.822631710029], [144.95597173458, -37.822516337896]]]]}}