{"type": "Feature", "properties": {"seg_id": "22182", "street_id": "22182", "name": "Queens Bridge Street between Power Street and Kings Way", "str_type": "Council Major", "status_id": "2", "seg_part": "1", "poly_area": "6532", "gisid": "3625"}, "geometry": {"type": "MultiPolygon", "coordinates": [[[[144.959959821093, -37.82519466296], [144.960007899217, -37.82518525597], [144.960521817498, -37.823622290084], [144.960559542991, -37.823481921515], [144.960921636726, -37.823485031767], [144.960326157552, -37.825297415761], [144.96032220849, -37.825324463421], [144.960321810306, -37.825351725656], [144.960324564915, -37.825378922204], [144.9603304491, -37.825405823864], [144.960339413272, -37.825432203918], [144.960351381885, -37.825457840044], [144.96036625407, -37.825482516191], [144.960382729963, -37.825506634582], [144.960352417196, -37.825532380473], [144.960274837469, -37.825453606699], [144.959995134241, -37.825223690648], [144.959959821093, -37.82519466296]]]]}}