{"type": "Feature", "properties": {"seg_id": "22186", "street_id": "22186", "name": "Queens Bridge between Queens Bridge Street and Flinders Street", "str_type": "Council Major", "status_id": "2", "seg_part": "1", "poly_area": "2980", "gisid": "3628"}, "geometry": {"type": "MultiPolygon", "coordinates": [[[[144.961571705799, -37.820867636114], [144.961222340976, -37.820944767325], [144.961206510076, -37.8200897425], [144.961556515129, -37.820007402759], [144.961565231109, -37.820003220809], [144.961571705799, -37.820867636114]]]]}}