{"type": "Feature", "properties": {"seg_id": "22195", "street_id": "22195", "name": "Swanston Street between Princes Bridge and Flinders Street", "str_type": "Council Major", "status_id": "2", "seg_part": "1", "poly_area": "1440", "gisid": "357"}, "geometry": {"type": "MultiPolygon", "coordinates": [[[[144.967335540836, -37.817639128631], [144.967851941494, -37.81876089187], [144.967851089485, -37.818760099123], [144.967850200405, -37.818759336529], [144.967849233098, -37.818758636466], [144.967848194635, -37.818758004053], [144.967847092607, -37.818757443913], [144.967845935069, -37.81875696014], [144.967844730483, -37.818756556271], [144.967843487655, -37.818756235257], [144.96784221567, -37.818755999446], [144.967840923825, -37.818755850561], [144.967839621548, -37.818755791259], [144.967801392338, -37.818758482018], [144.967800549417, -37.818750943553], [144.967799418032, -37.818751023155], [144.967799147103, -37.818748599723], [144.967796133847, -37.818733045688], [144.967795911618, -37.81873071051], [144.967797043816, -37.818730642637], [144.967796328365, -37.818723095557], [144.967795196167, -37.81872316343], [144.967794420699, -37.818714988096], [144.967707135103, -37.818720198012], [144.967341966685, -37.817926953498], [144.967346554011, -37.817925623252], [144.967337586377, -37.817906160746], [144.967332999052, -37.817907490993], [144.967315396033, -37.817869043931], [144.967319861811, -37.817867713389], [144.967310513175, -37.817847977557], [144.967293928216, -37.817852921665], [144.967241101764, -37.817833212043], [144.967247240771, -37.817822858078], [144.96725340749, -37.817825158905], [144.967264573032, -37.817806326041], [144.967261285032, -37.817805098649], [144.967261498043, -37.817804533024], [144.967261628341, -37.81780395083], [144.967261692836, -37.817803361334], [144.967261691018, -37.8178027692], [144.967261622901, -37.817802179112], [144.967261489024, -37.817801595741], [144.967261290446, -37.8178010237], [144.967261028739, -37.817800467517], [144.967260705974, -37.817799931593], [144.967260324703, -37.817799420167], [144.967259887944, -37.817798937285], [144.967259399152, -37.81779848677], [144.967258862195, -37.817798072184], [144.967258281322, -37.817797696809], [144.967257676259, -37.81779734391], [144.967259247081, -37.817794703547], [144.967241570059, -37.817788108162], [144.967243020812, -37.817785662183], [144.967223698648, -37.81777845353], [144.967225148266, -37.817776007532], [144.967203051999, -37.817767763294], [144.967204502753, -37.817765317316], [144.967188572069, -37.817759373883], [144.967190022823, -37.817756927905], [144.96717090646, -37.817749795792], [144.967172357214, -37.817747349814], [144.967156426536, -37.817741406377], [144.967157877291, -37.8177389604], [144.967135677569, -37.817730678316], [144.967137128325, -37.817728232339], [144.967121403442, -37.817722365446], [144.967122853062, -37.817719919449], [144.967093921043, -37.817709124896], [144.967335540836, -37.817639128631]]], [[[144.967335540836, -37.817639128631], [144.967656077254, -37.817546919274], [144.968068109761, -37.818443573214], [144.968206163831, -37.818735965702], [144.968209233907, -37.818742573833], [144.968214905559, -37.818740934236], [144.968216364281, -37.818740567913], [144.968217869811, -37.818740340251], [144.968219395809, -37.818740218732], [144.968220930442, -37.818740204298], [144.968222461814, -37.818740297062], [144.968223978051, -37.818740496304], [144.968225467399, -37.81874080048], [144.96822691831, -37.818741207231], [144.968228319535, -37.818741713404], [144.968229660212, -37.818742315074], [144.968230929945, -37.818743007576], [144.968232118891, -37.818743785543], [144.968233217831, -37.818744642942], [144.968234218246, -37.818745573125], [144.96823511238, -37.818746568882], [144.9682358933, -37.818747622492], [144.9682366027, -37.818748709999], [144.96825367671, -37.818785966355], [144.96825396387, -37.818787267119], [144.968254141739, -37.818788577824], [144.968254173196, -37.818789894941], [144.968254057993, -37.818791208181], [144.968253797031, -37.818792507285], [144.968253392348, -37.818793782104], [144.968252847106, -37.818795022679], [144.968252165565, -37.818796219319], [144.968251353048, -37.818797362676], [144.968250415904, -37.818798443817], [144.968249361452, -37.818799454297], [144.96824819793, -37.818800386222], [144.968246934429, -37.818801232311], [144.968245580818, -37.818801985956], [144.968244147672, -37.818802641267], [144.968242646187, -37.818803193127], [144.968241088092, -37.818803637223], [144.968239485559, -37.818803970088], [144.968237848094, -37.818804170932], [144.968254553255, -37.818840130439], [144.967896507345, -37.81885769754], [144.967851941494, -37.81876089187], [144.967335540836, -37.817639128631]]]]}}