{"type": "Feature", "properties": {"seg_id": "22205", "street_id": "22205", "name": "Cl1292 from Bromby Street", "str_type": "Council Minor", "status_id": "3", "seg_part": "1", "poly_area": "149", "gisid": "881"}, "geometry": {"type": "MultiPolygon", "coordinates": [[[[144.976232170256, -37.835165030965], [144.976230410684, -37.835172703959], [144.976210066557, -37.835261398418], [144.976012333761, -37.835234703742], [144.975959989889, -37.835228315666], [144.975945795039, -37.835226755902], [144.975951835955, -37.835201545763], [144.976165002752, -37.835231021045], [144.976185258019, -37.835217464123], [144.976235756882, -37.834991219042], [144.976271044631, -37.834995591654], [144.976232170256, -37.835165030965]]]]}}