{"type": "Feature", "properties": {"seg_id": "22216", "street_id": "22216", "name": "Intersection of Toorak Road and Park Street", "str_type": "Arterial", "status_id": "1", "seg_part": "1", "poly_area": "668", "gisid": "892"}, "geometry": {"type": "MultiPolygon", "coordinates": [[[[144.982023329003, -37.837848338697], [144.981658051966, -37.837800989433], [144.981695942616, -37.837620555991], [144.981921974498, -37.837646840458], [144.982061014346, -37.837665483757], [144.982023329003, -37.837848338697]]]]}}