{"type": "Feature", "properties": {"seg_id": "22224", "street_id": "22224", "name": "Intersection of Domain Road and Domain Street", "str_type": "Council Major", "status_id": "2", "seg_part": "1", "poly_area": "396", "gisid": "896"}, "geometry": {"type": "MultiPolygon", "coordinates": [[[[144.97877546933, -37.833747292292], [144.978811115254, -37.83357524808], [144.978813953763, -37.833575616729], [144.979042054193, -37.833605218783], [144.979007011811, -37.833775068255], [144.97877546933, -37.833747292292]]]]}}