{"type": "Feature", "properties": {"seg_id": "22228", "street_id": "22228", "name": "Intersection of Domain Road and Park Street", "str_type": "Council Major", "status_id": "2", "seg_part": "1", "poly_area": "412", "gisid": "900"}, "geometry": {"type": "MultiPolygon", "coordinates": [[[[144.982629057056, -37.834252094709], [144.98239867003, -37.834226924814], [144.982436065565, -37.834045623691], [144.982486338701, -37.834052146421], [144.982623399043, -37.834069928688], [144.982665504148, -37.834075391275], [144.982629057056, -37.834252094709]]]]}}