{"type": "Feature", "properties": {"seg_id": "22241", "street_id": "22241", "name": "Marne Street between Toorak Road and Domain Road", "str_type": "Council Major", "status_id": "2", "seg_part": "1", "poly_area": "5854", "gisid": "936"}, "geometry": {"type": "MultiPolygon", "coordinates": [[[[144.983526457344, -37.837856941171], [144.984238224193, -37.834461901198], [144.984425503624, -37.83448495609], [144.98440562732, -37.834496340995], [144.98435940277, -37.8347179346], [144.983699708678, -37.837880437404], [144.983526457344, -37.837856941171]]]]}}