{"type": "Feature", "properties": {"seg_id": "22247", "street_id": "22247", "name": "St Martins Place from St Martins Lane", "str_type": "Council Minor", "status_id": "3", "seg_part": "1", "poly_area": "603", "gisid": "906"}, "geometry": {"type": "MultiPolygon", "coordinates": [[[[144.98091024814, -37.835286682003], [144.980958680249, -37.835052154431], [144.980947477702, -37.835050656502], [144.980971812666, -37.834932819796], [144.981085250316, -37.834947384364], [144.981080038557, -37.834971337449], [144.981631310406, -37.835044800497], [144.98179785194, -37.835066994873], [144.981823953188, -37.835051527563], [144.981819525482, -37.835068483879], [144.981864407124, -37.835073524843], [144.981798803854, -37.835406832797], [144.981762734606, -37.83540322255], [144.981818518997, -37.835130846002], [144.981797183726, -37.835109023261], [144.981003704908, -37.835002853687], [144.980943100671, -37.83529032746], [144.98091024814, -37.835286682003]]]]}}