{"type": "Feature", "properties": {"seg_id": "22244", "street_id": "22244", "name": "Emmerton Place from Leopold Street", "str_type": "Council Minor", "status_id": "3", "seg_part": "1", "poly_area": "109", "gisid": "982"}, "geometry": {"type": "MultiPolygon", "coordinates": [[[[144.983274008325, -37.834912607784], [144.983615840097, -37.834957998516], [144.983643177589, -37.834961628964], [144.983633834197, -37.835005606729], [144.983590213233, -37.834999999565], [144.983576515464, -37.834979720997], [144.983267240954, -37.834939968708], [144.983274008325, -37.834912607784]]]]}}