{"type": "Feature", "properties": {"seg_id": "22245", "street_id": "22245", "name": "Park Street between Toorak Road and Mason Street", "str_type": "Council Major", "status_id": "2", "seg_part": "1", "poly_area": "909", "gisid": "904"}, "geometry": {"type": "MultiPolygon", "coordinates": [[[[144.981771379789, -37.837261327795], [144.982010277262, -37.837236693646], [144.981945123298, -37.837539319736], [144.981945161635, -37.83754841956], [144.981945655708, -37.837570399585], [144.981951656826, -37.837591861213], [144.981963802869, -37.837611622222], [144.981979886831, -37.837629526724], [144.982000145062, -37.837644532504], [144.982023755046, -37.83765604961], [144.982049790132, -37.837663598051], [144.982061014346, -37.837665483757], [144.981921974498, -37.837646840458], [144.981695942616, -37.837620555991], [144.981771379789, -37.837261327795]]]]}}