{"type": "Feature", "properties": {"seg_id": "22252", "street_id": "22252", "name": "Mason Street between Park Street and Randall Place", "str_type": "Council Major", "status_id": "2", "seg_part": "1", "poly_area": "2248", "gisid": "911"}, "geometry": {"type": "MultiPolygon", "coordinates": [[[[144.980885125363, -37.836436322155], [144.980877909014, -37.836466775266], [144.980755669893, -37.837075354674], [144.981101638743, -37.837117137949], [144.981137184352, -37.837122603958], [144.981781804527, -37.837204453102], [144.981771379789, -37.837261327795], [144.980637345942, -37.837115346896], [144.980770753433, -37.836456853841], [144.980779157561, -37.836420347188], [144.980959107071, -37.83553675625], [144.981060414569, -37.835573540369], [144.980885125363, -37.836436322155]]]]}}