{"type": "Feature", "properties": {"seg_id": "22250", "street_id": "22250", "name": "Randall Place between Park Street and Mason Street", "str_type": "Council Minor", "status_id": "3", "seg_part": "1", "poly_area": "554", "gisid": "909"}, "geometry": {"type": "MultiPolygon", "coordinates": [[[[144.981405536238, -37.83562197595], [144.981060414569, -37.835573540369], [144.981071135681, -37.835517473758], [144.981531247182, -37.835583462231], [144.982099869375, -37.83565963486], [144.982084262639, -37.835711545417], [144.981440070837, -37.835625614064], [144.981405536238, -37.83562197595]]]]}}