{"type": "Feature", "properties": {"seg_id": "22257", "street_id": "22257", "name": "Little Park Street between Millswyn Street and Mason Street", "str_type": "Council Minor", "status_id": "3", "seg_part": "1", "poly_area": "177", "gisid": "914"}, "geometry": {"type": "MultiPolygon", "coordinates": [[[[144.980779157561, -37.836420347188], [144.980770753433, -37.836456853841], [144.980305908147, -37.836397151541], [144.9803137795, -37.836357689842], [144.98062405113, -37.836399573091], [144.980658372822, -37.836404321639], [144.980779157561, -37.836420347188]]]]}}