{"type": "Feature", "properties": {"seg_id": "22262", "street_id": "22262", "name": "Domain Street between Toorak Road and Bromby Street", "str_type": "Council Major", "status_id": "2", "seg_part": "1", "poly_area": "4400", "gisid": "919"}, "geometry": {"type": "MultiPolygon", "coordinates": [[[[144.978580422497, -37.835794288314], [144.978580557406, -37.835802666152], [144.978385833179, -37.836779730575], [144.978378389083, -37.836807665329], [144.978303126323, -37.837185269141], [144.978068181133, -37.837147899718], [144.978448763371, -37.83527394923], [144.97867733569, -37.835302266958], [144.978580422497, -37.835794288314]]]]}}