{"type": "Feature", "properties": {"seg_id": "22261", "street_id": "22261", "name": "Hope Street between Toorak Road and Domain Road", "str_type": "Council Major", "status_id": "2", "seg_part": "1", "poly_area": "3871", "gisid": "918"}, "geometry": {"type": "MultiPolygon", "coordinates": [[[[144.979689127679, -37.835082793194], [144.979718113168, -37.835105977699], [144.979710319944, -37.83512422175], [144.979699902525, -37.835141625048], [144.979687504611, -37.835158181825], [144.979673231238, -37.83517375181], [144.979657203332, -37.835188203094], [144.979638861532, -37.835200773062], [144.979626563861, -37.835208677082], [144.979613692463, -37.835215983968], [144.979600293367, -37.835222667589], [144.979578166081, -37.835240415083], [144.979559250848, -37.835260400581], [144.979542693623, -37.835281670279], [144.97952862884, -37.835304051482], [144.979517170693, -37.835327362471], [144.979509000307, -37.835351529705], [144.979122571628, -37.837288735242], [144.978984754382, -37.8372713567], [144.979060650497, -37.836890491124], [144.979066059202, -37.836863348662], [144.979260963353, -37.835885243454], [144.979264181531, -37.835875575013], [144.979374355461, -37.835338071242], [144.979380837445, -37.835314791085], [144.979390273593, -37.835292159006], [144.979402112705, -37.835270262669], [144.979416268659, -37.835249261355], [144.97943263848, -37.835229307837], [144.979451103086, -37.835210547263], [144.979471528159, -37.835193116105], [144.979493765121, -37.835177141164], [144.97951765221, -37.835162738648], [144.979543015663, -37.835150013327], [144.979570157145, -37.835139876694], [144.979577117251, -37.835137458715], [144.979583655573, -37.835134383963], [144.979589834259, -37.83513087499], [144.979595608096, -37.835126957474], [144.979600934831, -37.835122660082], [144.979605775484, -37.835118014262], [144.979610094631, -37.835113054011], [144.979613860667, -37.835107815628], [144.97961704603, -37.835102337447], [144.979619627411, -37.835096659556], [144.97962144778, -37.835090798477], [144.979620679722, -37.83507401262], [144.979865188867, -37.833886431042], [144.979940910138, -37.833895958074], [144.97979119443, -37.834591145787], [144.979777360503, -37.834653368863], [144.979689127679, -37.835082793194]]]]}}