{"type": "Feature", "properties": {"seg_id": "22260", "street_id": "22260", "name": "Day Street between Millswyn Street and Hope Street", "str_type": "Council Minor", "status_id": "3", "seg_part": "1", "poly_area": "409", "gisid": "917"}, "geometry": {"type": "MultiPolygon", "coordinates": [[[[144.97979119443, -37.834591145787], [144.980015300801, -37.834619214842], [144.980028626936, -37.834620796158], [144.980139466265, -37.834635116087], [144.980162787707, -37.83463812872], [144.980263971026, -37.834651202355], [144.980448487544, -37.834675040747], [144.980434839507, -37.834735925244], [144.979777360503, -37.834653368863], [144.97979119443, -37.834591145787]]]]}}