{"type": "Feature", "properties": {"seg_id": "22268", "street_id": "22268", "name": "Clowes Street between Anderson Street and Walsh Street", "str_type": "Council Major", "status_id": "2", "seg_part": "1", "poly_area": "2966", "gisid": "940"}, "geometry": {"type": "MultiPolygon", "coordinates": [[[[144.984522102184, -37.830615424861], [144.98455990866, -37.830434198409], [144.985698071002, -37.830578892766], [144.985731362515, -37.830583124735], [144.986199878494, -37.830642683321], [144.986180357363, -37.830822366689], [144.984522102184, -37.830615424861]]]]}}