{"type": "Feature", "properties": {"seg_id": "22264", "street_id": "22264", "name": "Intersection of Domain Street and Bromby Street", "str_type": "Council Major", "status_id": "2", "seg_part": "1", "poly_area": "390", "gisid": "920"}, "geometry": {"type": "MultiPolygon", "coordinates": [[[[144.97867733569, -37.835302266958], [144.978448763371, -37.83527394923], [144.978495221045, -37.835099879339], [144.978712016872, -37.835128184927], [144.978704869087, -37.835160969517], [144.97870035609, -37.835185394985], [144.97867733569, -37.835302266958]]]]}}