{"type": "Feature", "properties": {"seg_id": "22278", "street_id": "22278", "name": "Alexandra Avenue between Anderson Street and Walsh Street", "str_type": "Council Major", "status_id": "2", "seg_part": "1", "poly_area": "5452", "gisid": "950"}, "geometry": {"type": "MultiPolygon", "coordinates": [[[[144.986505152293, -37.829067547501], [144.986440099545, -37.829425120532], [144.986015590492, -37.82904136848], [144.985626788825, -37.828747730766], [144.985358783899, -37.828595379931], [144.984932896675, -37.828543727424], [144.985007950204, -37.828154426551], [144.98519866898, -37.828217792076], [144.985383786653, -37.828290864674], [144.985562518915, -37.828373334759], [144.985828478138, -37.828524524564], [144.985865539679, -37.828548854149], [144.986254342455, -37.8288424911], [144.986275844487, -37.828860255196], [144.986505152293, -37.829067547501]]]]}}