{"type": "Feature", "properties": {"seg_id": "22272", "street_id": "22272", "name": "Cl1723 from Alexandra Avenue", "str_type": "Council Minor", "status_id": "3", "seg_part": "1", "poly_area": "257", "gisid": "944"}, "geometry": {"type": "MultiPolygon", "coordinates": [[[[144.986783462608, -37.830717018], [144.986846366912, -37.830391075463], [144.987202844139, -37.830157603382], [144.987229456943, -37.830180902298], [144.986883606883, -37.830405040646], [144.986819844873, -37.830722038775], [144.986783462608, -37.830717018]]]]}}