{"type": "Feature", "properties": {"seg_id": "22270", "street_id": "22270", "name": "Clowes Street between Airlie Street and Punt Road", "str_type": "Council Major", "status_id": "2", "seg_part": "1", "poly_area": "898", "gisid": "942"}, "geometry": {"type": "MultiPolygon", "coordinates": [[[[144.987725606431, -37.830837253197], [144.987818544289, -37.831080830212], [144.98781442372, -37.831072690828], [144.987809661716, -37.831064786622], [144.987804018835, -37.831057252147], [144.987797541634, -37.831050149566], [144.987790283553, -37.831043537478], [144.987782304473, -37.831037470437], [144.987773670228, -37.831031998499], [144.987764452052, -37.831027166809], [144.987754726001, -37.831023015232], [144.987744572319, -37.83101957802], [144.987734074779, -37.831016883532], [144.987723343402, -37.831014845516], [144.987231943828, -37.830952698364], [144.987267081342, -37.830778929449], [144.987725606431, -37.830837253197]]]]}}