{"type": "Feature", "properties": {"seg_id": "22271", "street_id": "22271", "name": "Intersection of Punt Road and Alexandra Avenue", "str_type": "Arterial", "status_id": "1", "seg_part": "1", "poly_area": "1781", "gisid": "943"}, "geometry": {"type": "MultiPolygon", "coordinates": [[[[144.987818544289, -37.831080830212], [144.987725606431, -37.830837253197], [144.987654214752, -37.830619443161], [144.987645784124, -37.830601015588], [144.987635491463, -37.830583193035], [144.987623404994, -37.830566093635], [144.987609604831, -37.830549830728], [144.987629991967, -37.83056951666], [144.98765991394, -37.830390784891], [144.987475386667, -37.830210712534], [144.987596293765, -37.83013277096], [144.987623968856, -37.830129815029], [144.987704381246, -37.830121226058], [144.987713187664, -37.830068626175], [144.987822921566, -37.830185758646], [144.987820593496, -37.830198765198], [144.98779385966, -37.830535890122], [144.987872056696, -37.830779995582], [144.98792185982, -37.830933783698], [144.987968933733, -37.831148809692], [144.987818544289, -37.831080830212]]]]}}