{"type": "Feature", "properties": {"seg_id": "22280", "street_id": "22280", "name": "Anderson Street between St Leonards Court and Alexandra Avenue", "str_type": "Council Major", "status_id": "2", "seg_part": "1", "poly_area": "1682", "gisid": "952"}, "geometry": {"type": "MultiPolygon", "coordinates": [[[[144.984932896675, -37.828543727424], [144.98480360552, -37.829218337966], [144.9845645228, -37.829188510531], [144.984691467419, -37.828548398612], [144.984712247128, -37.828443616699], [144.984932896675, -37.828543727424]]]]}}