{"type": "Feature", "properties": {"seg_id": "22298", "street_id": "22298", "name": "Punt Road between The Righi and Clowes Street", "str_type": "Arterial", "status_id": "1", "seg_part": "1", "poly_area": "1727", "gisid": "968"}, "geometry": {"type": "MultiPolygon", "coordinates": [[[[144.987514925207, -37.832998669022], [144.987848417887, -37.83136331636], [144.987849938689, -37.831354946889], [144.987851343587, -37.831346564685], [144.987852632414, -37.831338170755], [144.987857113902, -37.831286291504], [144.987855406931, -37.83123425228], [144.98784806372, -37.831182486851], [144.987835138738, -37.831131379195], [144.987818544289, -37.831080830212], [144.987968933733, -37.831148809692], [144.987929991131, -37.831373232935], [144.987613607878, -37.833010408502], [144.987514925207, -37.832998669022]]]]}}