{"type": "Feature", "properties": {"seg_id": "22290", "street_id": "22290", "name": "Airlie Street between Clowes Street and The Righi", "str_type": "Council Major", "status_id": "2", "seg_part": "1", "poly_area": "2725", "gisid": "961"}, "geometry": {"type": "MultiPolygon", "coordinates": [[[[144.987170579201, -37.831253217281], [144.987165018198, -37.831279318516], [144.986830416989, -37.832915538698], [144.986689961413, -37.832899429937], [144.987094973297, -37.830936000856], [144.987231943828, -37.830952698364], [144.987170579201, -37.831253217281]]]]}}