{"type": "Feature", "properties": {"seg_id": "22309", "street_id": "22309", "name": "Alfred Lane between Commercial Road and Punt Road", "str_type": "Road Safety Act", "status_id": "16", "seg_part": "1", "poly_area": "3057", "gisid": "2572"}, "geometry": {"type": "MultiPolygon", "coordinates": [[[[144.984637121344, -37.847299479717], [144.982337433512, -37.847021919867], [144.98232033719, -37.847019817273], [144.982259539585, -37.847012339877], [144.981647716664, -37.84693709091], [144.981629681986, -37.846934935178], [144.981373364484, -37.846904296923], [144.981380738479, -37.846872142422], [144.981298831104, -37.846861388136], [144.981274622237, -37.846856910195], [144.9812508612, -37.846851128384], [144.981227765878, -37.846843816854], [144.981205493353, -37.846835025334], [144.981184195107, -37.846824813619], [144.981164016001, -37.846813251163], [144.981145093279, -37.846800416606], [144.981126672868, -37.846787036545], [144.980864039491, -37.846466401034], [144.980806180342, -37.846393178584], [144.980782688576, -37.846329117595], [144.980742106723, -37.846218451212], [144.980836175111, -37.846304793174], [144.980926910851, -37.846394664573], [144.981024631008, -37.84656179709], [144.981185690179, -37.846756690557], [144.981197470794, -37.846764614972], [144.981209969427, -37.846771814585], [144.981223115321, -37.846778248641], [144.982169982071, -37.846902256524], [144.982227265671, -37.846918738641], [144.982555751161, -37.846958614331], [144.982698632044, -37.846994713737], [144.983137794398, -37.847052218047], [144.983340260713, -37.847079118253], [144.983419075679, -37.847089480207], [144.983587959103, -37.847104688688], [144.983678655487, -37.847122403909], [144.984132978172, -37.847182094511], [144.984190836493, -37.847184341559], [144.984578532923, -37.847230257724], [144.984652708119, -37.847207978183], [144.984637121344, -37.847299479717]]], [[[144.980742106723, -37.846218451212], [144.980782688576, -37.846329117595], [144.980715944719, -37.846344885025], [144.980304012698, -37.845205229793], [144.980373891529, -37.84521430947], [144.980742106723, -37.846218451212]]]]}}