{"type": "Feature", "properties": {"seg_id": "22308", "street_id": "22308", "name": "Commercial Road between St Kilda Road and Punt Road", "str_type": "Arterial", "status_id": "1", "seg_part": "1", "poly_area": "16212", "gisid": "921"}, "geometry": {"type": "MultiPolygon", "coordinates": [[[[144.984433188544, -37.845741657683], [144.984275489872, -37.845721173642], [144.980373891529, -37.84521430947], [144.980304012698, -37.845205229793], [144.979126136677, -37.845052184421], [144.978945381282, -37.844579025283], [144.978956739078, -37.844602400879], [144.978969803741, -37.844625175289], [144.978985292892, -37.844646984011], [144.979003090505, -37.844667663682], [144.979023063261, -37.844687059394], [144.97904506155, -37.844705025859], [144.979068920587, -37.844721428494], [144.97909446165, -37.84473614443], [144.979121493417, -37.844749063435], [144.979149813399, -37.844760088734], [144.979179209456, -37.84476913774], [144.979209461392, -37.844776142668], [144.979240290748, -37.844781328986], [144.98492468881, -37.845525444556], [144.984892331316, -37.845801296233], [144.984433188544, -37.845741657683]]]]}}