{"type": "Feature", "properties": {"seg_id": "22313", "street_id": "22313", "name": "Park Drive between Flemington Road and Story Street", "str_type": "Council Major", "status_id": "2", "seg_part": "1", "poly_area": "3350", "gisid": "2030"}, "geometry": {"type": "MultiPolygon", "coordinates": [[[[144.953170249716, -37.796944630061], [144.953432087473, -37.796645893213], [144.953744547654, -37.796764355636], [144.952973137071, -37.79762784922], [144.952730432385, -37.797436235924], [144.953109044862, -37.797011925932], [144.953170249716, -37.796944630061]]]]}}