{"type": "Feature", "properties": {"seg_id": "22321", "street_id": "22321", "name": "Story Street between Park Drive and Gatehouse Street", "str_type": "Council Major", "status_id": "2", "seg_part": "1", "poly_area": "2730", "gisid": "2038"}, "geometry": {"type": "MultiPolygon", "coordinates": [[[[144.953230968732, -37.79630491353], [144.953568037199, -37.796493333497], [144.953432087473, -37.796645893213], [144.953095024174, -37.796456040076], [144.953055554234, -37.796441421844], [144.952715457837, -37.796015224559], [144.952683766344, -37.795988719729], [144.952388634778, -37.795755787358], [144.95255611024, -37.795626693858], [144.95284979584, -37.795861817573], [144.952878346794, -37.795885664268], [144.953196920873, -37.796286415391], [144.953230968732, -37.79630491353]]]]}}