{"type": "Feature", "properties": {"seg_id": "22326", "street_id": "22326", "name": "Intersection of Morrah Street and Wimble Street", "str_type": "Council Major", "status_id": "2", "seg_part": "1", "poly_area": "1221", "gisid": "2043"}, "geometry": {"type": "MultiPolygon", "coordinates": [[[[144.955620736069, -37.79567214181], [144.955400150375, -37.795645143068], [144.955449259621, -37.795375513619], [144.955682890919, -37.795402307958], [144.955901830214, -37.795430097658], [144.955851372247, -37.795699356949], [144.955620736069, -37.79567214181]]]]}}