{"type": "Feature", "properties": {"seg_id": "22337", "street_id": "22337", "name": "Gatehouse Street between Flemington Road and Story Street", "str_type": "Council Major", "status_id": "2", "seg_part": "1", "poly_area": "2232", "gisid": "2054"}, "geometry": {"type": "MultiPolygon", "coordinates": [[[[144.951984434072, -37.796077123276], [144.951909750941, -37.796135491382], [144.951503061313, -37.796458754969], [144.951340590642, -37.796326153001], [144.952227591836, -37.795628684271], [144.952388634778, -37.795755787358], [144.951984434072, -37.796077123276]]]]}}