{"type": "Feature", "properties": {"seg_id": "22359", "street_id": "22359", "name": "Jageurs Lane between Bayles Street and Degraves Street", "str_type": "Council Minor", "status_id": "3", "seg_part": "1", "poly_area": "264", "gisid": "2076"}, "geometry": {"type": "MultiPolygon", "coordinates": [[[[144.957476217419, -37.794095727342], [144.95751963982, -37.793751417666], [144.957563276387, -37.793754760832], [144.957484570174, -37.794372724816], [144.957441669297, -37.79436966473], [144.957472585067, -37.794124529067], [144.957476217419, -37.794095727342]]]]}}