{"type": "Feature", "properties": {"seg_id": "22371", "street_id": "22371", "name": "Gatehouse Street between Royal Parade and Park Drive", "str_type": "Council Major", "status_id": "2", "seg_part": "1", "poly_area": "3010", "gisid": "2086"}, "geometry": {"type": "MultiPolygon", "coordinates": [[[[144.957021689202, -37.792807705017], [144.956954801616, -37.792581872037], [144.958115341664, -37.792327685874], [144.95808059404, -37.792610192104], [144.958067260515, -37.792718597032], [144.95769172983, -37.79269033003], [144.957648838051, -37.792690727106], [144.957021689202, -37.792807705017]]]]}}