{"type": "Feature", "properties": {"seg_id": "22376", "street_id": "22376", "name": "MacArthur Road between Royal Parade and The Avenue", "str_type": "Arterial", "status_id": "1", "seg_part": "1", "poly_area": "2334", "gisid": "2087"}, "geometry": {"type": "MultiPolygon", "coordinates": [[[[144.957552881974, -37.789914979033], [144.95752971739, -37.789645654881], [144.957531300301, -37.789632832431], [144.957532316658, -37.78963291404], [144.957545737445, -37.789646169716], [144.957545649551, -37.789646887332], [144.958414998646, -37.789714111803], [144.958439956931, -37.789697665377], [144.958437710561, -37.78971586719], [144.958404168713, -37.789987677742], [144.957552881974, -37.789914979033]]]]}}