{"type": "Feature", "properties": {"seg_id": "22382", "street_id": "22382", "name": "Walker Street between Royal Parade and The Avenue", "str_type": "Council Major", "status_id": "2", "seg_part": "1", "poly_area": "5043", "gisid": "2093"}, "geometry": {"type": "MultiPolygon", "coordinates": [[[[144.957149766846, -37.784412646195], [144.958090339704, -37.784484309635], [144.958157808937, -37.784488038668], [144.959068849864, -37.784564237944], [144.959035480296, -37.784827923287], [144.95812344107, -37.784757762335], [144.958053724517, -37.784751184441], [144.957131942778, -37.784682003127], [144.957149766846, -37.784412646195]]]]}}