{"type": "Feature", "properties": {"seg_id": "22384", "street_id": "22384", "name": "Ievers Street between Royal Parade and The Avenue", "str_type": "Council Major", "status_id": "2", "seg_part": "1", "poly_area": "4927", "gisid": "2094"}, "geometry": {"type": "MultiPolygon", "coordinates": [[[[144.957625636283, -37.781432566192], [144.958462348195, -37.781500883309], [144.958530242036, -37.781506827348], [144.959439158717, -37.781577993114], [144.959405101813, -37.781848949235], [144.958495264588, -37.781775631419], [144.958429512635, -37.781772716399], [144.9575410596, -37.781702719557], [144.957625636283, -37.781432566192]]]]}}