{"type": "Feature", "properties": {"seg_id": "22392", "street_id": "22392", "name": "The Avenue between Ievers Street and Park Street", "str_type": "Council Major", "status_id": "2", "seg_part": "1", "poly_area": "12382", "gisid": "2100"}, "geometry": {"type": "MultiPolygon", "coordinates": [[[[144.958402400079, -37.779840994137], [144.958353936465, -37.779898576667], [144.958342118131, -37.7799159845], [144.95833037783, -37.779933425566], [144.958318715711, -37.779950899645], [144.958307303782, -37.779968145782], [144.958295968008, -37.77998542353], [144.958284708528, -37.780002732678], [144.958273502333, -37.780020109066], [144.958262373026, -37.780037516556], [144.958251320745, -37.780054954934], [144.958240394136, -37.780072345784], [144.958229544134, -37.780089766823], [144.958218770872, -37.780107217839], [144.958208131666, -37.7801246056], [144.958197568645, -37.780142022599], [144.958187081936, -37.780159468623], [144.958177095639, -37.780176227967], [144.958167179763, -37.780193013631], [144.958157334421, -37.78020982543], [144.958146965004, -37.780227693094], [144.958136675259, -37.78024558975], [144.958126465312, -37.780263515174], [144.958116408657, -37.780281337956], [144.958106430891, -37.780299188649], [144.958096532136, -37.780317067032], [144.958086752134, -37.780334900589], [144.958077050748, -37.780352761176], [144.958067428096, -37.780370648575], [144.957934735797, -37.780634207795], [144.95792404997, -37.780656429241], [144.957913473254, -37.780678683548], [144.957903005809, -37.780700970378], [144.957892862185, -37.780722823768], [144.957882823624, -37.780744707698], [144.957872890272, -37.780766621851], [144.957863035963, -37.780788625559], [144.957853287725, -37.780810659011], [144.9578436457, -37.780832721884], [144.957834002935, -37.780855063066], [144.95782446908, -37.780877433672], [144.957815044276, -37.78089983337], [144.957779219779, -37.780987748317], [144.957745075061, -37.781076083347], [144.957712617944, -37.781164818244], [144.957681928005, -37.781253716858], [144.957652931914, -37.781342972951], [144.957625636283, -37.781432566192], [144.957288341378, -37.781405024617], [144.95738223036, -37.781117690655], [144.957492623677, -37.780834076626], [144.957619288826, -37.780554779381], [144.957697013383, -37.78040097702], [144.957779714752, -37.78024881856], [144.95786733777, -37.780098405433], [144.958172446979, -37.779620706777], [144.958526671116, -37.779164861223], [144.958927542916, -37.778734042767], [144.959576879903, -37.778101540621], [144.959837419107, -37.778345777557], [144.959811559097, -37.778348174632], [144.959785761144, -37.778350961299], [144.959760034562, -37.778354136552], [144.959142133064, -37.778964419658], [144.958615514447, -37.779579688823], [144.95860618581, -37.779590586421], [144.958604141047, -37.779593099518], [144.958402400079, -37.779840994137]]]]}}