{"type": "Feature", "properties": {"seg_id": "22395", "street_id": "22395", "name": "Park Street between Royal Parade and Bowen Crescent", "str_type": "Council Major", "status_id": "2", "seg_part": "1", "poly_area": "1050", "gisid": "1867"}, "geometry": {"type": "MultiPolygon", "coordinates": [[[[144.961196525769, -37.778301195155], [144.960533454347, -37.77821780437], [144.960559389079, -37.778083833377], [144.960891296435, -37.778124309534], [144.961231037213, -37.778214747513], [144.961370957469, -37.778253931306], [144.961507396963, -37.778300206499], [144.961639785887, -37.778353379838], [144.961196525769, -37.778301195155]]]]}}