{"type": "Feature", "properties": {"seg_id": "22393", "street_id": "22393", "name": "Royal Parade between Ievers Street and Park Street", "str_type": "Arterial", "status_id": "1", "seg_part": "1", "poly_area": "22142", "gisid": "1865"}, "geometry": {"type": "MultiPolygon", "coordinates": [[[[144.960112733641, -37.781630311247], [144.959439158717, -37.781577993114], [144.959670685561, -37.779675465294], [144.959672410434, -37.779661296182], [144.959723649892, -37.779240226963], [144.959729195306, -37.779212062916], [144.959837419107, -37.778345777557], [144.960533454347, -37.77821780437], [144.960112733641, -37.781630311247]]]]}}