{"type": "Feature", "properties": {"seg_id": "22401", "street_id": "22401", "name": "Oak Street between Park Street and Poplar Road", "str_type": "Council Major", "status_id": "2", "seg_part": "1", "poly_area": "8280", "gisid": "2009"}, "geometry": {"type": "MultiPolygon", "coordinates": [[[[144.94263178559, -37.77756743165], [144.942906723458, -37.776092477836], [144.943245301798, -37.776133577876], [144.943358157361, -37.776147270997], [144.943228592203, -37.776223224574], [144.94284526559, -37.778279669051], [144.942792566142, -37.778563807364], [144.9424538277, -37.778523506963], [144.942506416217, -37.778239975172], [144.942546224223, -37.77802642905], [144.942557853524, -37.777964040887], [144.942599388494, -37.777741226549], [144.94263178559, -37.77756743165]]]]}}