{"type": "Feature", "properties": {"seg_id": "22409", "street_id": "22409", "name": "Cl1478 from Southgate Street", "str_type": "Council Minor", "status_id": "3", "seg_part": "1", "poly_area": "215", "gisid": "2014"}, "geometry": {"type": "MultiPolygon", "coordinates": [[[[144.942653851574, -37.788965312764], [144.942637268901, -37.788990823763], [144.942331568451, -37.78874688589], [144.942442318233, -37.788658486879], [144.942442751677, -37.788638767702], [144.942341664958, -37.788561647065], [144.942367663042, -37.788541191288], [144.942508291929, -37.788649546277], [144.942396439997, -37.788738791225], [144.942395609288, -37.788758503461], [144.942653851574, -37.788965312764]]]]}}