{"type": "Feature", "properties": {"seg_id": "22406", "street_id": "22406", "name": "Kendall Avenue between The Avenue and Elliott Avenue", "str_type": "Council Major", "status_id": "2", "seg_part": "1", "poly_area": "1445", "gisid": "2103"}, "geometry": {"type": "MultiPolygon", "coordinates": [[[[144.955837555843, -37.784419760997], [144.955913994716, -37.784311087054], [144.956045683625, -37.784254966181], [144.956046287137, -37.784254863106], [144.956070263285, -37.784251367991], [144.956094616893, -37.784249990591], [144.956119045671, -37.784250349316], [144.956143353765, -37.78425244129], [144.956167346287, -37.784256249742], [144.956190830881, -37.784261744136], [144.956213619262, -37.784268880423], [144.956235528727, -37.784277601389], [144.95625638362, -37.784287837114], [144.956276016739, -37.784299505534], [144.956294270678, -37.7843125131], [144.956310999089, -37.784326755524], [144.956326923354, -37.784341639328], [144.956342307117, -37.784356018467], [144.956358444015, -37.784369795035], [144.956376042338, -37.784382393001], [144.956394963866, -37.784393713419], [144.956415059987, -37.784403667377], [144.956436172861, -37.784412176694], [144.956458136665, -37.784419174538], [144.956480778891, -37.784424605944], [144.956503921703, -37.784428428255], [144.956527377777, -37.784430679835], [144.956816599105, -37.784452866765], [144.956812577101, -37.784498120969], [144.956808682195, -37.784543382175], [144.956804914405, -37.784588650158], [144.956481022047, -37.784563804247], [144.956461047398, -37.784562967781], [144.956441074617, -37.784563465787], [144.956421254891, -37.784565395539], [144.956401750495, -37.784568741238], [144.956382721123, -37.784573475488], [144.956364322579, -37.78457955953], [144.956346705504, -37.784586943548], [144.956330014137, -37.784595567087], [144.956314385142, -37.784605359539], [144.956300593505, -37.784616735012], [144.956284358542, -37.78463023303], [144.956265972177, -37.78464189329], [144.956246371333, -37.784652238812], [144.956225702975, -37.784661192026], [144.956204122069, -37.784668685803], [144.956181790426, -37.784674663956], [144.956158875483, -37.784679081662], [144.956135549053, -37.784681905798], [144.956111986032, -37.784683115188], [144.956088363093, -37.784682700766], [144.956064857355, -37.784680665638], [144.95604164506, -37.784677025063], [144.95601890025, -37.784671806338], [144.95599679346, -37.784665048592], [144.955975490444, -37.784656802492], [144.955954613346, -37.784647782094], [144.955851442179, -37.784548564173], [144.955837555843, -37.784419760997]], [[144.95610833765, -37.784308909415], [144.956091013207, -37.784309094667], [144.956073787479, -37.784310481204], [144.956056791646, -37.784313055445], [144.956040155058, -37.784316797798], [144.956024004328, -37.784321679783], [144.956008462374, -37.784327664244], [144.955993647479, -37.784334705635], [144.955979672394, -37.784342750369], [144.955966643477, -37.784351737218], [144.955954659887, -37.784361597789], [144.955943812825, -37.784372257036], [144.955934184844, -37.784383633836], [144.955925849219, -37.784395641604], [144.95591886939, -37.784408188955], [144.955913298476, -37.784421180395], [144.955909178877, -37.784434517051], [144.955906541943, -37.784448097424], [144.955905407745, -37.784461818159], [144.955905784914, -37.784475574832], [144.95590767058, -37.784489262748], [144.955911050391, -37.784502777732], [144.955915898626, -37.784516016928], [144.955922178385, -37.784528879578], [144.955929841877, -37.784541267788], [144.955938830778, -37.784553087277], [144.955949076676, -37.784564248092], [144.955960501595, -37.784574665293], [144.955973018583, -37.784584259597], [144.955986532379, -37.784592957987], [144.956000940135, -37.784600694262], [144.956016132199, -37.784607409545], [144.95603199295, -37.784613052728], [144.956048401678, -37.784617580864], [144.956065233504, -37.784620959491], [144.956082360326, -37.784623162895], [144.956099651883, -37.784624171274], [144.956116976328, -37.784623986029], [144.956134202058, -37.784622599494], [144.956151197893, -37.784620025255], [144.956167834484, -37.784616282903], [144.956183985216, -37.784611400919], [144.956199527173, -37.784605416459], [144.95621434207, -37.784598375068], [144.956228317158, -37.784590330335], [144.956241346077, -37.784581343485], [144.95625332967, -37.784571482914], [144.956264176734, -37.784560823667], [144.956273804717, -37.784549446866], [144.956282140343, -37.784537439097], [144.956289120174, -37.784524891745], [144.956294691089, -37.784511900304], [144.95629881069, -37.784498563646], [144.956301447623, -37.784484983272], [144.956302581822, -37.784471262536], [144.956302204652, -37.784457505861], [144.956300318986, -37.784443817944], [144.956296939174, -37.784430302958], [144.956292090939, -37.784417063761], [144.956285811178, -37.78440420111], [144.956278147684, -37.784391812899], [144.956269158781, -37.784379993408], [144.956258912881, -37.784368832593], [144.95624748796, -37.784358415392], [144.956234970969, -37.784348821088], [144.956221457171, -37.784340122698], [144.956207049412, -37.784332386423], [144.956191857346, -37.784325671141], [144.956175996592, -37.784320027958], [144.956159587861, -37.784315499824], [144.956142756033, -37.784312121199], [144.956125629209, -37.784309917797], [144.95610833765, -37.784308909415]]]]}}