{"type": "Feature", "properties": {"seg_id": "22411", "street_id": "22411", "name": "St Georges Grove from Manningham Street", "str_type": "Council Minor", "status_id": "3", "seg_part": "1", "poly_area": "1184", "gisid": "2016"}, "geometry": {"type": "MultiPolygon", "coordinates": [[[[144.94258415384, -37.787788823319], [144.942571910787, -37.78777910924], [144.942449557052, -37.787682031009], [144.942437314034, -37.787672316918], [144.942461790749, -37.787672308363], [144.943080383594, -37.787180683366], [144.943185427454, -37.787291517907], [144.942584144486, -37.787769386581], [144.94258415384, -37.787788823319]]]]}}