{"type": "Feature", "properties": {"seg_id": "22415", "street_id": "22415", "name": "Manningham Street between Oak Street and Heathcote Road", "str_type": "Council Major", "status_id": "2", "seg_part": "1", "poly_area": "4619", "gisid": "2020"}, "geometry": {"type": "MultiPolygon", "coordinates": [[[[144.941488410506, -37.784353022474], [144.941757037415, -37.784610916341], [144.941889816689, -37.785518190239], [144.942039743352, -37.786488679172], [144.941824972829, -37.786597045149], [144.941742881899, -37.786046312804], [144.941741015193, -37.78603378717], [144.941724192622, -37.785934872017], [144.941488410506, -37.784353022474]]]]}}