{"type": "Feature", "properties": {"seg_id": "22417", "street_id": "22417", "name": "McIntyre Lane from Yates Lane", "str_type": "Council Minor", "status_id": "3", "seg_part": "1", "poly_area": "622", "gisid": "2022"}, "geometry": {"type": "MultiPolygon", "coordinates": [[[[144.940685662348, -37.785835941877], [144.94114282557, -37.785605275885], [144.941180674405, -37.785652523838], [144.941498197169, -37.786048901601], [144.94143980692, -37.786078363333], [144.941122284331, -37.785681986321], [144.94069875995, -37.785895679174], [144.940685662348, -37.785835941877]]]]}}