{"type": "Feature", "properties": {"seg_id": "22421", "street_id": "22421", "name": "Mount Alexander Road between Flemington Road and Moonee Ponds Creek", "str_type": "Arterial", "status_id": "1", "seg_part": "1", "poly_area": "887", "gisid": "2026"}, "geometry": {"type": "MultiPolygon", "coordinates": [[[[144.940132826785, -37.787090647151], [144.940402408207, -37.787491170996], [144.940522597327, -37.787646799838], [144.94057569893, -37.787698926918], [144.940458628988, -37.787750115835], [144.940365335655, -37.787615728494], [144.940071942554, -37.787193103093], [144.939971322397, -37.787060169761], [144.940071511943, -37.787011148987], [144.940132826785, -37.787090647151]]]]}}