{"type": "Feature", "properties": {"seg_id": "22420", "street_id": "22420", "name": "Plover Lane between Church Street and Manningham Street", "str_type": "Council Minor", "status_id": "3", "seg_part": "1", "poly_area": "317", "gisid": "2025"}, "geometry": {"type": "MultiPolygon", "coordinates": [[[[144.941501139878, -37.787629753494], [144.941944926418, -37.787404690367], [144.941948978287, -37.787431773935], [144.941314493168, -37.787755441296], [144.941306676834, -37.787785651779], [144.941458106122, -37.787974497006], [144.941432963424, -37.787994325896], [144.941241971933, -37.787756142679], [144.941004451751, -37.787875101049], [144.941000807905, -37.787870556697], [144.941251652202, -37.787742484246], [144.941258224507, -37.787750591665], [144.941444494919, -37.787655487806], [144.941501139878, -37.787629753494]]]]}}