{"type": "Feature", "properties": {"seg_id": "22428", "street_id": "22428", "name": "Elliott Avenue between West Coburg Tramway and MacArthur Road", "str_type": "Arterial", "status_id": "1", "seg_part": "1", "poly_area": "4394", "gisid": "2105"}, "geometry": {"type": "MultiPolygon", "coordinates": [[[[144.952025518167, -37.787672796253], [144.951959011177, -37.787843299704], [144.951935998095, -37.787841528291], [144.951912975884, -37.787839833241], [144.951889944946, -37.787838214583], [144.951776647651, -37.787833511916], [144.951663329454, -37.787829949047], [144.951549966296, -37.787829710059], [144.951440246096, -37.787830960314], [144.951330716582, -37.787835902239], [144.951221894327, -37.787846596891], [144.951077790801, -37.787864432505], [144.950936810753, -37.787893978316], [144.950801742704, -37.787937048848], [144.950672463751, -37.787985553531], [144.950548998876, -37.788042809234], [144.950432286333, -37.788108380857], [144.950257406682, -37.788218188242], [144.950136608202, -37.788292767591], [144.950013728621, -37.788365174131], [144.949888829979, -37.788435371304], [144.949851886645, -37.788297550993], [144.949821336633, -37.788174271616], [144.949819990156, -37.788168838408], [144.950055287315, -37.788049154723], [144.950225305151, -37.787969537431], [144.950402695056, -37.787900792643], [144.950586355295, -37.787843347313], [144.950759548246, -37.787759852393], [144.950792699421, -37.787736927333], [144.950824939472, -37.787713197976], [144.950856237428, -37.787688687114], [144.950860347127, -37.787687817786], [144.950864303589, -37.787686578561], [144.950868096275, -37.787685054], [144.950871692859, -37.787683257099], [144.950875062686, -37.787681203172], [144.950878042491, -37.787678804784], [144.950943736002, -37.787731531152], [144.950939999607, -37.787733887067], [144.950936504982, -37.787736466102], [144.950933273227, -37.787739252685], [144.950930323853, -37.787742229992], [144.951023747158, -37.787721871122], [144.951097798779, -37.787709587668], [144.951111613279, -37.787707325382], [144.951125064456, -37.787703958028], [144.951138122192, -37.787699740552], [144.951150393187, -37.787694264308], [144.951196196716, -37.787674389897], [144.951204940554, -37.787670210972], [144.951214294483, -37.787666941859], [144.951223956337, -37.787664284867], [144.951233863089, -37.787662257329], [144.951243972902, -37.787661002217], [144.951278154042, -37.787656303292], [144.951374482985, -37.787648895946], [144.951475323473, -37.787642596137], [144.951630101642, -37.787637829128], [144.95180544469, -37.78763839676], [144.952025518167, -37.787672796253]]]]}}