{"type": "Feature", "properties": {"seg_id": "22432", "street_id": "22432", "name": "Mile Lane between Leonard Street and MacArthur Road", "str_type": "Council Minor", "status_id": "3", "seg_part": "1", "poly_area": "1256", "gisid": "2109"}, "geometry": {"type": "MultiPolygon", "coordinates": [[[[144.957688470252, -37.787740665348], [144.957760306828, -37.787745488706], [144.95766336668, -37.788562505895], [144.957531300301, -37.789632832431], [144.95752971739, -37.789645654881], [144.95748634761, -37.789419802805], [144.957592315574, -37.788555892832], [144.957688470252, -37.787740665348]]]]}}