{"type": "Feature", "properties": {"seg_id": "22436", "street_id": "22436", "name": "The Avenue between Leonard Street and MacArthur Road", "str_type": "Council Major", "status_id": "2", "seg_part": "1", "poly_area": "6290", "gisid": "2110"}, "geometry": {"type": "MultiPolygon", "coordinates": [[[[144.95748634761, -37.789419802805], [144.95752971739, -37.789645654881], [144.957093975978, -37.78930377274], [144.956975648247, -37.78859559736], [144.956927145845, -37.788288918213], [144.956884517468, -37.787981689903], [144.956847772872, -37.78767398328], [144.957202911247, -37.78770215223], [144.957319264268, -37.788533042753], [144.95748634761, -37.789419802805]]]]}}