{"type": "Feature", "properties": {"seg_id": "22439", "street_id": "22439", "name": "Docklands Drive between Harbour Esplanade and Saint Mangos Lane", "str_type": "Council Major", "status_id": "2", "seg_part": "1", "poly_area": "5418", "gisid": "3904"}, "geometry": {"type": "MultiPolygon", "coordinates": [[[[144.941766579626, -37.81341593154], [144.941563158535, -37.813493420738], [144.94117126429, -37.813642704479], [144.941012440719, -37.813381393457], [144.941750876564, -37.813100102329], [144.941832618261, -37.813047608569], [144.942376332827, -37.812840487142], [144.942375404613, -37.812693903228], [144.942571266765, -37.812807771684], [144.942912056652, -37.812979574151], [144.941766579626, -37.81341593154]]]]}}