{"type": "Feature", "properties": {"seg_id": "22442", "street_id": "22442", "name": "Footscray Road between Dock Link Road and Sims Street", "str_type": "Arterial", "status_id": "1", "seg_part": "1", "poly_area": "51278", "gisid": "3578"}, "geometry": {"type": "MultiPolygon", "coordinates": [[[[144.908440483159, -37.806151702503], [144.909625051541, -37.806501415124], [144.909936583805, -37.806593384342], [144.910104847706, -37.806610502964], [144.916163035374, -37.807226656421], [144.915764784505, -37.807878423674], [144.91166505421, -37.807460552753], [144.911359315641, -37.807388175007], [144.910691929724, -37.807320524098], [144.910557235434, -37.80727839705], [144.910288446492, -37.807138322095], [144.909773215577, -37.807012924727], [144.909494561151, -37.806969422384], [144.909444159597, -37.806969598166], [144.909403945154, -37.806969737608], [144.909356025612, -37.80696990515], [144.909321078436, -37.807008446783], [144.909196603134, -37.807145722341], [144.909036712079, -37.807098588958], [144.908996913091, -37.807086857327], [144.908811867342, -37.80706242348], [144.908221711346, -37.80688518901], [144.908199320947, -37.806851778737], [144.90802730833, -37.806801070907], [144.908058899038, -37.806642217141], [144.90805544016, -37.806519718362], [144.907982566223, -37.806498140184], [144.907803073716, -37.806444990351], [144.907820114146, -37.806409144823], [144.907839903453, -37.806374199568], [144.907862366569, -37.806340287139], [144.90786658515, -37.806325592832], [144.908039428596, -37.806377365508], [144.90825676105, -37.806442463496], [144.908340877127, -37.806261380826], [144.908440483159, -37.806151702503]]]]}}