{"type": "Feature", "properties": {"seg_id": "22444", "street_id": "22444", "name": "Maxwell Lane between Jolimont Road and Agnes Street", "str_type": "Council Minor", "status_id": "3", "seg_part": "1", "poly_area": "551", "gisid": "769"}, "geometry": {"type": "MultiPolygon", "coordinates": [[[[144.979085393848, -37.816835858828], [144.980032278612, -37.816938298082], [144.980025188451, -37.816997113477], [144.979597450968, -37.816951284496], [144.979503581524, -37.816940959362], [144.979077242085, -37.81689350243], [144.979085393848, -37.816835858828]]]]}}