{"type": "Feature", "properties": {"seg_id": "22440", "street_id": "22440", "name": "Footscray Road between Appleton Dock Road and Dock Link Road", "str_type": "Arterial", "status_id": "1", "seg_part": "1", "poly_area": "78438", "gisid": "3576"}, "geometry": {"type": "MultiPolygon", "coordinates": [[[[144.927911034705, -37.809115995203], [144.925184506953, -37.808838376019], [144.920640759627, -37.808374340179], [144.917368502159, -37.808040823591], [144.916832556454, -37.807987237352], [144.916956032028, -37.807307281854], [144.928828529949, -37.808513863741], [144.928823113286, -37.808524952908], [144.928762712034, -37.808597710861], [144.928640302248, -37.80870387126], [144.928484817272, -37.808845179318], [144.928431891314, -37.80888612747], [144.928297366873, -37.808974357332], [144.928138543903, -37.809047831774], [144.927911034705, -37.809115995203]]]]}}