{"type": "Feature", "properties": {"seg_id": "22441", "street_id": "22441", "name": "Dock Link Road between Footscray Road and South Dynon Railway", "str_type": "Arterial", "status_id": "1", "seg_part": "1", "poly_area": "9480", "gisid": "3577"}, "geometry": {"type": "MultiPolygon", "coordinates": [[[[144.91710825175, -37.804560286394], [144.917108534706, -37.804570346661], [144.917108678924, -37.804575481378], [144.91713678611, -37.804574114921], [144.917168742683, -37.804564454582], [144.916758482803, -37.807104468926], [144.916956032028, -37.807307281854], [144.916163035374, -37.807226656421], [144.916418660892, -37.807069919078], [144.91681793975, -37.804598784701], [144.916870456626, -37.804593645268], [144.916868606065, -37.804638037537], [144.916914004327, -37.804639145232], [144.9169120935, -37.804589525421], [144.916911133911, -37.804564581167], [144.91710825175, -37.804560286394]]]]}}