{"type": "Feature", "properties": {"seg_id": "22447", "street_id": "22447", "name": "McCrae Street between Batmans Hill Drive and Harbour Esplanade", "str_type": "Council Major", "status_id": "2", "seg_part": "1", "poly_area": "4574", "gisid": "2000"}, "geometry": {"type": "MultiPolygon", "coordinates": [[[[144.949606914095, -37.822103407525], [144.949802686703, -37.822351440069], [144.949324995282, -37.822437522465], [144.949220115867, -37.82247752455], [144.949212830582, -37.822480303035], [144.949168403011, -37.82248421528], [144.949117086993, -37.82249302705], [144.949117819316, -37.822495053928], [144.948939743824, -37.822520875614], [144.94876580678, -37.822560603461], [144.948596550301, -37.822611281424], [144.948436757509, -37.822678131146], [144.948198415648, -37.822652260495], [144.948168423824, -37.82264937045], [144.948156364583, -37.822648297046], [144.948144252898, -37.822647939848], [144.948132156556, -37.822648420094], [144.948120167324, -37.82264973414], [144.948108376154, -37.822651872018], [144.948096872496, -37.82265481751], [144.948085743621, -37.822658548271], [144.948075073952, -37.822663035998], [144.948065263994, -37.822668600595], [144.948048947195, -37.822678667995], [144.948034747891, -37.822753505326], [144.94803238134, -37.82276204054], [144.947919849089, -37.822335678333], [144.948004669954, -37.822344835546], [144.947990038545, -37.82232957692], [144.948417903999, -37.822376288281], [144.948673504564, -37.822353157816], [144.94887739661, -37.822311405333], [144.949599311565, -37.822120195551], [144.949606914095, -37.822103407525]]]]}}