{"type": "Feature", "properties": {"seg_id": "22448", "street_id": "22448", "name": "Harbour Esplanade between Collins Street and Bourke Street", "str_type": "Council Major", "status_id": "2", "seg_part": "1", "poly_area": "7141", "gisid": "3806"}, "geometry": {"type": "MultiPolygon", "coordinates": [[[[144.946873825792, -37.819091195588], [144.946920481295, -37.819135132059], [144.947403101334, -37.820229254429], [144.947561144088, -37.820832302338], [144.947151559568, -37.820951011447], [144.947201217109, -37.820880169123], [144.947083206125, -37.820438143705], [144.947046052353, -37.820321571706], [144.947003335585, -37.82020620518], [144.946955117679, -37.82009221112], [144.946825975543, -37.819799797791], [144.946454788017, -37.819346027328], [144.946457757629, -37.819211625941], [144.946563760308, -37.819180943253], [144.946873825792, -37.819091195588]]]]}}