{"type": "Feature", "properties": {"seg_id": "22453", "street_id": "22453", "name": "Footscray Road between Docklands Drive and Waterfront Way", "str_type": "Arterial", "status_id": "1", "seg_part": "1", "poly_area": "21968", "gisid": "3803"}, "geometry": {"type": "MultiPolygon", "coordinates": [[[[144.943097289796, -37.812449068609], [144.942375404613, -37.812693903228], [144.941652158968, -37.812273423993], [144.941400898597, -37.812127344553], [144.941079713038, -37.81194061019], [144.940639567498, -37.811702837367], [144.940503553835, -37.811629359553], [144.939447835572, -37.811098230555], [144.939410189604, -37.811082057175], [144.939218258064, -37.810999599625], [144.939591596714, -37.810488284716], [144.940029009137, -37.81069781108], [144.940456550207, -37.810919793604], [144.940873656608, -37.811153939865], [144.943032126107, -37.812411115544], [144.943097289796, -37.812449068609]]], [[[144.939410189604, -37.811082057175], [144.939447835572, -37.811098230555], [144.940503553835, -37.811629359553], [144.940639567498, -37.811702837367], [144.940600441883, -37.811748517528], [144.940492186646, -37.811690885677], [144.940007387504, -37.811441145937], [144.939842980282, -37.811357474009], [144.939698805191, -37.811286008992], [144.939328440407, -37.811112411829], [144.939282182212, -37.811073520519], [144.939268699853, -37.811057930382], [144.939410189604, -37.811082057175]]]]}}