{"type": "Feature", "properties": {"seg_id": "22465", "street_id": "22465", "name": "Ballantyne Street between Clarendon Street and City Road", "str_type": "Council Major", "status_id": "2", "seg_part": "1", "poly_area": "214", "gisid": "3671"}, "geometry": {"type": "MultiPolygon", "coordinates": [[[[144.957960333369, -37.828577431164], [144.958303816206, -37.828476391073], [144.95835455045, -37.828586817503], [144.95835421075, -37.828586817019], [144.958227115523, -37.828585786193], [144.958100069514, -37.828582029792], [144.957973005463, -37.828577992501], [144.957960333369, -37.828577431164]]]]}}