{"type": "Feature", "properties": {"seg_id": "22478", "street_id": "22478", "name": "St Kilda Road between Moubray Street and High Street", "str_type": "Arterial", "status_id": "1", "seg_part": "1", "poly_area": "7941", "gisid": "1069"}, "geometry": {"type": "MultiPolygon", "coordinates": [[[[144.980975275956, -37.850156417463], [144.9806028281, -37.85010881877], [144.97981208903, -37.847941015234], [144.979768164601, -37.847820555805], [144.980139749197, -37.847865864042], [144.980975275956, -37.850156417463]]]]}}