{"type": "Feature", "properties": {"seg_id": "22484", "street_id": "22484", "name": "Punt Road between Pasley Street North and Pasley Street South", "str_type": "Arterial", "status_id": "1", "seg_part": "1", "poly_area": "1531", "gisid": "1075"}, "geometry": {"type": "MultiPolygon", "coordinates": [[[[144.985465949429, -37.842921606012], [144.985546180957, -37.842530670428], [144.985554526331, -37.842490002619], [144.985637429261, -37.842086048312], [144.985639249749, -37.842077193876], [144.985743724588, -37.841568109794], [144.985856079735, -37.841582565737], [144.985579151358, -37.842936170453], [144.985465949429, -37.842921606012]]]]}}