{"type": "Feature", "properties": {"seg_id": "22489", "street_id": "22489", "name": "Punt Road between Brunton Avenue and Vale Street South", "str_type": "Arterial", "status_id": "1", "seg_part": "1", "poly_area": "6451", "gisid": "1341"}, "geometry": {"type": "MultiPolygon", "coordinates": [[[[144.989432112822, -37.819452565353], [144.989617863673, -37.819468747368], [144.989468426375, -37.820358686209], [144.989280673925, -37.821498687258], [144.989082215856, -37.822829607871], [144.988866222855, -37.822809340593], [144.989432112822, -37.819452565353]]]]}}