{"type": "Feature", "properties": {"seg_id": "22488", "street_id": "22488", "name": "Punt Road between Brunton Avenue and Olympic Boulevard", "str_type": "Arterial", "status_id": "1", "seg_part": "1", "poly_area": "3465", "gisid": "1342"}, "geometry": {"type": "MultiPolygon", "coordinates": [[[[144.988821660063, -37.823342951947], [144.98900312811, -37.823359979276], [144.989002034995, -37.823367310614], [144.988868307521, -37.824025528759], [144.988842638011, -37.824204613071], [144.98880130446, -37.824492974298], [144.988168955105, -37.824411657291], [144.987118238219, -37.824276532974], [144.987968821057, -37.824283810837], [144.988407178932, -37.824290357569], [144.988654200366, -37.824150338778], [144.98870952884, -37.824009436719], [144.988743123528, -37.823811204405], [144.988821660063, -37.823342951947]]]]}}