{"type": "Feature", "properties": {"seg_id": "22491", "street_id": "22491", "name": "Intersection of Lansdowne Street and Cathedral Place", "str_type": "Arterial", "status_id": "1", "seg_part": "1", "poly_area": "898", "gisid": "767"}, "geometry": {"type": "MultiPolygon", "coordinates": [[[[144.977931324418, -37.811119801633], [144.977981569524, -37.810854013887], [144.978318412052, -37.810890409735], [144.97829079989, -37.811051258304], [144.978273000869, -37.811156258102], [144.977931324418, -37.811119801633]]]]}}