{"type": "Feature", "properties": {"seg_id": "22501", "street_id": "22501", "name": "Nicholson Street between Victoria Street and Carlton Street", "str_type": "Arterial", "status_id": "1", "seg_part": "1", "poly_area": "10920", "gisid": "1503"}, "geometry": {"type": "MultiPolygon", "coordinates": [[[[144.973072252742, -37.807608883117], [144.973433092207, -37.805471201359], [144.973786714936, -37.803405834657], [144.97414198384, -37.801284475254], [144.97431839239, -37.801303332782], [144.973244646387, -37.807627311024], [144.973072252742, -37.807608883117]]]]}}