{"type": "Feature", "properties": {"seg_id": "22500", "street_id": "22500", "name": "Queensberry Street between Cardigan Street and Swanston Street", "str_type": "Council Major", "status_id": "2", "seg_part": "1", "poly_area": "3019", "gisid": "1502"}, "geometry": {"type": "MultiPolygon", "coordinates": [[[[144.964188912735, -37.804809782571], [144.963404986896, -37.804723480723], [144.963451754119, -37.804460178848], [144.96413904596, -37.804531212775], [144.96418983548, -37.804535761334], [144.964585619042, -37.804578541058], [144.964541401074, -37.80484858594], [144.964258522357, -37.804817445609], [144.964188912735, -37.804809782571]]]]}}