{"type": "Feature", "properties": {"seg_id": "22506", "street_id": "22506", "name": "Grattan Street between Cardigan Street and Swanston Street", "str_type": "Council Major", "status_id": "2", "seg_part": "1", "poly_area": "3028", "gisid": "1508"}, "geometry": {"type": "MultiPolygon", "coordinates": [[[[144.965307659105, -37.80043171002], [144.96526077007, -37.800697903573], [144.965258416384, -37.800712197041], [144.965242771157, -37.80069594793], [144.964716032333, -37.80063872167], [144.964665227813, -37.800633201637], [144.964404535687, -37.800604878461], [144.964369484994, -37.80060097337], [144.964117809703, -37.800573726429], [144.964169809762, -37.800307711848], [144.965307659105, -37.80043171002]]]]}}