{"type": "Feature", "properties": {"seg_id": "22520", "street_id": "22520", "name": "Bent Street between Chelmsford Street and Hardiman Street", "str_type": "Council Major", "status_id": "2", "seg_part": "1", "poly_area": "1178", "gisid": "2128"}, "geometry": {"type": "MultiPolygon", "coordinates": [[[[144.935115114682, -37.796318007945], [144.935112972304, -37.796282054981], [144.935091885812, -37.79595972271], [144.93526564463, -37.795979615834], [144.935273312758, -37.796111559966], [144.935284217638, -37.796243360573], [144.935298355149, -37.796374967662], [144.935337102778, -37.796661307524], [144.935148721985, -37.796639773008], [144.935115114682, -37.796318007945]]]]}}