{"type": "Feature", "properties": {"seg_id": "22524", "street_id": "22524", "name": "Smithfield Road between Gatehouse Drive and Maribyrnong River", "str_type": "Arterial", "status_id": "1", "seg_part": "1", "poly_area": "26217", "gisid": "2135"}, "geometry": {"type": "MultiPolygon", "coordinates": [[[[144.915185030735, -37.794172259563], [144.913652428479, -37.795132330536], [144.913592465422, -37.795110246582], [144.913427776686, -37.795031334757], [144.913577038565, -37.794968337969], [144.913164389933, -37.794791353009], [144.913294342862, -37.794740846192], [144.913528246477, -37.794621795892], [144.913746556343, -37.794525417201], [144.913838130949, -37.794506316715], [144.913926526989, -37.794479382083], [144.914011737711, -37.794446691526], [144.914093173876, -37.794408471099], [144.914167409143, -37.794362066616], [144.914498866978, -37.794157271733], [144.919300312949, -37.791189590688], [144.919590577777, -37.791485403568], [144.91931921716, -37.791654641398], [144.918674906161, -37.792028280462], [144.918243675213, -37.792256089832], [144.916869511954, -37.793116993645], [144.916821264617, -37.793147219835], [144.916126461968, -37.793582494534], [144.915185030735, -37.794172259563]]]]}}