{"type": "Feature", "properties": {"seg_id": "22527", "street_id": "22527", "name": "Langs Road between Epsom Road and Leonard Crescent", "str_type": "Arterial", "status_id": "1", "seg_part": "1", "poly_area": "5890", "gisid": "2138"}, "geometry": {"type": "MultiPolygon", "coordinates": [[[[144.913542780231, -37.779525826662], [144.908283528409, -37.782618032223], [144.908049860886, -37.782754961511], [144.908118075157, -37.782675806239], [144.908187617458, -37.782597382309], [144.908258475341, -37.782519703755], [144.913474636672, -37.779454075649], [144.913542780231, -37.779525826662]]]]}}