{"type": "Feature", "properties": {"seg_id": "22537", "street_id": "22537", "name": "Balmer Street between Fairbairn Drive and Hobsons Road", "str_type": "Council Major", "status_id": "2", "seg_part": "1", "poly_area": "859", "gisid": "2165"}, "geometry": {"type": "MultiPolygon", "coordinates": [[[[144.919185417666, -37.797194713845], [144.9191651941, -37.797206348398], [144.919139148197, -37.797221331556], [144.919131570226, -37.797259074809], [144.918998242056, -37.797113214428], [144.919045819381, -37.797119228786], [144.919071895284, -37.797104228155], [144.919092118835, -37.797092593617], [144.919280563329, -37.796984187017], [144.919367891279, -37.79693394951], [144.919560930292, -37.796822897578], [144.919564722586, -37.796804024642], [144.91967801463, -37.796928026688], [144.919654229439, -37.796925018349], [144.919461189176, -37.797036069507], [144.919373862297, -37.797086307101], [144.919185417666, -37.797194713845]]]]}}