{"type": "Feature", "properties": {"seg_id": "22540", "street_id": "22540", "name": "Hodgson Lane between Tankard Street and Wakefield Street", "str_type": "Council Minor", "status_id": "3", "seg_part": "1", "poly_area": "457", "gisid": "2169"}, "geometry": {"type": "MultiPolygon", "coordinates": [[[[144.920058764339, -37.796692296263], [144.920515268303, -37.797191952014], [144.920539053597, -37.797194961083], [144.920451726109, -37.797245198571], [144.920455518204, -37.797226325601], [144.919999013317, -37.796726669607], [144.920058764339, -37.796692296263]]]]}}