{"type": "Feature", "properties": {"seg_id": "22548", "street_id": "22548", "name": "Wurundjeri Way between La Trobe Street and Dudley Street", "str_type": "Proposed Public", "status_id": "10", "seg_part": "1", "poly_area": "141", "gisid": "4168"}, "geometry": {"type": "MultiPolygon", "coordinates": [[[[144.947230312167, -37.813980240269], [144.947180603561, -37.813961371811], [144.947024554796, -37.813825037731], [144.946777575302, -37.813637810166], [144.946725737692, -37.813566362368], [144.94680172416, -37.813621532512], [144.946951354242, -37.813735935238], [144.947094314305, -37.813855585995], [144.947230312167, -37.813980240269]]], [[[144.945682056836, -37.812031050454], [144.945986043499, -37.812289008436], [144.946501838156, -37.812757873775], [144.946506246963, -37.812761634661], [144.946640035843, -37.812877759145], [144.946771227945, -37.812995733775], [144.946899782616, -37.813115522003], [144.946931416303, -37.813143964], [144.947231737178, -37.813428359431], [144.947515442104, -37.813723298054], [144.947781943595, -37.814028169343], [144.947821634367, -37.81407735777], [144.947486664561, -37.814174267429], [144.947437551538, -37.814188476223], [144.947423954292, -37.814173014768], [144.947292374965, -37.814041114205], [144.947271870581, -37.814020705614], [144.947251182628, -37.814000413956], [144.947230312167, -37.813980240269], [144.947094314305, -37.813855585995], [144.946951354242, -37.813735935238], [144.94680172416, -37.813621532512], [144.946725737692, -37.813566362368], [144.946524672929, -37.813420377799], [144.946186391949, -37.813141351045], [144.94592065158, -37.812967639206], [144.94533888372, -37.812487764041], [144.945297283514, -37.812458852072], [144.945254474266, -37.812431295936], [144.945208888879, -37.812406719368], [144.945160859662, -37.812385301526], [144.945110736739, -37.812367198542], [144.945058885497, -37.812352542383], [144.945005683922, -37.812341439891], [144.944951519845, -37.812333972], [144.944896790297, -37.812330144984], [144.945682056836, -37.812031050454]]]]}}