{"type": "Feature", "properties": {"seg_id": "22545", "street_id": "22545", "name": "Wirraway Drive from Todd Road", "str_type": "Council Major", "status_id": "2", "seg_part": "1", "poly_area": "10510", "gisid": "3142"}, "geometry": {"type": "MultiPolygon", "coordinates": [[[[144.911261605611, -37.825439559382], [144.91139242509, -37.825883837722], [144.911257452988, -37.825821156951], [144.91107177888, -37.825863856458], [144.910839963452, -37.825876827473], [144.910555234831, -37.825942306279], [144.910294669811, -37.826011126422], [144.910041710231, -37.826095941128], [144.909797913827, -37.826196228109], [144.909564781926, -37.826311369794], [144.90954749104, -37.826320694606], [144.909531944141, -37.826331805442], [144.909517769514, -37.82634401719], [144.909505088438, -37.826357225366], [144.909494009414, -37.82637131696], [144.909484627234, -37.826386171403], [144.909477022174, -37.826401661598], [144.909471645842, -37.826417729882], [144.909466648548, -37.826432897849], [144.909459623829, -37.82644755036], [144.909451011588, -37.826461650791], [144.909440877349, -37.826475091865], [144.909429298213, -37.82648777132], [144.909416362275, -37.826499592692], [144.909402167952, -37.826510466041], [144.909386823238, -37.826520308643], [144.909370444874, -37.826529045614], [144.90935315747, -37.826536610483], [144.909335092548, -37.826542945696], [144.909316387549, -37.826548003053], [144.909297184781, -37.826551744078], [144.909277630341, -37.826554140309], [144.909257873001, -37.826555173516], [144.909238063075, -37.826554835837], [144.909218351279, -37.826553129842], [144.909198887582, -37.826550068509], [144.909179820066, -37.826545675131], [144.909161293797, -37.826539983132], [144.909143449726, -37.826533035816], [144.90912642361, -37.826524886041], [144.909110344986, -37.82651559581], [144.909095336182, -37.826505235803], [144.909081511386, -37.826493884842], [144.909068975777, -37.826481629284], [144.909057824728, -37.82646856237], [144.909048143077, -37.826454783516], [144.909040004482, -37.826440397551], [144.909033470863, -37.826425513926], [144.909028591927, -37.826410245875], [144.909025404795, -37.82639470956], [144.909023933714, -37.826379023182], [144.909024269754, -37.826363310197], [144.909024620345, -37.826347985186], [144.909023247882, -37.826332682468], [144.909020242141, -37.826317516911], [144.909015624874, -37.826302598275], [144.909009429501, -37.826288034533], [144.909001700859, -37.826273931092], [144.908992494886, -37.826260390025], [144.908982608754, -37.826247096596], [144.908453396152, -37.825657766721], [144.909181666407, -37.825246307744], [144.909221456261, -37.825224101827], [144.909257186787, -37.825197868271], [144.909289916039, -37.825169274628], [144.909319401471, -37.825138532797], [144.909345424578, -37.825105870593], [144.909366204752, -37.825070938397], [144.909374625261, -37.825056814978], [144.909385175244, -37.82504361586], [144.909397139499, -37.82503120435], [144.909410427364, -37.825019674496], [144.909424938147, -37.825009113669], [144.90944056189, -37.824999601897], [144.909457180201, -37.824991211255], [144.909474667151, -37.824984005326], [144.90949289023, -37.824978038715], [144.909511711348, -37.824973356635], [144.909530987885, -37.824969994564], [144.909550573768, -37.82496797798], [144.909570320582, -37.824967322164], [144.909590078691, -37.824968032085], [144.909609698374, -37.824970102365], [144.909629030959, -37.824973517314], [144.90964792995, -37.824978251055], [144.909666252135, -37.824984267719], [144.909683858674, -37.824991521711], [144.90970061615, -37.824999958063], [144.90971639758, -37.825009512848], [144.909731083378, -37.825020113662], [144.909744562257, -37.825031680175], [144.909756732081, -37.82504412474], [144.909767500628, -37.825057353054], [144.909776786299, -37.825071264879], [144.909784518729, -37.825085754795], [144.909790639324, -37.825100713], [144.909795101704, -37.825116026147], [144.909797872055, -37.825131578196], [144.909798929383, -37.8251472513], [144.909798265677, -37.825162926691], [144.909795885966, -37.825178485587], [144.909791808282, -37.825193810086], [144.909786063526, -37.825208784065], [144.909778695229, -37.825223294055], [144.909769759225, -37.825237230102], [144.909759323231, -37.825250486606], [144.909747466325, -37.82526296311], [144.909734278356, -37.825274565073], [144.90971985926, -37.825285204578], [144.90970378817, -37.825294211899], [144.909687966277, -37.82530319188], [144.909670753922, -37.825310429988], [144.909652808723, -37.825316461715], [144.909634263595, -37.825321242386], [144.909615255895, -37.825324736591], [144.90959590046, -37.82532672544], [144.909547604665, -37.825331683473], [144.909500174352, -37.825340392203], [144.909453894592, -37.825352304902], [144.909409106833, -37.825367333679], [144.909366141515, -37.825385367652], [144.909326638641, -37.825407747077], [144.90884815689, -37.825678082055], [144.90883484719, -37.825740907486], [144.909186141467, -37.826132105169], [144.909242746326, -37.8261951404], [144.909321273291, -37.826205022983], [144.909584954423, -37.826052527239], [144.909872437779, -37.825929291478], [144.910172600754, -37.825826548978], [144.910485652897, -37.825751938981], [144.910770380832, -37.825686460322], [144.910975099726, -37.825599110256], [144.911178335515, -37.825552371639], [144.911261605611, -37.825439559382]]]]}}