{"type": "Feature", "properties": {"seg_id": "22543", "street_id": "22543", "name": "Butler Lane between Fitzgibbon Street and Wimble Street", "str_type": "Council Minor", "status_id": "3", "seg_part": "1", "poly_area": "286", "gisid": "1480"}, "geometry": {"type": "MultiPolygon", "coordinates": [[[[144.955937614855, -37.795127681664], [144.956304832687, -37.795155497424], [144.956312745317, -37.79515609614], [144.956358533762, -37.795160256623], [144.956731811887, -37.795187862609], [144.956727401457, -37.795225518389], [144.955934952476, -37.795163705979], [144.955937614855, -37.795127681664]]]]}}