{"type": "Feature", "properties": {"seg_id": "22552", "street_id": "22552", "name": "Wurundjeri Way between La Trobe Street and Bourke Street", "str_type": "Arterial", "status_id": "1", "seg_part": "2", "poly_area": "50", "gisid": "409"}, "geometry": {"type": "MultiPolygon", "coordinates": [[[[144.950168900701, -37.817803470785], [144.950093363906, -37.817824522846], [144.9500105121, -37.817701133572], [144.950010366991, -37.817700917468], [144.950060604181, -37.817737587437], [144.950113511674, -37.817771812581], [144.950168900701, -37.817803470785]]], [[[144.948003578861, -37.814302840122], [144.948046120994, -37.814355562103], [144.948507385588, -37.814927197215], [144.948873420208, -37.815304220493], [144.949029270942, -37.815480735655], [144.949136078767, -37.815608501359], [144.949238607976, -37.815738454368], [144.949336787414, -37.815870504529], [144.949868262892, -37.81663713475], [144.949939261618, -37.81674071701], [144.950009402932, -37.816844666283], [144.950078683816, -37.816948978102], [144.950236439873, -37.817191288912], [144.950274611951, -37.817252868851], [144.950311866211, -37.817314801527], [144.950348197473, -37.81737707833], [144.950518995376, -37.81768559522], [144.950528886246, -37.81770314201], [144.950445237018, -37.817661583974], [144.950359997254, -37.817622599097], [144.950271041793, -37.81758931961], [144.950178980839, -37.817561973799], [144.950084445895, -37.817540749246], [144.949988085438, -37.817525791543], [144.949890582019, -37.817516923693], [144.949460579588, -37.816735450378], [144.949376266499, -37.816545615118], [144.949131092026, -37.816112573764], [144.94914663093, -37.816107035452], [144.949069555378, -37.815992300814], [144.948988317912, -37.81587938773], [144.94890298689, -37.815768391186], [144.948781224402, -37.815621520019], [144.94865229658, -37.815478549304], [144.948516401753, -37.815339698924], [144.948503155215, -37.815348195996], [144.948222058613, -37.815072353942], [144.947678256558, -37.814461987678], [144.947632193349, -37.814410285602], [144.947674394523, -37.814398076717], [144.948003578861, -37.814302840122]]]]}}