{"type": "Feature", "properties": {"seg_id": "22553", "street_id": "22553", "name": "Bourke Street between Wurundjeri Way and Harbour Esplanade", "str_type": "Council Major", "status_id": "2", "seg_part": "1", "poly_area": "8848", "gisid": "3585"}, "geometry": {"type": "MultiPolygon", "coordinates": [[[[144.949003474342, -37.818475050684], [144.948791979977, -37.818536236465], [144.948663750459, -37.818573332397], [144.948326685969, -37.818670843896], [144.947216145172, -37.818992110047], [144.947016493624, -37.818762182302], [144.947013858652, -37.818759701388], [144.950068506064, -37.81787601028], [144.950093363906, -37.817824522846], [144.950349692321, -37.818165164408], [144.950207049973, -37.818126846968], [144.949550229242, -37.818316872349], [144.949403490929, -37.818359325066], [144.949003474342, -37.818475050684]]]]}}