{"type": "Feature", "properties": {"seg_id": "22554", "street_id": "22554", "name": "Intersection of Bourke Street and Wurundjeri Way", "str_type": "Arterial", "status_id": "1", "seg_part": "1", "poly_area": "872", "gisid": "3586"}, "geometry": {"type": "MultiPolygon", "coordinates": [[[[144.950093363906, -37.817824522846], [144.950168900701, -37.817803470785], [144.950256071594, -37.817842400929], [144.950345078865, -37.817878107562], [144.950437597062, -37.81790756515], [144.95053292604, -37.817930550769], [144.95063015394, -37.817947843932], [144.950624091642, -37.817983475354], [144.950533674234, -37.818079976281], [144.950537035885, -37.818085513029], [144.95035078394, -37.818166522554], [144.950349692321, -37.818165164408], [144.950093363906, -37.817824522846]]]]}}