{"type": "Feature", "properties": {"seg_id": "22559", "street_id": "22559", "name": "Ingles Street between Rogers Street and Westgate Freeway", "str_type": "Council Major", "status_id": "2", "seg_part": "1", "poly_area": "2512", "gisid": "3145"}, "geometry": {"type": "MultiPolygon", "coordinates": [[[[144.936145625252, -37.825057943851], [144.936416107977, -37.824850469227], [144.937019211413, -37.825323211951], [144.937080057395, -37.82532658599], [144.937083244447, -37.82540339544], [144.93708382258, -37.825417352988], [144.937062594703, -37.825417909244], [144.936994377444, -37.825399893579], [144.936946827895, -37.825437986451], [144.936599230862, -37.825430013398], [144.936496377912, -37.825345650028], [144.936145625252, -37.825057943851]]]]}}