{"type": "Feature", "properties": {"seg_id": "22569", "street_id": "22569", "name": "Intersection of Wells Street and Miles Street", "str_type": "Council Major", "status_id": "2", "seg_part": "1", "poly_area": "405", "gisid": "3155"}, "geometry": {"type": "MultiPolygon", "coordinates": [[[[144.968417432258, -37.828553283167], [144.968338494048, -37.828384557547], [144.968354994307, -37.828330014815], [144.968577143209, -37.828372297594], [144.968631953361, -37.828490930406], [144.968417432258, -37.828553283167]]]]}}