{"type": "Feature", "properties": {"seg_id": "22566", "street_id": "22566", "name": "Intersection of Riverside Quay and Cook Street", "str_type": "Council Major", "status_id": "2", "seg_part": "1", "poly_area": "294", "gisid": "3152"}, "geometry": {"type": "MultiPolygon", "coordinates": [[[[144.963979900986, -37.821483504032], [144.964008791399, -37.821511681401], [144.963841894865, -37.82155559509], [144.96376545008, -37.821377418375], [144.963859537693, -37.821352018374], [144.963912987476, -37.821337900281], [144.963979900986, -37.821483504032]]]]}}