{"type": "Feature", "properties": {"seg_id": "22564", "street_id": "22564", "name": "Intersection of Southbank Boulevard and Riverside Quay", "str_type": "Council Major", "status_id": "2", "seg_part": "1", "poly_area": "1209", "gisid": "3150"}, "geometry": {"type": "MultiPolygon", "coordinates": [[[[144.96275963908, -37.821700695833], [144.963100854697, -37.821556833099], [144.963260736551, -37.821708505465], [144.963338051862, -37.82178415016], [144.963041968654, -37.821975550944], [144.962908299235, -37.821845440924], [144.962860092678, -37.821798504563], [144.96275963908, -37.821700695833]]]]}}