{"type": "Feature", "properties": {"seg_id": "22563", "street_id": "22563", "name": "Intersection of Queens Bridge Street and Southbank Boulevard", "str_type": "Council Major", "status_id": "2", "seg_part": "1", "poly_area": "3048", "gisid": "3149"}, "geometry": {"type": "MultiPolygon", "coordinates": [[[[144.961571705799, -37.820867636114], [144.961582723664, -37.821472858422], [144.96147041961, -37.821814688747], [144.961138523461, -37.821746075046], [144.961174627023, -37.821618268544], [144.961201962873, -37.821489100069], [144.961220451022, -37.821358947803], [144.961230220536, -37.821229698034], [144.961229700547, -37.821100123528], [144.961222819566, -37.820970558219], [144.961222340976, -37.820944767325], [144.961571705799, -37.820867636114]]]]}}