{"type": "Feature", "properties": {"seg_id": "22580", "street_id": "22580", "name": "Intersection of Newton Street and Mercantile Parade", "str_type": "Council Major", "status_id": "2", "seg_part": "1", "poly_area": "459", "gisid": "2156"}, "geometry": {"type": "MultiPolygon", "coordinates": [[[[144.921372677781, -37.796887866919], [144.921329818843, -37.796817933732], [144.921273172003, -37.796755933488], [144.921502905951, -37.796623766341], [144.921559552893, -37.796685766479], [144.921675950256, -37.796713392405], [144.921372677781, -37.796887866919]]]]}}