{"type": "Feature", "properties": {"seg_id": "22583", "street_id": "22583", "name": "Mercantile Parade between Newman Street and The Crescent", "str_type": "Council Major", "status_id": "2", "seg_part": "1", "poly_area": "1041", "gisid": "2159"}, "geometry": {"type": "MultiPolygon", "coordinates": [[[[144.920389361244, -37.795404967992], [144.920205533015, -37.795510628305], [144.919869461751, -37.795142778263], [144.919845677145, -37.795139769078], [144.920057023139, -37.79501818228], [144.920053231057, -37.795037056144], [144.920389361244, -37.795404967992]]]]}}