{"type": "Feature", "properties": {"seg_id": "22582", "street_id": "22582", "name": "Mercantile Parade between Kensington Road and Newton Street", "str_type": "Council Major", "status_id": "2", "seg_part": "1", "poly_area": "2256", "gisid": "2157"}, "geometry": {"type": "MultiPolygon", "coordinates": [[[[144.922145001861, -37.797203736209], [144.921814280143, -37.79739421626], [144.921818066404, -37.797375336832], [144.921372677781, -37.796887866919], [144.921675950256, -37.796713392405], [144.922121222008, -37.797200732967], [144.922145001861, -37.797203736209]]]]}}