{"type": "Feature", "properties": {"seg_id": "22587", "street_id": "22587", "name": "Manningham Street between Church Street and Heathcote Road", "str_type": "Council Major", "status_id": "2", "seg_part": "1", "poly_area": "1732", "gisid": "1482"}, "geometry": {"type": "MultiPolygon", "coordinates": [[[[144.941948978287, -37.787431773935], [144.941944926418, -37.787404690367], [144.941890046544, -37.787037892469], [144.941894238701, -37.787033844527], [144.941897709436, -37.787029378488], [144.941900657475, -37.787024679388], [144.941903058909, -37.787019785337], [144.941904894264, -37.787014736023], [144.941906148656, -37.787009572395], [144.941906811912, -37.787004336328], [144.941906878653, -37.786999070285], [144.941906430043, -37.786993809344], [144.941890000914, -37.786880945479], [144.941889225039, -37.786877349238], [144.941888091747, -37.786873813235], [144.941886559135, -37.78687037104], [144.941884639893, -37.78686705115], [144.94188234991, -37.786863881052], [144.941879708146, -37.786860886992], [144.941876736471, -37.786858093759], [144.941873459489, -37.786855524477], [144.941869904332, -37.786853200419], [144.941866100432, -37.786851140826], [144.941862148112, -37.78684925191], [144.941853595211, -37.786791223486], [144.942069141684, -37.786678974336], [144.942074362225, -37.786712763251], [144.942070199918, -37.786716457767], [144.94206669047, -37.786720564245], [144.942063635618, -37.78672489545], [144.942061057454, -37.786729420059], [144.942058974623, -37.786734105351], [144.942057402188, -37.786738917443], [144.942056351521, -37.786743821533], [144.94205583022, -37.786748782156], [144.942055842054, -37.786753763437], [144.942056302634, -37.786758737523], [144.942076663847, -37.786887581249], [144.942077131523, -37.786889677843], [144.942077795274, -37.786891740696], [144.942078682733, -37.786893751168], [144.942079787131, -37.786895693924], [144.942081100046, -37.786897554146], [144.942082515059, -37.786899374452], [144.942087559608, -37.786904238962], [144.942093156625, -37.786908706688], [144.942099256802, -37.786912738269], [144.942105806397, -37.786916298188], [144.942138838075, -37.787130110832], [144.942192607613, -37.787478159173], [144.941969798323, -37.787570927031], [144.941948978287, -37.787431773935]]]]}}