{"type": "Feature", "properties": {"seg_id": "22600", "street_id": "22600", "name": "Intersection of College Crescent and Swanston Street", "str_type": "Arterial", "status_id": "1", "seg_part": "1", "poly_area": "6061", "gisid": "1523"}, "geometry": {"type": "MultiPolygon", "coordinates": [[[[144.965331597466, -37.793536113294], [144.965325973704, -37.793568693782], [144.964902951835, -37.793669902733], [144.964501817634, -37.793479886823], [144.964434924691, -37.793371521984], [144.96436145794, -37.793265872166], [144.964281591908, -37.793163188313], [144.964730342869, -37.792847408531], [144.964953574242, -37.79292332989], [144.965183224612, -37.792986047191], [144.965418055637, -37.793035222236], [144.965331597466, -37.793536113294]]]]}}