{"type": "Feature", "properties": {"seg_id": "22601", "street_id": "22601", "name": "Intersection of Palmerston Street and Station Street", "str_type": "Council Major", "status_id": "2", "seg_part": "1", "poly_area": "672", "gisid": "1524"}, "geometry": {"type": "MultiPolygon", "coordinates": [[[[144.974258325093, -37.796559610242], [144.974213264413, -37.79682522476], [144.973973979577, -37.796799663935], [144.973959094851, -37.796798060597], [144.974004655587, -37.796531841986], [144.974258325093, -37.796559610242]]]]}}