{"type": "Feature", "properties": {"seg_id": "22607", "street_id": "22607", "name": "Royal Parade between Gatehouse Street and Degraves Street", "str_type": "Arterial", "status_id": "1", "seg_part": "1", "poly_area": "6252", "gisid": "1530"}, "geometry": {"type": "MultiPolygon", "coordinates": [[[[144.958752816504, -37.792770198136], [144.958646872847, -37.793656642175], [144.957956431136, -37.793604673582], [144.95803059709, -37.793016678412], [144.958032406176, -37.792990753612], [144.95803112663, -37.792964781649], [144.958027002888, -37.792938978614], [144.958020066301, -37.792913540667], [144.958010369603, -37.792888661196], [144.957997986511, -37.792864529342], [144.957983011164, -37.792841328561], [144.95796555741, -37.792819235233], [144.957945757937, -37.792798417317], [144.957923763265, -37.792779033077], [144.957899740605, -37.792761229878], [144.957873872584, -37.792745143063], [144.957846355858, -37.792730894931], [144.957817399616, -37.792718593799], [144.957787223993, -37.792708333184], [144.957756058391, -37.79270019109], [144.957724139741, -37.792694229415], [144.95769172983, -37.79269033003], [144.958067260515, -37.792718597032], [144.958752816504, -37.792770198136]]]]}}