{"type": "Feature", "properties": {"seg_id": "22611", "street_id": "22611", "name": "Intersection of Collins Street and Market Street", "str_type": "Council Major", "status_id": "2", "seg_part": "1", "poly_area": "920", "gisid": "3503"}, "geometry": {"type": "MultiPolygon", "coordinates": [[[[144.960091587074, -37.817513828274], [144.959973694635, -37.817256514415], [144.960297780018, -37.81716307367], [144.960414611502, -37.817418069043], [144.960267476646, -37.817462540868], [144.960091587074, -37.817513828274]]]]}}