{"type": "Feature", "properties": {"seg_id": "22616", "street_id": "22616", "name": "Intersection of Victoria Parade and Morrison Place", "str_type": "Arterial", "status_id": "1", "seg_part": "1", "poly_area": "505", "gisid": "3522"}, "geometry": {"type": "MultiPolygon", "coordinates": [[[[144.976617776752, -37.808597368181], [144.976637139546, -37.808426609454], [144.976646955325, -37.808427326369], [144.976656800427, -37.808427447448], [144.976666614897, -37.808426891223], [144.976676324945, -37.808425661877], [144.97668585756, -37.808423768652], [144.97669514107, -37.808421225784], [144.976704105673, -37.808418052392], [144.976712683967, -37.808414272336], [144.976720811453, -37.808409914037], [144.976728427022, -37.808405010264], [144.976735141706, -37.808399348421], [144.976742283282, -37.808393329791], [144.976748331703, -37.808386585844], [144.976753567248, -37.808379423394], [144.9767579454, -37.808371903341], [144.976761428935, -37.808364089623], [144.976763988233, -37.808356048677], [144.976765601535, -37.808347848872], [144.976766252653, -37.808339559879], [144.976855132016, -37.808349065084], [144.976842853939, -37.808430359422], [144.976842703291, -37.808431899164], [144.976842737218, -37.808433445016], [144.976842937904, -37.808434983935], [144.976843303875, -37.808436504601], [144.976843832438, -37.808437995826], [144.976844519703, -37.80843944664], [144.976845360616, -37.80844084637], [144.97684634899, -37.808442184719], [144.976847477553, -37.80844345184], [144.976848738004, -37.808444638411], [144.976850121069, -37.808445735705], [144.976851616574, -37.808446735647], [144.976853213516, -37.808447630882], [144.976854900148, -37.808448414823], [144.976856664062, -37.808449081705], [144.97685849228, -37.80844962662], [144.976860371353, -37.808450045559], [144.976862284638, -37.80845035157], [144.976877361058, -37.808452011028], [144.976849204667, -37.808619201448], [144.976617776752, -37.808597368181]]]]}}