{"type": "Feature", "properties": {"seg_id": "22621", "street_id": "22621", "name": "MacArthur Street between Spring Street and St Andrews Place", "str_type": "Council Major", "status_id": "2", "seg_part": "1", "poly_area": "2486", "gisid": "3527"}, "geometry": {"type": "MultiPolygon", "coordinates": [[[[144.974079581961, -37.813212239323], [144.974044094571, -37.813134026548], [144.973934198821, -37.812891829481], [144.973863733949, -37.812750431632], [144.973867255127, -37.81275567391], [144.973871116855, -37.812760749881], [144.973875523609, -37.812765540102], [144.973880441212, -37.812770007423], [144.973885831526, -37.812774117196], [144.973891652746, -37.812777837549], [144.973897859724, -37.812781139628], [144.973904404321, -37.812783997822], [144.973911235782, -37.812786389966], [144.973918301122, -37.812788297506], [144.973925545547, -37.812789705649], [144.973932912872, -37.812790603473], [144.973940345959, -37.812790984016], [144.973947787159, -37.812790844325], [144.973955178762, -37.812790185485], [144.973962463442, -37.812789012606], [144.973969584701, -37.812787334782], [144.973976487311, -37.812785165028], [144.973983117737, -37.81278252017], [144.973989424556, -37.812779420721], [144.973995358855, -37.81277589072], [144.97400087461, -37.812771957543], [144.974005929044, -37.812767651694], [144.974010482955, -37.812763006569], [144.974014501027, -37.812758058192], [144.974017721256, -37.812752757685], [144.97447274214, -37.811995099368], [144.974702791227, -37.812020571123], [144.974089301682, -37.813045169637], [144.974079363706, -37.813062465113], [144.974072163089, -37.813080627663], [144.974067013108, -37.813099236136], [144.974063953862, -37.813118145642], [144.974063009172, -37.813137208946], [144.974064186392, -37.813156277614], [144.974067476357, -37.813175203174], [144.974072853451, -37.813193838266], [144.974079581961, -37.813212239323]]]]}}