{"type": "Feature", "properties": {"seg_id": "22623", "street_id": "22623", "name": "Intersection of Grey Street and Darling Street", "str_type": "Council Major", "status_id": "2", "seg_part": "1", "poly_area": "906", "gisid": "3529"}, "geometry": {"type": "MultiPolygon", "coordinates": [[[[144.98984722279, -37.812174020908], [144.989887119776, -37.812178122868], [144.990009305832, -37.812191747329], [144.989961779901, -37.812460012133], [144.989622173283, -37.812421544006], [144.989669944221, -37.812154090091], [144.98984722279, -37.812174020908]]]]}}