{"type": "Feature", "properties": {"seg_id": "22627", "street_id": "22627", "name": "Intersection of Wellington Parade South and Punt Road", "str_type": "Arterial", "status_id": "1", "seg_part": "1", "poly_area": "819", "gisid": "3534"}, "geometry": {"type": "MultiPolygon", "coordinates": [[[[144.989792146441, -37.81726730763], [144.990005293614, -37.817350360081], [144.989975163895, -37.817525228721], [144.989955002376, -37.817614377036], [144.989952598321, -37.817624312049], [144.989770828368, -37.817607279371], [144.989692852509, -37.817599973275], [144.989698793885, -37.817556716285], [144.98973414003, -37.817299385173], [144.989738498988, -37.817299845602], [144.989742883248, -37.817300048053], [144.989747269829, -37.8172999427], [144.989751624478, -37.817299530365], [144.989755913192, -37.817298814268], [144.989760102483, -37.8172978], [144.989764159639, -37.817296495482], [144.989768052979, -37.8172949109], [144.989771752103, -37.817293058626], [144.989775228126, -37.817290953125], [144.989778453905, -37.817288610837], [144.989781404253, -37.817286050052], [144.989784056131, -37.817283290765], [144.989786388832, -37.817280354523], [144.989788384142, -37.817277264253], [144.989790026479, -37.817274044085], [144.989791303021, -37.817270719165], [144.989792146441, -37.81726730763]]]]}}