{"type": "Feature", "properties": {"seg_id": "22634", "street_id": "22634", "name": "Wellington Parade South between Jolimont Terrace and Charles Street", "str_type": "Council Major", "status_id": "2", "seg_part": "1", "poly_area": "1273", "gisid": "3543"}, "geometry": {"type": "MultiPolygon", "coordinates": [[[[144.98141971851, -37.816617742735], [144.982013843697, -37.816681999096], [144.98197688158, -37.816897086929], [144.981382695506, -37.816833169065], [144.98141971851, -37.816617742735]]]]}}