{"type": "Feature", "properties": {"seg_id": "22639", "street_id": "22639", "name": "Intersection of Punt Road and Brunton Avenue", "str_type": "Arterial", "status_id": "1", "seg_part": "1", "poly_area": "2428", "gisid": "3545"}, "geometry": {"type": "MultiPolygon", "coordinates": [[[[144.988821660063, -37.823342951947], [144.988774495312, -37.82333451689], [144.988727360763, -37.823325976296], [144.988680256789, -37.823317330233], [144.988567040385, -37.823286464706], [144.988595774742, -37.823161672903], [144.988656969454, -37.822958832147], [144.987610244, -37.822847541967], [144.988189646334, -37.822855752055], [144.988673491564, -37.822904431799], [144.988804981697, -37.822868620282], [144.988866222855, -37.822809340593], [144.989082215856, -37.822829607871], [144.98900312811, -37.823359979276], [144.988821660063, -37.823342951947]]]]}}