{"type": "Feature", "properties": {"seg_id": "22637", "street_id": "22637", "name": "Intersection of Jolimont Road and Brunton Avenue", "str_type": "Arterial", "status_id": "1", "seg_part": "1", "poly_area": "467", "gisid": "3980"}, "geometry": {"type": "MultiPolygon", "coordinates": [[[[144.978825809854, -37.818346141212], [144.978817906778, -37.818392570289], [144.978801873586, -37.818485754375], [144.978463416098, -37.81844653097], [144.978487463266, -37.818309079908], [144.978825809854, -37.818346141212]]], [[[144.978757967071, -37.818740934153], [144.978444154788, -37.818556628748], [144.978449364725, -37.818526851377], [144.978788049076, -37.818566100349], [144.978757967071, -37.818740934153]]]]}}