{"type": "Feature", "properties": {"seg_id": "22642", "street_id": "22642", "name": "Batman Avenue Bridge between Flinders Street and Batman Avenue", "str_type": "Citylink2", "status_id": "13", "seg_part": "4", "poly_area": "346", "gisid": "3550"}, "geometry": {"type": "MultiPolygon", "coordinates": [[[[144.974155425168, -37.817357824857], [144.973878384086, -37.817374894364], [144.97382855111, -37.817348977817], [144.973733700191, -37.817298951474], [144.973654838316, -37.817256078003], [144.973941987492, -37.817246845656], [144.973960488842, -37.817256465057], [144.974155425168, -37.817357824857]]], [[[144.973654838316, -37.817256078003], [144.9736402341, -37.817248138729], [144.973620231905, -37.817236575745], [144.97354864402, -37.817195194473], [144.973459282861, -37.817139675997], [144.973376740417, -37.81708485067], [144.973372367913, -37.817081945715], [144.973344636571, -37.817062322899], [144.97328778312, -37.817022093555], [144.973218624504, -37.816968414085], [144.973206802169, -37.816959238466], [144.973196680028, -37.816950450782], [144.973130237079, -37.816892765414], [144.973057717694, -37.816823747643], [144.972988446677, -37.816752263356], [144.972980552454, -37.816743676219], [144.972962531082, -37.816724078087], [144.972921594764, -37.816679558127], [144.972856706391, -37.816605716037], [144.972792972197, -37.81653117194], [144.972771097002, -37.816504206995], [144.972753682331, -37.816482741224], [144.972731432446, -37.816455313826], [144.972673573046, -37.816377807713], [144.972621409156, -37.816301437795], [144.972619507584, -37.81629865376], [144.972611893162, -37.816287150702], [144.972566709586, -37.816218891684], [144.972542506903, -37.816179181829], [144.972506081252, -37.816119413981], [144.972602973875, -37.816090869495], [144.97272845882, -37.816053900968], [144.972732412685, -37.816062347285], [144.972656181972, -37.816084805121], [144.972692802883, -37.816135861905], [144.97276885153, -37.816241890715], [144.97277896123, -37.816255986153], [144.972925837541, -37.816460760538], [144.972945268875, -37.816481968119], [144.973155011357, -37.816710879286], [144.973172973538, -37.816730483579], [144.97344456515, -37.816947478317], [144.973472335555, -37.816965796878], [144.973618959884, -37.817062512263], [144.973653105344, -37.817085034542], [144.973904848202, -37.817227534204], [144.973941987492, -37.817246845656], [144.973654838316, -37.817256078003]]], [[[144.97351795662, -37.817260479272], [144.973592937917, -37.817303558204], [144.973686623746, -37.817354645121], [144.973741208544, -37.817383345229], [144.973504763569, -37.817397912381], [144.973469797172, -37.817378008524], [144.973435047957, -37.817357866741], [144.973400518494, -37.817337488523], [144.973389839637, -37.817354203589], [144.973256138513, -37.817268895774], [144.97351795662, -37.817260479272]]], [[[144.973256138513, -37.817268895774], [144.973226540233, -37.817249082187], [144.972980815663, -37.817084585136], [144.97295399105, -37.817062051717], [144.972847080213, -37.816972247276], [144.97282641544, -37.816954888999], [144.97260557764, -37.816769384247], [144.972589202023, -37.816749675615], [144.972422258245, -37.816548746638], [144.972407398339, -37.816526954427], [144.972314074567, -37.816390098733], [144.97230434785, -37.816375834121], [144.972231396319, -37.816268854445], [144.972197947015, -37.816219801388], [144.972129488535, -37.816239969466], [144.972125534732, -37.816231523131], [144.972282619909, -37.816185246748], [144.972398830116, -37.816151010732], [144.972445470854, -37.816207150646], [144.972472213942, -37.816255564574], [144.972509535747, -37.816316667185], [144.9725183873, -37.816331157325], [144.972522337393, -37.816337623698], [144.972577012574, -37.816419401605], [144.972635344806, -37.816497850426], [144.972637492336, -37.816500737825], [144.97265255198, -37.81651934238], [144.972701554842, -37.816579883659], [144.972768744833, -37.816656829462], [144.972838620402, -37.816731118834], [144.972839984957, -37.816732480574], [144.972859530243, -37.81675197429], [144.972911161864, -37.816803471471], [144.972987489916, -37.816874446467], [144.973066831871, -37.816943221257], [144.97307750508, -37.816951879658], [144.973099403827, -37.816969644838], [144.973146847672, -37.817008131632], [144.97321821895, -37.817062234935], [144.973230538937, -37.817071574121], [144.973249115123, -37.817084765383], [144.973316901053, -37.817132898797], [144.973405946288, -37.81719165708], [144.973484908213, -37.817240874921], [144.973497536509, -37.817248745961], [144.97351795662, -37.817260479272], [144.973256138513, -37.817268895774]]]]}}