{"type": "Feature", "properties": {"seg_id": "22659", "street_id": "22659", "name": "Peel Street between Dudley Street and Victoria Street", "str_type": "Arterial", "status_id": "1", "seg_part": "1", "poly_area": "9607", "gisid": "1193"}, "geometry": {"type": "MultiPolygon", "coordinates": [[[[144.955466173949, -37.807502734385], [144.955498213261, -37.807320570994], [144.95550197976, -37.807299155065], [144.955540364905, -37.807080912418], [144.955545042006, -37.80705431882], [144.955637483148, -37.806528728706], [144.955653126337, -37.806442055746], [144.955657553238, -37.8064175296], [144.95570212411, -37.806170582757], [144.955704103086, -37.806159613756], [144.955735138124, -37.805987665668], [144.956154441071, -37.80603670999], [144.955846692219, -37.807785619426], [144.955869161004, -37.807788110111], [144.955779703758, -37.808296472069], [144.955335216337, -37.808247235005], [144.955430261506, -37.807706918326], [144.955434128999, -37.807684931007], [144.955462094919, -37.807525926511], [144.955466173949, -37.807502734385]]]]}}