{"type": "Feature", "properties": {"seg_id": "22653", "street_id": "22653", "name": "A'Beckett Street between Wills Street and William Street", "str_type": "Council Major", "status_id": "2", "seg_part": "1", "poly_area": "1777", "gisid": "1186"}, "geometry": {"type": "MultiPolygon", "coordinates": [[[[144.956036332448, -37.810537944523], [144.956359891853, -37.810448829865], [144.956396511368, -37.810438297144], [144.95691040206, -37.810290476866], [144.95699368376, -37.810472708459], [144.956123788539, -37.810726079768], [144.956036332448, -37.810537944523]]]]}}