{"type": "Feature", "properties": {"seg_id": "22658", "street_id": "22658", "name": "Intersection of Peel Street and Dudley Street", "str_type": "Arterial", "status_id": "1", "seg_part": "1", "poly_area": "1856", "gisid": "1192"}, "geometry": {"type": "MultiPolygon", "coordinates": [[[[144.955706724105, -37.808711186843], [144.955294010555, -37.808665468786], [144.955295566849, -37.808660603556], [144.955296438872, -37.808655624008], [144.955296758382, -37.808650599489], [144.955296522933, -37.80864556848], [144.955295734328, -37.808640569514], [144.955294398606, -37.808635640875], [144.955292525997, -37.808630820312], [144.955290130843, -37.808626144743], [144.955287231489, -37.808621649979], [144.955283850139, -37.808617370444], [144.955280012691, -37.808613338913], [144.955275748535, -37.808609586263], [144.955271090329, -37.808606141235], [144.95526607375, -37.808603030214], [144.955260737217, -37.808600277026], [144.955255213815, -37.808597747645], [144.955335216337, -37.808247235005], [144.955779703758, -37.808296472069], [144.955706724105, -37.808711186843]]]]}}