{"type": "Feature", "properties": {"seg_id": "22651", "street_id": "22651", "name": "Elizabeth Street between Little La Trobe Street and A'Beckett Street", "str_type": "Council Major", "status_id": "2", "seg_part": "1", "poly_area": "1391", "gisid": "1185"}, "geometry": {"type": "MultiPolygon", "coordinates": [[[[144.961071723901, -37.809290415184], [144.961246394989, -37.809675768047], [144.96092269688, -37.809769262764], [144.960744037692, -37.80937992026], [144.961071723901, -37.809290415184]]]]}}