{"type": "Feature", "properties": {"seg_id": "22660", "street_id": "22660", "name": "Intersection of Chetwynd Street and Stanley Street", "str_type": "Council Major", "status_id": "2", "seg_part": "1", "poly_area": "945", "gisid": "1194"}, "geometry": {"type": "MultiPolygon", "coordinates": [[[[144.952213848471, -37.806401705943], [144.952157846939, -37.806717820501], [144.951938672204, -37.806693378093], [144.951891464883, -37.806663614884], [144.951875928918, -37.806364020199], [144.952213848471, -37.806401705943]]]]}}