{"type": "Feature", "properties": {"seg_id": "22668", "street_id": "22668", "name": "Intersection of Miller Street and Lothian Street", "str_type": "Council Major", "status_id": "2", "seg_part": "1", "poly_area": "547", "gisid": "1201"}, "geometry": {"type": "MultiPolygon", "coordinates": [[[[144.944111175258, -37.805669869028], [144.944109548234, -37.805678898324], [144.943896386977, -37.80558635052], [144.943933532472, -37.80537889813], [144.944159801978, -37.805399964668], [144.944111175258, -37.805669869028]]]]}}