{"type": "Feature", "properties": {"seg_id": "22663", "street_id": "22663", "name": "King Street between Walsh Street and Rosslyn Street", "str_type": "Arterial", "status_id": "1", "seg_part": "1", "poly_area": "1906", "gisid": "1197"}, "geometry": {"type": "MultiPolygon", "coordinates": [[[[144.952171762795, -37.808272167959], [144.952252882843, -37.808454440008], [144.951783038557, -37.808658386081], [144.951584954792, -37.808371136983], [144.951862891262, -37.808232993856], [144.952102046697, -37.80811412402], [144.952159920554, -37.80824523316], [144.952171762795, -37.808272167959]]]]}}