{"type": "Feature", "properties": {"seg_id": "22674", "street_id": "22674", "name": "Curzon Street between Arden Street and Baillie Street", "str_type": "Arterial", "status_id": "1", "seg_part": "1", "poly_area": "1837", "gisid": "715"}, "geometry": {"type": "MultiPolygon", "coordinates": [[[[144.948574634067, -37.801403070152], [144.948569422196, -37.801439558073], [144.948555926265, -37.801517089005], [144.948217793232, -37.80147674794], [144.948313273423, -37.800933596835], [144.948650601508, -37.800966492485], [144.948574634067, -37.801403070152]]]]}}