{"type": "Feature", "properties": {"seg_id": "22684", "street_id": "22684", "name": "Courtney Street between Harcourt Street and Errol Street", "str_type": "Council Major", "status_id": "2", "seg_part": "1", "poly_area": "595", "gisid": "722"}, "geometry": {"type": "MultiPolygon", "coordinates": [[[[144.950828534248, -37.799423588894], [144.950748085793, -37.79935550197], [144.950672415629, -37.799284049142], [144.95060174704, -37.799209441264], [144.950562562185, -37.799157648621], [144.950528620109, -37.799103575824], [144.950500130126, -37.799047556347], [144.950485086762, -37.799013361654], [144.950616623695, -37.798986324738], [144.950625109028, -37.799010238364], [144.950634851678, -37.799033848352], [144.95064583448, -37.799057113099], [144.950670179241, -37.799100429749], [144.950698817137, -37.799142060469], [144.950731564255, -37.799181737895], [144.950768210288, -37.799219207203], [144.950808519887, -37.799254227753], [144.950922190192, -37.799349200741], [144.950828534248, -37.799423588894]]]]}}