{"type": "Feature", "properties": {"seg_id": "22686", "street_id": "22686", "name": "Flemington Road between Elizabeth Street and Blackwood Street", "str_type": "Arterial", "status_id": "1", "seg_part": "1", "poly_area": "3776", "gisid": "723"}, "geometry": {"type": "MultiPolygon", "coordinates": [[[[144.955970062007, -37.800787234483], [144.956458228287, -37.800402227766], [144.9568681978, -37.80072950059], [144.956555783732, -37.801256699625], [144.956414400151, -37.801143144626], [144.95637807851, -37.80111349642], [144.955970062007, -37.800787234483]]]]}}