{"type": "Feature", "properties": {"seg_id": "22683", "street_id": "22683", "name": "Dryburgh Street between O'Shanassy Street and MacAulay Road", "str_type": "Council Major", "status_id": "2", "seg_part": "1", "poly_area": "114", "gisid": "721"}, "geometry": {"type": "MultiPolygon", "coordinates": [[[[144.944239532855, -37.799751876027], [144.944189572025, -37.800032800401], [144.944189472613, -37.80003335469], [144.944089446691, -37.799942027151], [144.944168993483, -37.799951547172], [144.944205135373, -37.799748185419], [144.944239532855, -37.799751876027]]]]}}