{"type": "Feature", "properties": {"seg_id": "22681", "street_id": "22681", "name": "Abbotsford Street between Baillie Street and Arden Street", "str_type": "Council Major", "status_id": "2", "seg_part": "1", "poly_area": "1821", "gisid": "713"}, "geometry": {"type": "MultiPolygon", "coordinates": [[[[144.945953058252, -37.801223496395], [144.945612550055, -37.801184213986], [144.945711619917, -37.800643592524], [144.946046526674, -37.800683238324], [144.945982287342, -37.801055062013], [144.945976029655, -37.801086947286], [144.945953058252, -37.801223496395]]]]}}