{"type": "Feature", "properties": {"seg_id": "22695", "street_id": "22695", "name": "Intersection of Linlithgow Avenue and St Kilda Road", "str_type": "Council Major", "status_id": "2", "seg_part": "1", "poly_area": "2895", "gisid": "986"}, "geometry": {"type": "MultiPolygon", "coordinates": [[[[144.971354436074, -37.82339120758], [144.971075914768, -37.823442479465], [144.971054728217, -37.82341629925], [144.971031938036, -37.823391068012], [144.971006416742, -37.823367533756], [144.970978368109, -37.823345884388], [144.970948016087, -37.823326292765], [144.970915603017, -37.823308915313], [144.970881387698, -37.82329389078], [144.970845643317, -37.823281339128], [144.970808655272, -37.823271360574], [144.970770718888, -37.823264034791], [144.970732137063, -37.82325942027], [144.97069321785, -37.823257553856], [144.970654271994, -37.82325845045], [144.970615610453, -37.823262102894], [144.970577541915, -37.823268482025], [144.97054077988, -37.823278430091], [144.970480861717, -37.823295715466], [144.970424065557, -37.823171838603], [144.971059446096, -37.822988540202], [144.971151373703, -37.822961163349], [144.971238409814, -37.82292505115], [144.971320811322, -37.822882693849], [144.971397875313, -37.822834452771], [144.971468944401, -37.822780739429], [144.971530149358, -37.822719952724], [144.97164608216, -37.822807321105], [144.971575119563, -37.822878768653], [144.971516390498, -37.822957022198], [144.971465994585, -37.823038889184], [144.971424272045, -37.823123816928], [144.97139150455, -37.82321123208], [144.971367913312, -37.8233005445], [144.971354436074, -37.82339120758]], [[144.971249215028, -37.823056579548], [144.971150544959, -37.823093336107], [144.970955550141, -37.823149649899], [144.970953783285, -37.823150168892], [144.970952105991, -37.823150850506], [144.970950510128, -37.823151644761], [144.970949007571, -37.82315254575], [144.970947609499, -37.823153546766], [144.970946326316, -37.823154640364], [144.970945167569, -37.823155818404], [144.970944141879, -37.823157072122], [144.97094325688, -37.823158392189], [144.970942519155, -37.823159768783], [144.970941934194, -37.823161191661], [144.97094150635, -37.823162650236], [144.970941238806, -37.823164133655], [144.970941133553, -37.82316563088], [144.970941191374, -37.823167130771], [144.970941411838, -37.823168622167], [144.970941793306, -37.823170093972], [144.970942332938, -37.823171535235], [144.97094302672, -37.82317293523], [144.97094386949, -37.823174283542], [144.970944854976, -37.823175570137], [144.970945975846, -37.823176785444], [144.97094722376, -37.823177920418], [144.970948589432, -37.823178966615], [144.970950062702, -37.82317991625], [144.970951592812, -37.823180813747], [144.971002141115, -37.823205395692], [144.971042435861, -37.823227142054], [144.971079936326, -37.823251833831], [144.97111430155, -37.823279246523], [144.971145219081, -37.823309130895], [144.971181162517, -37.823347466267], [144.971182010172, -37.823348219487], [144.971182893485, -37.823348942345], [144.971183851415, -37.823349602601], [144.971184876832, -37.82335019534], [144.971185962105, -37.823350716152], [144.971187099157, -37.823351161161], [144.971188279526, -37.823351527054], [144.971189494427, -37.823351811109], [144.971190734819, -37.823352011211], [144.97119199147, -37.823352125872], [144.971193255027, -37.823352154239], [144.971194516088, -37.823352096099], [144.971195765267, -37.823351951885], [144.971196993267, -37.823351722672], [144.97119819095, -37.823351410164], [144.971199349401, -37.823351016688], [144.971200459999, -37.823350545172], [144.971201514479, -37.823349999125], [144.971202504993, -37.823349382611], [144.97120342417, -37.823348700218], [144.971204265168, -37.823347957025], [144.971205021729, -37.823347158562], [144.971205688222, -37.823346310773], [144.971206259687, -37.823345419966], [144.971206731871, -37.823344492771], [144.97120710126, -37.823343536089], [144.971207347532, -37.823342554575], [144.971222375699, -37.823275141539], [144.971232235973, -37.823234138574], [144.971244008855, -37.823193454314], [144.971257678104, -37.823153144874], [144.971284593432, -37.823080655762], [144.971285167101, -37.823078934293], [144.971285496184, -37.823077170072], [144.971285628156, -37.82307538847], [144.971285561993, -37.823073603301], [144.971285298208, -37.82307182841], [144.971284838846, -37.823070077561], [144.971284187472, -37.823068364331], [144.971283349134, -37.823066702007], [144.971282330335, -37.823065103479], [144.971281138976, -37.823063581144], [144.971279784295, -37.823062146807], [144.971278276798, -37.823060811593], [144.971276628175, -37.823059585854], [144.971274851212, -37.823058479097], [144.971272959687, -37.823057499904], [144.971270968271, -37.823056655869], [144.971268892405, -37.823055953538], [144.971266748189, -37.823055398356], [144.97126455225, -37.82305499463], [144.971262321618, -37.823054745489], [144.971260073591, -37.823054652867], [144.971257825602, -37.823054717481], [144.971255595085, -37.82305493883], [144.971253399336, -37.823055315199], [144.971251255383, -37.823055843667], [144.971249215028, -37.823056579548]]]]}}