{"type": "Feature", "properties": {"seg_id": "22698", "street_id": "22698", "name": "Government House Drive from Birdwood Avenue", "str_type": "Council Major", "status_id": "2", "seg_part": "1", "poly_area": "4127", "gisid": "872"}, "geometry": {"type": "MultiPolygon", "coordinates": [[[[144.972440935879, -37.826443794969], [144.972543427583, -37.826463936734], [144.972619709448, -37.826476536637], [144.972789979805, -37.826482149762], [144.972959108552, -37.826499621286], [144.973125865733, -37.82652843744], [144.973289041641, -37.826568389183], [144.973447452547, -37.826619186693], [144.973603138623, -37.826675903651], [144.974015860005, -37.826875323676], [144.974406896769, -37.827100566902], [144.974773686804, -37.82735015765], [144.974655710305, -37.827471397323], [144.974297028264, -37.827226054126], [144.973914219628, -37.827004835738], [144.973509856523, -37.826809228413], [144.973389331445, -37.826765346252], [144.973266494616, -37.826726442834], [144.97313990874, -37.826696234128], [144.973010554647, -37.826674954202], [144.972879434619, -37.826662767939], [144.972747564617, -37.826659769763], [144.972616145964, -37.82666725683], [144.972535939739, -37.826676114821], [144.972526446544, -37.826677508862], [144.97251718583, -37.826679670265], [144.97250819688, -37.826682450696], [144.97249954492, -37.826685829979], [144.972491292726, -37.826689783596], [144.972483500179, -37.826694282858], [144.972476223821, -37.826699295118], [144.97246951645, -37.826704784007], [144.972463426735, -37.826710709698], [144.972457998862, -37.826717029194], [144.972453272217, -37.826723696639], [144.972449281097, -37.826730663656], [144.972446054462, -37.826737879689], [144.972443615723, -37.826745292381], [144.972441982577, -37.826752847943], [144.972441166874, -37.826760491553], [144.972441174533, -37.826768167748], [144.972441878226, -37.826775833076], [144.972431421735, -37.826665119296], [144.972429999405, -37.826554232081], [144.972440935879, -37.826443794969]]]]}}