{"type": "Feature", "properties": {"seg_id": "22690", "street_id": "22690", "name": "Flemington Road between Harcourt Street and Murphy Street", "str_type": "Arterial", "status_id": "1", "seg_part": "1", "poly_area": "3673", "gisid": "728"}, "geometry": {"type": "MultiPolygon", "coordinates": [[[[144.952548322843, -37.798057580762], [144.951909368847, -37.797548574671], [144.952391578624, -37.797164748105], [144.952730432385, -37.797436235924], [144.952489881983, -37.797626309676], [144.952790727532, -37.797866043199], [144.952548322843, -37.798057580762]]]]}}