{"type": "Feature", "properties": {"seg_id": "22703", "street_id": "22703", "name": "Intersection of St Kilda Road and Anzac Avenue", "str_type": "Arterial", "status_id": "1", "seg_part": "1", "poly_area": "2968", "gisid": "992"}, "geometry": {"type": "MultiPolygon", "coordinates": [[[[144.971066516929, -37.827046358786], [144.971688457278, -37.827024793176], [144.971688816738, -37.827027497487], [144.971689445971, -37.827030171439], [144.971690362391, -37.827032794367], [144.971691559202, -37.827035346816], [144.971693027528, -37.827037809856], [144.971694756478, -37.82704016522], [144.971696733229, -37.827042395439], [144.971698943121, -37.827044483971], [144.971701369764, -37.827046415328], [144.97170399516, -37.827048175184], [144.971706799837, -37.827049750488], [144.971709762994, -37.827051129556], [144.971712862655, -37.82705230216], [144.971716075829, -37.827053259604], [144.971719378688, -37.827053994786], [144.971722746733, -37.827054502253], [144.971726154986, -37.827054778243], [144.971729578168, -37.827054820707], [144.971732990892, -37.827054629332], [144.971736367846, -37.827054205536], [144.971739683985, -37.827053552462], [144.971742914713, -37.827052674955], [144.97174603607, -37.827051579522], [144.971749024906, -37.827050274288], [144.971751859054, -37.827048768934], [144.971754517493, -37.827047074623], [144.971756980507, -37.827045203922], [144.971759108403, -37.827043092996], [144.971826948307, -37.827265807505], [144.971801311499, -37.82743641344], [144.971798064372, -37.82745815603], [144.971073142818, -37.827448080792], [144.971072746358, -37.827314194527], [144.971069188586, -37.82718031987], [144.971066516929, -37.827046358786]]]]}}