{"type": "Feature", "properties": {"seg_id": "22704", "street_id": "22704", "name": "St Kilda Road between Anzac Avenue and Coventry Street", "str_type": "Arterial", "status_id": "1", "seg_part": "1", "poly_area": "6954", "gisid": "993"}, "geometry": {"type": "MultiPolygon", "coordinates": [[[[144.971073142818, -37.827448080792], [144.971798064372, -37.82745815603], [144.971756095979, -37.827762541679], [144.971720551927, -37.828067441509], [144.97169144224, -37.828372770219], [144.97098732075, -37.828577450338], [144.971010106931, -37.828345783313], [144.971029479745, -37.828113920967], [144.971045436582, -37.82788189494], [144.971061335852, -37.827737644474], [144.971069113996, -37.827592924044], [144.971073142818, -37.827448080792]]]]}}