{"type": "Feature", "properties": {"seg_id": "22705", "street_id": "22705", "name": "Intersection of Birdwood Avenue and Dallas Brooks Drive", "str_type": "Council Major", "status_id": "2", "seg_part": "1", "poly_area": "191", "gisid": "995"}, "geometry": {"type": "MultiPolygon", "coordinates": [[[[144.976689374571, -37.831023738459], [144.976690056638, -37.831165672698], [144.976634793416, -37.831128541182], [144.976577643369, -37.83109325212], [144.976518704073, -37.831059865763], [144.976576122218, -37.830957439125], [144.976689374571, -37.831023738459]]]]}}