{"type": "Feature", "properties": {"seg_id": "22724", "street_id": "22724", "name": "St Kilda Road between Domain Road and Bromby Street", "str_type": "Arterial", "status_id": "1", "seg_part": "1", "poly_area": "7164", "gisid": "1014"}, "geometry": {"type": "MultiPolygon", "coordinates": [[[[144.972759729019, -37.833254288255], [144.972972772493, -37.833055424792], [144.973129428284, -37.833158115804], [144.973288924407, -37.833258018888], [144.973451182011, -37.833355084647], [144.973882181874, -37.833632559312], [144.974278770134, -37.833940629213], [144.974637507219, -37.834276622861], [144.974955281665, -37.834637626575], [144.974684648974, -37.834783866463], [144.974663254161, -37.834757589923], [144.974641287488, -37.834731611876], [144.974618755575, -37.834705940151], [144.974236711338, -37.834314862836], [144.973814287354, -37.833950847538], [144.973354518388, -37.833616508885], [144.972860707305, -37.833314248306], [144.972826583306, -37.833294756936], [144.972792920033, -37.83327476797], [144.972759729019, -37.833254288255]]]]}}