{"type": "Feature", "properties": {"seg_id": "22743", "street_id": "22743", "name": "Intersection of Punt Road and Mona Place", "str_type": "Arterial", "status_id": "1", "seg_part": "1", "poly_area": "223", "gisid": "1033"}, "geometry": {"type": "MultiPolygon", "coordinates": [[[[144.986790051371, -37.837006780158], [144.98674588179, -37.83722273692], [144.98663975016, -37.837208892985], [144.986686454109, -37.837010358788], [144.986689877774, -37.836993893375], [144.986790051371, -37.837006780158]]]]}}