{"type": "Feature", "properties": {"seg_id": "22753", "street_id": "22753", "name": "Intersection of Pasley Street and Spring Gardens Street", "str_type": "Council Major", "status_id": "2", "seg_part": "1", "poly_area": "251", "gisid": "1044"}, "geometry": {"type": "MultiPolygon", "coordinates": [[[[144.984563941226, -37.843638963129], [144.984553442041, -37.843688841835], [144.984346783176, -37.843722710329], [144.9843198039, -37.843706513856], [144.98429526288, -37.843688039504], [144.984273464173, -37.843667514169], [144.984254679203, -37.84364519483], [144.984239140228, -37.843621357619], [144.984228310832, -37.843598927582], [144.984392672526, -37.843613349975], [144.984441861137, -37.843622802912], [144.984563941226, -37.843638963129]]]]}}