{"type": "Feature", "properties": {"seg_id": "22768", "street_id": "22768", "name": "Lynchs Bridge from Smithfield Road", "str_type": "Arterial", "status_id": "1", "seg_part": "1", "poly_area": "1797", "gisid": "753"}, "geometry": {"type": "MultiPolygon", "coordinates": [[[[144.913427776686, -37.795031334757], [144.913060182948, -37.795186477751], [144.912958006971, -37.795135985755], [144.912633087491, -37.794997846817], [144.913032279338, -37.794842699183], [144.913164389933, -37.794791353009], [144.913577038565, -37.794968337969], [144.913427776686, -37.795031334757]]]]}}