{"type": "Feature", "properties": {"seg_id": "22760", "street_id": "22760", "name": "Intersection of St Kilda Road and Commercial Road", "str_type": "Arterial", "status_id": "1", "seg_part": "1", "poly_area": "1685", "gisid": "1050"}, "geometry": {"type": "MultiPolygon", "coordinates": [[[[144.978945381282, -37.844579025283], [144.979126136677, -37.845052184421], [144.97878708615, -37.845129924707], [144.97868451519, -37.844848613062], [144.97861392841, -37.844655023802], [144.978945381282, -37.844579025283]]]]}}