{"type": "Feature", "properties": {"seg_id": "22774", "street_id": "22774", "name": "Olympic Boulevard between Punt Road and Batman Avenue", "str_type": "Arterial", "status_id": "1", "seg_part": "1", "poly_area": "26145", "gisid": "768"}, "geometry": {"type": "MultiPolygon", "coordinates": [[[[144.986824932531, -37.824238810852], [144.987118238219, -37.824276532974], [144.988168955105, -37.824411657291], [144.988113858406, -37.824681227807], [144.987468211261, -37.824598320817], [144.984558923278, -37.824224693175], [144.978913909765, -37.823503808714], [144.978905102569, -37.823515892808], [144.978828233806, -37.823450294125], [144.978822510517, -37.823445409726], [144.978701033085, -37.823270809338], [144.978660831179, -37.823213026007], [144.978658454691, -37.823208867615], [144.978656309239, -37.82320464473], [144.978654616425, -37.82320029673], [144.978653388187, -37.823195854277], [144.978652633187, -37.8231913487], [144.978652356748, -37.823186811771], [144.978652560821, -37.823182275485], [144.978653243965, -37.823177771831], [144.978654401364, -37.823173332569], [144.978656024856, -37.823168989004], [144.978658102992, -37.823164771767], [144.978660819082, -37.823160797198], [144.978739342813, -37.823047839993], [144.979143966268, -37.823177284875], [144.979557724449, -37.823284389375], [144.979981718741, -37.823362295533], [144.984606400983, -37.823953463832], [144.986667964809, -37.82421862323], [144.986824932531, -37.824238810852]]]]}}