{"type": "Feature", "properties": {"seg_id": "22782", "street_id": "22782", "name": "Rakaia Way between Caravel Lane and Newquay Promenade", "str_type": "Council Minor", "status_id": "3", "seg_part": "1", "poly_area": "1039", "gisid": "3158"}, "geometry": {"type": "MultiPolygon", "coordinates": [[[[144.940776301495, -37.814472712424], [144.94091668161, -37.814602437305], [144.940972358488, -37.81465388652], [144.941063795687, -37.814738392429], [144.941078421535, -37.814751908033], [144.941154243246, -37.814821973482], [144.941225619481, -37.814887932012], [144.94129707564, -37.814953962188], [144.941275877066, -37.814962036434], [144.941298839302, -37.814983255903], [144.941227150671, -37.815010557015], [144.9411942851, -37.815023072794], [144.941151177289, -37.815039489082], [144.941139161241, -37.815044065102], [144.941162256694, -37.815082240687], [144.941141062686, -37.815090312284], [144.941130405334, -37.815072683737], [144.941080404353, -37.814990041527], [144.941067635782, -37.814968920061], [144.941005384374, -37.814866179231], [144.94077863924, -37.814656342901], [144.940745124807, -37.814625375542], [144.940639085656, -37.814527374879], [144.940655995725, -37.814518532741], [144.940659735084, -37.814517108503], [144.940776301495, -37.814472712424]]]]}}