{"type": "Feature", "properties": {"seg_id": "22783", "street_id": "22783", "name": "Newquay Promenade between Saint Mangos Lane and Rakaia Way", "str_type": "Road Safety Act", "status_id": "16", "seg_part": "1", "poly_area": "1749", "gisid": "3962"}, "geometry": {"type": "MultiPolygon", "coordinates": [[[[144.941313002527, -37.815219263816], [144.9411942851, -37.815023072794], [144.941227150671, -37.815010557015], [144.941235283977, -37.815024586295], [144.941235799254, -37.815024397948], [144.941275222274, -37.815089544519], [144.941279361537, -37.815087996583], [144.941283863369, -37.815095436974], [144.941315308808, -37.815084155279], [144.941310568855, -37.815076331332], [144.941344551993, -37.81506337366], [144.941349291949, -37.815071197606], [144.941380679203, -37.815059229083], [144.941375939244, -37.815051405138], [144.941409293202, -37.815038686973], [144.941414034299, -37.815046510936], [144.941445070171, -37.815034677737], [144.941440329071, -37.815026853775], [144.941474626769, -37.815013775399], [144.941479366736, -37.81502159934], [144.941510734397, -37.815009639452], [144.941542100913, -37.814997679534], [144.94157346858, -37.814985718728], [144.941568727469, -37.81497789477], [144.941604568143, -37.814964229632], [144.941609308121, -37.814972053568], [144.941640291154, -37.814960239219], [144.941635550037, -37.814952415264], [144.941671270144, -37.81493879576], [144.941676010128, -37.814946619693], [144.941706994275, -37.814934805345], [144.941702253152, -37.814926981393], [144.941738088051, -37.814913317915], [144.941742828041, -37.814921141846], [144.941773270253, -37.814909534288], [144.941768549788, -37.814901702589], [144.941773599177, -37.814899777634], [144.941768511633, -37.814891338436], [144.941804952224, -37.814877461133], [144.941898037879, -37.815031290896], [144.941874348022, -37.815040312093], [144.94185533161, -37.815008878424], [144.941718439495, -37.815060997472], [144.941738941998, -37.815177896422], [144.941797981914, -37.815231609211], [144.941773317428, -37.815253755151], [144.941850657065, -37.815285937963], [144.941924200821, -37.815278390162], [144.941909819769, -37.815283332253], [144.941931048682, -37.815318421893], [144.941584056658, -37.815450532231], [144.941575900106, -37.81543704958], [144.941586924111, -37.815433591651], [144.941561013632, -37.815354228403], [144.941511016426, -37.815276456375], [144.941488657281, -37.815284677986], [144.941426644186, -37.815226814531], [144.941402222112, -37.81524730467], [144.941361947153, -37.815216579756], [144.941313002527, -37.815219263816]]], [[[144.94129707564, -37.814953962188], [144.94168100034, -37.814807735279], [144.941701476655, -37.814799936709], [144.941716221486, -37.814824305336], [144.941298839302, -37.814983255903], [144.941275877066, -37.814962036434], [144.94129707564, -37.814953962188]]]]}}