{"type": "Feature", "properties": {"seg_id": "22806", "street_id": "22806", "name": "Intersection of Harbour Esplanade and McCrae Street", "str_type": "Council Major", "status_id": "2", "seg_part": "1", "poly_area": "2378", "gisid": "3613"}, "geometry": {"type": "MultiPolygon", "coordinates": [[[[144.947919849089, -37.822335678333], [144.94803238134, -37.82276204054], [144.948044740006, -37.822808865475], [144.947852465954, -37.822785775961], [144.947849209018, -37.822777765835], [144.947846121236, -37.822769713665], [144.947843203473, -37.822761621701], [144.947844233004, -37.822752836091], [144.947824111192, -37.822709842786], [144.947789729119, -37.822647338356], [144.947768434868, -37.822654709163], [144.947709197166, -37.822668385547], [144.947711455209, -37.822674469745], [144.947713760615, -37.822680542756], [144.947716113295, -37.822686604349], [144.947724740009, -37.822708819191], [144.947732377581, -37.822731260714], [144.947739016582, -37.822753901213], [144.947740918197, -37.822762952485], [144.947743009096, -37.822771977452], [144.9477452887, -37.822780973622], [144.947724288838, -37.822778413224], [144.94772211801, -37.822770121546], [144.947614132035, -37.822757153885], [144.947481121006, -37.822741179726], [144.947462420633, -37.822703599252], [144.947378846967, -37.822562119899], [144.947377403617, -37.822524539273], [144.947381162171, -37.822498199543], [144.947434091398, -37.822320251253], [144.947462188359, -37.822325510075], [144.947558529683, -37.822307245704], [144.947555814578, -37.822296375291], [144.947919849089, -37.822335678333]]]]}}