{"type": "Feature", "properties": {"seg_id": "22809", "street_id": "22809", "name": "Intersection of Southbank Promenade and Southgate Avenue", "str_type": "Lease/Reserve", "status_id": "6", "seg_part": "1", "poly_area": "275", "gisid": "3604"}, "geometry": {"type": "MultiPolygon", "coordinates": [[[[144.965066256583, -37.82027021155], [144.964967504291, -37.820190500839], [144.965026049431, -37.820163555549], [144.965012618128, -37.820109452052], [144.965098994056, -37.820091887742], [144.965119095034, -37.820142601828], [144.965166654629, -37.820201155765], [144.965130534862, -37.8202863847], [144.965207439567, -37.820390566719], [144.965144321195, -37.820408266305], [144.965082451394, -37.820266013504], [144.965066256583, -37.82027021155]]]]}}