{"type": "Feature", "properties": {"seg_id": "22804", "street_id": "22804", "name": "Intersection of Wurundjeri Way and Batmans Hill Drive", "str_type": "Arterial", "status_id": "1", "seg_part": "1", "poly_area": "3839", "gisid": "3612"}, "geometry": {"type": "MultiPolygon", "coordinates": [[[[144.950212286322, -37.822317932462], [144.950487923711, -37.822614802835], [144.950352092218, -37.822654110333], [144.950142888597, -37.822709007413], [144.949926783958, -37.822744557005], [144.94970759913, -37.822765958381], [144.949486792964, -37.822772507296], [144.949220115867, -37.82247752455], [144.949324995282, -37.822437522465], [144.949802686703, -37.822351440069], [144.950151000666, -37.822280091323], [144.950154765408, -37.82228486099], [144.950172126239, -37.822298225744], [144.95019187066, -37.822308999667], [144.950212286322, -37.822317932462]]]]}}