{"type": "Feature", "properties": {"seg_id": "22807", "street_id": "22807", "name": "Bayswater Road between Epsom Road and Belmont Road", "str_type": "Council Major", "status_id": "2", "seg_part": "1", "poly_area": "1978", "gisid": "763"}, "geometry": {"type": "MultiPolygon", "coordinates": [[[[144.924328946572, -37.793157567779], [144.924249135071, -37.79307055142], [144.924304163685, -37.793036384587], [144.925721819662, -37.79221513828], [144.925808846352, -37.792302770075], [144.925829740114, -37.792323810982], [144.925781821877, -37.792318380053], [144.925366603048, -37.792558215736], [144.925336102905, -37.792575833474], [144.924328946572, -37.793157567779]]]]}}