{"type": "Feature", "properties": {"seg_id": "22826", "street_id": "22826", "name": "Grant Street between Dodds Street and Sturt Street", "str_type": "Council Major", "status_id": "2", "seg_part": "1", "poly_area": "3346", "gisid": "3811"}, "geometry": {"type": "MultiPolygon", "coordinates": [[[[144.96667198403, -37.826327770033], [144.966795933663, -37.825921639707], [144.966965999159, -37.825953936752], [144.967928828558, -37.82567273211], [144.967832404819, -37.82598916547], [144.96667198403, -37.826327770033]]]]}}