{"type": "Feature", "properties": {"seg_id": "22821", "street_id": "22821", "name": "Dock Link Road between South Dynon Railway and Dynon Road", "str_type": "Arterial", "status_id": "1", "seg_part": "2", "poly_area": "8126", "gisid": "3598"}, "geometry": {"type": "MultiPolygon", "coordinates": [[[[144.917376406892, -37.801930717752], [144.917161122552, -37.802071061435], [144.917152826018, -37.802100608273], [144.917137444557, -37.802151687289], [144.917128136292, -37.802203748898], [144.917123414134, -37.802256222217], [144.917114090974, -37.80236139052], [144.917112174085, -37.802466876395], [144.917114391908, -37.802572421377], [144.917114858031, -37.802584972475], [144.917116758956, -37.802597447505], [144.917120076469, -37.802609743534], [144.917124783211, -37.802621759152], [144.917130840363, -37.802633395266], [144.917138197971, -37.802644555908], [144.917146795354, -37.802655149034], [144.917156561608, -37.80266508728], [144.917166919861, -37.802674692545], [144.91718881518, -37.802692973989], [144.917212481266, -37.802709809043], [144.917237766824, -37.802725090078], [144.917201510296, -37.802862202686], [144.917128179229, -37.803673948223], [144.917130176105, -37.804044955868], [144.917111344195, -37.804032487604], [144.917105065366, -37.804061921051], [144.917102264937, -37.804091728482], [144.917102051789, -37.804121641867], [144.91709592395, -37.80412181374], [144.917097298335, -37.804170722954], [144.916898743208, -37.804242816198], [144.916896669635, -37.804188964311], [144.916867868205, -37.804190184157], [144.916787604001, -37.804068346214], [144.916664738041, -37.804126961904], [144.916673276231, -37.804057389392], [144.916687950266, -37.803937809532], [144.916807374121, -37.802964618575], [144.916857714046, -37.802527134568], [144.916851085931, -37.802526360362], [144.916883756062, -37.801876228035], [144.917376406892, -37.801930717752]]], [[[144.916898743208, -37.804242816198], [144.917097298335, -37.804170722954], [144.917102757009, -37.804364873088], [144.91710825175, -37.804560286394], [144.916911133911, -37.804564581167], [144.916905286322, -37.804412744929], [144.916898743208, -37.804242816198]]]]}}