{"type": "Feature", "properties": {"seg_id": "22824", "street_id": "22824", "name": "Grant Street between Wells Street and Dodds Street", "str_type": "Council Major", "status_id": "2", "seg_part": "1", "poly_area": "2790", "gisid": "3809"}, "geometry": {"type": "MultiPolygon", "coordinates": [[[[144.969182236223, -37.825595575441], [144.968090038187, -37.825914184283], [144.968185807418, -37.825596509296], [144.968390154758, -37.825536863237], [144.969063778085, -37.825340240617], [144.969182236223, -37.825595575441]]]]}}