{"type": "Feature", "properties": {"seg_id": "22832", "street_id": "22832", "name": "Cl1017 from University Street", "str_type": "Council Minor", "status_id": "3", "seg_part": "1", "poly_area": "33", "gisid": "1972"}, "geometry": {"type": "MultiPolygon", "coordinates": [[[[144.967611420374, -37.799426558316], [144.967595544233, -37.799521644319], [144.967560380075, -37.799517539965], [144.967576479145, -37.799422857937], [144.967611420374, -37.799426558316]]], [[[144.968241009224, -37.799437797107], [144.968258454698, -37.799327021527], [144.96829152601, -37.799330367722], [144.968275855368, -37.799441487538], [144.968241009224, -37.799437797107]]]]}}