{"type": "Feature", "properties": {"seg_id": "22837", "street_id": "22837", "name": "Newman Street between Sambell Street and Frearson Walk", "str_type": "Council Major", "status_id": "2", "seg_part": "1", "poly_area": "1061", "gisid": "2145"}, "geometry": {"type": "MultiPolygon", "coordinates": [[[[144.923152934363, -37.794912173057], [144.923038954051, -37.794977749971], [144.922845097335, -37.795089283574], [144.922844607935, -37.795089565119], [144.922751795841, -37.794987166142], [144.923494406121, -37.794559909857], [144.923537725059, -37.794607321077], [144.923483585685, -37.794638470758], [144.92347997862, -37.794640513001], [144.923476740319, -37.794642916622], [144.923473767929, -37.794645527833], [144.923471082141, -37.794648328457], [144.923468701654, -37.794651298997], [144.92346664304, -37.794654418772], [144.92346492063, -37.794657666065], [144.923463546415, -37.794661018268], [144.923462603712, -37.794664463701], [144.923461114365, -37.794671837088], [144.923460623833, -37.794679305291], [144.923460993145, -37.794686783496], [144.923462219228, -37.794694209458], [144.923464291877, -37.794701521364], [144.92346719384, -37.794708658353], [144.92347090096, -37.794715561018], [144.923475382382, -37.794722171904], [144.923480271964, -37.794728625136], [144.92348693609, -37.794735918681], [144.92344373531, -37.794760774574], [144.923410305599, -37.794764094395], [144.923152934363, -37.794912173057]]]]}}