{"type": "Feature", "properties": {"seg_id": "22835", "street_id": "22835", "name": "Harbour Esplanade between La Trobe Street and Dudley Street", "str_type": "Council Major", "status_id": "2", "seg_part": "1", "poly_area": "11258", "gisid": "3805"}, "geometry": {"type": "MultiPolygon", "coordinates": [[[[144.944212870622, -37.813939938938], [144.944054279632, -37.813751705606], [144.943872516264, -37.813577154937], [144.943669442823, -37.813418075183], [144.943637569805, -37.813395856232], [144.943605278958, -37.813374020299], [144.943572577592, -37.813352572329], [144.943525123301, -37.813322590087], [144.943476866929, -37.813293424739], [144.943427830815, -37.813265089788], [144.942912056652, -37.812979574151], [144.942957305315, -37.812962335777], [144.943825507254, -37.81276055958], [144.943972788097, -37.813101189413], [144.94408112869, -37.813185157874], [144.944183873297, -37.81327344245], [144.944280749075, -37.813365808717], [144.944412637621, -37.813442668913], [144.944542665752, -37.81364391067], [144.944584589574, -37.813739751433], [144.944640995916, -37.813831155461], [144.944692321272, -37.813924425011], [144.944738467857, -37.814019382422], [144.945081474492, -37.814802703994], [144.945153487654, -37.814829843347], [144.945071346117, -37.814852483769], [144.944774732795, -37.814934237617], [144.944522023411, -37.814357215549], [144.944519646214, -37.814351809107], [144.944517251897, -37.81434640742], [144.944514840476, -37.814341010525], [144.944457477567, -37.814356898024], [144.944418090364, -37.814272040631], [144.944374412064, -37.81418851553], [144.944326514066, -37.814106459226], [144.944303998461, -37.814070661536], [144.94428067945, -37.814035189033], [144.944256564492, -37.814000053063], [144.944249192624, -37.813989603478], [144.944241750348, -37.813979185351], [144.944234237878, -37.813968798981], [144.944227175971, -37.813959150823], [144.944220053494, -37.813949530729], [144.944212870622, -37.813939938938]]]]}}