{"type": "Feature", "properties": {"seg_id": "22845", "street_id": "22845", "name": "Speakmen Street between Stockmans Way and Smithfield Road", "str_type": "Council Major", "status_id": "2", "seg_part": "1", "poly_area": "2725", "gisid": "752"}, "geometry": {"type": "MultiPolygon", "coordinates": [[[[144.916907684282, -37.794408431936], [144.916877653554, -37.79443200168], [144.916849382484, -37.794401054606], [144.915836917664, -37.79427292759], [144.915840478388, -37.794255210486], [144.915185030735, -37.794172259563], [144.916126461968, -37.793582494534], [144.916078285411, -37.793613785152], [144.916031582222, -37.793646452172], [144.915986414813, -37.793680451941], [144.915921394342, -37.793729473087], [144.915854159528, -37.793776575716], [144.915784800206, -37.793821696888], [144.915721976255, -37.793861053046], [144.915687577225, -37.793883033099], [144.915653723384, -37.793905539882], [144.915620427537, -37.79392856488], [144.915527346592, -37.793994233112], [144.91552293886, -37.793997311322], [144.915519091881, -37.794000837404], [144.915515646503, -37.794004617083], [144.915512628583, -37.794008621998], [144.915510060765, -37.794012822094], [144.915507962319, -37.794017185854], [144.915506348992, -37.794021680532], [144.915505232891, -37.7940262724], [144.915504622391, -37.794030926999], [144.915504522073, -37.794035609402], [144.91550493269, -37.794040284471], [144.915505851161, -37.794044917124], [144.915507270593, -37.794049472597], [144.915509180334, -37.794053916706], [144.915511566055, -37.794058216102], [144.915514409852, -37.794062338521], [144.915517690385, -37.79406625303], [144.915521383038, -37.794069930252], [144.915525460099, -37.794073342594], [144.915529890974, -37.79407646445], [144.915534642414, -37.794079272392], [144.915539678764, -37.794081745351], [144.915544962231, -37.794083864767], [144.915550453166, -37.794085614738], [144.915556110365, -37.794086982131], [144.915561879718, -37.794088014692], [144.915675790402, -37.794102430952], [144.915692966449, -37.79409468568], [144.915696220876, -37.794078493349], [144.915917429234, -37.794106488435], [144.915916695316, -37.794110136007], [144.916035653098, -37.79412519005], [144.916034293384, -37.794131951813], [144.91621637337, -37.794154994088], [144.916219054837, -37.794141648318], [144.916603619118, -37.79419031528], [144.91659761103, -37.794220209004], [144.916614428985, -37.79422233771], [144.916612051289, -37.794234170389], [144.916684928042, -37.794243392635], [144.916687305727, -37.794231559954], [144.916704795894, -37.794233772633], [144.916717442559, -37.794247507623], [144.916900867452, -37.794270718625], [144.916939866094, -37.79424828437], [144.916907684282, -37.794408431936]]]]}}