{"type": "Feature", "properties": {"seg_id": "22847", "street_id": "22847", "name": "Ph8005 between Domain Street and Hope Street", "str_type": "Council Minor", "status_id": "3", "seg_part": "1", "poly_area": "59", "gisid": "1474"}, "geometry": {"type": "MultiPolygon", "coordinates": [[[[144.979264181531, -37.835875575013], [144.979260963353, -37.835885243454], [144.978924527207, -37.835843321099], [144.978917803079, -37.835843223685], [144.978580557406, -37.835802666152], [144.978580422497, -37.835794288314], [144.979264181531, -37.835875575013]]]]}}