{"type": "Feature", "properties": {"seg_id": "22860", "street_id": "22860", "name": "Eighteen Pence Lane from Lorimer Street", "str_type": "Council Minor", "status_id": "3", "seg_part": "1", "poly_area": "557", "gisid": "2112"}, "geometry": {"type": "MultiPolygon", "coordinates": [[[[144.945292291795, -37.824975111464], [144.945325447213, -37.824915419707], [144.94542024005, -37.824744751857], [144.945464070616, -37.824749013661], [144.945507272186, -37.824756355832], [144.945549463369, -37.824766836767], [144.945590281292, -37.824780366325], [144.945629374894, -37.824796828141], [144.945667454345, -37.824814926016], [144.945677075638, -37.824820962326], [144.945671252615, -37.824852974886], [144.94559656108, -37.824927876501], [144.945589112518, -37.824934408529], [144.945580630739, -37.824940103979], [144.945571577875, -37.824945218551], [144.945562016137, -37.824949717096], [144.945552011233, -37.824953568701], [144.945541631914, -37.824956746898], [144.945530949508, -37.824959229848], [144.945520037421, -37.824961000486], [144.945508960501, -37.824961952305], [144.945481119447, -37.824963027486], [144.945453265955, -37.824963876115], [144.945425402955, -37.824964498102], [144.945422019786, -37.824964665194], [144.945418673054, -37.824965083084], [144.945415388517, -37.824965734792], [144.945412191975, -37.824966615199], [144.945409108543, -37.824967717387], [144.945406162443, -37.824969032698], [144.945403376819, -37.824970550799], [144.945400773555, -37.824972259764], [144.945398373103, -37.824974146167], [144.945396194319, -37.824976195189], [144.945394254322, -37.824978390733], [144.94539256835, -37.824980715551], [144.94539114965, -37.824983151379], [144.94539008976, -37.824985699228], [144.945292291795, -37.824975111464]]]]}}