{"type": "Feature", "properties": {"seg_id": "22875", "street_id": "22875", "name": "Cl1554 from Arnold Street", "str_type": "Council Minor", "status_id": "3", "seg_part": "1", "poly_area": "99", "gisid": "359"}, "geometry": {"type": "MultiPolygon", "coordinates": [[[[144.976360917731, -37.835908172018], [144.976091209654, -37.835872549598], [144.976059742435, -37.835798182584], [144.976093309736, -37.835789477566], [144.976111176422, -37.835837501925], [144.97612358922, -37.835846687415], [144.976366446734, -37.835879820576], [144.976360917731, -37.835908172018]]]]}}