{"type": "Feature", "properties": {"seg_id": "22879", "street_id": "22879", "name": "Southgate Avenue between Southgate Avenue and Southgate Avenue", "str_type": "Council Major", "status_id": "2", "seg_part": "1", "poly_area": "1286", "gisid": "3718"}, "geometry": {"type": "MultiPolygon", "coordinates": [[[[144.967141697838, -37.820138489573], [144.967210586267, -37.82019380084], [144.966977079532, -37.820253940973], [144.96696183726, -37.820258123286], [144.96696147236, -37.820258086412], [144.966961105547, -37.820258070168], [144.966960738574, -37.820258078719], [144.966960374097, -37.820258112004], [144.966960014755, -37.820258169782], [144.96695966315, -37.820258251633], [144.966959321829, -37.820258356965], [144.966958993262, -37.820258485017], [144.966958679829, -37.82025863486], [144.966958383798, -37.820258805409], [144.966958107315, -37.82025899543], [144.966957865307, -37.820259212713], [144.966878328664, -37.820281037391], [144.966877963764, -37.820281000517], [144.966877596951, -37.820280984273], [144.966877229978, -37.820280992824], [144.9668768655, -37.820281026108], [144.966876506158, -37.820281083885], [144.966876154553, -37.820281165736], [144.966875813232, -37.820281271069], [144.966875484664, -37.82028139912], [144.966875171231, -37.820281548962], [144.9668748752, -37.820281719511], [144.966874598716, -37.820281909532], [144.966874356709, -37.820282126816], [144.966812208556, -37.82029917989], [144.966811851994, -37.820299110524], [144.966811491502, -37.820299058267], [144.966811126973, -37.8202990304], [144.966810761029, -37.820299027123], [144.9668103963, -37.82029904846], [144.966810035409, -37.820299094257], [144.966809680952, -37.820299164184], [144.966809335478, -37.820299257739], [144.96680900147, -37.82029937425], [144.966808681331, -37.820299512878], [144.966808377362, -37.820299672626], [144.96680809175, -37.820299852347], [144.966807826548, -37.820300050747], [144.966807583663, -37.820300266399], [144.9668073781, -37.820300505014], [144.966723956428, -37.820323394376], [144.966189539798, -37.820470028945], [144.965833750582, -37.820566638296], [144.96542824339, -37.820677199157], [144.965383667449, -37.82068935263], [144.965356119737, -37.820626173717], [144.965400612245, -37.820613830467], [144.965627354829, -37.820550927167], [144.966375933704, -37.820345535693], [144.966386778034, -37.820353080192], [144.966403477822, -37.820337973846], [144.967110296755, -37.820144032155], [144.967130938054, -37.820141442595], [144.967141697838, -37.820138489573]]]]}}