{"type": "Feature", "properties": {"seg_id": "22877", "street_id": "22877", "name": "Intersection of Sturt Street and Grant Street", "str_type": "Arterial", "status_id": "1", "seg_part": "1", "poly_area": "2915", "gisid": "364"}, "geometry": {"type": "MultiPolygon", "coordinates": [[[[144.966795933663, -37.825921639707], [144.96667198403, -37.826327770033], [144.966564909733, -37.826681897386], [144.966179961233, -37.826791293357], [144.966195701093, -37.82673920521], [144.966410769819, -37.826027656976], [144.966462064496, -37.825857949675], [144.966795933663, -37.825921639707]]]]}}