{"type": "Feature", "properties": {"seg_id": "22883", "street_id": "22883", "name": "PT5354 from Boathouse Drive", "str_type": "Council Minor", "status_id": "3", "seg_part": "1", "poly_area": "2529", "gisid": "2598"}, "geometry": {"type": "MultiPolygon", "coordinates": [[[[144.969153239398, -37.819805173877], [144.96975938812, -37.81976210556], [144.969762203756, -37.819787043691], [144.969755176751, -37.819789309252], [144.969748542383, -37.819792229956], [144.9697422508, -37.819795591225], [144.969736347888, -37.819799368547], [144.969730876695, -37.819803534372], [144.969725877124, -37.81980805832], [144.969721385638, -37.819812907396], [144.969717434991, -37.819818046237], [144.969714053998, -37.819823437365], [144.969711267315, -37.819829041462], [144.969709095266, -37.819834817656], [144.969707553692, -37.819840723823], [144.969706653836, -37.819846716887], [144.969706402259, -37.819852753141], [144.969706723636, -37.819858793911], [144.969716307879, -37.819945830739], [144.969718474385, -37.81996136075], [144.969720871834, -37.819976869391], [144.969723499894, -37.819992354503], [144.969724794928, -37.819999465417], [144.969726787063, -37.820006475084], [144.969729546039, -37.82001332374], [144.969733050526, -37.820019958436], [144.969737273431, -37.820026327881], [144.969742182106, -37.82003238283], [144.969747738601, -37.820038076473], [144.969753899959, -37.820043364793], [144.969760618545, -37.820048206904], [144.96976784242, -37.820052565371], [144.969775515732, -37.8200564065], [144.969783579161, -37.820059700594], [144.969791970367, -37.820062422187], [144.969800624476, -37.820064550237], [144.969809474584, -37.820066068292], [144.96981845227, -37.820066964616], [144.969827487653, -37.820067206798], [144.96989101493, -37.820069402488], [144.969891313112, -37.820069394405], [144.969891608989, -37.820069365097], [144.969891900288, -37.820069315329], [144.969892184775, -37.820069245482], [144.969892460264, -37.820069156092], [144.969892724642, -37.820069047846], [144.969892975878, -37.820068921575], [144.969893212044, -37.820068778247], [144.969893431328, -37.820068618964], [144.969893632045, -37.820068444948], [144.969893812655, -37.820068257534], [144.969893971772, -37.820068058162], [144.969894108174, -37.820067848361], [144.969894220813, -37.820067629744], [144.969894308826, -37.820067403987], [144.969894371537, -37.820067172824], [144.969894408463, -37.820066938029], [144.969894419323, -37.820066701405], [144.96989440698, -37.820066464564], [144.969894237534, -37.820053618082], [144.969894252224, -37.820053216758], [144.969894310425, -37.820052818262], [144.969894413145, -37.820052425746], [144.969894559566, -37.820052042326], [144.969894748527, -37.820051671048], [144.969894978526, -37.82005131486], [144.969895247737, -37.820050976591], [144.969895554023, -37.820050658927], [144.96989589495, -37.820050364391], [144.969896267812, -37.820050095322], [144.969896669648, -37.820049853856], [144.969897097266, -37.820049641911], [144.96989754727, -37.820049461171], [144.969898016087, -37.82004931307], [144.969898499993, -37.820049198785], [144.969898995147, -37.820049119223], [144.969899497943, -37.820049078539], [144.970036056567, -37.820041072172], [144.970383570448, -37.820009759779], [144.970705686375, -37.819999119575], [144.970989842968, -37.81998751525], [144.971195038695, -37.819978125791], [144.97140009981, -37.819967039288], [144.971605004004, -37.819954256947], [144.971644396081, -37.819949260121], [144.971682969701, -37.81994121257], [144.971720551672, -37.819930666282], [144.97175688672, -37.819917692893], [144.971791728042, -37.819902380523], [144.971824838981, -37.819884833181], [144.971854711476, -37.819863996264], [144.971929790716, -37.819812622054], [144.971930265886, -37.819812300552], [144.971930683302, -37.819811931429], [144.971931059418, -37.819811535253], [144.971931391514, -37.819811114888], [144.971931677192, -37.819810673371], [144.971931914385, -37.819810213892], [144.971932101381, -37.819809739773], [144.971932236828, -37.81980925444], [144.971932319746, -37.819808761399], [144.971932349538, -37.819808264215], [144.971932325987, -37.819807766479], [144.971932249264, -37.81980727179], [144.971932119923, -37.819806783722], [144.971931938899, -37.819806305801], [144.9719317075, -37.819805841483], [144.971931449767, -37.819805384446], [144.9718943479, -37.819751394836], [144.971887175644, -37.819734645493], [144.971898426928, -37.819736052452], [144.971909671807, -37.819737491274], [144.971920910138, -37.81973896194], [144.972031960913, -37.819755265226], [144.972142214558, -37.819774676824], [144.972251532864, -37.819797172401], [144.972215381906, -37.819801261665], [144.972179975516, -37.819808317438], [144.97214556312, -37.819817932668], [144.97211243641, -37.819830025852], [144.97208168877, -37.819845492634], [144.972006165005, -37.819888124184], [144.971949823058, -37.819922415865], [144.971877816426, -37.819969732747], [144.971865037876, -37.819975350455], [144.971806744872, -37.819997080305], [144.971764924099, -37.820014156296], [144.97172055146, -37.820026728887], [144.971674841025, -37.82003589148], [144.971628145463, -37.820041136089], [144.971308566989, -37.820061995917], [144.970757779161, -37.820087143993], [144.97070136814, -37.820086850342], [144.97046967813, -37.820074517429], [144.970174936946, -37.820095110187], [144.970077172282, -37.820103508884], [144.970064299603, -37.820104673925], [144.970051412105, -37.820105730854], [144.97003851123, -37.820106679553], [144.969894148708, -37.820116688055], [144.969860314586, -37.820119032604], [144.969853789366, -37.820119626998], [144.969847373822, -37.820120734866], [144.969841114001, -37.820122295747], [144.969835060371, -37.820124297057], [144.969829261738, -37.820126722661], [144.969823764852, -37.820129553003], [144.969818614028, -37.820132765266], [144.969813850793, -37.82013633355], [144.969809737328, -37.820140372712], [144.969804675448, -37.820145364906], [144.969798816598, -37.820149782257], [144.969792488554, -37.820153772276], [144.969785739959, -37.820157304296], [144.969778622684, -37.820160351167], [144.969771191437, -37.82016288947], [144.969763503338, -37.820164899693], [144.969755617483, -37.820166366385], [144.969747594484, -37.820167278273], [144.969739496011, -37.820167628347], [144.969731384314, -37.820167413916], [144.969723321742, -37.820166636628], [144.969715370269, -37.820165302459], [144.969707591014, -37.820163421663], [144.969700043772, -37.820161008697], [144.969692786554, -37.820158082108], [144.969685875144, -37.820154664392], [144.969679362666, -37.820150781818], [144.969673299178, -37.820146464231], [144.969667731288, -37.820141744817], [144.969662701792, -37.820136659852], [144.96965824935, -37.820131248422], [144.969654408187, -37.820125552121], [144.969651207826, -37.820119614735], [144.969648672867, -37.820113481901], [144.96964668018, -37.820107221164], [144.969646222334, -37.8201050156], [144.969645849327, -37.820102800004], [144.969645561506, -37.820100576428], [144.969619633398, -37.819865120651], [144.96961849137, -37.819859052522], [144.969616769137, -37.819853070688], [144.969614402444, -37.819847225347], [144.969611409034, -37.819841560325], [144.969607811351, -37.819836118096], [144.96960363637, -37.819830939466], [144.969598915393, -37.81982606326], [144.969593683817, -37.819821526039], [144.969587980865, -37.819817361821], [144.969581849297, -37.819813601829], [144.969575335084, -37.819810274253], [144.969568487068, -37.819807404042], [144.969561356593, -37.819805012716], [144.969553997121, -37.819803118205], [144.969546463831, -37.819801734713], [144.969538813204, -37.819800872612], [144.969531102601, -37.819800538367], [144.969523396215, -37.819800795098], [144.969423795796, -37.819807627796], [144.969344516957, -37.819813178752], [144.969264835516, -37.819812938857], [144.96918528335, -37.819808412078], [144.969174588092, -37.819807420703], [144.96916390639, -37.819806341264], [144.969153239398, -37.819805173877]]]]}}