{"type": "Feature", "properties": {"seg_id": "22885", "street_id": "22885", "name": "Tullamarine Freeway from Flemington Road", "str_type": "Arterial", "status_id": "1", "seg_part": "1", "poly_area": "1", "gisid": "4170"}, "geometry": {"type": "MultiPolygon", "coordinates": [[[[144.940532996475, -37.787443083357], [144.940541761992, -37.787455708914], [144.940535655777, -37.787458302061], [144.940526890261, -37.787445676504], [144.940532996475, -37.787443083357]]], [[[144.941046023097, -37.788215531598], [144.940709927676, -37.787846365161], [144.94057569893, -37.787698926918], [144.940522597327, -37.787646799838], [144.940402408207, -37.787491170996], [144.940132826785, -37.787090647151], [144.940839897, -37.787074800254], [144.940839679201, -37.78709418165], [144.940839121472, -37.787143684328], [144.940838361427, -37.787211110568], [144.940840101059, -37.787307443386], [144.940839465749, -37.787307724684], [144.940838880863, -37.787308068543], [144.940838335677, -37.787308451191], [144.940837834205, -37.78730886981], [144.940837380143, -37.787309321317], [144.940836976832, -37.787309802386], [144.940836627245, -37.787310309475], [144.940836333955, -37.787310838848], [144.940836099123, -37.787311386606], [144.940835924479, -37.787311948716], [144.940835811308, -37.787312521037], [144.940835760445, -37.787313099354], [144.940835772263, -37.787313679408], [144.940835846677, -37.787314256926], [144.940835983137, -37.787314827655], [144.940836180638, -37.787315387392], [144.940836437727, -37.787315932013], [144.94083675251, -37.787316457508], [144.940837122667, -37.787316960006], [144.940837545474, -37.787317435807], [144.940838017815, -37.787317881406], [144.940838536212, -37.787318293521], [144.940839096847, -37.787318669117], [144.940839695591, -37.787319005427], [144.940840315307, -37.787319319228], [144.940841129795, -37.787364385974], [144.940842364142, -37.787432738345], [144.940842996069, -37.787437063953], [144.940843644413, -37.787441388031], [144.940844309166, -37.78744571054], [144.940848068638, -37.787468853706], [144.940852298332, -37.787491945698], [144.940856997148, -37.787514980499], [144.940875981023, -37.787591586757], [144.94090014867, -37.787667267901], [144.940929429612, -37.787741803175], [144.940930360753, -37.787747733911], [144.940931374716, -37.787753656087], [144.940932471378, -37.787759568974], [144.94093285662, -37.787761562803], [144.940933415561, -37.787764376134], [144.940935640086, -37.787774737799], [144.940938118853, -37.787785063058], [144.940940850917, -37.787795347983], [144.940958464242, -37.787846518219], [144.940982331665, -37.787896066204], [144.941012221917, -37.787943511805], [144.941074646626, -37.788044247987], [144.941104037647, -37.788088442915], [144.941134537647, -37.788132162033], [144.941166134405, -37.788175387818], [144.941046023097, -37.788215531598]], [[144.940532996475, -37.787443083357], [144.940526890261, -37.787445676504], [144.940535655777, -37.787458302061], [144.940541761992, -37.787455708914], [144.940532996475, -37.787443083357]], [[144.940579488339, -37.787470576551], [144.940535148213, -37.787490734629], [144.940591363931, -37.787569630624], [144.940635791475, -37.787549433501], [144.940579488339, -37.787470576551]]], [[[144.940650639082, -37.783414146383], [144.940594531123, -37.783494844386], [144.940563506544, -37.7834610611], [144.940320863359, -37.783446822229], [144.9402203665, -37.783440923822], [144.940246433473, -37.783399168574], [144.940388783485, -37.783407324549], [144.94057048089, -37.783417733714], [144.940594085939, -37.783444616724], [144.940650639082, -37.783414146383]]], [[[144.940132826785, -37.787090647151], [144.940071511943, -37.787011148987], [144.940210619922, -37.78694308654], [144.940222853598, -37.786933461124], [144.940234758893, -37.786923579769], [144.940246327309, -37.786913449529], [144.940283517272, -37.786880059604], [144.940314760067, -37.786842960871], [144.94034177499, -37.786803808875], [144.940364355105, -37.786762903526], [144.940382327446, -37.78672055816], [144.940395554344, -37.786677097145], [144.94040393448, -37.786632853397], [144.940407403662, -37.786588165825], [144.940405935315, -37.786543376738], [144.940399540687, -37.786498829225], [144.940388268761, -37.786454864523], [144.94037379224, -37.786411394833], [144.940371670795, -37.786406484805], [144.940369486703, -37.786401592107], [144.940367240187, -37.786396717243], [144.939792936754, -37.785110160779], [144.939318564201, -37.783654072344], [144.939195806697, -37.782721520021], [144.939094080738, -37.782192229082], [144.939226006304, -37.782185002981], [144.939194729895, -37.781887549539], [144.939150336393, -37.781659611343], [144.939095366919, -37.781433130013], [144.939029868776, -37.781208327153], [144.938997739542, -37.781145168297], [144.93892263177, -37.780934788174], [144.938810942585, -37.780674115686], [144.938677456318, -37.780382953299], [144.938657689395, -37.780322520482], [144.938501683304, -37.780022448545], [144.938192443482, -37.779442672325], [144.938119099538, -37.779304321192], [144.937986905016, -37.779099311527], [144.937831715922, -37.778858636972], [144.937792456931, -37.778813585572], [144.937727399434, -37.778712690712], [144.937655901425, -37.778591927443], [144.937554746719, -37.778404024423], [144.937486945394, -37.778259472529], [144.937379628554, -37.778004055215], [144.937368199141, -37.777947751387], [144.937326157684, -37.777817103272], [144.93733714601, -37.777818448307], [144.937957271931, -37.777894376819], [144.937822937856, -37.777587511807], [144.93773218201, -37.777350167664], [144.937694834807, -37.777249102793], [144.937669710736, -37.777180488838], [144.93768716075, -37.777173568734], [144.937705126429, -37.777167049669], [144.937735337683, -37.77714257547], [144.937763415196, -37.777230094651], [144.937828618866, -37.777391587212], [144.938012768649, -37.777847668], [144.938427857838, -37.778693291892], [144.938445787172, -37.778722337938], [144.938573937147, -37.778961341713], [144.939069733527, -37.779886511509], [144.939307071857, -37.780299580448], [144.939423408635, -37.780507097672], [144.939531416073, -37.780717820547], [144.939630132045, -37.780931107748], [144.939719875934, -37.781147067618], [144.939800517821, -37.781365183333], [144.939942854895, -37.781771511985], [144.939961871184, -37.781970503628], [144.940015906621, -37.78209561828], [144.940026271017, -37.782257763564], [144.940078111287, -37.782462973337], [144.94008853404, -37.782520948096], [144.940258856565, -37.782988311353], [144.940298806642, -37.783132073615], [144.94030473709, -37.783200746063], [144.940297295249, -37.783272400057], [144.940276050431, -37.783342384298], [144.940259276654, -37.78337847867], [144.940246433473, -37.783399168574], [144.9402203665, -37.783440923822], [144.94020929628, -37.783458691572], [144.940181876666, -37.783500742171], [144.940147989916, -37.783552710655], [144.940119388857, -37.783601771556], [144.94008472924, -37.783694166806], [144.940159869134, -37.78378217866], [144.940135162234, -37.783814120426], [144.940075751556, -37.784118255811], [144.940076908125, -37.784120113538], [144.940153201749, -37.784448107271], [144.940206661781, -37.784677932972], [144.940275831327, -37.784869327847], [144.940369857975, -37.785106910103], [144.940512845484, -37.785448960306], [144.940685662348, -37.785835941877], [144.94069875995, -37.785895679174], [144.940738629393, -37.785973458407], [144.940711940599, -37.785980281379], [144.940745509524, -37.786076295146], [144.940774887002, -37.786173170439], [144.940800038078, -37.786270792045], [144.940793628936, -37.786271498255], [144.940800989451, -37.786303492894], [144.940807587633, -37.786335592104], [144.940813421132, -37.786367784444], [144.940820627619, -37.786415432721], [144.940826159062, -37.786463221809], [144.940830011163, -37.786511114628], [144.940833855373, -37.786569326622], [144.940836552523, -37.786627579194], [144.940838101952, -37.786685858108], [144.940839897, -37.787074800254], [144.940132826785, -37.787090647151]]]]}}