{"type": "Feature", "properties": {"seg_id": "22882", "street_id": "22882", "name": "Government Road from Smithfield Road", "str_type": "Council Minor", "status_id": "3", "seg_part": "1", "poly_area": "4612", "gisid": "2390"}, "geometry": {"type": "MultiPolygon", "coordinates": [[[[144.913164389933, -37.794791353009], [144.913032279338, -37.794842699183], [144.912715085578, -37.794695764979], [144.91236817998, -37.794539079746], [144.912018483944, -37.794390479804], [144.911730942405, -37.794278054579], [144.911840420124, -37.794076946628], [144.913013096766, -37.794478934866], [144.913101728275, -37.794503676465], [144.913191512738, -37.794525041234], [144.913283137946, -37.794540515442], [144.913375989205, -37.794549995276], [144.913469443592, -37.794553417136], [144.91356287414, -37.794550758067], [144.913655654043, -37.794542035908], [144.913746556343, -37.794525417201], [144.913528246477, -37.794621795892], [144.913294342862, -37.794740846192], [144.913164389933, -37.794791353009]]]]}}