{"type": "Feature", "properties": {"seg_id": "22887", "street_id": "22887", "name": "Clifford Terrace between Kensington Road and Henry Street", "str_type": "Council Minor", "status_id": "3", "seg_part": "1", "poly_area": "432", "gisid": "731"}, "geometry": {"type": "MultiPolygon", "coordinates": [[[[144.926027131763, -37.795196737605], [144.926441458086, -37.795645487659], [144.926377347171, -37.795682761397], [144.926194158861, -37.795484354183], [144.9261471671, -37.795433457489], [144.92596276645, -37.795233734488], [144.926027131763, -37.795196737605]]]]}}