{"type": "Feature", "properties": {"seg_id": "22897", "street_id": "22897", "name": "Mayfield Place between Aurora Lane and Wurundjeri Way", "str_type": "Council Minor", "status_id": "3", "seg_part": "1", "poly_area": "793", "gisid": "3926"}, "geometry": {"type": "MultiPolygon", "coordinates": [[[[144.950955632685, -37.818995496792], [144.951004977196, -37.819076653675], [144.950809597853, -37.819148903354], [144.950800042289, -37.819132655608], [144.950627673658, -37.81918240484], [144.950639350575, -37.81920779588], [144.950309406265, -37.819303253436], [144.950216965695, -37.819186146183], [144.950232784133, -37.819181570551], [144.950580962733, -37.819080837908], [144.950601865884, -37.819126289255], [144.950955632685, -37.818995496792]]]]}}