{"type": "Feature", "properties": {"seg_id": "22890", "street_id": "22890", "name": "Sabre Drive between Lorimer Street and Wharf Road", "str_type": "Council Major", "status_id": "2", "seg_part": "1", "poly_area": "8423", "gisid": "738"}, "geometry": {"type": "MultiPolygon", "coordinates": [[[[144.907666800436, -37.828344723281], [144.907472947391, -37.828469800418], [144.904976458957, -37.825696998473], [144.904897195866, -37.825686471789], [144.905192850361, -37.825519449566], [144.905179596494, -37.825582241298], [144.907666800436, -37.828344723281]]]]}}