{"type": "Feature", "properties": {"seg_id": "22904", "street_id": "22904", "name": "Newquay Promenade between Harbour Esplanade and Palmyra Way", "str_type": "Council Minor", "status_id": "3", "seg_part": "2", "poly_area": "532", "gisid": "403"}, "geometry": {"type": "MultiPolygon", "coordinates": [[[[144.944234237878, -37.813968798981], [144.944241750348, -37.813979185351], [144.944249192624, -37.813989603478], [144.944256564492, -37.814000053063], [144.943635200133, -37.814238530608], [144.943621826863, -37.814216540932], [144.943610804623, -37.814221299212], [144.943599649994, -37.814225859195], [144.943588368645, -37.814230218565], [144.943579060429, -37.814233630196], [144.943569674584, -37.814236905239], [144.943560214296, -37.814240042583], [144.943530527538, -37.814248860812], [144.943500256227, -37.814256324244], [144.943469498512, -37.814262408681], [144.94345911871, -37.814264132655], [144.943448699398, -37.814265699461], [144.943438244355, -37.81426710853], [144.943409098641, -37.814270653771], [144.943379658333, -37.814272322629], [144.943350135227, -37.814272661818], [144.943339181725, -37.81427259102], [144.943328232529, -37.814272261939], [144.943317282508, -37.814271887023], [144.943287199657, -37.814269500066], [144.943257293079, -37.814265946913], [144.943227467654, -37.814261788591], [144.943217241976, -37.814259873572], [144.943207063676, -37.814257805794], [144.94319693638, -37.814255585995], [144.943167483317, -37.814248185318], [144.943138593121, -37.814239499817], [144.943110354769, -37.814229556242], [144.943105935919, -37.814227863429], [144.943101536049, -37.814226139783], [144.9430971555, -37.814224385436], [144.943152812603, -37.814145954433], [144.943201007311, -37.814167479128], [144.943243644854, -37.814183187503], [144.943287140753, -37.81419707159], [144.943331999441, -37.814207811671], [144.943377858874, -37.814215321067], [144.943424348932, -37.81421953917], [144.943471094405, -37.814220431938], [144.943517718021, -37.814217992165], [144.943563843492, -37.814212239541], [144.94360909855, -37.814203220496], [144.943653117954, -37.814191007818], [144.943694721054, -37.814174431489], [144.944234237878, -37.813968798981]]], [[[144.943173426255, -37.814116906538], [144.943221423497, -37.814138342164], [144.943260471273, -37.814152755002], [144.943300303511, -37.814165503421], [144.94334138615, -37.814175376361], [144.943383388487, -37.814182294346], [144.943425972417, -37.814186201688], [144.943468795149, -37.814187066934], [144.943511511975, -37.814184883121], [144.943553779035, -37.814179667825], [144.943595256092, -37.81417146303], [144.943635609268, -37.814160334782], [144.943673761542, -37.814145210794], [144.944212870622, -37.813939938938], [144.944220053494, -37.813949530729], [144.944227175971, -37.813959150823], [144.944234237878, -37.813968798981], [144.943694721054, -37.814174431489], [144.943653117954, -37.814191007818], [144.94360909855, -37.814203220496], [144.943563843492, -37.814212239541], [144.943517718021, -37.814217992165], [144.943471094405, -37.814220431938], [144.943424348932, -37.81421953917], [144.943377858874, -37.814215321067], [144.943331999441, -37.814207811671], [144.943287140753, -37.81419707159], [144.943243644854, -37.814183187503], [144.943201007311, -37.814167479128], [144.943152812603, -37.814145954433], [144.943173426255, -37.814116906538]]], [[[144.943840905519, -37.814291398169], [144.943381215983, -37.814466463952], [144.943069355266, -37.81426356132], [144.943083052036, -37.814244260455], [144.943110354769, -37.814229556242], [144.943138593121, -37.814239499817], [144.943167483317, -37.814248185318], [144.94319693638, -37.814255585995], [144.943205522044, -37.814281199514], [144.943227467654, -37.814261788591], [144.943257293079, -37.814265946913], [144.943287199657, -37.814269500066], [144.943317282508, -37.814271887023], [144.943332668377, -37.8142963811], [144.943350135227, -37.814272661818], [144.943379658333, -37.814272322629], [144.943409098641, -37.814270653771], [144.943438244355, -37.81426710853], [144.943459871721, -37.814287611267], [144.943469498512, -37.814262408681], [144.943500256227, -37.814256324244], [144.943530527538, -37.814248860812], [144.943560214296, -37.814240042583], [144.943586302595, -37.814255590156], [144.943588368645, -37.814230218565], [144.943599649994, -37.814225859195], [144.943610804623, -37.814221299212], [144.943621826863, -37.814216540932], [144.943635200133, -37.814238530608], [144.944256564492, -37.814000053063], [144.94428067945, -37.814035189033], [144.944303998461, -37.814070661536], [144.944326514066, -37.814106459226], [144.944016285443, -37.814224607083], [144.943840905519, -37.814291398169]]]]}}