{"type": "Feature", "properties": {"seg_id": "22903", "street_id": "22903", "name": "Palmyra Way between Harbour Esplanade and Aquitania Way", "str_type": "Council Minor", "status_id": "3", "seg_part": "1", "poly_area": "1531", "gisid": "3135"}, "geometry": {"type": "MultiPolygon", "coordinates": [[[[144.943152812603, -37.814145954433], [144.9430971555, -37.814224385436], [144.943083052036, -37.814244260455], [144.943069355266, -37.81426356132], [144.943019828533, -37.814231338907], [144.942971268142, -37.81419974435], [144.942783263145, -37.814077422929], [144.942796254424, -37.814084170525], [144.94280954566, -37.814090465456], [144.942823463751, -37.814095828911], [144.942837904392, -37.814100220694], [144.94285269374, -37.814103830959], [144.942869870455, -37.814106191122], [144.942887203802, -37.81410743993], [144.942904594213, -37.814107342418], [144.942921833402, -37.814105692222], [144.942937571819, -37.814103388584], [144.942952908061, -37.814099765769], [144.942967760413, -37.814095060424], [144.942982008524, -37.81408931068], [144.94299553694, -37.814082563126], [144.943008236041, -37.814074872438], [144.943020002923, -37.814066300934], [144.943030742238, -37.814056918072], [144.943040366965, -37.814046799879], [144.943048268302, -37.814035790049], [144.943230398175, -37.813767011964], [144.943303599675, -37.813658606116], [144.943313219494, -37.813646063372], [144.943324004411, -37.813634131988], [144.943335892981, -37.813622879938], [144.943448876316, -37.813526853457], [144.943572577592, -37.813352572329], [144.943605278958, -37.813374020299], [144.943637569805, -37.813395856232], [144.943669442823, -37.813418075183], [144.943173426255, -37.814116906538], [144.943152812603, -37.814145954433]]]]}}