{"type": "Feature", "properties": {"seg_id": "22917", "street_id": "22917", "name": "Parkville Avenue between Galada Avenue and Garrard Street", "str_type": "Council Major", "status_id": "2", "seg_part": "1", "poly_area": "3915", "gisid": "371"}, "geometry": {"type": "MultiPolygon", "coordinates": [[[[144.941435942396, -37.779402814681], [144.94161215847, -37.779473435827], [144.941568856322, -37.77970688066], [144.941557282445, -37.779769275072], [144.941231453075, -37.781525769224], [144.941249430169, -37.781572470646], [144.940976169322, -37.781491080296], [144.941023956973, -37.781475765706], [144.941062509268, -37.781415922902], [144.941111336561, -37.781152707215], [144.941143580552, -37.780978893975], [144.941310266092, -37.780080324814], [144.94134002979, -37.779919874945], [144.941435942396, -37.779402814681]]]]}}