{"type": "Feature", "properties": {"seg_id": "22933", "street_id": "22933", "name": "Willam Street between Cade Way and Park Street", "str_type": "Council Major", "status_id": "2", "seg_part": "1", "poly_area": "2320", "gisid": "384"}, "geometry": {"type": "MultiPolygon", "coordinates": [[[[144.939404885765, -37.77684070802], [144.939467978921, -37.776827027065], [144.939506269038, -37.776760426706], [144.939698712081, -37.775728267906], [144.939670040239, -37.775697421926], [144.939888811227, -37.775724127568], [144.939650376103, -37.777002979799], [144.939473701551, -37.776880863489], [144.939451457695, -37.776866738835], [144.939428506361, -37.776853346245], [144.939404885765, -37.77684070802]]]]}}