{"type": "Feature", "properties": {"seg_id": "22934", "street_id": "22934", "name": "Manchester Lane between Cade Way and Kirrip Crescent", "str_type": "Council Minor", "status_id": "3", "seg_part": "1", "poly_area": "953", "gisid": "383"}, "geometry": {"type": "MultiPolygon", "coordinates": [[[[144.939252082386, -37.778043930801], [144.939229092859, -37.77802893401], [144.939392672087, -37.777870565361], [144.938780750587, -37.77747237378], [144.93875397896, -37.777474477237], [144.938731957597, -37.777495796715], [144.938494247728, -37.777341111948], [144.938467303804, -37.777351298589], [144.938467265851, -37.777320983427], [144.938470202821, -37.777290785667], [144.938476326318, -37.777260911214], [144.938485593052, -37.77723157126], [144.938497937516, -37.777202973215], [144.938514557665, -37.777175827424], [144.938526852851, -37.77721758779], [144.938836015622, -37.777418770104], [144.938817447912, -37.777436745387], [144.939218168104, -37.777697504331], [144.939209388301, -37.777706003823], [144.939582464637, -37.77794877161], [144.939591244453, -37.777940271189], [144.939840369693, -37.778102379983], [144.939812394739, -37.778129496438], [144.93980375932, -37.778137866927], [144.939705488841, -37.778073921715], [144.939415807432, -37.777885421385], [144.939252082386, -37.778043930801]], [[144.938530770125, -37.777298704631], [144.938494355606, -37.77733395939], [144.938651658104, -37.777436321363], [144.938688072603, -37.777401066556], [144.938530770125, -37.777298704631]]]]}}