{"type": "Feature", "properties": {"seg_id": "22938", "street_id": "22938", "name": "Galada Avenue between Parkville Avenue and Cade Way", "str_type": "Council Major", "status_id": "2", "seg_part": "1", "poly_area": "6341", "gisid": "379"}, "geometry": {"type": "MultiPolygon", "coordinates": [[[[144.940880693918, -37.781635810992], [144.940338404759, -37.781410460255], [144.940316703525, -37.781399485749], [144.940295825254, -37.781387619911], [144.940276362309, -37.781374318175], [144.940258472835, -37.781359688623], [144.940242302195, -37.781343850129], [144.940227981781, -37.781326931386], [144.940215627953, -37.781309069868], [144.940205341093, -37.781290410708], [144.940196590654, -37.781271241045], [144.940127960755, -37.781075326186], [144.940107896205, -37.781020902237], [144.940085990817, -37.780966927271], [144.94006226051, -37.780913440502], [144.939924752973, -37.78061634609], [144.939902560483, -37.780563384485], [144.939884542392, -37.780509433855], [144.939870767837, -37.780454701249], [144.939814121191, -37.780186625873], [144.939791736006, -37.780111948307], [144.939763105197, -37.780038662545], [144.93972676321, -37.779967520068], [144.939682972322, -37.779899034301], [144.939632048564, -37.779833699498], [144.939574359448, -37.77977198717], [144.939513630778, -37.779711821961], [144.939462935146, -37.779669893675], [144.9394120888, -37.779623832382], [144.939366705464, -37.779574306497], [144.939327157894, -37.779521722814], [144.93929377091, -37.779466513242], [144.939234943181, -37.779356743453], [144.939212577792, -37.779304838795], [144.939193635577, -37.779252223961], [144.939180481996, -37.779198542535], [144.939173215612, -37.779144196771], [144.939171890875, -37.779089593903], [144.939176517713, -37.779035143092], [144.939187061455, -37.778981252357], [144.939203443092, -37.778928325523], [144.93922553987, -37.77887675919], [144.939253186211, -37.778826939765], [144.939286174949, -37.778779240565], [144.939324258886, -37.778734019016], [144.939367152647, -37.778691613982], [144.939416793499, -37.778654216762], [144.939426060801, -37.778647177582], [144.939445107283, -37.778626645833], [144.939439876772, -37.77858689532], [144.939535095, -37.778654260496], [144.939570597205, -37.778678439867], [144.939607233288, -37.778701529105], [144.939644950148, -37.778723494744], [144.93959278574, -37.778726304098], [144.939546281154, -37.778761624181], [144.939508341421, -37.778790206481], [144.939475558314, -37.77882261611], [144.939446451294, -37.778857178364], [144.939421238471, -37.778893634253], [144.939400108775, -37.778931710601], [144.939383220539, -37.778971122086], [144.939370700312, -37.779011573383], [144.939362641914, -37.779052761375], [144.939359105729, -37.779094377425], [144.939360118255, -37.779136109687], [144.939365671905, -37.779177645446], [144.939375725063, -37.779218673459], [144.939390202398, -37.779258886286], [144.939407296074, -37.779298556316], [144.939466124046, -37.779408325126], [144.939492166004, -37.779451388511], [144.939523013197, -37.779492403695], [144.939558412261, -37.779531033791], [144.939598072447, -37.779566961502], [144.939648766956, -37.779608889711], [144.93971951663, -37.779678981946], [144.939786724679, -37.779750876987], [144.939846051059, -37.779826992231], [144.939897067618, -37.779906778364], [144.939939406177, -37.779989659579], [144.939972761183, -37.780075037732], [144.939998839679, -37.780162037391], [144.940055488143, -37.780430111817], [144.940066989745, -37.780475813601], [144.940082034702, -37.780520862441], [144.94010056528, -37.780565085453], [144.940238073445, -37.78086217968], [144.940263480908, -37.780919445749], [144.940286934508, -37.780977234521], [144.940308417202, -37.781035504008], [144.94037704755, -37.781231418776], [144.940380022724, -37.781237936511], [144.940383520288, -37.781244280671], [144.940387720625, -37.781250353632], [144.940392589606, -37.781256106047], [144.940398087669, -37.781261491174], [144.940404170138, -37.781266465258], [144.94041078759, -37.781270987882], [144.940417886257, -37.781275022297], [144.940425264733, -37.781278753657], [144.940861144372, -37.781459832507], [144.940976169322, -37.781491080296], [144.940880693918, -37.781635810992]]]]}}