{"type": "Feature", "properties": {"seg_id": "22930", "street_id": "22930", "name": "Carrangall Place between Parkville Avenue and Garrard Street", "str_type": "Council Major", "status_id": "2", "seg_part": "1", "poly_area": "1404", "gisid": "376"}, "geometry": {"type": "MultiPolygon", "coordinates": [[[[144.940918514517, -37.779051045189], [144.94114690635, -37.779200451685], [144.941095471618, -37.779218404324], [144.941087951016, -37.779331858161], [144.941094026821, -37.779564345571], [144.941102956095, -37.779667784355], [144.941120078627, -37.77977060354], [144.941142380109, -37.779872971702], [144.94114599022, -37.779885347593], [144.941147911885, -37.779890309057], [144.941150215288, -37.779895162394], [144.94115302811, -37.77989984615], [144.941156330013, -37.779904326454], [144.941160097117, -37.779908570908], [144.941164302182, -37.779912548819], [144.9411689148, -37.779916231421], [144.941173901615, -37.779919592084], [144.941179226565, -37.779922606505], [144.941184851145, -37.779925252886], [144.94119073468, -37.77992751209], [144.941196834624, -37.779929367781], [144.941203106867, -37.779930806538], [144.941209495097, -37.779931876986], [144.941301381519, -37.779942661578], [144.94134002979, -37.779919874945], [144.941310266092, -37.780080324814], [144.941281611572, -37.780049631822], [144.941189643536, -37.780038837676], [144.941171898415, -37.780035864143], [144.941154475487, -37.780031867524], [144.941137531175, -37.780026712755], [144.941121188009, -37.780020437111], [144.941105564174, -37.780013085976], [144.941090772649, -37.780004712507], [144.9410769204, -37.779995377255], [144.941064107596, -37.779985147729], [144.941052426892, -37.779974097901], [144.941041962755, -37.779962307677], [144.941032790855, -37.779949862316], [144.941024977518, -37.779936851815], [144.941018579245, -37.779923370258], [144.941013241363, -37.779909588351], [144.941009631274, -37.779897212457], [144.940985694475, -37.779787507651], [144.940967309807, -37.779677318309], [144.940957707331, -37.779566463037], [144.940945392053, -37.77909518341], [144.940918514517, -37.779051045189]]]]}}