{"type": "Feature", "properties": {"seg_id": "22949", "street_id": "22949", "name": "River Esplanade between Charles Grimes Bridge and Webb Bridge", "str_type": "Council Minor", "status_id": "3", "seg_part": "1", "poly_area": "344", "gisid": "3622"}, "geometry": {"type": "MultiPolygon", "coordinates": [[[[144.94747876337, -37.823770490206], [144.947771409572, -37.823808238338], [144.947795679104, -37.823900950432], [144.947820687321, -37.823996486152], [144.947883773104, -37.824237486828], [144.947839561896, -37.824232605083], [144.947789191369, -37.824040695695], [144.947798422206, -37.824039175906], [144.94772676042, -37.823883066629], [144.947506002374, -37.823816576099], [144.947467002116, -37.823811264181], [144.94747876337, -37.823770490206]]]]}}