{"type": "Feature", "properties": {"seg_id": "22943", "street_id": "22943", "name": "Gem Place from Flinders Street", "str_type": "Council Minor", "status_id": "3", "seg_part": "1", "poly_area": "488", "gisid": "397"}, "geometry": {"type": "MultiPolygon", "coordinates": [[[[144.956735559246, -37.820736104797], [144.956860225062, -37.820699868243], [144.956915049429, -37.82081538495], [144.957057084468, -37.821003761727], [144.95707455806, -37.820996633832], [144.957087667667, -37.821014034972], [144.95696418413, -37.821061803872], [144.956927797651, -37.821003095425], [144.956878750954, -37.821017061444], [144.956827599081, -37.820904026303], [144.956817977323, -37.820906765621], [144.956777339691, -37.820816964945], [144.956772743501, -37.820818273894], [144.956735559246, -37.820736104797]]], [[[144.957087667667, -37.821014034972], [144.957107399319, -37.821037492448], [144.957223738775, -37.821226243254], [144.95722557497, -37.821225530742], [144.957234431973, -37.821240310464], [144.957232799048, -37.821240943595], [144.957245770777, -37.821261988475], [144.957246586104, -37.82126167189], [144.957255340897, -37.821276285824], [144.95725472884, -37.821276523028], [144.957266054259, -37.821294896199], [144.957225975059, -37.821309350526], [144.957185702461, -37.82132346256], [144.95714524111, -37.821337230674], [144.956988579333, -37.82108389861], [144.95696418413, -37.821061803872], [144.957087667667, -37.821014034972]]]]}}