{"type": "Feature", "properties": {"seg_id": "22952", "street_id": "22952", "name": "Rakaia Way between Docklands Drive and Caravel Lane", "str_type": "Council Minor", "status_id": "3", "seg_part": "1", "poly_area": "650", "gisid": "404"}, "geometry": {"type": "MultiPolygon", "coordinates": [[[[144.940441525735, -37.813920676272], [144.940687236274, -37.814326745451], [144.940521888776, -37.814389712111], [144.940552055021, -37.814373890664], [144.940308436481, -37.81397137238], [144.940441525735, -37.813920676272]]]]}}