{"type": "Feature", "properties": {"seg_id": "22951", "street_id": "22951", "name": "Point Park Crescent between Lorimer Street and South Wharf Drive", "str_type": "Council Minor", "status_id": "3", "seg_part": "1", "poly_area": "2403", "gisid": "401"}, "geometry": {"type": "MultiPolygon", "coordinates": [[[[144.94066238692, -37.823170619825], [144.941043474101, -37.823116565641], [144.941134578541, -37.823122698913], [144.941132131421, -37.823145590936], [144.941231141679, -37.823160092315], [144.941328431467, -37.823180702525], [144.941423143811, -37.823207976654], [144.941514551657, -37.823241705334], [144.941604135202, -37.823278882348], [144.941692646703, -37.823327621552], [144.94177500113, -37.823382734766], [144.941850471523, -37.823443735501], [144.941918391677, -37.823510085301], [144.941995151164, -37.823604384917], [144.942060538706, -37.823703931527], [144.942113989102, -37.823807864737], [144.942131963809, -37.823851620283], [144.942146315368, -37.823896209986], [144.942156983085, -37.823941445295], [144.94191020346, -37.823889467873], [144.941845283117, -37.823875793218], [144.941852268345, -37.823854918931], [144.941858000936, -37.823837789642], [144.941884837979, -37.823827800678], [144.941884307375, -37.823826902848], [144.941930685663, -37.823809862254], [144.941918872507, -37.823769916769], [144.941902325483, -37.82373104301], [144.941881194484, -37.823693593095], [144.94186003687, -37.823662564486], [144.941842720109, -37.823639202419], [144.941824381785, -37.823616336114], [144.941805044429, -37.823593993664], [144.941787221132, -37.823574788125], [144.941777065599, -37.823564331705], [144.941766683667, -37.823554016129], [144.94175607844, -37.823543844482], [144.941741083963, -37.823535190642], [144.941720629415, -37.823517052042], [144.941687467922, -37.823490893454], [144.941602768246, -37.823425799882], [144.941570311324, -37.823406955774], [144.941551301356, -37.82339681146], [144.941505654626, -37.823375183712], [144.941487441471, -37.823366491428], [144.941468973782, -37.823358143906], [144.941450261929, -37.823350145833], [144.941439265572, -37.823345648071], [144.941428201987, -37.823341255271], [144.941417072765, -37.823336968063], [144.9413394944, -37.823313129346], [144.941260517315, -37.82329289801], [144.941179613586, -37.823278412528], [144.941097448559, -37.823269792027], [144.941014701451, -37.823267326813], [144.941013160849, -37.823267002485], [144.940995574101, -37.823267782655], [144.940978007797, -37.823268812634], [144.940960467576, -37.823270092089], [144.940945327564, -37.823271473227], [144.940930271032, -37.82327334236], [144.940915322967, -37.823275696385], [144.940881421298, -37.823282794236], [144.940848074481, -37.823291388263], [144.940815387366, -37.823301451442], [144.940804951073, -37.823304947629], [144.940794595887, -37.823308592406], [144.940784325171, -37.823312384589], [144.940772781799, -37.823316946057], [144.940761417908, -37.823321782786], [144.940750243927, -37.823326890338], [144.940744192587, -37.823329875463], [144.940738323432, -37.82333308131], [144.940732649247, -37.823336500895], [144.94066238692, -37.823170619825]]]]}}