{"type": "Feature", "properties": {"seg_id": "22965", "street_id": "22965", "name": "Bellair Street between Macaulay Road and Wight Street", "str_type": "Council Major", "status_id": "2", "seg_part": "1", "poly_area": "2546", "gisid": "499"}, "geometry": {"type": "MultiPolygon", "coordinates": [[[[144.930176600861, -37.79402303436], [144.930167353893, -37.793984200666], [144.930091090945, -37.793663901491], [144.930089170902, -37.79365583468], [144.930051409102, -37.793497238433], [144.930321823401, -37.793456189799], [144.930418877448, -37.793835116013], [144.930460796369, -37.794011218408], [144.930454957926, -37.794012160269], [144.930467170971, -37.794059837016], [144.930472176666, -37.794059029215], [144.930556372964, -37.794387749344], [144.930584853267, -37.794404690823], [144.930340424772, -37.794377415507], [144.930258810903, -37.794368308586], [144.930210452637, -37.794165210942], [144.930207500787, -37.794152812981], [144.930176600861, -37.79402303436]]]]}}