{"type": "Feature", "properties": {"seg_id": "22977", "street_id": "22977", "name": "Bluestone Street between Bendall Street and Weighbridge Lane", "str_type": "Council Major", "status_id": "2", "seg_part": "1", "poly_area": "787", "gisid": "609"}, "geometry": {"type": "MultiPolygon", "coordinates": [[[[144.924863942205, -37.789110381436], [144.924654918182, -37.78889687167], [144.924804146293, -37.788843715862], [144.924992205548, -37.789035809983], [144.925002684776, -37.789046514016], [144.925044475859, -37.789089201757], [144.92505492307, -37.78909987368], [144.925183779821, -37.789231493829], [144.925058271964, -37.789308878835], [144.924940977594, -37.78918906849], [144.924863942205, -37.789110381436]]]]}}