{"type": "Feature", "properties": {"seg_id": "22979", "street_id": "22979", "name": "Calwell Street between Youlden Street and Deveney Street", "str_type": "Council Major", "status_id": "2", "seg_part": "1", "poly_area": "879", "gisid": "599"}, "geometry": {"type": "MultiPolygon", "coordinates": [[[[144.926894266957, -37.788565751336], [144.926991681779, -37.788665430887], [144.926472239129, -37.78898514306], [144.926347004616, -37.788856994511], [144.926472597728, -37.78877969341], [144.926554239998, -37.78877503525], [144.926894266957, -37.788565751336]]]]}}