{"type": "Feature", "properties": {"seg_id": "22970", "street_id": "22970", "name": "Intersection of Bellair Street and Coote Street", "str_type": "Council Major", "status_id": "2", "seg_part": "1", "poly_area": "190", "gisid": "561"}, "geometry": {"type": "MultiPolygon", "coordinates": [[[[144.929306566178, -37.790468680877], [144.929540897569, -37.790435341637], [144.929559259743, -37.79050958507], [144.929560599792, -37.790515033698], [144.929328612237, -37.790549462249], [144.929306566178, -37.790468680877]]]]}}