{"type": "Feature", "properties": {"seg_id": "22986", "street_id": "22986", "name": "Collett Street between Parsons Street and Racecourse Road", "str_type": "Council Major", "status_id": "2", "seg_part": "1", "poly_area": "2230", "gisid": "620"}, "geometry": {"type": "MultiPolygon", "coordinates": [[[[144.933497143608, -37.789653439806], [144.933633312615, -37.788944809173], [144.933638555822, -37.788917527074], [144.933690900112, -37.788645117258], [144.933863062161, -37.788658519224], [144.933810315502, -37.788932758659], [144.933804528472, -37.788962851904], [144.933668247689, -37.789671394278], [144.933662690437, -37.789700286671], [144.933611507684, -37.789966387851], [144.933440284726, -37.789949334181], [144.933492111268, -37.789679629766], [144.933497143608, -37.789653439806]]]]}}