{"type": "Feature", "properties": {"seg_id": "22999", "street_id": "22999", "name": "Eastwood Street between Smith Street and Rankins Road", "str_type": "Council Major", "status_id": "2", "seg_part": "1", "poly_area": "5711", "gisid": "471"}, "geometry": {"type": "MultiPolygon", "coordinates": [[[[144.93068754898, -37.792667331353], [144.93069535235, -37.792698893309], [144.930750599813, -37.792922341405], [144.930757225718, -37.792949137084], [144.930834598338, -37.793262063953], [144.930835709978, -37.793268560365], [144.930837300681, -37.793274993726], [144.930839364952, -37.793281341808], [144.930843563093, -37.793290242456], [144.930848387881, -37.793298928075], [144.93085411931, -37.793307263827], [144.930860716132, -37.793315189722], [144.930868130874, -37.793322648722], [144.930876310176, -37.793329587149], [144.930885195175, -37.793335955069], [144.93089472193, -37.793341706656], [144.930904821883, -37.79334680052], [144.930915246316, -37.793351501272], [144.930941288938, -37.793540225792], [144.930926212208, -37.793538312821], [144.930911259864, -37.793535865217], [144.930896352028, -37.793533153303], [144.930865487785, -37.793522039755], [144.930835491506, -37.793509597051], [144.930806913367, -37.793495186229], [144.930778960479, -37.793479870724], [144.930764130186, -37.793468614826], [144.93074990381, -37.793456946234], [144.930736968737, -37.793444367806], [144.930725418635, -37.793430970627], [144.93071533714, -37.793416851709], [144.930706797255, -37.793402113289], [144.930699860819, -37.793386862093], [144.930694146567, -37.793371282259], [144.930682066311, -37.793317989944], [144.930681055565, -37.793314450709], [144.93067976563, -37.793310970721], [144.930678125375, -37.793307582907], [144.9306761456, -37.793304309572], [144.930673839339, -37.793301172269], [144.930671221778, -37.793298191654], [144.930668480113, -37.793295266926], [144.930607187934, -37.793238348681], [144.930591912336, -37.793248984467], [144.930589825329, -37.793250145179], [144.930587949332, -37.793251516285], [144.930586230164, -37.793253011371], [144.930584680566, -37.793254619356], [144.930583312023, -37.793256328324], [144.930582134677, -37.793258125609], [144.930581157254, -37.79325999789], [144.930580386998, -37.793261931292], [144.930579829618, -37.793263911484], [144.930579489244, -37.793265923792], [144.9305793684, -37.793267953301], [144.930579467981, -37.79326998497], [144.930579744448, -37.793272009228], [144.930620560709, -37.793450272146], [144.930666646387, -37.793600170365], [144.930633440738, -37.793604280208], [144.930098693062, -37.791327975649], [144.93009008247, -37.791292026066], [144.93035442039, -37.791319983308], [144.93068754898, -37.792667331353]]]]}}