{"type": "Feature", "properties": {"seg_id": "23006", "street_id": "23006", "name": "Hopetoun Street between Epsom Road and McCracken Street", "str_type": "Council Major", "status_id": "2", "seg_part": "1", "poly_area": "1954", "gisid": "581"}, "geometry": {"type": "MultiPolygon", "coordinates": [[[[144.92597172067, -37.792176144441], [144.92634666584, -37.79194825262], [144.926379153229, -37.791928506785], [144.926540970733, -37.791830153173], [144.926596836348, -37.791796316336], [144.926657926146, -37.791768607263], [144.926721757571, -37.791745061156], [144.926787885305, -37.791725842285], [144.926855848006, -37.79171108473], [144.926925171533, -37.791700891446], [144.926995372252, -37.791695333548], [144.927065959568, -37.791694487171], [144.92764032038, -37.79170063749], [144.927637212869, -37.791812661795], [144.927061596677, -37.791804712239], [144.92700222079, -37.791805450831], [144.926943176161, -37.791810176822], [144.926884880252, -37.79181882399], [144.926827744516, -37.791831331303], [144.92677217222, -37.791847610483], [144.926718555594, -37.791867546633], [144.926667273065, -37.791890999041], [144.926620419218, -37.7919196047], [144.926358320767, -37.792080486076], [144.926330971712, -37.792097273709], [144.926057458617, -37.792265160091], [144.92597172067, -37.792176144441]]]]}}