{"type": "Feature", "properties": {"seg_id": "23008", "street_id": "23008", "name": "Kett Place from Liddy Street", "str_type": "Council Minor", "status_id": "3", "seg_part": "1", "poly_area": "716", "gisid": "604"}, "geometry": {"type": "MultiPolygon", "coordinates": [[[[144.92605250231, -37.789997063803], [144.926073502484, -37.789996735203], [144.926258696159, -37.789885468796], [144.926220574402, -37.789723484708], [144.925979703379, -37.789470998525], [144.925954376866, -37.789468362657], [144.925899253849, -37.789501481494], [144.925855220508, -37.789456639506], [144.926052405753, -37.789334692103], [144.926094252997, -37.789377307472], [144.926042077998, -37.789409574413], [144.926037870849, -37.789435034186], [144.926308756491, -37.789718982441], [144.926361392043, -37.789897134981], [144.926118088382, -37.790043315293], [144.926114774304, -37.79006233929], [144.92605250231, -37.789997063803]]]]}}