{"type": "Feature", "properties": {"seg_id": "23001", "street_id": "23001", "name": "Youlden Street from Liddy Street", "str_type": "Council Major", "status_id": "2", "seg_part": "1", "poly_area": "1374", "gisid": "591"}, "geometry": {"type": "MultiPolygon", "coordinates": [[[[144.925368486984, -37.78928005783], [144.92616163465, -37.788789545288], [144.926314698721, -37.788946170903], [144.926206520041, -37.789013073427], [144.926073381729, -37.78900406931], [144.925477885384, -37.789372345604], [144.925474731948, -37.789391427384], [144.925368486984, -37.78928005783]]]]}}