{"type": "Feature", "properties": {"seg_id": "23019", "street_id": "23019", "name": "Market Street between Epsom Road and Liddy Street", "str_type": "Council Major", "status_id": "2", "seg_part": "1", "poly_area": "2603", "gisid": "584"}, "geometry": {"type": "MultiPolygon", "coordinates": [[[[144.925432188009, -37.790779552493], [144.925557600996, -37.790702064526], [144.926095128684, -37.79036994245], [144.92623391394, -37.790512096202], [144.92568134177, -37.790854201165], [144.925588458795, -37.790911704678], [144.925347230631, -37.791061050551], [144.925316492903, -37.791080079854], [144.925070083095, -37.791232632156], [144.924930443321, -37.791089559024], [144.925432188009, -37.790779552493]]]]}}