{"type": "Feature", "properties": {"seg_id": "23018", "street_id": "23018", "name": "Maloney Street between Deveney Street and McIver Place", "str_type": "Council Minor", "status_id": "3", "seg_part": "1", "poly_area": "785", "gisid": "598"}, "geometry": {"type": "MultiPolygon", "coordinates": [[[[144.928165652774, -37.78855558184], [144.928186774024, -37.788430566706], [144.928088881228, -37.788420150046], [144.928102313076, -37.788340651341], [144.928157447906, -37.788346518257], [144.928161974123, -37.788319729368], [144.928176939279, -37.788321320962], [144.928191391617, -37.788235773489], [144.928227398239, -37.788239605163], [144.92826340489, -37.788243435924], [144.928257031259, -37.788281158711], [144.928252175351, -37.788285103872], [144.928248043868, -37.788289547256], [144.928244448824, -37.788294277342], [144.92824142081, -37.788299253882], [144.928238985592, -37.788304434531], [144.92823716389, -37.788309775207], [144.928236039347, -37.788315237732], [144.92821297263, -37.788451772611], [144.928214210103, -37.788451904323], [144.928222909964, -37.788524823588], [144.928177399629, -37.788794194148], [144.928116591934, -37.788902821661], [144.92771663057, -37.789149961843], [144.927682885859, -37.789115433462], [144.927871274116, -37.788999479581], [144.927887422368, -37.788971855234], [144.927852642116, -37.788936266924], [144.928130198872, -37.788765428295], [144.928165652774, -37.78855558184]]]]}}