{"type": "Feature", "properties": {"seg_id": "23025", "street_id": "23025", "name": "McConnell Street between McMeikan Street and Wight Street", "str_type": "Council Major", "status_id": "2", "seg_part": "1", "poly_area": "1924", "gisid": "579"}, "geometry": {"type": "MultiPolygon", "coordinates": [[[[144.928812698413, -37.793068023705], [144.928719698238, -37.792208693161], [144.928864554435, -37.792193694894], [144.929008045231, -37.793561046103], [144.928867095881, -37.793570652108], [144.928818063892, -37.793117602422], [144.928812698413, -37.793068023705]]]]}}