{"type": "Feature", "properties": {"seg_id": "23020", "street_id": "23020", "name": "Market Street between Liddy Street and Deveney Street", "str_type": "Council Major", "status_id": "2", "seg_part": "1", "poly_area": "2947", "gisid": "585"}, "geometry": {"type": "MultiPolygon", "coordinates": [[[[144.927192453901, -37.789922070645], [144.926367794942, -37.790425300445], [144.926238366756, -37.790281438973], [144.927551435139, -37.789470107901], [144.927694363362, -37.789615785264], [144.9275304583, -37.789715807054], [144.927219566911, -37.789905525562], [144.927192453901, -37.789922070645]]]]}}