{"type": "Feature", "properties": {"seg_id": "23037", "street_id": "23037", "name": "McCracken Street between Hopetoun Street and McMeikan Street", "str_type": "Council Major", "status_id": "2", "seg_part": "1", "poly_area": "647", "gisid": "576"}, "geometry": {"type": "MultiPolygon", "coordinates": [[[[144.927631200367, -37.792065305503], [144.927637212869, -37.791812661795], [144.927867221033, -37.791815837538], [144.927860328216, -37.792103512426], [144.927630373827, -37.792100046527], [144.927630511322, -37.79209423187], [144.927631200367, -37.792065305503]]]]}}