{"type": "Feature", "properties": {"seg_id": "23030", "street_id": "23030", "name": "McCracken Street between McMeikan Street and Wight Street", "str_type": "Council Major", "status_id": "2", "seg_part": "1", "poly_area": "3053", "gisid": "573"}, "geometry": {"type": "MultiPolygon", "coordinates": [[[[144.927856038761, -37.792195257551], [144.927837333093, -37.793057556245], [144.927836300108, -37.793105175011], [144.927826505029, -37.793556690712], [144.927595779489, -37.793553594123], [144.927628191733, -37.792191711571], [144.927856038761, -37.792195257551]]]]}}