{"type": "Feature", "properties": {"seg_id": "23036", "street_id": "23036", "name": "McIver Place between Calwell Street and Maloney Street", "str_type": "Council Major", "status_id": "2", "seg_part": "1", "poly_area": "930", "gisid": "613"}, "geometry": {"type": "MultiPolygon", "coordinates": [[[[144.928165652774, -37.78855558184], [144.927348421101, -37.788468622776], [144.92751165574, -37.788358729646], [144.927513918386, -37.788345335658], [144.92752853312, -37.788360525294], [144.928088881228, -37.788420150046], [144.928186774024, -37.788430566706], [144.928165652774, -37.78855558184]]]]}}