{"type": "Feature", "properties": {"seg_id": "23040", "street_id": "23040", "name": "McMeikan Street between McConnell Street and Bellair Street", "str_type": "Council Major", "status_id": "2", "seg_part": "1", "poly_area": "773", "gisid": "553"}, "geometry": {"type": "MultiPolygon", "coordinates": [[[[144.929244223162, -37.79204234232], [144.929292659086, -37.792034848193], [144.929677804651, -37.79197525702], [144.929701294175, -37.792069446124], [144.929309967549, -37.7921275553], [144.929260557055, -37.792134892615], [144.928864554435, -37.792193694894], [144.928853385702, -37.792102813343], [144.929244223162, -37.79204234232]]]]}}