{"type": "Feature", "properties": {"seg_id": "23050", "street_id": "23050", "name": "Parsons Street between Eastwood Street and Pridham Street", "str_type": "Council Major", "status_id": "2", "seg_part": "1", "poly_area": "1512", "gisid": "459"}, "geometry": {"type": "MultiPolygon", "coordinates": [[[[144.930344067358, -37.78961501917], [144.930793578719, -37.789666889679], [144.930818322054, -37.789848415429], [144.929972412608, -37.789753751245], [144.929922635036, -37.789566387279], [144.930288821804, -37.78960864396], [144.930344067358, -37.78961501917]]]]}}