{"type": "Feature", "properties": {"seg_id": "23054", "street_id": "23054", "name": "Parsons Street between Rankins Road and Barnett Street", "str_type": "Council Major", "status_id": "2", "seg_part": "1", "poly_area": "1262", "gisid": "460"}, "geometry": {"type": "MultiPolygon", "coordinates": [[[[144.932275228189, -37.790009174232], [144.932239451551, -37.790005485704], [144.93191303222, -37.789971837593], [144.931896704397, -37.789981959441], [144.93189887828, -37.78997037877], [144.931931905305, -37.789791420401], [144.932274983748, -37.789827512942], [144.932309038329, -37.789831095526], [144.932666461616, -37.789868696818], [144.93258466541, -37.790041070536], [144.932275228189, -37.790009174232]]]]}}