{"type": "Feature", "properties": {"seg_id": "23060", "street_id": "23060", "name": "Porter Lane from Deveney Street", "str_type": "Council Minor", "status_id": "3", "seg_part": "1", "poly_area": "477", "gisid": "597"}, "geometry": {"type": "MultiPolygon", "coordinates": [[[[144.927501142676, -37.789164682809], [144.927477250545, -37.789162286089], [144.926957806309, -37.789482000338], [144.926902145473, -37.789425045951], [144.927421589528, -37.78910533194], [144.927424609637, -37.789086370314], [144.927435045623, -37.789097049943], [144.927490706645, -37.789154004086], [144.927501142676, -37.789164682809]]]]}}