{"type": "Feature", "properties": {"seg_id": "23063", "street_id": "23063", "name": "Seafarer Lane between Bourke Street and Collins Street", "str_type": "Council Minor", "status_id": "3", "seg_part": "1", "poly_area": "1147", "gisid": "424"}, "geometry": {"type": "MultiPolygon", "coordinates": [[[[144.942924793503, -37.820233551745], [144.943222428683, -37.820881080822], [144.943062370812, -37.820927375141], [144.943056596322, -37.820914811951], [144.942764736883, -37.8202798457], [144.942924793503, -37.820233551745]]]]}}