{"type": "Feature", "properties": {"seg_id": "23062", "street_id": "23062", "name": "Import Lane between Bourke Street and Collins Street", "str_type": "Council Minor", "status_id": "3", "seg_part": "1", "poly_area": "2003", "gisid": "423"}, "geometry": {"type": "MultiPolygon", "coordinates": [[[[144.944202145165, -37.819864087853], [144.944362200066, -37.819817791888], [144.944760565147, -37.820684426911], [144.944660072029, -37.820689419767], [144.944963162692, -37.821348774892], [144.944935394584, -37.821345710354], [144.944907676274, -37.821342374191], [144.944880011984, -37.821338766912], [144.944499790376, -37.820511612218], [144.944476445061, -37.820460826416], [144.944202145165, -37.819864087853]]]]}}