{"type": "Feature", "properties": {"seg_id": "23074", "street_id": "23074", "name": "Robertson Street between Barnett Street and Collett Street", "str_type": "Council Major", "status_id": "2", "seg_part": "1", "poly_area": "1189", "gisid": "481"}, "geometry": {"type": "MultiPolygon", "coordinates": [[[[144.932544650531, -37.793082552196], [144.932223174999, -37.793048723942], [144.932189815082, -37.792858031881], [144.932878265155, -37.792933154994], [144.932843744302, -37.793114023958], [144.932578940972, -37.793086160487], [144.932544650531, -37.793082552196]]]]}}