{"type": "Feature", "properties": {"seg_id": "23071", "street_id": "23071", "name": "Rankins Road between Robertson Street and Macaulay Road", "str_type": "Council Major", "status_id": "2", "seg_part": "1", "poly_area": "3236", "gisid": "486"}, "geometry": {"type": "MultiPolygon", "coordinates": [[[[144.931330334057, -37.792952601649], [144.931053289228, -37.794454254552], [144.930822096455, -37.794431163506], [144.930823956244, -37.794364509313], [144.930817049236, -37.794318072122], [144.930781332465, -37.794182129698], [144.930808572071, -37.794178130373], [144.930844074317, -37.794172918147], [144.930855358481, -37.794229149601], [144.930855792579, -37.794231717849], [144.930856473556, -37.79423425253], [144.930857425767, -37.794236733198], [144.930858642175, -37.794239141522], [144.930860113792, -37.794241459706], [144.930861829742, -37.794243670618], [144.930863777345, -37.794245757921], [144.93086594221, -37.794247706191], [144.930868308338, -37.794249501029], [144.930870858244, -37.794251129174], [144.930873573086, -37.794252578593], [144.930876432801, -37.794253838577], [144.930879416258, -37.794254899813], [144.930882479595, -37.794255813324], [144.93089713551, -37.794176749491], [144.930897984077, -37.794173343707], [144.930899270339, -37.794170026325], [144.930900925498, -37.794166815778], [144.930902936336, -37.794163737709], [144.930905286794, -37.7941608167], [144.930907958098, -37.794158076079], [144.930910928915, -37.794155537736], [144.930914302898, -37.794153344829], [144.930928392715, -37.794146587551], [144.930932212484, -37.794144869901], [144.930935721112, -37.794142772199], [144.930938982238, -37.794140437043], [144.930941970784, -37.794137882391], [144.930944663773, -37.794135127884], [144.930947040495, -37.794132194705], [144.930949082677, -37.794129105405], [144.930950774615, -37.79412588374], [144.9309521033, -37.794122554482], [144.930952994478, -37.794119133853], [144.931040041735, -37.793654687696], [144.931041486861, -37.793646293026], [144.931041872315, -37.793637814762], [144.931041345053, -37.793629335377], [144.93103990892, -37.793620916682], [144.931037574384, -37.793612620045], [144.931034358462, -37.793604505947], [144.931030284599, -37.793596633535], [144.93102538249, -37.793589060197], [144.93101968787, -37.79358184114], [144.931013242251, -37.793575028987], [144.931006092619, -37.793568673397], [144.930998291092, -37.793562820699], [144.93098989454, -37.793557513557], [144.930980964171, -37.793552790658], [144.930971565083, -37.793548686431], [144.930961765793, -37.793545230794], [144.930951637733, -37.793542448936], [144.930941288938, -37.793540225792], [144.930915246316, -37.793351501272], [144.930924346218, -37.793352562666], [144.93093350426, -37.793353120351], [144.930942682424, -37.79335305482], [144.930951813504, -37.793352366554], [144.930960830639, -37.793351060592], [144.930969667804, -37.793349146497], [144.930978260289, -37.793346638284], [144.930986545177, -37.793343554319], [144.930994461803, -37.793339917185], [144.9310019522, -37.793335753513], [144.93100896152, -37.793331093791], [144.931015438439, -37.79332597214], [144.931021335531, -37.793320426061], [144.931026609614, -37.793314496165], [144.931031222071, -37.793308225873], [144.931034857578, -37.793301565284], [144.931105174705, -37.792929352243], [144.931330334057, -37.792952601649]]]]}}