{"type": "Feature", "properties": {"seg_id": "23086", "street_id": "23086", "name": "Siberia Lane between Drury Street and Rigby Lane", "str_type": "Council Minor", "status_id": "3", "seg_part": "1", "poly_area": "308", "gisid": "607"}, "geometry": {"type": "MultiPolygon", "coordinates": [[[[144.925208908557, -37.790545504453], [144.925185051763, -37.790542887099], [144.924994872188, -37.790657146835], [144.924954139076, -37.790681618753], [144.924939192043, -37.790770608525], [144.924876090031, -37.790808520198], [144.924853064607, -37.790784384784], [144.924869268029, -37.790774650143], [144.924880727814, -37.790708875347], [144.924906754308, -37.790620590865], [144.925130779671, -37.790485997809], [144.925134078969, -37.790467065504], [144.925208908557, -37.790545504453]]]]}}