{"type": "Feature", "properties": {"seg_id": "23087", "street_id": "23087", "name": "Smith Street between Eastwood Street and Rankins Road", "str_type": "Council Major", "status_id": "2", "seg_part": "1", "poly_area": "1900", "gisid": "443"}, "geometry": {"type": "MultiPolygon", "coordinates": [[[[144.930919955291, -37.791380233], [144.930854829149, -37.791372906738], [144.93035442039, -37.791319983308], [144.930311886162, -37.791131800585], [144.930578162348, -37.791161497305], [144.930620912506, -37.791166265024], [144.931034096026, -37.791212345267], [144.931075647391, -37.791216979114], [144.93141569546, -37.79125490084], [144.931387512243, -37.791434784878], [144.930919955291, -37.791380233]]]]}}