{"type": "Feature", "properties": {"seg_id": "23082", "street_id": "23082", "name": "Serong Street between Bluestone Street and Bradfield Lane", "str_type": "Council Major", "status_id": "2", "seg_part": "1", "poly_area": "1293", "gisid": "594"}, "geometry": {"type": "MultiPolygon", "coordinates": [[[[144.924696113358, -37.788733364977], [144.925520443499, -37.788223570431], [144.925618243271, -37.78832316776], [144.925628710111, -37.788333827362], [144.925604810282, -37.788331474288], [144.924807117066, -37.788824795797], [144.924804146293, -37.788843715862], [144.924696113358, -37.788733364977]]]]}}