{"type": "Feature", "properties": {"seg_id": "23099", "street_id": "23099", "name": "Stubbs Street between Parsons Street and Scarborough Place", "str_type": "Council Major", "status_id": "2", "seg_part": "1", "poly_area": "2066", "gisid": "629"}, "geometry": {"type": "MultiPolygon", "coordinates": [[[[144.935636745921, -37.790361915149], [144.935859773614, -37.790397557374], [144.935688542121, -37.791310141001], [144.935688019443, -37.791312926384], [144.935463519463, -37.791290712539], [144.935636745921, -37.790361915149]]]]}}