{"type": "Feature", "properties": {"seg_id": "23105", "street_id": "23105", "name": "Watsons Walk between Epsom Road and Siberia Lane", "str_type": "Council Minor", "status_id": "3", "seg_part": "1", "poly_area": "84", "gisid": "587"}, "geometry": {"type": "MultiPolygon", "coordinates": [[[[144.924760371368, -37.79091126602], [144.92475214794, -37.790902645577], [144.924799216417, -37.790874367064], [144.924764268481, -37.790837733147], [144.924853064607, -37.790784384784], [144.924876090031, -37.790808520198], [144.924939192043, -37.790770608525], [144.924932985652, -37.790807559934], [144.924760371368, -37.79091126602]]]]}}