{"type": "Feature", "properties": {"seg_id": "23103", "street_id": "23103", "name": "Stubbs Street between Robertson Street and Macaulay Road", "str_type": "Council Major", "status_id": "2", "seg_part": "1", "poly_area": "3456", "gisid": "626"}, "geometry": {"type": "MultiPolygon", "coordinates": [[[[144.935074946353, -37.793348777275], [144.935301182114, -37.793374493683], [144.935027521578, -37.79483283177], [144.935014143635, -37.794904122509], [144.934787873667, -37.79487775876], [144.935074946353, -37.793348777275]]]]}}