{"type": "Feature", "properties": {"seg_id": "23124", "street_id": "23124", "name": "Buncle Street between Alfred Street and Flemington Road", "str_type": "Council Minor", "status_id": "3", "seg_part": "1", "poly_area": "880", "gisid": "534"}, "geometry": {"type": "MultiPolygon", "coordinates": [[[[144.941986362864, -37.790809398497], [144.942370561024, -37.790424116242], [144.942398626341, -37.790395971707], [144.942645655599, -37.790148242773], [144.942729796263, -37.790218608413], [144.942105684679, -37.790819413895], [144.941986362864, -37.790809398497]]]]}}