{"type": "Feature", "properties": {"seg_id": "23121", "street_id": "23121", "name": "Buncle Street between Caytre Crescent and Mark Street", "str_type": "Council Major", "status_id": "2", "seg_part": "1", "poly_area": "865", "gisid": "536"}, "geometry": {"type": "MultiPolygon", "coordinates": [[[[144.940519430624, -37.794356038458], [144.940312673486, -37.794332958087], [144.940385577626, -37.793922556409], [144.940375920171, -37.793912376355], [144.940593905708, -37.793936791139], [144.940605150212, -37.793938036739], [144.940592320177, -37.793945712985], [144.940584903412, -37.793987464512], [144.940519430624, -37.794356038458]]]]}}