{"type": "Feature", "properties": {"seg_id": "23127", "street_id": "23127", "name": "Mark Street between Buncle Street and Boundary Road", "str_type": "Council Minor", "status_id": "3", "seg_part": "1", "poly_area": "170", "gisid": "548"}, "geometry": {"type": "MultiPolygon", "coordinates": [[[[144.939273008064, -37.793817956965], [144.939278353214, -37.793789439985], [144.9401454567, -37.793886563282], [144.940141970261, -37.793906190279], [144.939285920442, -37.793810304834], [144.939273008064, -37.793817956965]]]]}}