{"type": "Feature", "properties": {"seg_id": "23125", "street_id": "23125", "name": "Caytre Crescent between Buncle Street and Pampas Street", "str_type": "Council Major", "status_id": "2", "seg_part": "1", "poly_area": "2777", "gisid": "540"}, "geometry": {"type": "MultiPolygon", "coordinates": [[[[144.940312673486, -37.794332958087], [144.940280978054, -37.794511385264], [144.940271319356, -37.794501206982], [144.939547080914, -37.794420189225], [144.93953425331, -37.794427852779], [144.939465316481, -37.794815892104], [144.939474973944, -37.79482607133], [144.940033212249, -37.794888519099], [144.940048228991, -37.794881279487], [144.940036384219, -37.794910187858], [144.940027106206, -37.794939680813], [144.940020440041, -37.794969615031], [144.94000470228, -37.795058204625], [144.939995044714, -37.795048025439], [144.939387984496, -37.794980115522], [144.939384115121, -37.794979486696], [144.939380316738, -37.794978627074], [144.939376623883, -37.794977509814], [144.939373064378, -37.794976143334], [144.939369665039, -37.794974537929], [144.939366451478, -37.794972705694], [144.939363447904, -37.794970660432], [144.939360676947, -37.794968417553], [144.939358159481, -37.794965993953], [144.939355914475, -37.794963407893], [144.939353958841, -37.794960678855], [144.939352307312, -37.794957827399], [144.939350972332, -37.794954875009], [144.939349963958, -37.794951843927], [144.939349289787, -37.794948756988], [144.939348954898, -37.794945637451], [144.939348961814, -37.794942508816], [144.939349353472, -37.794939399464], [144.939465838411, -37.794283719476], [144.939466492017, -37.79428060746], [144.939467529307, -37.794277562858], [144.939468899312, -37.794274604266], [144.939470591502, -37.794271754428], [144.939472592866, -37.794269035253], [144.93947488802, -37.794266467645], [144.939477459317, -37.794264071344], [144.939480286992, -37.79426186477], [144.939483349306, -37.794259864888], [144.939486622717, -37.794258087072], [144.939490082059, -37.79425654499], [144.939493700739, -37.794255250496], [144.939497450937, -37.794254213542], [144.939501303823, -37.794253442099], [144.939505229777, -37.7942529421], [144.939509198618, -37.794252717386], [144.939513179834, -37.794252769686], [144.939517148739, -37.794253065277], [144.940299845972, -37.794340621727], [144.940312673486, -37.794332958087]]]]}}