{"type": "Feature", "properties": {"seg_id": "23135", "street_id": "23135", "name": "Racecourse Road between Flemington Road and Boundary Road", "str_type": "Arterial", "status_id": "1", "seg_part": "1", "poly_area": "4167", "gisid": "511"}, "geometry": {"type": "MultiPolygon", "coordinates": [[[[144.941623856354, -37.789492014361], [144.941581987657, -37.789487939228], [144.940439844555, -37.789366237664], [144.94037264361, -37.789359637383], [144.940117729485, -37.789330315684], [144.940165398461, -37.789053145655], [144.941302579808, -37.78917577872], [144.941306524075, -37.789175975249], [144.941310471586, -37.789175922851], [144.94131439564, -37.789175598312], [144.94131826656, -37.789175004087], [144.941322055066, -37.789174144671], [144.941325732506, -37.789173026562], [144.941329271065, -37.789171658219], [144.941332643979, -37.78917004999], [144.941335825738, -37.78916821404], [144.941338792277, -37.789166164253], [144.941341521158, -37.789163916135], [144.941343991741, -37.789161486687], [144.941346185342, -37.789158894286], [144.941348085368, -37.789156158538], [144.941349677449, -37.789153300135], [144.941350949543, -37.789150340696], [144.94135189203, -37.789147302606], [144.941352497779, -37.789144208841], [144.941352762211, -37.789141082803], [144.941352683324, -37.789137948134], [144.941352261717, -37.789134828543], [144.941351500576, -37.789131747625], [144.94135040566, -37.789128728682], [144.941348985249, -37.789125794548], [144.941347250087, -37.789122967415], [144.941345213298, -37.789120268665], [144.941342890286, -37.789117718711], [144.941340432224, -37.789115237007], [144.94143451274, -37.789190006523], [144.941580047607, -37.789305665881], [144.941840828636, -37.789516154862], [144.941623856354, -37.789492014361]]]]}}