{"type": "Feature", "properties": {"seg_id": "23136", "street_id": "23136", "name": "Racecourse Road between Boundary Road and Upfield Railway", "str_type": "Arterial", "status_id": "1", "seg_part": "1", "poly_area": "4184", "gisid": "510"}, "geometry": {"type": "MultiPolygon", "coordinates": [[[[144.939094616991, -37.789219743355], [144.939052980224, -37.789215342455], [144.938181922001, -37.789123281863], [144.938057334711, -37.789110114447], [144.938198693849, -37.788979864096], [144.938324422139, -37.788864015588], [144.938375694942, -37.788869438837], [144.939618624683, -37.789000895381], [144.939883595102, -37.789303123227], [144.939094616991, -37.789219743355]]]]}}