{"type": "Feature", "properties": {"seg_id": "23131", "street_id": "23131", "name": "McCabe Place from Buncle Street", "str_type": "Council Minor", "status_id": "3", "seg_part": "1", "poly_area": "299", "gisid": "533"}, "geometry": {"type": "MultiPolygon", "coordinates": [[[[144.942398626341, -37.790395971707], [144.942370561024, -37.790424116242], [144.941979231237, -37.790269190076], [144.941936288627, -37.790518245656], [144.941890928292, -37.790514343916], [144.941939952899, -37.790254003771], [144.941830011164, -37.790210457169], [144.941835103787, -37.790181212887], [144.942398626341, -37.790395971707]]]]}}