{"type": "Feature", "properties": {"seg_id": "23157", "street_id": "23157", "name": "CL0185 between Nottingham Street and Collett Street", "str_type": "Council Minor", "status_id": "3", "seg_part": "1", "poly_area": "599", "gisid": "639"}, "geometry": {"type": "MultiPolygon", "coordinates": [[[[144.932847715025, -37.789610993647], [144.932853395973, -37.789581341072], [144.933182506177, -37.789617404774], [144.933202240066, -37.789605706886], [144.933328443813, -37.788945374154], [144.933294088677, -37.788908861265], [144.933005001757, -37.78887711947], [144.932986353477, -37.788887355751], [144.932995852061, -37.788837775798], [144.933007497629, -37.788850105496], [144.933371037779, -37.788888869034], [144.933374038234, -37.788874103664], [144.93338842109, -37.788890856561], [144.933638555822, -37.788917527074], [144.933633312615, -37.788944809173], [144.933385656119, -37.788918485831], [144.933365193178, -37.788929499585], [144.93323435164, -37.78961087902], [144.933248885703, -37.789626325181], [144.933497143608, -37.789653439806], [144.933492111268, -37.789679629766], [144.932847715025, -37.789610993647]]]]}}