{"type": "Feature", "properties": {"seg_id": "23158", "street_id": "23158", "name": "CL0186 between Collett Street and Lambeth Street", "str_type": "Council Minor", "status_id": "3", "seg_part": "1", "poly_area": "593", "gisid": "640"}, "geometry": {"type": "MultiPolygon", "coordinates": [[[[144.933662690437, -37.789700286671], [144.933668247689, -37.789671394278], [144.933970496863, -37.789705258748], [144.934105956561, -37.789006281083], [144.934088652954, -37.788993153832], [144.933804528472, -37.788962851904], [144.933810315502, -37.788932758659], [144.934450359711, -37.78900393194], [144.934445071958, -37.789030948352], [144.934163781227, -37.789000085992], [144.934137655039, -37.789009765933], [144.934006951412, -37.789694718274], [144.934021304303, -37.789710641489], [144.934306435549, -37.789739272682], [144.934300929271, -37.789767403609], [144.933662690437, -37.789700286671]]]]}}