{"type": "Feature", "properties": {"seg_id": "23150", "street_id": "23150", "name": "Intersection of Racecourse Road and Epsom Road", "str_type": "Arterial", "status_id": "1", "seg_part": "1", "poly_area": "1619", "gisid": "513"}, "geometry": {"type": "MultiPolygon", "coordinates": [[[[144.921720460888, -37.787706395109], [144.921528807047, -37.7878345257], [144.921235482349, -37.787558192842], [144.921071904619, -37.787388674923], [144.921180030514, -37.787322961243], [144.92131156917, -37.787457801415], [144.921444636024, -37.787451361706], [144.921788976571, -37.787434685544], [144.921720460888, -37.787706395109]]]]}}