{"type": "Feature", "properties": {"seg_id": "23164", "street_id": "23164", "name": "CL0168 from Mulgrave Street", "str_type": "Council Minor", "status_id": "3", "seg_part": "1", "poly_area": "136", "gisid": "645"}, "geometry": {"type": "MultiPolygon", "coordinates": [[[[144.930858723915, -37.79061446751], [144.930820564392, -37.790610054493], [144.930855653677, -37.790419680586], [144.930661498242, -37.790397550975], [144.930666464039, -37.790370609304], [144.930731254054, -37.790377740509], [144.930898854431, -37.790396843229], [144.930893757578, -37.790424455786], [144.930858723915, -37.79061446751]]]]}}