{"type": "Feature", "properties": {"seg_id": "23167", "street_id": "23167", "name": "Clare Lane between Smith Street and Mulgrave Street", "str_type": "Council Minor", "status_id": "3", "seg_part": "1", "poly_area": "195", "gisid": "649"}, "geometry": {"type": "MultiPolygon", "coordinates": [[[[144.93115946736, -37.790757033164], [144.931075647391, -37.791216979114], [144.931034096026, -37.791212345267], [144.93107507329, -37.790981785943], [144.931076897109, -37.790971524769], [144.931115916819, -37.79075198033], [144.93115946736, -37.790757033164]]]]}}