{"type": "Feature", "properties": {"seg_id": "23160", "street_id": "23160", "name": "Lollipop Lane from Parsons Street", "str_type": "Council Minor", "status_id": "3", "seg_part": "1", "poly_area": "495", "gisid": "641"}, "geometry": {"type": "MultiPolygon", "coordinates": [[[[144.930344067358, -37.78961501917], [144.930288821804, -37.78960864396], [144.930454463957, -37.788713734433], [144.930444110699, -37.788702721284], [144.930510427887, -37.78871029307], [144.930344067358, -37.78961501917]]]]}}