{"type": "Feature", "properties": {"seg_id": "23171", "street_id": "23171", "name": "Bridges Lane between McConnell Street and Bellair Street", "str_type": "Council Minor", "status_id": "3", "seg_part": "1", "poly_area": "527", "gisid": "653"}, "geometry": {"type": "MultiPolygon", "coordinates": [[[[144.92896443922, -37.793887068294], [144.928971650532, -37.793847661521], [144.929655683456, -37.793925773645], [144.92965147851, -37.793782738408], [144.929696361179, -37.793774506685], [144.929703455855, -37.793931229284], [144.930167353893, -37.793984200666], [144.930176600861, -37.79402303436], [144.92896443922, -37.793887068294]]]]}}