{"type": "Feature", "properties": {"seg_id": "23175", "street_id": "23175", "name": "CL0121 between McMeikan Street and New Street", "str_type": "Council Minor", "status_id": "3", "seg_part": "1", "poly_area": "335", "gisid": "661"}, "geometry": {"type": "MultiPolygon", "coordinates": [[[[144.928263808649, -37.792201601565], [144.928310895257, -37.792202334356], [144.92832825237, -37.792610191943], [144.928338461925, -37.792610298544], [144.928346802997, -37.792886701896], [144.92830069251, -37.792886052973], [144.928291503615, -37.79270415612], [144.928274160799, -37.79270398531], [144.928276169887, -37.79261153499], [144.928280131493, -37.792611594767], [144.928263808649, -37.792201601565]]]]}}