{"type": "Feature", "properties": {"seg_id": "23181", "street_id": "23181", "name": "CL0194 between Gordon Crescent and McCracken Street", "str_type": "Council Minor", "status_id": "3", "seg_part": "1", "poly_area": "637", "gisid": "669"}, "geometry": {"type": "MultiPolygon", "coordinates": [[[[144.926621014685, -37.790688201837], [144.926598612611, -37.79066494376], [144.92687436491, -37.79049594912], [144.927062849289, -37.790536935938], [144.927114163559, -37.790515895548], [144.927356770333, -37.790131804505], [144.927346346925, -37.790084219313], [144.927192453901, -37.789922070645], [144.927219566911, -37.789905525562], [144.927397106144, -37.790093187131], [144.927680926511, -37.790096381971], [144.927680181025, -37.790123022878], [144.927436647516, -37.790120792051], [144.927387204964, -37.79014354171], [144.927138467322, -37.790530030172], [144.927146359723, -37.790571469884], [144.927278648927, -37.790666348761], [144.92727354847, -37.790943779999], [144.92723762391, -37.790943468549], [144.92724399671, -37.790678742828], [144.927110168939, -37.790583656598], [144.927058237638, -37.790566233035], [144.926875918246, -37.790528130347], [144.926621014685, -37.790688201837]]]]}}