{"type": "Feature", "properties": {"seg_id": "23182", "street_id": "23182", "name": "CL0195 from Gordon Crescent", "str_type": "Council Minor", "status_id": "3", "seg_part": "1", "poly_area": "323", "gisid": "668"}, "geometry": {"type": "MultiPolygon", "coordinates": [[[[144.926485570675, -37.790772691289], [144.926215421844, -37.790941558366], [144.926209713054, -37.790980839133], [144.926571447945, -37.791353517387], [144.926623114827, -37.791376352568], [144.92657589492, -37.791403601809], [144.92657069572, -37.791406827494], [144.926266892548, -37.791087959185], [144.926139285229, -37.790953996619], [144.926465247322, -37.790751646121], [144.926485570675, -37.790772691289]]], [[[144.927273167539, -37.791081223035], [144.927266408676, -37.791411530279], [144.927196237274, -37.791384017023], [144.927231441507, -37.791358790963], [144.927235810855, -37.791080792657], [144.927273167539, -37.791081223035]]]]}}