{"type": "Feature", "properties": {"seg_id": "23199", "street_id": "23199", "name": "Intersection of Epsom Road and Flemington Drive", "str_type": "Arterial", "status_id": "1", "seg_part": "1", "poly_area": "663", "gisid": "631"}, "geometry": {"type": "MultiPolygon", "coordinates": [[[[144.919492049583, -37.785583517972], [144.919798492233, -37.785899334692], [144.919637881728, -37.785982385041], [144.919575926851, -37.785925639599], [144.919456923059, -37.785762218357], [144.919390053686, -37.78564568957], [144.919492049583, -37.785583517972]]]]}}