{"type": "Feature", "properties": {"seg_id": "23194", "street_id": "23194", "name": "Haydon Lane from Thompson Street", "str_type": "Council Minor", "status_id": "3", "seg_part": "1", "poly_area": "453", "gisid": "678"}, "geometry": {"type": "MultiPolygon", "coordinates": [[[[144.934617262042, -37.792089549699], [144.93435799813, -37.792060079684], [144.934223687749, -37.792767534069], [144.934490798829, -37.792796516618], [144.934485932471, -37.792823722442], [144.934145950562, -37.792786041359], [144.93410898701, -37.792781941454], [144.934114003038, -37.792755156418], [144.934186146073, -37.792763397012], [144.934325811897, -37.792054652404], [144.934252157557, -37.792046470105], [144.934257507371, -37.792019316926], [144.934331162795, -37.792027500142], [144.934622542527, -37.792060028801], [144.934617262042, -37.792089549699]]]]}}