{"type": "Feature", "properties": {"seg_id": "23205", "street_id": "23205", "name": "Macaulay Road between Barnett Street and Eastwood Street", "str_type": "Council Major", "status_id": "2", "seg_part": "1", "poly_area": "1022", "gisid": "683"}, "geometry": {"type": "MultiPolygon", "coordinates": [[[[144.931432562071, -37.794495684358], [144.931776157835, -37.794533215127], [144.931741653863, -37.794718276242], [144.931236142955, -37.794660847355], [144.93116782699, -37.794466766291], [144.931397585366, -37.794491863612], [144.931432562071, -37.794495684358]]]]}}