{"type": "Feature", "properties": {"seg_id": "23209", "street_id": "23209", "name": "Melrose Street between Alfred Street and Flemington Road", "str_type": "Council Major", "status_id": "2", "seg_part": "1", "poly_area": "2095", "gisid": "686"}, "geometry": {"type": "MultiPolygon", "coordinates": [[[[144.942674554594, -37.790975794773], [144.942340563869, -37.790844154791], [144.942781552492, -37.79049999456], [144.942930402293, -37.790380097678], [144.943174897843, -37.790582959223], [144.942674554594, -37.790975794773]]]]}}