{"type": "Feature", "properties": {"seg_id": "23202", "street_id": "23202", "name": "Intersection of Smithfield Road and Epsom Road", "str_type": "Arterial", "status_id": "1", "seg_part": "1", "poly_area": "1342", "gisid": "682"}, "geometry": {"type": "MultiPolygon", "coordinates": [[[[144.922547116861, -37.789042463298], [144.922527049311, -37.788925336158], [144.922884345811, -37.788961638304], [144.922907895663, -37.788987035976], [144.923124718346, -37.789196491352], [144.922941124653, -37.789312887969], [144.922864153829, -37.789361117533], [144.922547116861, -37.789042463298]]]]}}