{"type": "Feature", "properties": {"seg_id": "23200", "street_id": "23200", "name": "Epsom Road between Racecourse Road and Flemington Drive", "str_type": "Arterial", "status_id": "1", "seg_part": "1", "poly_area": "2558", "gisid": "632"}, "geometry": {"type": "MultiPolygon", "coordinates": [[[[144.919798492233, -37.785899334692], [144.921156606434, -37.787298949655], [144.921180030514, -37.787322961243], [144.921071904619, -37.787388674923], [144.920221958583, -37.786507846545], [144.919799319277, -37.786130249765], [144.919637881728, -37.785982385041], [144.919798492233, -37.785899334692]]]]}}