{"type": "Feature", "properties": {"seg_id": "23217", "street_id": "23217", "name": "Intersection of Macaulay Road and Stubbs Street", "str_type": "Council Major", "status_id": "2", "seg_part": "1", "poly_area": "628", "gisid": "2218"}, "geometry": {"type": "MultiPolygon", "coordinates": [[[[144.934752867252, -37.795064200734], [144.934787873667, -37.79487775876], [144.935014143635, -37.794904122509], [144.935027521578, -37.79483283177], [144.935067261777, -37.794875062815], [144.935113125934, -37.795105334845], [144.934752867252, -37.795064200734]]]]}}