{"type": "Feature", "properties": {"seg_id": "23213", "street_id": "23213", "name": "PH8035 from Davis Street", "str_type": "Council Minor", "status_id": "3", "seg_part": "1", "poly_area": "302", "gisid": "646"}, "geometry": {"type": "MultiPolygon", "coordinates": [[[[144.930523258135, -37.790390864749], [144.930482350375, -37.790397368823], [144.93043633143, -37.79040468514], [144.930324249, -37.789953011436], [144.930356994113, -37.7899511447], [144.930378937247, -37.790049487974], [144.93077775095, -37.790095065999], [144.930772743156, -37.790125509805], [144.930412432147, -37.790084645633], [144.930395978607, -37.790098450863], [144.9304593789, -37.790349505709], [144.930536354065, -37.790358247965], [144.930530707612, -37.790389680838], [144.930523258135, -37.790390864749]]]]}}