{"type": "Feature", "properties": {"seg_id": "23223", "street_id": "23223", "name": "Yarra Bank Road from Queens Bridge Street", "str_type": "Council Minor", "status_id": "3", "seg_part": "1", "poly_area": "942", "gisid": "3831"}, "geometry": {"type": "MultiPolygon", "coordinates": [[[[144.961222340976, -37.820944767325], [144.961222819566, -37.820970558219], [144.961229700547, -37.821100123528], [144.961230220536, -37.821229698034], [144.961220451022, -37.821358947803], [144.960946157238, -37.821590551595], [144.960912090754, -37.82146150099], [144.96089870622, -37.821410795303], [144.96088170033, -37.821346372301], [144.960936883772, -37.821318163581], [144.960986891028, -37.821284363202], [144.961032805845, -37.821247088632], [144.961074252139, -37.821206645181], [144.961110890426, -37.821163364121], [144.961142420606, -37.821117599961], [144.961168584417, -37.821069727555], [144.961187765307, -37.821019819523], [144.961170325787, -37.820998187634], [144.961194403231, -37.8209855141], [144.961185256224, -37.820968942615], [144.961193330766, -37.820966153617], [144.961206524223, -37.820948259453], [144.961222340976, -37.820944767325]]]]}}