{"type": "Feature", "properties": {"seg_id": "23227", "street_id": "23227", "name": "Intersection of Footscray Road and Waterfront Way", "str_type": "Arterial", "status_id": "1", "seg_part": "1", "poly_area": "3935", "gisid": "3854"}, "geometry": {"type": "MultiPolygon", "coordinates": [[[[144.938652652505, -37.810756602957], [144.938995828507, -37.810229506864], [144.939196158012, -37.810313228069], [144.939394764542, -37.810399494791], [144.939591596714, -37.810488284716], [144.939218258064, -37.810999599625], [144.938953429643, -37.810885824335], [144.938927602279, -37.810887760185], [144.938901625511, -37.810887565342], [144.938875755459, -37.810885530721], [144.938850198735, -37.810881672571], [144.938825159449, -37.810876021705], [144.938800837578, -37.810868623255], [144.938777427371, -37.810859536308], [144.938755115792, -37.810848833437], [144.938734081036, -37.810836600122], [144.938714491096, -37.810822934064], [144.938696502429, -37.810807944409], [144.938680258701, -37.81079175087], [144.938665889645, -37.81077448278], [144.938652652505, -37.810756602957]]]]}}