{"type": "Feature", "properties": {"seg_id": "23225", "street_id": "23225", "name": "Waterfront Way between Footscray Road and Docklands Drive", "str_type": "Council Major", "status_id": "2", "seg_part": "1", "poly_area": "9679", "gisid": "3840"}, "geometry": {"type": "MultiPolygon", "coordinates": [[[[144.939286239901, -37.813232894255], [144.939692602966, -37.813904329977], [144.93951067205, -37.813973628665], [144.939057957635, -37.813225605059], [144.938950752146, -37.813048466745], [144.938524680637, -37.812344446719], [144.938510733169, -37.812321400163], [144.93835975717, -37.812071931076], [144.938344131925, -37.812046112857], [144.938335920771, -37.81203254432], [144.938247494181, -37.811886431716], [144.938227851554, -37.811846475934], [144.938210157767, -37.811806074769], [144.938196532453, -37.811764715923], [144.938187060902, -37.811722658292], [144.938181403076, -37.811680181086], [144.93817887492, -37.811671954356], [144.938175609445, -37.811663896453], [144.938171453294, -37.811656096117], [144.938166439633, -37.811648615592], [144.938160608471, -37.811641514574], [144.938154006338, -37.811634849726], [144.938146685919, -37.811628674234], [144.938138705631, -37.811623037377], [144.938130129155, -37.811617984137], [144.93812121446, -37.81161328027], [144.938065340444, -37.811585439707], [144.938141564243, -37.811489154925], [144.938680267194, -37.810808672216], [144.938652652505, -37.810756602957], [144.938665889645, -37.81077448278], [144.938680258701, -37.81079175087], [144.938696502429, -37.810807944409], [144.938714491096, -37.810822934064], [144.938734081036, -37.810836600122], [144.938755115792, -37.810848833437], [144.938777427371, -37.810859536308], [144.938800837578, -37.810868623255], [144.938825159449, -37.810876021705], [144.938850198735, -37.810881672571], [144.938875755459, -37.810885530721], [144.938901625511, -37.810887565342], [144.938927602279, -37.810887760185], [144.938953429643, -37.810885824335], [144.939218258064, -37.810999599625], [144.939410189604, -37.811082057175], [144.939268699853, -37.811057930382], [144.939141727402, -37.811036277992], [144.939086525411, -37.811047668718], [144.938449020278, -37.811852974279], [144.938516161349, -37.811963889167], [144.938682447089, -37.81223865254], [144.938700535527, -37.812268541177], [144.939112984203, -37.812950048773], [144.939130678698, -37.812979287913], [144.93916990373, -37.813044098277], [144.939286239901, -37.813232894255]]]]}}