{"type": "Feature", "properties": {"seg_id": "23222", "street_id": "23222", "name": "Smith Street between Stubbs Street and Moonee Ponds Creek", "str_type": "Council Major", "status_id": "2", "seg_part": "1", "poly_area": "788", "gisid": "3830"}, "geometry": {"type": "MultiPolygon", "coordinates": [[[[144.935581034809, -37.791883092615], [144.935614677796, -37.791703796113], [144.935846566351, -37.791731183961], [144.936053771483, -37.791750786986], [144.936021079348, -37.791931209635], [144.935867724976, -37.791916952633], [144.935581034809, -37.791883092615]]]]}}