{"type": "Feature", "properties": {"seg_id": "23236", "street_id": "23236", "name": "Navigation Drive between Collins Street and Harbour Esplanade", "str_type": "Council Minor", "status_id": "3", "seg_part": "1", "poly_area": "3056", "gisid": "3886"}, "geometry": {"type": "MultiPolygon", "coordinates": [[[[144.946445314356, -37.821443002617], [144.946638661894, -37.822180969093], [144.946932850448, -37.822227427136], [144.946966636903, -37.822232762757], [144.947434091398, -37.822320251253], [144.947381162171, -37.822498199543], [144.947377403617, -37.822524539273], [144.947378846967, -37.822562119899], [144.947462420633, -37.822703599252], [144.947481121006, -37.822741179726], [144.947451218907, -37.822708710467], [144.947419150724, -37.822677697643], [144.947383545205, -37.822649214126], [144.947344723325, -37.822623516688], [144.947304008728, -37.822599577297], [144.94723518362, -37.822563189639], [144.947162243294, -37.82253225466], [144.947085872104, -37.822507062601], [144.947060928031, -37.822500280924], [144.947035731879, -37.822494113419], [144.947010307674, -37.822488565968], [144.946982277362, -37.822483216161], [144.946954035355, -37.822478620003], [144.946925613846, -37.822474782732], [144.946928455072, -37.822458019102], [144.946793625616, -37.822429675413], [144.946561310116, -37.82238083924], [144.946496322449, -37.822132790861], [144.946468265954, -37.822025703634], [144.946409564196, -37.821801648609], [144.946375222635, -37.82167056706], [144.946345894507, -37.821558628237], [144.946301973233, -37.821482202399], [144.946349946978, -37.82146958358], [144.946397729573, -37.821456516379], [144.946445314356, -37.821443002617]]]]}}