{"type": "Feature", "properties": {"seg_id": "23234", "street_id": "23234", "name": "PH8036 between Cohen Place and Smythe Lane", "str_type": "Council Minor", "status_id": "3", "seg_part": "1", "poly_area": "137", "gisid": "3884"}, "geometry": {"type": "MultiPolygon", "coordinates": [[[[144.969358658644, -37.810581626709], [144.969391127901, -37.810571559958], [144.969397754569, -37.810569615944], [144.969406264341, -37.810585755884], [144.969405214286, -37.810586064003], [144.969411766726, -37.810600511122], [144.969431257953, -37.810643489141], [144.969430818225, -37.810643618537], [144.969419106245, -37.810646678831], [144.969398288023, -37.810652799292], [144.969383916124, -37.810621186881], [144.969365067733, -37.810614240892], [144.969061479854, -37.810703494444], [144.969031035997, -37.810678485275], [144.969047453165, -37.810673631726], [144.969358658644, -37.810581626709]]]]}}