{"type": "Feature", "properties": {"seg_id": "23231", "street_id": "23231", "name": "William Lonsdale Lane between Cliveden Close and Magistrates Walk", "str_type": "Council Minor", "status_id": "3", "seg_part": "1", "poly_area": "275", "gisid": "3868"}, "geometry": {"type": "MultiPolygon", "coordinates": [[[[144.976940048927, -37.816471250727], [144.976928373332, -37.816525423564], [144.976424607972, -37.816457096414], [144.976436283946, -37.816402922736], [144.976940048927, -37.816471250727]]]]}}