{"type": "Feature", "properties": {"seg_id": "23230", "street_id": "23230", "name": "Footscray Road between Pearl River Road and Appleton Dock Road", "str_type": "Arterial", "status_id": "1", "seg_part": "1", "poly_area": "37239", "gisid": "3857"}, "geometry": {"type": "MultiPolygon", "coordinates": [[[[144.934599441511, -37.809798291091], [144.934556240177, -37.80979291776], [144.934513016667, -37.809787657906], [144.934469771453, -37.809782511586], [144.934562412849, -37.809679974606], [144.934249146262, -37.809638972183], [144.93402415962, -37.809609430753], [144.933891406421, -37.809592051911], [144.933460216261, -37.809535549837], [144.933362776186, -37.809522821987], [144.933290454131, -37.809513375413], [144.933140838944, -37.80949372891], [144.932569548246, -37.809418711771], [144.931946977147, -37.809357762422], [144.931477969714, -37.809341773388], [144.931592401432, -37.809489237208], [144.930815002303, -37.809410810792], [144.929970009342, -37.809325558673], [144.92975334614, -37.809147692781], [144.929714222872, -37.80915141977], [144.92959017989, -37.809003932062], [144.929575254325, -37.809011833343], [144.929556345563, -37.808989350066], [144.929538647547, -37.808958818983], [144.929554948582, -37.808952871302], [144.929472771001, -37.808811100367], [144.929479503647, -37.808784696365], [144.929379330157, -37.808569810468], [144.933228082926, -37.808960670435], [144.933257523995, -37.808963659996], [144.933801719386, -37.809018915038], [144.934329022128, -37.809072451885], [144.93432862247, -37.80907493211], [144.934564758318, -37.809100605209], [144.934800312563, -37.809129446541], [144.935035217687, -37.809161447841], [144.935169165233, -37.809181154658], [144.93530286617, -37.809201888991], [144.935436307979, -37.8092236489], [144.935486295435, -37.809232075555], [144.93553624401, -37.809240646127], [144.935586153046, -37.809249360505], [144.935605123661, -37.80925271247], [144.935624088425, -37.809256085212], [144.935643047302, -37.809259478725], [144.935754417512, -37.809279759202], [144.935849239511, -37.809496623267], [144.935700835243, -37.809975153212], [144.935620260128, -37.809959569738], [144.935539563318, -37.809944387861], [144.935458747993, -37.80992960818], [144.935369751338, -37.809913821983], [144.935280619482, -37.809898523535], [144.93519135667, -37.809883713563], [144.935115272889, -37.809871491958], [144.935039099924, -37.809859625241], [144.934962840402, -37.809848113819], [144.934942250826, -37.809845068861], [144.934921655193, -37.809842049804], [144.934901053554, -37.809839056654], [144.934807360612, -37.809825782139], [144.934713549588, -37.809813043461], [144.934619625349, -37.809800841279], [144.934599441511, -37.809798291091]], [[144.933382718787, -37.809320881349], [144.933368681188, -37.809388403134], [144.933453787893, -37.809399540239], [144.933467825442, -37.80933201754], [144.933382718787, -37.809320881349]], [[144.933231653155, -37.809328863782], [144.93321806703, -37.80939648359], [144.933285752727, -37.809405061207], [144.933303294808, -37.809407351675], [144.933316880857, -37.809339731856], [144.933282699953, -37.80933534701], [144.933231653155, -37.809328863782]], [[144.933297262502, -37.809021001554], [144.933281562134, -37.809107419667], [144.933364106796, -37.80911693932], [144.933379917718, -37.809030463657], [144.933297262502, -37.809021001554]], [[144.933733284553, -37.809067045265], [144.933641096722, -37.809077682593], [144.933656185668, -37.80915977473], [144.933748260094, -37.809149134501], [144.933733284553, -37.809067045265]], [[144.933601805649, -37.809350140226], [144.933498451217, -37.809362023351], [144.933512643832, -37.80943959391], [144.933615998396, -37.809427709875], [144.933601805649, -37.809350140226]], [[144.933452467827, -37.809043732441], [144.933440175574, -37.809126064096], [144.933549615278, -37.809136275513], [144.933561907413, -37.809053943843], [144.933452467827, -37.809043732441]], [[144.933800691767, -37.809370662429], [144.933686055028, -37.809383880641], [144.933701033076, -37.809465879806], [144.933815667405, -37.809452752557], [144.933800691767, -37.809370662429]]], [[[144.933362776186, -37.809522821987], [144.933357979774, -37.809552139452], [144.93334144437, -37.809550407364], [144.933329153373, -37.809624538353], [144.933346029387, -37.809626276421], [144.93333945903, -37.80966707072], [144.933111265089, -37.809643920944], [144.933140838944, -37.80949372891], [144.933290454131, -37.809513375413], [144.933362776186, -37.809522821987]]]]}}