{"type": "Feature", "properties": {"seg_id": "23250", "street_id": "23250", "name": "PT5375 from Barnett Street", "str_type": "Council Minor", "status_id": "3", "seg_part": "1", "poly_area": "65", "gisid": "3903"}, "geometry": {"type": "MultiPolygon", "coordinates": [[[[144.932240545407, -37.792593318591], [144.932247333658, -37.792557898164], [144.932440550783, -37.792578059509], [144.932435792917, -37.792600451269], [144.932415336378, -37.792599380202], [144.932412916508, -37.792610007623], [144.932240545407, -37.792593318591]]]]}}