{"type": "Feature", "properties": {"seg_id": "23259", "street_id": "23259", "name": "South Wharf Drive between Foundry Way and Riggers Place", "str_type": "Council Major", "status_id": "2", "seg_part": "1", "poly_area": "1469", "gisid": "3913"}, "geometry": {"type": "MultiPolygon", "coordinates": [[[[144.937365818772, -37.822469303553], [144.937256622684, -37.822444516087], [144.9367324825, -37.822325536132], [144.936612367861, -37.822298269561], [144.936649866227, -37.822194327801], [144.936756331985, -37.822218495735], [144.937329609327, -37.822348630505], [144.937422425632, -37.822369699297], [144.937995705452, -37.822499830888], [144.937939099243, -37.822599435437], [144.937693406368, -37.822543665333], [144.937622429035, -37.822527553646], [144.937365818772, -37.822469303553]]]]}}