{"type": "Feature", "properties": {"seg_id": "23252", "street_id": "23252", "name": "Docklands Drive between Saint Mangos Lane and Waterfront Way", "str_type": "Council Major", "status_id": "2", "seg_part": "1", "poly_area": "3381", "gisid": "3906"}, "geometry": {"type": "MultiPolygon", "coordinates": [[[[144.940308436481, -37.81397137238], [144.939839549274, -37.814149977096], [144.939692602966, -37.813904329977], [144.940838912978, -37.813467682293], [144.940986987469, -37.813712899875], [144.940441525735, -37.813920676272], [144.940308436481, -37.81397137238]]]]}}