{"type": "Feature", "properties": {"seg_id": "23268", "street_id": "23268", "name": "George Johnson Lane between Errol Street and Little Errol Street", "str_type": "Lease/Reserve", "status_id": "6", "seg_part": "1", "poly_area": "110", "gisid": "3927"}, "geometry": {"type": "MultiPolygon", "coordinates": [[[[144.949720161797, -37.80350599983], [144.94972590764, -37.803476063695], [144.950077726023, -37.803515233829], [144.950071257382, -37.803547655458], [144.950008407294, -37.803540199053], [144.949720161797, -37.80350599983]]]]}}