{"type": "Feature", "properties": {"seg_id": "23267", "street_id": "23267", "name": "Saint Mangos Lane North from Docklands Drive", "str_type": "Council Minor", "status_id": "3", "seg_part": "1", "poly_area": "1554", "gisid": "3923"}, "geometry": {"type": "MultiPolygon", "coordinates": [[[[144.941012440719, -37.813381393457], [144.940850070962, -37.813443244766], [144.940860002098, -37.813459649462], [144.940838912978, -37.813467682293], [144.940403896885, -37.812748924274], [144.940587352063, -37.812679041614], [144.940755844146, -37.812957434601], [144.940789761882, -37.813013475131], [144.941012440719, -37.813381393457]]]]}}