{"type": "Feature", "properties": {"seg_id": "23265", "street_id": "23265", "name": "Canal Mews between Lorimer Street and South Wharf Drive", "str_type": "Council Minor", "status_id": "3", "seg_part": "1", "poly_area": "422", "gisid": "3919"}, "geometry": {"type": "MultiPolygon", "coordinates": [[[[144.939304060298, -37.822909262483], [144.939413257863, -37.822934047186], [144.939344203816, -37.823125474795], [144.939323893509, -37.823181777761], [144.939282023345, -37.823297846638], [144.939171295092, -37.823277305666], [144.939304060298, -37.822909262483]]]]}}