{"type": "Feature", "properties": {"seg_id": "23283", "street_id": "23283", "name": "Hampden Road between Derby Street and Clifford Terrace", "str_type": "Council Minor", "status_id": "3", "seg_part": "1", "poly_area": "310", "gisid": "3941"}, "geometry": {"type": "MultiPolygon", "coordinates": [[[[144.927436983662, -37.796709337361], [144.927678315916, -37.796569028092], [144.927740382204, -37.796636255564], [144.927696913422, -37.796662339303], [144.927717110678, -37.796684103884], [144.92751966073, -37.796798888367], [144.927436983662, -37.796709337361]]]]}}