{"type": "Feature", "properties": {"seg_id": "23289", "street_id": "23289", "name": "Riggers Place between Lorimer Street and South Wharf Drive", "str_type": "Council Minor", "status_id": "3", "seg_part": "1", "poly_area": "472", "gisid": "3953"}, "geometry": {"type": "MultiPolygon", "coordinates": [[[[144.93661594159, -37.822615826448], [144.936574067588, -37.822731894257], [144.936464871415, -37.822707106055], [144.936599708346, -37.822333360086], [144.936612367861, -37.822298269561], [144.9367324825, -37.822325536132], [144.936718437796, -37.822331718963], [144.936635941054, -37.822560390853], [144.93661594159, -37.822615826448]]]]}}