{"type": "Feature", "properties": {"seg_id": "23280", "street_id": "23280", "name": "Intersection of Clifford Terrace and Gower Street", "str_type": "Council Minor", "status_id": "3", "seg_part": "1", "poly_area": "142", "gisid": "3943"}, "geometry": {"type": "MultiPolygon", "coordinates": [[[[144.927057671921, -37.796298485017], [144.926984873644, -37.796340809535], [144.926948455176, -37.796301362137], [144.926941678315, -37.796294021742], [144.926924897806, -37.79625908345], [144.926900186406, -37.796207632129], [144.926982738978, -37.796167007757], [144.927057671921, -37.796298485017]]]]}}