{"type": "Feature", "properties": {"seg_id": "23299", "street_id": "23299", "name": "Victoria Harbour Promenade between Harbour Esplanade and Enterprize Way", "str_type": "Road Safety Act", "status_id": "16", "seg_part": "1", "poly_area": "3076", "gisid": "3970"}, "geometry": {"type": "MultiPolygon", "coordinates": [[[[144.94581177783, -37.817886141235], [144.945985601483, -37.818283571113], [144.945955344789, -37.818291900911], [144.946227422825, -37.818912604109], [144.946172355572, -37.81900645505], [144.945967275269, -37.819065779423], [144.945651601845, -37.818344259606], [144.945737708843, -37.81831140023], [144.945689966455, -37.818232669877], [144.9456758962, -37.81820946791], [144.945688041745, -37.818177090748], [144.945695351322, -37.818143753493], [144.945698769774, -37.818109999678], [144.94569826826, -37.818076114106], [144.945693851009, -37.818042382692], [144.945685555294, -37.818009090053], [144.945673451111, -37.817976517099], [144.945658968131, -37.817944470151], [144.94581177783, -37.817886141235]]], [[[144.94395304365, -37.818595610414], [144.945503319992, -37.81800388121], [144.945658968131, -37.817944470151], [144.945673451111, -37.817976517099], [144.945685555294, -37.818009090053], [144.945693851009, -37.818042382692], [144.94569826826, -37.818076114106], [144.945698769774, -37.818109999678], [144.945695351322, -37.818143753493], [144.945688041745, -37.818177090748], [144.9456758962, -37.81820946791], [144.945689966455, -37.818232669877], [144.944983331289, -37.818502393234], [144.944868974078, -37.818546042545], [144.944245910947, -37.818783859561], [144.944284152766, -37.818846948769], [144.944125458155, -37.818892852068], [144.944100819348, -37.818839251771], [144.94395304365, -37.818595610414]], [[144.945478962691, -37.818188500323], [144.945048423424, -37.818351906089], [144.945012419225, -37.818396578757], [144.945010443141, -37.818398781712], [144.945008845037, -37.818401174257], [144.945007512729, -37.818403668502], [144.945006456048, -37.818406246039], [144.945005682794, -37.818408887843], [144.945005198675, -37.818411574415], [144.945005007262, -37.818414285929], [144.94500510997, -37.81841700237], [144.94500550604, -37.818419703689], [144.945006192548, -37.818422369949], [144.945007164428, -37.818424981471], [144.945008414506, -37.81842751898], [144.945009933557, -37.818429963749], [144.945011710369, -37.818432297732], [144.945013731827, -37.818434503703], [144.945015983012, -37.818436565381], [144.945018447308, -37.818438467549], [144.945021106528, -37.818440196169], [144.945023941045, -37.818441738481], [144.945026929937, -37.818443083102], [144.945030051146, -37.818444220108], [144.945033281633, -37.818445141108], [144.945036597557, -37.818445839303], [144.945039974443, -37.818446309541], [144.945043387368, -37.81844654835], [144.945046811143, -37.818446553969], [144.945050220496, -37.818446326356], [144.945053590265, -37.81844586719], [144.945056895579, -37.818445179861], [144.945060112043, -37.818444269442], [144.945063215916, -37.818443142651], [144.945066103852, -37.818441706521], [144.945526327445, -37.818267034022], [144.945478962691, -37.818188500323]], [[144.94473866865, -37.818469354631], [144.944243584306, -37.818658573073], [144.944205841193, -37.81870448037], [144.9442035468, -37.81870668694], [144.944201640732, -37.818709119448], [144.944200008049, -37.818711675295], [144.944198660969, -37.818714335356], [144.94419760957, -37.818717079727], [144.944196861721, -37.818719887872], [144.944196423017, -37.818722738779], [144.94419629674, -37.818725611117], [144.944196483837, -37.81872848339], [144.944196982906, -37.818731334109], [144.944197790213, -37.818734141941], [144.944198899718, -37.818736885877], [144.944200303119, -37.818739545384], [144.944201989913, -37.818742100563], [144.944203947481, -37.818744532293], [144.944206161173, -37.818746822379], [144.944208614425, -37.818748953685], [144.944211288881, -37.818750910263], [144.944214164528, -37.818752677473], [144.944217219849, -37.818754242091], [144.944220431982, -37.818755592409], [144.944223776892, -37.818756718324], [144.944227229549, -37.818757611411], [144.944230764119, -37.818758264987], [144.944234354153, -37.818758674162], [144.944237972821, -37.818758830576], [144.944787030482, -37.818548983825], [144.94473866865, -37.818469354631]]]]}}