{"type": "Feature", "properties": {"seg_id": "23296", "street_id": "23296", "name": "Newquay Promenade between Pearl River Road and Wattle Road", "str_type": "Road Safety Act", "status_id": "16", "seg_part": "1", "poly_area": "1403", "gisid": "3960"}, "geometry": {"type": "MultiPolygon", "coordinates": [[[[144.937434230047, -37.816559268454], [144.937575513725, -37.816505523675], [144.93825036248, -37.816248808538], [144.93811358305, -37.816022526217], [144.938194513045, -37.81599174001], [144.938390367086, -37.816315346838], [144.938527491984, -37.816263193448], [144.938288884356, -37.816430212216], [144.93817100751, -37.816398776226], [144.937493071233, -37.816656612829], [144.937434230047, -37.816559268454]]]]}}