{"type": "Feature", "properties": {"seg_id": "23308", "street_id": "23308", "name": "Collins Street between Harbour Esplanade and Navigation Drive", "str_type": "Council Major", "status_id": "2", "seg_part": "1", "poly_area": "2198", "gisid": "4029"}, "geometry": {"type": "MultiPolygon", "coordinates": [[[[144.947232846928, -37.821215194429], [144.946804973277, -37.821338966129], [144.946445314356, -37.821443002617], [144.946375248317, -37.821175574175], [144.946755524746, -37.821065573], [144.947151559568, -37.820951011447], [144.947232846928, -37.821215194429]]]]}}