{"type": "Feature", "properties": {"seg_id": "23307", "street_id": "23307", "name": "Victoria Harbour Promenade between Cumberland Street and Tom Thumb Lane", "str_type": "Road Safety Act", "status_id": "16", "seg_part": "1", "poly_area": "3332", "gisid": "4023"}, "geometry": {"type": "MultiPolygon", "coordinates": [[[[144.942347570214, -37.819438112913], [144.941769447814, -37.819658704665], [144.941831655955, -37.81979405143], [144.941703611185, -37.819831085256], [144.941646032181, -37.819705811549], [144.940947773543, -37.819972236756], [144.940857830019, -37.819776542341], [144.942257606309, -37.819242384917], [144.942347570214, -37.819438112913]]]]}}