{"type": "Feature", "properties": {"seg_id": "23313", "street_id": "23313", "name": "Intersection of Collins Street and Bourke Street", "str_type": "Council Major", "status_id": "2", "seg_part": "1", "poly_area": "1103", "gisid": "4058"}, "geometry": {"type": "MultiPolygon", "coordinates": [[[[144.941227337196, -37.820580490687], [144.941287931519, -37.820568055309], [144.941349943565, -37.820560803914], [144.94141251357, -37.820557362399], [144.941475274543, -37.820557678887], [144.941549842315, -37.820563217655], [144.941623523991, -37.820574081269], [144.941696257068, -37.820588880205], [144.941597725535, -37.820847646815], [144.941523237927, -37.820829799036], [144.941162288846, -37.820743313363], [144.941164541837, -37.820596419389], [144.941185290696, -37.820590662959], [144.94120622755, -37.820585352106], [144.941227337196, -37.820580490687]]]]}}