{"type": "Feature", "properties": {"seg_id": "23316", "street_id": "23316", "name": "Jim Stynes Bridge between Harbour Esplanade and North Wharf", "str_type": "Lease/Reserve", "status_id": "6", "seg_part": "1", "poly_area": "318", "gisid": "4074"}, "geometry": {"type": "MultiPolygon", "coordinates": [[[[144.949016324259, -37.823026495417], [144.948867475181, -37.823010367676], [144.948881566324, -37.823000542012], [144.94889528543, -37.822990390473], [144.948908620529, -37.822979921918], [144.948905678155, -37.822977375312], [144.948945670543, -37.822952446242], [144.94898793371, -37.822929997847], [144.949032223647, -37.822910159736], [144.949047616679, -37.822932718384], [144.949011178669, -37.822950711431], [144.948976073687, -37.822970301165], [144.948942412801, -37.822991425605], [144.948962022153, -37.822981587386], [144.948983121071, -37.822973864213], [144.949005004013, -37.822967637486], [144.949027503929, -37.822962954738], [144.949050449057, -37.822959851718], [144.949073664236, -37.822958352113], [144.949096972245, -37.822958467371], [144.949120224275, -37.822960018938], [144.94915001974, -37.822965358678], [144.949179162034, -37.822972620638], [144.949207753554, -37.822981314405], [144.949244348662, -37.822989526159], [144.949281250218, -37.822996568627], [144.9493186281, -37.823001791729], [144.949422180598, -37.823012872863], [144.949412562711, -37.823069425165], [144.949381005019, -37.823066006201], [144.949277123271, -37.823054750776], [144.949239675005, -37.82304823881], [144.949202844334, -37.823039811788], [144.949166432641, -37.823030089767], [144.949151593629, -37.82302555912], [144.949136540287, -37.823021594505], [144.949121134536, -37.823018631748], [144.949105482556, -37.823016691269], [144.949089692159, -37.823015788759], [144.949074627396, -37.823015894021], [144.949059635378, -37.823016987895], [144.949044818896, -37.823019063042], [144.949030279542, -37.823022105232], [144.949016324259, -37.823026495417]]], [[[144.947852465954, -37.822785775961], [144.947815566287, -37.822781344274], [144.94781778563, -37.822789812526], [144.9477452887, -37.822780973622], [144.947743009096, -37.822771977452], [144.947740918197, -37.822762952485], [144.947739016582, -37.822753901213], [144.947732377581, -37.822731260714], [144.947724740009, -37.822708819191], [144.947716113295, -37.822686604349], [144.947713760615, -37.822680542756], [144.947711455209, -37.822674469745], [144.947709197166, -37.822668385547], [144.947768434868, -37.822654709163], [144.947789729119, -37.822647338356], [144.947824111192, -37.822709842786], [144.947844233004, -37.822752836091], [144.947843203473, -37.822761621701], [144.947846121236, -37.822769713665], [144.947849209018, -37.822777765835], [144.947852465954, -37.822785775961]]], [[[144.949016324259, -37.823026495417], [144.949012965424, -37.82302761665], [144.949009635568, -37.823028791013], [144.949006336026, -37.823030018033], [144.948986404132, -37.823037126294], [144.948967154577, -37.823045332967], [144.948948683413, -37.823054597102], [144.948914938254, -37.823075514556], [144.94888136034, -37.823096600685], [144.948847951012, -37.823117854649], [144.94882898027, -37.823131124013], [144.948807947179, -37.823142302958], [144.94878582865, -37.823152086458], [144.948762769915, -37.823160410274], [144.948738922381, -37.82316721975], [144.948714299784, -37.823171987358], [144.948666457482, -37.823180778922], [144.948618837934, -37.823190301096], [144.94857145887, -37.823200550332], [144.948543941333, -37.823206781287], [144.94851566831, -37.823210516759], [144.948487082766, -37.823212372301], [144.948458381392, -37.823212358978], [144.948483395461, -37.823182632964], [144.948510335699, -37.823153985648], [144.948539128327, -37.823126495485], [144.948590802068, -37.823120268992], [144.948641448701, -37.823110061386], [144.94869082949, -37.82309657061], [144.948738608726, -37.82307988838], [144.948784461588, -37.823060128106], [144.948828076353, -37.823037424128], [144.948867475181, -37.823010367676], [144.949016324259, -37.823026495417]]], [[[144.947852465954, -37.822785775961], [144.947875754778, -37.822829419145], [144.947902578791, -37.822871695554], [144.947934247676, -37.822911827987], [144.947970483816, -37.822949464634], [144.948009171859, -37.822985720702], [144.947989893678, -37.823008501344], [144.947971405204, -37.823031690217], [144.947953720167, -37.823055270101], [144.947937295979, -37.823043991718], [144.947921654273, -37.823032033899], [144.947906839659, -37.823019430747], [144.947886192295, -37.822997330104], [144.947867305323, -37.822974260013], [144.947850250872, -37.822950308578], [144.947834946174, -37.822929467395], [144.947818689317, -37.822909084906], [144.947801502121, -37.82288918847], [144.947784145061, -37.822867531863], [144.947769517235, -37.822844642224], [144.947757756511, -37.822820735295], [144.947753187735, -37.822807564292], [144.94774903095, -37.822794307699], [144.9477452887, -37.822780973622], [144.94781778563, -37.822789812526], [144.947815566287, -37.822781344274], [144.947852465954, -37.822785775961]]]]}}