{"type": "Feature", "properties": {"seg_id": "23318", "street_id": "23318", "name": "Heathcote Road between Manningham Street and Lennon Street", "str_type": "Council Minor", "status_id": "3", "seg_part": "1", "poly_area": "953", "gisid": "4089"}, "geometry": {"type": "MultiPolygon", "coordinates": [[[[144.941824972829, -37.786597045149], [144.941853595211, -37.786791223486], [144.941850746984, -37.786789680463], [144.941817745155, -37.786771801156], [144.941692860132, -37.786803773252], [144.941565671433, -37.786836876481], [144.94140114012, -37.786857160982], [144.941339112665, -37.786886806902], [144.94125599766, -37.786927529114], [144.941192222636, -37.786938309819], [144.941137506344, -37.786966372101], [144.941055456114, -37.787009636076], [144.941018248897, -37.787028966496], [144.94098660918, -37.786926837264], [144.941052476143, -37.786921323668], [144.941456186895, -37.786717628825], [144.941530067885, -37.786745842781], [144.941824972829, -37.786597045149]]]]}}