{"type": "Feature", "properties": {"seg_id": "23322", "street_id": "23322", "name": "Docklands Drive between Docklands Drive and Western Link Road", "str_type": "Council Minor", "status_id": "3", "seg_part": "1", "poly_area": "5731", "gisid": "4101"}, "geometry": {"type": "MultiPolygon", "coordinates": [[[[144.935529518604, -37.815791588529], [144.936048588107, -37.816650372646], [144.933420323334, -37.817650077705], [144.933159121226, -37.817589625686], [144.933205279031, -37.817464224199], [144.933287389956, -37.817483232029], [144.93367481667, -37.81740040941], [144.935741262717, -37.816614401132], [144.935777884308, -37.816531746969], [144.935367754676, -37.815853196734], [144.935529518604, -37.815791588529]]]]}}