{"type": "Feature", "properties": {"seg_id": "23326", "street_id": "23326", "name": "Regatta Way between Lorimer Street and South Wharf Drive", "str_type": "Council Major", "status_id": "2", "seg_part": "1", "poly_area": "1014", "gisid": "4117"}, "geometry": {"type": "MultiPolygon", "coordinates": [[[[144.935546797751, -37.822090039904], [144.935396721919, -37.822498660358], [144.935118333607, -37.822438061641], [144.9351224353, -37.822438729429], [144.935126575979, -37.822439184488], [144.935130747764, -37.822439354814], [144.935134919573, -37.822439239139], [144.935139060325, -37.822438838324], [144.935143139171, -37.822438155355], [144.935147125722, -37.822437195321], [144.935150990277, -37.822435965374], [144.935154704044, -37.822434474677], [144.935158239355, -37.822432734338], [144.935161569869, -37.822430757321], [144.935164670775, -37.822428558356], [144.935167518969, -37.822426153827], [144.935170093231, -37.822423561646], [144.935172374383, -37.822420801128], [144.935174345429, -37.822417892839], [144.935175991685, -37.822414858445], [144.935177205529, -37.822411698526], [144.93518245108, -37.82239742045], [144.93518059759, -37.822396992331], [144.935261227316, -37.822177458178], [144.93526515327, -37.822178365115], [144.935317507602, -37.822035815021], [144.935546797751, -37.822090039904]]]]}}