{"type": "Feature", "properties": {"seg_id": "23328", "street_id": "23328", "name": "Straitsman Lane between South Wharf Drive and Catalina Place", "str_type": "Council Minor", "status_id": "3", "seg_part": "1", "poly_area": "259", "gisid": "4115"}, "geometry": {"type": "MultiPolygon", "coordinates": [[[[144.93504244547, -37.821837115967], [144.93490755765, -37.821805943333], [144.934951749315, -37.821685623598], [144.934973987124, -37.821625075555], [144.9349780214, -37.821626007831], [144.935108874675, -37.821656247204], [144.935086636939, -37.821716796176], [144.93504244547, -37.821837115967]]]]}}