{"type": "Feature", "properties": {"seg_id": "23325", "street_id": "23325", "name": "South Wharf Drive between Bass Lane and Straitsman Lane", "str_type": "Council Major", "status_id": "2", "seg_part": "1", "poly_area": "1335", "gisid": "4113"}, "geometry": {"type": "MultiPolygon", "coordinates": [[[[144.93504244547, -37.821837115967], [144.935833021026, -37.822019818603], [144.93585155921, -37.822024102453], [144.935872610521, -37.82202906292], [144.935893613966, -37.82203414946], [144.935914568347, -37.822039361782], [144.935868639674, -37.822164416829], [144.935546797751, -37.822090039904], [144.935317507602, -37.822035815021], [144.934861810584, -37.821930501008], [144.93490755765, -37.821805943333], [144.93504244547, -37.821837115967]]]]}}