{"type": "Feature", "properties": {"seg_id": "23333", "street_id": "23333", "name": "PH8043 from A'Beckett Street", "str_type": "Council Minor", "status_id": "3", "seg_part": "1", "poly_area": "173", "gisid": "4131"}, "geometry": {"type": "MultiPolygon", "coordinates": [[[[144.96038607742, -37.809289000955], [144.960237758537, -37.808970990434], [144.960221246268, -37.808935583765], [144.960266854131, -37.808922229839], [144.9604281865, -37.809275293484], [144.96038607742, -37.809289000955]]]]}}