{"type": "Feature", "properties": {"seg_id": "23335", "street_id": "23335", "name": "Tom Thumb Lane between Australian Wharf and Collins Street", "str_type": "Council Minor", "status_id": "3", "seg_part": "1", "poly_area": "1001", "gisid": "4134"}, "geometry": {"type": "MultiPolygon", "coordinates": [[[[144.941162288846, -37.820743313363], [144.941523237927, -37.820829799036], [144.941363179213, -37.820876091018], [144.941613493264, -37.821420695604], [144.941444719592, -37.821374346253], [144.941155575402, -37.820745255147], [144.941162288846, -37.820743313363]]]]}}