{"type": "Feature", "properties": {"seg_id": "23334", "street_id": "23334", "name": "South Wharf Drive between Riggers Place and Bass Lane", "str_type": "Council Major", "status_id": "2", "seg_part": "1", "poly_area": "959", "gisid": "4132"}, "geometry": {"type": "MultiPolygon", "coordinates": [[[[144.935868639674, -37.822164416829], [144.935914568347, -37.822039361782], [144.93600177629, -37.822062428242], [144.93608802067, -37.822087671652], [144.936173215149, -37.822115066744], [144.936213102664, -37.822125931667], [144.936253685664, -37.822134748125], [144.936295097903, -37.822140525147], [144.936336977295, -37.822143215952], [144.936403319797, -37.822147263206], [144.936469028857, -37.822155796754], [144.936534059344, -37.822167566504], [144.936649866227, -37.822194327801], [144.936612367861, -37.822298269561], [144.936599708346, -37.822333360086], [144.935868639674, -37.822164416829]]]]}}