{"type": "Feature", "properties": {"seg_id": "23346", "street_id": "23346", "name": "Glenti Place from Docklands Drive", "str_type": "Council Minor", "status_id": "3", "seg_part": "1", "poly_area": "1002", "gisid": "4143"}, "geometry": {"type": "MultiPolygon", "coordinates": [[[[144.93835103619, -37.814760947253], [144.938490301013, -37.814731400289], [144.938598347755, -37.814909618006], [144.938614352356, -37.814936771436], [144.938633119725, -37.814962787756], [144.938654522522, -37.814987490433], [144.938678415521, -37.815010711851], [144.938704636602, -37.815032294441], [144.938715770664, -37.815041830564], [144.938726260024, -37.815051765933], [144.938735545345, -37.815062426122], [144.938743545855, -37.815073718399], [144.938750191959, -37.815085544532], [144.938755806853, -37.815097716871], [144.938758328718, -37.815105483322], [144.938761546257, -37.81511308213], [144.938765610987, -37.815120425574], [144.93877048985, -37.815127453929], [144.938776143165, -37.815134110035], [144.938782524956, -37.815140339757], [144.938789583319, -37.815146092429], [144.938796994101, -37.815151592629], [144.938839035552, -37.815179824248], [144.938868445131, -37.815202871075], [144.938872094254, -37.815206770023], [144.938875526198, -37.815210772492], [144.938878505311, -37.815214995435], [144.93888100866, -37.815219406344], [144.938883016975, -37.815223971264], [144.938884514796, -37.815228655054], [144.938885490593, -37.81523342166], [144.938885936853, -37.815238234389], [144.938885850143, -37.815243056192], [144.938885231129, -37.815247849952], [144.938883967374, -37.815252555868], [144.938881901777, -37.815265033055], [144.938881481867, -37.815277630066], [144.938882504222, -37.81529021469], [144.938884668845, -37.815302728297], [144.938879549398, -37.815304677134], [144.938779412897, -37.815342800186], [144.938782563646, -37.815347592805], [144.938745703313, -37.815361625826], [144.93835103619, -37.814760947253]]]]}}