{"type": "Feature", "properties": {"seg_id": "23354", "street_id": "23354", "name": "PT5054 from Cl1207", "str_type": "Council Minor", "status_id": "3", "seg_part": "1", "poly_area": "137", "gisid": "4152"}, "geometry": {"type": "MultiPolygon", "coordinates": [[[[144.987483665445, -37.814765266927], [144.987492932378, -37.814706296246], [144.987530646977, -37.814710785272], [144.987494657242, -37.814930021819], [144.987489391168, -37.814929427153], [144.987461281898, -37.815101964093], [144.987429520824, -37.815098599641], [144.987456157248, -37.814932237647], [144.987483665445, -37.814765266927]]]]}}