{"type": "Feature", "properties": {"seg_id": "23351", "street_id": "23351", "name": "O'Brien Place from Neill Street", "str_type": "Council Minor", "status_id": "3", "seg_part": "1", "poly_area": "129", "gisid": "4149"}, "geometry": {"type": "MultiPolygon", "coordinates": [[[[144.971856312582, -37.794085994218], [144.971820732496, -37.794101791959], [144.971684776121, -37.793911823066], [144.971580394709, -37.793959672176], [144.971573183005, -37.79394980531], [144.971652533349, -37.793890140494], [144.971662631183, -37.793882966189], [144.971700976162, -37.793866349178], [144.971714871059, -37.793886141381], [144.971856312582, -37.794085994218]]]]}}