{"type": "Feature", "properties": {"seg_id": "23355", "street_id": "23355", "name": "Contractors Lane from Victoria Parade", "str_type": "Council Minor", "status_id": "3", "seg_part": "1", "poly_area": "309", "gisid": "2504"}, "geometry": {"type": "MultiPolygon", "coordinates": [[[[144.98736078107, -37.80977163085], [144.987257086285, -37.810377184215], [144.986933069524, -37.810343272638], [144.986937475147, -37.810315814212], [144.987197472097, -37.810342604387], [144.987228440285, -37.810319459744], [144.987323592642, -37.809766597464], [144.98736078107, -37.80977163085]]]]}}