{"type": "Feature", "properties": {"seg_id": "23362", "street_id": "23362", "name": "PT5112 between La Trobe Street and Flanigan Lane", "str_type": "Council Minor", "status_id": "3", "seg_part": "1", "poly_area": "142", "gisid": "95"}, "geometry": {"type": "MultiPolygon", "coordinates": [[[[144.959655108511, -37.81123308858], [144.959488025773, -37.811282217283], [144.959374551048, -37.811045718034], [144.959414703466, -37.811033851479], [144.959510780828, -37.811242914814], [144.959641185635, -37.811205325421], [144.959655108511, -37.81123308858]]]]}}