{"type": "Feature", "properties": {"seg_id": "23375", "street_id": "23375", "name": "Goldspink Place from Rathdowne Street", "str_type": "Council Minor", "status_id": "3", "seg_part": "1", "poly_area": "179", "gisid": "204"}, "geometry": {"type": "MultiPolygon", "coordinates": [[[[144.969867958892, -37.800116163095], [144.969507717768, -37.800075546195], [144.969494901996, -37.800074101421], [144.969305722613, -37.800052770748], [144.969308079779, -37.800037366996], [144.969332233084, -37.800040487027], [144.969331459181, -37.80002491213], [144.969449408261, -37.800035981165], [144.969873285728, -37.800082223715], [144.969867958892, -37.800116163095]]]]}}