{"type": "Feature", "properties": {"seg_id": "23381", "street_id": "23381", "name": "Plane Tree Way between Dryburgh Street and Abbotsford Street", "str_type": "Council Major", "status_id": "3", "seg_part": "1", "poly_area": "1476", "gisid": "4169"}, "geometry": {"type": "MultiPolygon", "coordinates": [[[[144.945967684782, -37.799158271268], [144.944377254908, -37.798989480712], [144.944396242796, -37.798883422111], [144.944514464045, -37.798895969027], [144.944506486515, -37.798943298289], [144.944658304379, -37.798959411657], [144.944666281814, -37.798912082382], [144.945423690236, -37.798992466413], [144.945415712136, -37.799039795732], [144.945697065856, -37.799069654061], [144.945705043782, -37.799022324717], [144.94598639756, -37.799052183257], [144.945967684782, -37.799158271268]]]]}}