{"type": "Feature", "properties": {"seg_id": "30001", "street_id": "30001", "name": "Yarra Promenade", "str_type": "Private", "status_id": "4", "seg_part": "1", "poly_area": "1559", "gisid": "2"}, "geometry": {"type": "MultiPolygon", "coordinates": [[[[144.956470042427, -37.823633736966], [144.956438404318, -37.823546229983], [144.957916778079, -37.822806735347], [144.957907555609, -37.82266758643], [144.957938506576, -37.822655355415], [144.957956554014, -37.822821134781], [144.958004374726, -37.822798803095], [144.958019612179, -37.822816883574], [144.95802457597, -37.822814318408], [144.958030851409, -37.822871825718], [144.958036565772, -37.822920095275], [144.957969439119, -37.822954355311], [144.957920287587, -37.822893734269], [144.956470042427, -37.823633736966]]]]}}