{"type": "Feature", "properties": {"seg_id": "30025", "street_id": "30025", "name": null, "str_type": "Private", "status_id": "4", "seg_part": "1", "poly_area": "744", "gisid": "18"}, "geometry": {"type": "MultiPolygon", "coordinates": [[[[144.953902838434, -37.822021772548], [144.953910902202, -37.822017768271], [144.953918240378, -37.822012957651], [144.9539250173, -37.822007654587], [144.953931181432, -37.822001899408], [144.953936685901, -37.821995735879], [144.953941488845, -37.82198921087], [144.953945553742, -37.821982374002], [144.95394884968, -37.821975277266], [144.953951351594, -37.821967974629], [144.953953040458, -37.821960521625], [144.95395390343, -37.821952974929], [144.953953933947, -37.821945391933], [144.953953131777, -37.821937830299], [144.95395150302, -37.821930347533], [144.953949310979, -37.821922940098], [144.953931294773, -37.821883025642], [144.953908438226, -37.821844702319], [144.95388096101, -37.821808338436], [144.9538491272, -37.821774283469], [144.953815415209, -37.821741683408], [144.953804868174, -37.821731321748], [144.953793696079, -37.821721428839], [144.953781427368, -37.821712390735], [144.953768167176, -37.821704284887], [144.953754029137, -37.821697180757], [144.953739134404, -37.821691139225], [144.953723744463, -37.821685899969], [144.953922582057, -37.821628232536], [144.954043241113, -37.821890714368], [144.954043411437, -37.821890999582], [144.954043600815, -37.821891276532], [144.954043819716, -37.821891539547], [144.954044066479, -37.821891786632], [144.954044339231, -37.821892015911], [144.954044635903, -37.821892225645], [144.954044954242, -37.821892414241], [144.954045291833, -37.821892580269], [144.954045646115, -37.821892722469], [144.954046014398, -37.821892839761], [144.954046393889, -37.821892931255], [144.954046781706, -37.821892996258], [144.954047174907, -37.821893034275], [144.954047570509, -37.821893045019], [144.954047965508, -37.821893028408], [144.954048356908, -37.821892984567], [144.954048741739, -37.82189291383], [144.954049112433, -37.821892807086], [144.954072508764, -37.821885845645], [144.954072873511, -37.821885733731], [144.954073218795, -37.821885587872], [144.95407354668, -37.8218854188], [144.954073854716, -37.821885227777], [144.954074140604, -37.821885016231], [144.954074402208, -37.821884785739], [144.954074637576, -37.821884538025], [144.95407484495, -37.821884274936], [144.95407502278, -37.821883998439], [144.954075169741, -37.821883710596], [144.954075284733, -37.821883413559], [144.954075366898, -37.821883109545], [144.954075415624, -37.821882800823], [144.954075430545, -37.8218824897], [144.954075411551, -37.821882178499], [144.954075358783, -37.821881869542], [144.954075272636, -37.821881565138], [144.954075165294, -37.821881264281], [144.953954584402, -37.821618951457], [144.954040562628, -37.821594015911], [144.954037090906, -37.821600602918], [144.954034633369, -37.821607483487], [144.954032932288, -37.821614511074], [144.954032000264, -37.821621633613], [144.954031844204, -37.821628798339], [144.954032465261, -37.821635952172], [144.954033858837, -37.821643042113], [144.954036014606, -37.821650015638], [144.954038640734, -37.821656904255], [144.954129849582, -37.821855020688], [144.954136742376, -37.821864346668], [144.954144237385, -37.821873348411], [144.954152715313, -37.821881786257], [144.954162107663, -37.821889592032], [144.954172338548, -37.821896702668], [144.954183325307, -37.821903060714], [144.95419497917, -37.821908614799], [144.954207205979, -37.821913320048], [144.954219906946, -37.821917138445], [144.954232979452, -37.821920039138], [144.95424630116, -37.821922099841], [144.953902838434, -37.822021772548]]]]}}