{"type": "Feature", "properties": {"seg_id": "30036", "street_id": "30036", "name": "Coode Road", "str_type": "Port Roads", "status_id": "5", "seg_part": "1", "poly_area": "33044", "gisid": "26"}, "geometry": {"type": "MultiPolygon", "coordinates": [[[[144.92668330221971, -37.8115910562637], [144.926699720829, -37.811577697473], [144.92671499999, -37.811562831716], [144.926728562978, -37.811546947071], [144.926740304852, -37.811530166441], [144.926750134763, -37.811512619662], [144.926757976654, -37.811494442497], [144.926763769851, -37.811475775588], [144.92676746953, -37.811456763364], [144.926769047067, -37.811437552929], [144.926768490254, -37.811418292917], [144.926765803402, -37.811399132348], [144.926761007297, -37.811380219473], [144.92675413905, -37.811361700624], [144.926745251801, -37.811343719087], [144.926734414313, -37.811326413988], [144.926721710438, -37.811309919222], [144.92670723847, -37.811294362412], [144.926691110381, -37.811279863926], [144.926674175789, -37.811265874033], [144.926101344465, -37.810871051991], [144.926054270288, -37.810843956327], [144.92600618268, -37.810818274149], [144.925955598113, -37.810795844943], [144.925902868621, -37.810776824799], [144.925848361167, -37.810761346087], [144.925792455089, -37.810749516528], [144.92573561367, -37.810740960207], [144.92328493873, -37.810491197534], [144.921670634537, -37.810326645064], [144.920694220419, -37.810227069706], [144.920099169245, -37.81016655626], [144.918368337829, -37.80999008562], [144.916745306546, -37.80982458246], [144.916097430245, -37.80956390525], [144.915558007094, -37.809405782552], [144.915181351561, -37.80935383415], [144.914981208238, -37.809326727483], [144.915185305616, -37.80931381202], [144.915321793126, -37.809331017595], [144.91532795925, -37.809291619481], [144.915392214227, -37.809288738616], [144.915456610904, -37.809288694577], [144.915521000773, -37.809290227411], [144.915573657298, -37.809299913514], [144.915607508807, -37.809068986015], [144.91564323524, -37.809069946455], [144.916103486221, -37.809256160203], [144.916731506182, -37.809510247259], [144.916738032577, -37.809505974028], [144.917045521774, -37.809578402246], [144.926090420735, -37.810500435028], [144.92658046991, -37.810838219723], [144.926611447959, -37.810859573244], [144.927031171592, -37.811148877458], [144.927175176155, -37.811284182107], [144.92668330221971, -37.8115910562637]]]]}}