{"type": "Feature", "properties": {"seg_id": "30031", "street_id": "30031", "name": "Pl5307", "str_type": "Port Roads", "status_id": "5", "seg_part": "1", "poly_area": "4680", "gisid": "24"}, "geometry": {"type": "MultiPolygon", "coordinates": [[[[144.908186125345, -37.818893280216], [144.908183178381, -37.818962252777], [144.908151876544, -37.819161915319], [144.90814327906, -37.819363423999], [144.907817986656, -37.819354691927], [144.907797553625, -37.819351872715], [144.907777452914, -37.819347806534], [144.907757853108, -37.819342386187], [144.907738899492, -37.819335651852], [144.907720732559, -37.819327653446], [144.90770348697, -37.819318450258], [144.907687290557, -37.819308110506], [144.907671549487, -37.819297254587], [144.907649416927, -37.819274431218], [144.907635023121, -37.819255944811], [144.90763336225, -37.819255221397], [144.907632306219, -37.819255798443], [144.907631161803, -37.819256260416], [144.907629971408, -37.819256643516], [144.907628743579, -37.819256944993], [144.907627487134, -37.819257162682], [144.907626211093, -37.819257295019], [144.907624924619, -37.819257341056], [144.907623636948, -37.81925730046], [144.907622357328, -37.819257173525], [144.907621094945, -37.81925696116], [144.907619858863, -37.819256664891], [144.907618657959, -37.819256286846], [144.907617500854, -37.819255829738], [144.907616395858, -37.819255296849], [144.907615313518, -37.819254729428], [144.90761048642, -37.819251075022], [144.907600718515, -37.819238942944], [144.907586140004, -37.819220561389], [144.907585371634, -37.819219768286], [144.907584646019, -37.819218954218], [144.907584012064, -37.819218093641], [144.907583474593, -37.819217193106], [144.907583037699, -37.819216259469], [144.907582704707, -37.819215299837], [144.907582478153, -37.819214321517], [144.907582359761, -37.819213331955], [144.907582350432, -37.819212338685], [144.907582450238, -37.819211349269], [144.907582658419, -37.819210371238], [144.90758297339, -37.819209412039], [144.907583392752, -37.819208478973], [144.907583913315, -37.819207579144], [144.907584531114, -37.819206719401], [144.907585241446, -37.819205906291], [144.907586038904, -37.819205146002], [144.907586917418, -37.819204444323], [144.907587870298, -37.819203806595], [144.907588890292, -37.819203237674], [144.907589993471, -37.819202777747], [144.907596860681, -37.819199358199], [144.907597839801, -37.819199122007], [144.907598848775, -37.819198978217], [144.907599870388, -37.819198904521], [144.907600896941, -37.819198901473], [144.907601920697, -37.819198969098], [144.90760293394, -37.819199106885], [144.907603929035, -37.819199313797], [144.907604898482, -37.819199588272], [144.907605834974, -37.819199928244], [144.907606731454, -37.81920033115], [144.907607581166, -37.819200793952], [144.907608377705, -37.819201313165], [144.907609115068, -37.819201884873], [144.907609825274, -37.819202481344], [144.90759734927, -37.819171196393], [144.907584879895, -37.819148526717], [144.907581919255, -37.819144752281], [144.907569717854, -37.8191340369], [144.907556927531, -37.819123822865], [144.907543023539, -37.819114572046], [144.907528122378, -37.819106361955], [144.907512348905, -37.819099261384], [144.907495835284, -37.819093329828], [144.907478719883, -37.819088616987], [144.90746119589, -37.819084956407], [144.907436344107, -37.819080937195], [144.907411931535, -37.819075479225], [144.90738817332, -37.819068401067], [144.90736524078, -37.819059753761], [144.907343299278, -37.81904959966], [144.90732250703, -37.819038011985], [144.907303013967, -37.819025074293], [144.90728496065, -37.819010879875], [144.90726847726, -37.818995531085], [144.907253682654, -37.818979138602], [144.907240683516, -37.818961820629], [144.907229573579, -37.818943702043], [144.907220432957, -37.818924913495], [144.90721332756, -37.818905590466], [144.907207898084, -37.818885921217], [144.907094934041, -37.818289604248], [144.907091249731, -37.818276275838], [144.907086426237, -37.818263183128], [144.907080220593, -37.818250454141], [144.907072677758, -37.818238181095], [144.907063852377, -37.818226452904], [144.907053808389, -37.818215354538], [144.90704261856, -37.8182049664], [144.907030363957, -37.818195363751], [144.907017610291, -37.818186118482], [144.906998764701, -37.818174032256], [144.90698778222, -37.818163684972], [144.906977437107, -37.81815298576], [144.906968352922, -37.818141592436], [144.906960604924, -37.818129599386], [144.906954257298, -37.818117105967], [144.906949362632, -37.818104215678], [144.906945705792, -37.818091065703], [144.906912463845, -37.817915024691], [144.907197318833, -37.81788031249], [144.907276235382, -37.817882435205], [144.907297367029, -37.81799284604], [144.907210293831, -37.81808665001], [144.907347906677, -37.818805193246], [144.907351782523, -37.818819087341], [144.90735686397, -37.818832729595], [144.907363402049, -37.818845984028], [144.90737134827, -37.818858752342], [144.907380643703, -37.818870939841], [144.90739121941, -37.818882456141], [144.907402996957, -37.818893215833], [144.907415888999, -37.818903139118], [144.907429799923, -37.818912152403], [144.907444626563, -37.818920188843], [144.907460258959, -37.818927188836], [144.907476581176, -37.818933100469], [144.907493472163, -37.818937879899], [144.907510806652, -37.818941491679], [144.907528456084, -37.818943909025], [144.907546289056, -37.818945126013], [144.90811836597, -37.818960510112], [144.908186125345, -37.818893280216]]]]}}