{"type": "Feature", "properties": {"seg_id": "30042", "street_id": "30042", "name": "Anderson Road", "str_type": "Port Roads", "status_id": "5", "seg_part": "1", "poly_area": "10745", "gisid": "29"}, "geometry": {"type": "MultiPolygon", "coordinates": [[[[144.924788078212, -37.812773755876], [144.924730486094, -37.812588577618], [144.924530742493, -37.812528256241], [144.923199378612, -37.812392511936], [144.922989556011, -37.812550069093], [144.922649395142, -37.812515383177], [144.922336353013, -37.812405347623], [144.92146395995, -37.812316343398], [144.921480088437, -37.811936774945], [144.923026845041, -37.812094441738], [144.923012376126, -37.812184330597], [144.92535073795, -37.812422650291], [144.924788078212, -37.812773755876]], [[144.922538794423, -37.812401647092], [144.922530344701, -37.812455286163], [144.92264303093, -37.812466459907], [144.922651480598, -37.812412819924], [144.922538794423, -37.812401647092]]]]}}