{"type": "Feature", "properties": {"seg_id": "30048", "street_id": "30048", "name": "Pl5332", "str_type": "Private", "status_id": "4", "seg_part": "1", "poly_area": "334", "gisid": "32"}, "geometry": {"type": "MultiPolygon", "coordinates": [[[[144.931347395146, -37.802345741388], [144.931400522074, -37.802341647006], [144.931329214879, -37.802744110819], [144.931597707649, -37.802772763206], [144.931596612593, -37.802779038664], [144.931591436972, -37.802813638406], [144.931472074673, -37.802800900712], [144.931270560662, -37.802779395884], [144.931347395146, -37.802345741388]]]]}}