{"type": "Feature", "properties": {"seg_id": "30043", "street_id": "30043", "name": "Appleton Dock Road", "str_type": "Port Roads", "status_id": "5", "seg_part": "1", "poly_area": "22496", "gisid": "30"}, "geometry": {"type": "MultiPolygon", "coordinates": [[[[144.92535073795, -37.812422650291], [144.926663804698, -37.81160322053], [144.927175176155, -37.811284182107], [144.927398792254, -37.811494286508], [144.9269086607, -37.811799836226], [144.926811719542, -37.81186033096], [144.924541933181, -37.813276731448], [144.924473883639, -37.813318887472], [144.924413592847, -37.813368004346], [144.924359080704, -37.813421212529], [144.924310777996, -37.813478091541], [144.924269066438, -37.813538191892], [144.924234275658, -37.813601038634], [144.924206680595, -37.813666135116], [144.924187862169, -37.813733184146], [144.924047474002, -37.814198108294], [144.923752195593, -37.814382218882], [144.923634593072, -37.81444252861], [144.923565303135, -37.814474503115], [144.922458863092, -37.815165470166], [144.922109608222, -37.815370418908], [144.921932592917, -37.81545261677], [144.921875820154, -37.815488175237], [144.921918014879, -37.815557661177], [144.921773507358, -37.815612860326], [144.921248018828, -37.815813583687], [144.921103243598, -37.815566146469], [144.921494720755, -37.815418070962], [144.921652670369, -37.81531943603], [144.922327728267, -37.814897877093], [144.923528085778, -37.814148257589], [144.923581438104, -37.814115520169], [144.923628854323, -37.814077405032], [144.923672018596, -37.814036225672], [144.923710623412, -37.813992275457], [144.923744393742, -37.813945867498], [144.923773089001, -37.813897332415], [144.923796504757, -37.81384701598], [144.923813148481, -37.813795025924], [144.923859517931, -37.813641655991], [144.923886900383, -37.813556189373], [144.923925409345, -37.813473473918], [144.923972583744, -37.813393682702], [144.924028088566, -37.813317382372], [144.924091529637, -37.813245114782], [144.924162456422, -37.81317739315], [144.924240365229, -37.813114698407], [144.924328035441, -37.813060836282], [144.924788078212, -37.812773755876], [144.92535073795, -37.812422650291]]]]}}