{"type": "Feature", "properties": {"seg_id": "30047", "street_id": "30047", "name": "Browns Hill Place", "str_type": "Private", "status_id": "4", "seg_part": "1", "poly_area": "756", "gisid": "31"}, "geometry": {"type": "MultiPolygon", "coordinates": [[[[144.930816100918, -37.802523524732], [144.930843131304, -37.802549473143], [144.930777956103, -37.802966469391], [144.930714186522, -37.80295493938], [144.930713973072, -37.802874409535], [144.930658358445, -37.802857628375], [144.930706509345, -37.802563634206], [144.930545113522, -37.802408838628], [144.930651578691, -37.802344053419], [144.930816100918, -37.802523524732]]]]}}