{"type": "Feature", "properties": {"seg_id": "30050", "street_id": "30050", "name": "South Kensington Railway", "str_type": "Rail/Tram", "status_id": "9", "seg_part": "1", "poly_area": "787", "gisid": "33"}, "geometry": {"type": "MultiPolygon", "coordinates": [[[[144.932625194109, -37.800891501857], [144.932568097448, -37.801010137429], [144.932145348034, -37.800918890324], [144.932156275526, -37.800912191839], [144.932489534714, -37.800732588171], [144.93268289096, -37.800771618751], [144.932625194109, -37.800891501857]]]]}}