{"type": "Feature", "properties": {"seg_id": "30067", "street_id": "30067", "name": "Moonee Ponds Creek", "str_type": "River", "status_id": "8", "seg_part": "1", "poly_area": "737", "gisid": "40"}, "geometry": {"type": "MultiPolygon", "coordinates": [[[[144.935035217687, -37.809161447841], [144.935226814129, -37.808985303068], [144.935269722562, -37.808927805462], [144.935460579123, -37.809067426317], [144.935536975637, -37.809121396033], [144.935436307979, -37.8092236489], [144.93530286617, -37.809201888991], [144.935169165233, -37.809181154658], [144.935035217687, -37.809161447841]]]]}}