{"type": "Feature", "properties": {"seg_id": "30064", "street_id": "30064", "name": "MacKenzie Road", "str_type": "Port Roads", "status_id": "5", "seg_part": "1", "poly_area": "23748", "gisid": "39"}, "geometry": {"type": "MultiPolygon", "coordinates": [[[[144.908460640231, -37.812468546792], [144.908466725526, -37.812326098167], [144.908476706225, -37.812049523951], [144.908830737945, -37.812058700256], [144.908819711247, -37.812125471248], [144.908813630675, -37.812192674827], [144.9088104223, -37.812260019138], [144.908683412067, -37.815237281266], [144.908887994117, -37.81537059015], [144.908883101058, -37.81553045696], [144.908660025243, -37.815785436535], [144.908557543665, -37.818187413536], [144.908573752018, -37.818217680586], [144.908563140869, -37.81840795296], [144.908456557699, -37.818405099925], [144.908425481019, -37.819133452673], [144.908270846905, -37.819130277544], [144.90818328849, -37.819146220847], [144.908151876544, -37.819161915319], [144.908183178381, -37.818962252777], [144.908186125345, -37.818893280216], [144.908460640231, -37.812468546792]]]]}}