{"type": "Feature", "properties": {"seg_id": "30072", "street_id": "30072", "name": "South Kensington Railway", "str_type": "Rail/Tram", "status_id": "9", "seg_part": "1", "poly_area": "22671", "gisid": "3861"}, "geometry": {"type": "MultiPolygon", "coordinates": [[[[144.933467611427, -37.800378563675], [144.933592951343, -37.800509951772], [144.93345911391, -37.800590285847], [144.933631448025, -37.800752052564], [144.933811816236, -37.800905128496], [144.934009557239, -37.801054299567], [144.934199791673, -37.801181504095], [144.934403485985, -37.801305790311], [144.934620594914, -37.801427643083], [144.934848776251, -37.801545851541], [144.935077979068, -37.801660481791], [144.935471897109, -37.801856317753], [144.935740151339, -37.801989018608], [144.935332578355, -37.802624437998], [144.935323761807, -37.802635149766], [144.934932123748, -37.802430601974], [144.934056517018, -37.801973625512], [144.933917973797, -37.80187550827], [144.933582726197, -37.801633817664], [144.933546859322, -37.80160765533], [144.933110005198, -37.801344153583], [144.932883269402, -37.801237768929], [144.93278826423, -37.801057658076], [144.932750354241, -37.801049475895], [144.932807896824, -37.800930846257], [144.932867096071, -37.800808801383], [144.932887314223, -37.800812882637], [144.932895358236, -37.800784592364], [144.932907115578, -37.800757137522], [144.932921913269, -37.800730642266], [144.932939633861, -37.800705316889], [144.932960136706, -37.800681362394], [144.932983259076, -37.800658968907], [144.93300881745, -37.800638314163], [144.933036608974, -37.800619562097], [144.933066413068, -37.800602861543], [144.933098665137, -37.800589357931], [144.933354490712, -37.800446357279], [144.933467611427, -37.800378563675]]]]}}