{"type": "Feature", "properties": {"seg_id": "30071", "street_id": "30071", "name": "North Dynon Railway", "str_type": "Rail/Tram", "status_id": "9", "seg_part": "1", "poly_area": "11465", "gisid": "3862"}, "geometry": {"type": "MultiPolygon", "coordinates": [[[[144.932839758586, -37.802558577449], [144.933096962408, -37.801967212139], [144.933587242889, -37.80202146453], [144.933730378302, -37.801845633953], [144.933672847918, -37.801809937417], [144.933384544036, -37.801620810835], [144.933031943857, -37.801435506967], [144.933006686626, -37.801471741391], [144.932883269402, -37.801237768929], [144.933110005198, -37.801344153583], [144.933546859322, -37.80160765533], [144.933582726197, -37.801633817664], [144.933917973797, -37.80187550827], [144.934056517018, -37.801973625512], [144.934932123748, -37.802430601974], [144.935323761807, -37.802635149766], [144.935003726142, -37.803023702331], [144.934867653096, -37.80294317084], [144.934817309862, -37.802996714321], [144.934696523792, -37.802907484055], [144.9346969186, -37.80290668443], [144.933973867443, -37.802373671643], [144.933214795375, -37.802348191176], [144.932839758586, -37.802558577449]]]]}}