{"type": "Feature", "properties": {"seg_id": "30070", "street_id": "30070", "name": "North Dynon Railway", "str_type": "Rail/Tram", "status_id": "9", "seg_part": "1", "poly_area": "2400", "gisid": "42"}, "geometry": {"type": "MultiPolygon", "coordinates": [[[[144.932836759337, -37.802012130001], [144.932741839246, -37.80223022741], [144.932374743371, -37.802228753336], [144.931860402914, -37.802194115424], [144.931468804939, -37.802175405833], [144.930953129005, -37.802168629102], [144.931189662488, -37.802031027599], [144.931544442499, -37.802049185124], [144.93279241831, -37.802079747963], [144.932823991691, -37.80201744809], [144.932836759337, -37.802012130001]]]]}}