{"type": "Feature", "properties": {"seg_id": "30082", "street_id": "30082", "name": "Southern Cross Railway", "str_type": "Rail/Tram", "status_id": "9", "seg_part": "1", "poly_area": "62356", "gisid": "50"}, "geometry": {"type": "MultiPolygon", "coordinates": [[[[144.950528886246, -37.81770314201], [144.950518995376, -37.81768559522], [144.950348197473, -37.81737707833], [144.950311866211, -37.817314801527], [144.950274611951, -37.817252868851], [144.950236439873, -37.817191288912], [144.950078683816, -37.816948978102], [144.950009402932, -37.816844666283], [144.949939261618, -37.81674071701], [144.949868262892, -37.81663713475], [144.949336787414, -37.815870504529], [144.949238607976, -37.815738454368], [144.949136078767, -37.815608501359], [144.949029270942, -37.815480735655], [144.948873420208, -37.815304220493], [144.948507385588, -37.814927197215], [144.948046120994, -37.814355562103], [144.948003578861, -37.814302840122], [144.949894866932, -37.813755649438], [144.950123170808, -37.813968011702], [144.950126341412, -37.81397096147], [144.950121001803, -37.813974969755], [144.950321736827, -37.814180214542], [144.950184755815, -37.814258153417], [144.950262196553, -37.814346822585], [144.950355423052, -37.814452478762], [144.950410464865, -37.814520923991], [144.95045608118, -37.814582491386], [144.950507914845, -37.814651567423], [144.950532149409, -37.814685898621], [144.950593778321, -37.81476537434], [144.950957336038, -37.815186776022], [144.951075830601, -37.815365027456], [144.951007081682, -37.815384887952], [144.951025564716, -37.815408312986], [144.950946639118, -37.815431114417], [144.950779456365, -37.815532441016], [144.95075223102, -37.81554598495], [144.951178070096, -37.816155495914], [144.951155307877, -37.816166819605], [144.951564070832, -37.816683908657], [144.951435936018, -37.816747617383], [144.951741373192, -37.817228290389], [144.951608436718, -37.817294387679], [144.95116025058, -37.816731075587], [144.950869107151, -37.816364570848], [144.950832011291, -37.816383115755], [144.950752229357, -37.816282681037], [144.950734002817, -37.816291792801], [144.950467111617, -37.815989234719], [144.950424845434, -37.815959009896], [144.950398326425, -37.81597226685], [144.950483385683, -37.816063376849], [144.950565230008, -37.816156321639], [144.950643796537, -37.816251029843], [144.951063792626, -37.816779734878], [144.95162316541, -37.817486971522], [144.95113426266, -37.817628424933], [144.951130371893, -37.817619960994], [144.950624264752, -37.817766390157], [144.950599450479, -37.817748607848], [144.950574013022, -37.817731388586], [144.950547972677, -37.81771474611], [144.950541643595, -37.817710843934], [144.950535281355, -37.817706975842], [144.950528886246, -37.81770314201]]]]}}