{"type": "Feature", "properties": {"seg_id": "30089", "street_id": "30089", "name": "Pl5261", "str_type": "Private", "status_id": "4", "seg_part": "1", "poly_area": "356", "gisid": "54"}, "geometry": {"type": "MultiPolygon", "coordinates": [[[[144.956401556937, -37.819499233967], [144.956187301633, -37.819023755759], [144.956253432761, -37.819005097658], [144.956278287732, -37.819059379649], [144.956278928965, -37.819059196126], [144.956281917494, -37.819065715726], [144.95647074047, -37.819479687002], [144.956401556937, -37.819499233967]]]]}}