{"type": "Feature", "properties": {"seg_id": "30080", "street_id": "30080", "name": "Southern Cross Railway", "str_type": "Rail/Tram", "status_id": "9", "seg_part": "1", "poly_area": "38215", "gisid": "48"}, "geometry": {"type": "MultiPolygon", "coordinates": [[[[144.945596322256, -37.811958297047], [144.946151312956, -37.811746906464], [144.947164882627, -37.812462480078], [144.948169618091, -37.81320809401], [144.948264706436, -37.813118575575], [144.947948823869, -37.812883733942], [144.948074265216, -37.81276827985], [144.947886300196, -37.812597402039], [144.948087593214, -37.812418559234], [144.947613729953, -37.811731053429], [144.947379423443, -37.811279117289], [144.947730540473, -37.811145372518], [144.947740636346, -37.811163298003], [144.947809782077, -37.811190978711], [144.94800294602, -37.811584214612], [144.948027013302, -37.811633209108], [144.948097684668, -37.811695327569], [144.948159455688, -37.811806416597], [144.948157737988, -37.811876665624], [144.948159829557, -37.811907793476], [144.948162733079, -37.811921902386], [144.948167778826, -37.81193658933], [144.948173583098, -37.811948495851], [144.948180315611, -37.811959697608], [144.94819296466, -37.811974607158], [144.948223475242, -37.812004967667], [144.948256022022, -37.812035634001], [144.948285858893, -37.812065713304], [144.94831003263, -37.812091097035], [144.948325976744, -37.812110119268], [144.948293542492, -37.812161551867], [144.948302265319, -37.812187026847], [144.948372259119, -37.812329821758], [144.948383232451, -37.812339655515], [144.948409879847, -37.81233723605], [144.948450823925, -37.812384630242], [144.948430390292, -37.812408786157], [144.94851573108, -37.812514269421], [144.948619450364, -37.812628814197], [144.948661397788, -37.812668655935], [144.948779093324, -37.812762536821], [144.948937925583, -37.812888674347], [144.949089317445, -37.813020991188], [144.949171845347, -37.813092721083], [144.949405580514, -37.813300816727], [144.949412936301, -37.813307362089], [144.949666805792, -37.813543510852], [144.947821634367, -37.81407735777], [144.947781943595, -37.814028169343], [144.947515442104, -37.813723298054], [144.947231737178, -37.813428359431], [144.946931416303, -37.813143964], [144.946899782616, -37.813115522003], [144.946771227945, -37.812995733775], [144.946640035843, -37.812877759145], [144.946506246963, -37.812761634661], [144.946501838156, -37.812757873775], [144.945986043499, -37.812289008436], [144.945682056836, -37.812031050454], [144.945596322256, -37.811958297047]]]]}}