{"type": "Feature", "properties": {"seg_id": "30122", "street_id": "30122", "name": "Pl5249", "str_type": "Private", "status_id": "4", "seg_part": "1", "poly_area": "62", "gisid": "82"}, "geometry": {"type": "MultiPolygon", "coordinates": [[[[144.96400027652, -37.815069533148], [144.963995199623, -37.815058297817], [144.963925337136, -37.814903664594], [144.963923572411, -37.814899758121], [144.963956443728, -37.814890368532], [144.96403401184, -37.815059749344], [144.96400027652, -37.815069533148]]]]}}