{"type": "Feature", "properties": {"seg_id": "30147", "street_id": "30147", "name": "Block Arcade", "str_type": "Private", "status_id": "4", "seg_part": "1", "poly_area": "301", "gisid": "100"}, "geometry": {"type": "MultiPolygon", "coordinates": [[[[144.964664675756, -37.815898523097], [144.964662670024, -37.815858267147], [144.964597345532, -37.815714607975], [144.964600708906, -37.81567421053], [144.96453172426, -37.815522499126], [144.964487609458, -37.815510447482], [144.964452496739, -37.815520495978], [144.964435462639, -37.815483246081], [144.964470640782, -37.815473131132], [144.964492607428, -37.815436473449], [144.964539984702, -37.815422511372], [144.964586490508, -37.815439821235], [144.964602766131, -37.815475613416], [144.964580552306, -37.815509071277], [144.964647032458, -37.81565527373], [144.964635181127, -37.815682313216], [144.964708983595, -37.815844619153], [144.964740800002, -37.815876090253], [144.964664675756, -37.815898523097]]]]}}