{"type": "Feature", "properties": {"seg_id": "30155", "street_id": "30155", "name": "Block Court", "str_type": "Private", "status_id": "4", "seg_part": "1", "poly_area": "58", "gisid": "105"}, "geometry": {"type": "MultiPolygon", "coordinates": [[[[144.964495610339, -37.815948345465], [144.964503624353, -37.815935411549], [144.96444785553, -37.815812484122], [144.964486143265, -37.815801200934], [144.964542876444, -37.815923844022], [144.964557294309, -37.815930168086], [144.964495610339, -37.815948345465]]]]}}