{"type": "Feature", "properties": {"seg_id": "30158", "street_id": "30158", "name": "Lees Place", "str_type": "Private", "status_id": "4", "seg_part": "1", "poly_area": "132", "gisid": "107"}, "geometry": {"type": "MultiPolygon", "coordinates": [[[[144.970244816921, -37.811760514289], [144.970238449623, -37.811762441191], [144.970239237079, -37.811764131856], [144.970026187646, -37.811828633215], [144.970001314542, -37.811775179149], [144.970213834911, -37.811709543143], [144.970214622366, -37.811711233808], [144.970220972431, -37.811709272365], [144.970244816921, -37.811760514289]]]]}}