{"type": "Feature", "properties": {"seg_id": "30173", "street_id": "30173", "name": "Chapter House Lane", "str_type": "Private", "status_id": "4", "seg_part": "1", "poly_area": "421", "gisid": "118"}, "geometry": {"type": "MultiPolygon", "coordinates": [[[[144.968138390958, -37.817115929871], [144.967883921726, -37.816558218014], [144.96789850087, -37.816554036742], [144.967781881837, -37.816298140167], [144.967811441413, -37.816289598027], [144.967928086231, -37.816545551793], [144.967938766695, -37.816542488279], [144.96819288369, -37.817100092112], [144.968138390958, -37.817115929871]]]]}}