{"type": "Feature", "properties": {"seg_id": "30186", "street_id": "30186", "name": "Pl5363", "str_type": "Private", "status_id": "4", "seg_part": "1", "poly_area": "101", "gisid": "128"}, "geometry": {"type": "MultiPolygon", "coordinates": [[[[144.965742635273, -37.817333413399], [144.965757104354, -37.817364326785], [144.96546300354, -37.817450365901], [144.965448620444, -37.817419427832], [144.965465421769, -37.817414506648], [144.96546558666, -37.817414459031], [144.965497598059, -37.817405019922], [144.965742635273, -37.817333413399]]]]}}