{"type": "Feature", "properties": {"seg_id": "30184", "street_id": "30184", "name": "PL5370", "str_type": "Private", "status_id": "4", "seg_part": "1", "poly_area": "43", "gisid": "126"}, "geometry": {"type": "MultiPolygon", "coordinates": [[[[144.966594040683, -37.811395566631], [144.96658358187, -37.811373188236], [144.966739779382, -37.811325305127], [144.966751745176, -37.811351093449], [144.966703168476, -37.811365494447], [144.96665497061, -37.81137813476], [144.966654000381, -37.81137838926], [144.966654592654, -37.811379655728], [144.966594040683, -37.811395566631]]]]}}