{"type": "Feature", "properties": {"seg_id": "30182", "street_id": "30182", "name": "Midtown Plaza", "str_type": "Private", "status_id": "4", "seg_part": "1", "poly_area": "382", "gisid": "124"}, "geometry": {"type": "MultiPolygon", "coordinates": [[[[144.965662616514, -37.813195678825], [144.965640054299, -37.813146655235], [144.96583981612, -37.813087748566], [144.965916758835, -37.812950906688], [144.965874627294, -37.812858698654], [144.965832958419, -37.812870606099], [144.965822926538, -37.812848649558], [144.965897530047, -37.812827196258], [144.965861683349, -37.812748739697], [144.965886230195, -37.812741680375], [144.965938805018, -37.812856747815], [144.965987374358, -37.812842780487], [144.966001172427, -37.812872581026], [144.965993152357, -37.81287487296], [144.965991290093, -37.812875416584], [144.96598952236, -37.812876132693], [144.965987841713, -37.81287696945], [144.965986261072, -37.812877920424], [144.965984792589, -37.812878978303], [144.965983447554, -37.812880134954], [144.965982236308, -37.812881381485], [144.965981168163, -37.812882708313], [144.96598025133, -37.812884105237], [144.965979492858, -37.812885561518], [144.965978898578, -37.812887065959], [144.965978473059, -37.812888606994], [144.965978219573, -37.812890172777], [144.965978140068, -37.812891751269], [144.965978235155, -37.812893330335], [144.965978504104, -37.812894897836], [144.965978944846, -37.812896441719], [144.965979496265, -37.812897966718], [144.965998919371, -37.812940476389], [144.96598067186, -37.812934018762], [144.965950264556, -37.81298809938], [144.965986991341, -37.813001097047], [144.96600840882, -37.812994781185], [144.966022515069, -37.813025481012], [144.9659973734, -37.813032895062], [144.966004665525, -37.81304876638], [144.965910448917, -37.81307654964], [144.965868334954, -37.81314530913], [144.965817246446, -37.813160373775], [144.965806023132, -37.813136382521], [144.965725287653, -37.813160190032], [144.965703047847, -37.813183756371], [144.965662616514, -37.813195678825]]]]}}