{"type": "Feature", "properties": {"seg_id": "30189", "street_id": "30189", "name": "McCrackens Lane", "str_type": "Private", "status_id": "4", "seg_part": "1", "poly_area": "134", "gisid": "129"}, "geometry": {"type": "MultiPolygon", "coordinates": [[[[144.957322379584, -37.817553719114], [144.957364989179, -37.817646580886], [144.957351962593, -37.817650293032], [144.957361656583, -37.81767170279], [144.957374696897, -37.817667987277], [144.957426823425, -37.817781558203], [144.957365332765, -37.817798869125], [144.957345779172, -37.817757605767], [144.957354877564, -37.817755044764], [144.957269558523, -37.817568987834], [144.957322379584, -37.817553719114]]]]}}