{"type": "Feature", "properties": {"seg_id": "30185", "street_id": "30185", "name": "St Johns Lane", "str_type": "Private", "status_id": "4", "seg_part": "1", "poly_area": "74", "gisid": "127"}, "geometry": {"type": "MultiPolygon", "coordinates": [[[[144.959713755843, -37.81408871895], [144.959699265921, -37.814092962036], [144.959672302009, -37.81403181687], [144.959670486085, -37.814032336923], [144.959542850417, -37.813751834125], [144.959575272546, -37.813742421754], [144.959606686544, -37.813812202518], [144.959607834201, -37.813814747499], [144.959591705279, -37.813819357786], [144.959639174978, -37.813924157074], [144.959650169541, -37.813920988008], [144.959659516227, -37.813942065347], [144.959648774359, -37.813945256817], [144.959713755843, -37.81408871895]]]]}}