{"type": "Feature", "properties": {"seg_id": "30198", "street_id": "30198", "name": "Regent Place", "str_type": "Private", "status_id": "4", "seg_part": "1", "poly_area": "1156", "gisid": "137"}, "geometry": {"type": "MultiPolygon", "coordinates": [[[[144.967793263383, -37.816197189488], [144.967688591089, -37.816227255677], [144.967652381659, -37.816136552724], [144.96764255517, -37.816132172819], [144.967640952289, -37.816132629084], [144.967633851, -37.816116942298], [144.967635453881, -37.816116486033], [144.967640098464, -37.816109418973], [144.967618027787, -37.816060661979], [144.967608584748, -37.816057129488], [144.967606981843, -37.816057586653], [144.967596616948, -37.816034691797], [144.967605168362, -37.81603225573], [144.967591542098, -37.816002153747], [144.967573371067, -37.816007330062], [144.967557057459, -37.815971292502], [144.967550923502, -37.815972892902], [144.967544583091, -37.815973907162], [144.967538150556, -37.815974475581], [144.967531675448, -37.815974593782], [144.967525207647, -37.815974260852], [144.967518796975, -37.815973479358], [144.967512492816, -37.815972255319], [144.967506343733, -37.815970598164], [144.967500397093, -37.815968520659], [144.967494698706, -37.815966038807], [144.967489292468, -37.815963171727], [144.967484220024, -37.815959941504], [144.967479520448, -37.815956373022], [144.967475229944, -37.815952493771], [144.967471381562, -37.815948333632], [144.967468004947, -37.815943924653], [144.967465126109, -37.815939300797], [144.96746258903, -37.815934544791], [144.967452968255, -37.815937285911], [144.967369832693, -37.815753633861], [144.967379453446, -37.815750892747], [144.967377680595, -37.815745939081], [144.967376267626, -37.81574092475], [144.967375411877, -37.815735835073], [144.967375119908, -37.815730709082], [144.96737539396, -37.815725586086], [144.967376231931, -37.815720505372], [144.967377627395, -37.8157155059], [144.96737956965, -37.815710626011], [144.967382043803, -37.815705903126], [144.967385030879, -37.815701373463], [144.967388507973, -37.815697071759], [144.967392448418, -37.815693031002], [144.967396821999, -37.815689282178], [144.967401595175, -37.815685854036], [144.967406731343, -37.815682772865], [144.967412191116, -37.815680062293], [144.967417932624, -37.815677743107], [144.967423979839, -37.815675983308], [144.967412464774, -37.815650545288], [144.967401775857, -37.815653589685], [144.967394098388, -37.815636631292], [144.96741385392, -37.815631002929], [144.967414621896, -37.815632698682], [144.967423173269, -37.815630262627], [144.967419334546, -37.81562178298], [144.967410783174, -37.815624219036], [144.967403490274, -37.815608108078], [144.967405094281, -37.815607651836], [144.967410615349, -37.815599856444], [144.967400060004, -37.815576537434], [144.967389547675, -37.815573309989], [144.967387944804, -37.815573766251], [144.967381227025, -37.815558927768], [144.967390847752, -37.815556186652], [144.967385857628, -37.815545163835], [144.967382116059, -37.815546229321], [144.967352176558, -37.815480089729], [144.967355916988, -37.815479024225], [144.967351311441, -37.815468848842], [144.967347569875, -37.815469914327], [144.967334711783, -37.815441508071], [144.967338452212, -37.815440442567], [144.967334421804, -37.815431538759], [144.967324802251, -37.81543427899], [144.967314505002, -37.81541153307], [144.967415890477, -37.815381736686], [144.967426133023, -37.815403868853], [144.967418774675, -37.815405965033], [144.967441037883, -37.815455146238], [144.967448834736, -37.815452925153], [144.967455489022, -37.815467303837], [144.967450250137, -37.815475497016], [144.967460997214, -37.815499239279], [144.967472123069, -37.815503249617], [144.967478777363, -37.8155176283], [144.967470402319, -37.815520014234], [144.967475584158, -37.815531461207], [144.967484061097, -37.815529046391], [144.967491694553, -37.815545539013], [144.967484796431, -37.815551811982], [144.967495543529, -37.815575554243], [144.967507545771, -37.815579793284], [144.967513808647, -37.815593326213], [144.967504755812, -37.815595905017], [144.967529706477, -37.815651021782], [144.967539250495, -37.81564830276], [144.96754962284, -37.815670716522], [144.967539878463, -37.815673492464], [144.967544292343, -37.815683243682], [144.967548779259, -37.815681965762], [144.967586550717, -37.815763583918], [144.967591895193, -37.815762061261], [144.967622217695, -37.81582758469], [144.967616878596, -37.815829118256], [144.967650734741, -37.815902277959], [144.967656074981, -37.815900744411], [144.967748643046, -37.816100771226], [144.967743907419, -37.816108838828], [144.967779134418, -37.816184958186], [144.967786608947, -37.816182811721], [144.967793263383, -37.816197189488]]]]}}