{"type": "Feature", "properties": {"seg_id": "30206", "street_id": "30206", "name": "Monash Road", "str_type": "Private", "status_id": "4", "seg_part": "1", "poly_area": "1424", "gisid": "145"}, "geometry": {"type": "MultiPolygon", "coordinates": [[[[144.964135879036, -37.798467871518], [144.964116560836, -37.798580581328], [144.963991250575, -37.798566220181], [144.963984007199, -37.798564740891], [144.963976901838, -37.798562893593], [144.963970003357, -37.798560597352], [144.96396335696, -37.798557867213], [144.963957006197, -37.798554721065], [144.963950769815, -37.79855139975], [144.963937211733, -37.798546974863], [144.962749956549, -37.798413179307], [144.962746863396, -37.798412830211], [144.962646346716, -37.798402126371], [144.961973507126, -37.798330343146], [144.961917577902, -37.798323292273], [144.961745353712, -37.798301580579], [144.961758603849, -37.798225935247], [144.961759512374, -37.798228658313], [144.961760640167, -37.798231327491], [144.961762047161, -37.798233913342], [144.961763723301, -37.798236397386], [144.96176565661, -37.798238761875], [144.961767833275, -37.798240989911], [144.961770237741, -37.798243065576], [144.961772852826, -37.798244974036], [144.961775659846, -37.798246701655], [144.96177863874, -37.798248236087], [144.961781768225, -37.798249566369], [144.961785025936, -37.798250682994], [144.961788388597, -37.798251577984], [144.961791832179, -37.798252244944], [144.961795329233, -37.798252700526], [144.962451445863, -37.798323904343], [144.962604241724, -37.798341776909], [144.96387616961, -37.798483123582], [144.963887567113, -37.798482616141], [144.963898854011, -37.7984812923], [144.963909861997, -37.798478967719], [144.964014700183, -37.798448646969], [144.964136747076, -37.79846281199], [144.964135879036, -37.798467871518]]]]}}