{"type": "Feature", "properties": {"seg_id": "30200", "street_id": "30200", "name": "Spencer Road", "str_type": "Private", "status_id": "4", "seg_part": "1", "poly_area": "1047", "gisid": "139"}, "geometry": {"type": "MultiPolygon", "coordinates": [[[[144.963310950475, -37.796605147128], [144.963309293904, -37.796605676917], [144.963307728348, -37.796606359905], [144.963306241263, -37.796607144865], [144.963304843062, -37.796608026301], [144.963303543534, -37.796608998041], [144.963302351779, -37.796610053282], [144.963301276141, -37.796611184634], [144.963300324153, -37.796612384175], [144.963299502479, -37.796613643508], [144.963298816874, -37.796614953813], [144.963298312563, -37.79661631495], [144.96327473358, -37.796954873621], [144.963347631502, -37.797127560962], [144.96327221865, -37.797562492731], [144.963236619282, -37.797558605765], [144.963212838117, -37.797700248965], [144.963102914435, -37.797688628541], [144.963106081466, -37.79768816138], [144.96310916707, -37.797687428599], [144.963112154668, -37.797686477496], [144.963115019938, -37.797685315814], [144.963117739557, -37.79768395301], [144.963120291387, -37.797682400176], [144.963122654654, -37.797680669954], [144.963124810121, -37.797678776428], [144.963126740241, -37.797676735012], [144.963128429304, -37.797674562323], [144.963129863559, -37.797672276048], [144.963131031332, -37.797669894798], [144.963131863057, -37.79766742617], [144.963204372429, -37.797262942862], [144.963269981762, -37.797173275773], [144.963256328453, -37.797094967876], [144.963170228955, -37.796980973883], [144.963204240316, -37.796745094777], [144.963228149112, -37.796596765218], [144.963310950475, -37.796605147128]]]]}}