{"type": "Feature", "properties": {"seg_id": "30211", "street_id": "30211", "name": "Engineering Lane", "str_type": "Private", "status_id": "4", "seg_part": "1", "poly_area": "633", "gisid": "150"}, "geometry": {"type": "MultiPolygon", "coordinates": [[[[144.961353711903, -37.79928383939], [144.961379491994, -37.799149120753], [144.961381761069, -37.799151051906], [144.961384138041, -37.799152888604], [144.961386714838, -37.799154546475], [144.961389469881, -37.799156011635], [144.961392380098, -37.799157271814], [144.961395421116, -37.799158316458], [144.961398567468, -37.79915913682], [144.961401785464, -37.799159759374], [144.962214348758, -37.799240599183], [144.96232140515, -37.799251249843], [144.962324712484, -37.799253451669], [144.962328108832, -37.799255548656], [144.962331713684, -37.799257412089], [144.962335501325, -37.799259028676], [144.962339444736, -37.799260386884], [144.962343515788, -37.799261477026], [144.962347672647, -37.799262343655], [144.962382023456, -37.799265942546], [144.962368542843, -37.79934321148], [144.962098776636, -37.799313424042], [144.962059785395, -37.799309118446], [144.962060730476, -37.799303038334], [144.962061366869, -37.799301372178], [144.962061759902, -37.799299656434], [144.962061960266, -37.799297918621], [144.962061966395, -37.799296172314], [144.962061778243, -37.799294431154], [144.962061397277, -37.799292708742], [144.962060826476, -37.799291018531], [144.962060070296, -37.799289373725], [144.962059134645, -37.799287787172], [144.962058026831, -37.799286271264], [144.962056755508, -37.799284837843], [144.962055330607, -37.799283498105], [144.962053763257, -37.799282262516], [144.962052065702, -37.799281140727], [144.962050251202, -37.799280141501], [144.96204833393, -37.799279272643], [144.962046328863, -37.799278540939], [144.962044251662, -37.799277952106], [144.962042125666, -37.799277483394], [144.961479114902, -37.79921685926], [144.961466865514, -37.799217588325], [144.961454756479, -37.799219200915], [144.96144286993, -37.79922161882], [144.961431290414, -37.799224824841], [144.961420100294, -37.799228796176], [144.961409379165, -37.799233504575], [144.961399203283, -37.79923891655], [144.961389645028, -37.799244993605], [144.961380772386, -37.799251692516], [144.961372648469, -37.799258965633], [144.961365331058, -37.799266761226], [144.961358872203, -37.799275023843], [144.961353711903, -37.79928383939]]]]}}