{"type": "Feature", "properties": {"seg_id": "30218", "street_id": "30218", "name": "Pl5283", "str_type": "Private", "status_id": "4", "seg_part": "1", "poly_area": "53", "gisid": "157"}, "geometry": {"type": "MultiPolygon", "coordinates": [[[[144.964142022516, -37.805355323208], [144.964131154457, -37.805418250157], [144.964119208319, -37.805425434177], [144.964108961806, -37.805481609435], [144.964117130818, -37.805490161355], [144.96408613115, -37.805486601953], [144.964067906591, -37.805484508842], [144.964081630435, -37.805405814715], [144.964099293738, -37.805394430928], [144.964105072751, -37.805361138623], [144.964107322847, -37.805361384795], [144.964108999947, -37.805351725235], [144.964142022516, -37.805355323208]]]]}}