{"type": "Feature", "properties": {"seg_id": "30225", "street_id": "30225", "name": "Pl5278", "str_type": "Private", "status_id": "4", "seg_part": "1", "poly_area": "84", "gisid": "164"}, "geometry": {"type": "MultiPolygon", "coordinates": [[[[144.974063743802, -37.796273615213], [144.973880263167, -37.796253709344], [144.973775976231, -37.796250563327], [144.973775475175, -37.796253439383], [144.973720907887, -37.796246889776], [144.973720195903, -37.796246803629], [144.973670241371, -37.796240807385], [144.973672810783, -37.796219758583], [144.97370294374, -37.796223160828], [144.973702702501, -37.796224591356], [144.973779003114, -37.796233178479], [144.973820139521, -37.796225361978], [144.974067436319, -37.796252191005], [144.974063743802, -37.796273615213]]]]}}