{"type": "Feature", "properties": {"seg_id": "30222", "street_id": "30222", "name": "Pl5118", "str_type": "Private", "status_id": "4", "seg_part": "1", "poly_area": "7", "gisid": "161"}, "geometry": {"type": "MultiPolygon", "coordinates": [[[[144.973045088901, -37.800789066722], [144.97308164717, -37.800792935705], [144.973102246746, -37.80079511515], [144.973100586714, -37.80080440567], [144.973025728852, -37.800796135775], [144.973027266137, -37.800787181085], [144.973045088901, -37.800789066722]]]]}}