{"type": "Feature", "properties": {"seg_id": "30236", "street_id": "30236", "name": "Pl5120", "str_type": "Private", "status_id": "4", "seg_part": "1", "poly_area": "37", "gisid": "173"}, "geometry": {"type": "MultiPolygon", "coordinates": [[[[144.961712318467, -37.800495583569], [144.961940819095, -37.800520759283], [144.961914523987, -37.800671832689], [144.961902925094, -37.800670289194], [144.961927949108, -37.800528892264], [144.96171066057, -37.800504951451], [144.961712318467, -37.800495583569]]]]}}