{"type": "Feature", "properties": {"seg_id": "30231", "street_id": "30231", "name": "Pl5270", "str_type": "Private", "status_id": "4", "seg_part": "1", "poly_area": "86", "gisid": "168"}, "geometry": {"type": "MultiPolygon", "coordinates": [[[[144.969306746304, -37.798756288769], [144.969278076977, -37.798753116998], [144.969316491033, -37.798535286804], [144.969321364906, -37.798483180879], [144.969322496992, -37.798471079545], [144.969357331444, -37.79847410438], [144.969405306355, -37.798468242163], [144.969403438708, -37.798477344308], [144.969353372516, -37.798486001066], [144.969306746304, -37.798756288769]]]]}}