{"type": "Feature", "properties": {"seg_id": "30233", "street_id": "30233", "name": "PL5268", "str_type": "Private", "status_id": "4", "seg_part": "1", "poly_area": "101", "gisid": "170"}, "geometry": {"type": "MultiPolygon", "coordinates": [[[[144.968170140758, -37.796451017077], [144.968140317895, -37.79662932437], [144.968096888894, -37.796624790117], [144.968106671162, -37.796568481114], [144.968115762859, -37.796516153319], [144.968138185173, -37.796387103853], [144.968179233113, -37.796391202293], [144.968170140758, -37.796451017077]]]]}}