{"type": "Feature", "properties": {"seg_id": "30257", "street_id": "30257", "name": "Lygon Terrace", "str_type": "Private", "status_id": "4", "seg_part": "1", "poly_area": "306", "gisid": "191"}, "geometry": {"type": "MultiPolygon", "coordinates": [[[[144.966693861705, -37.801089042949], [144.966338153871, -37.80105343935], [144.966322957324, -37.80106297272], [144.966284236414, -37.801282706937], [144.966227426862, -37.801276888311], [144.966275031458, -37.801004869787], [144.96670212563, -37.801048614598], [144.966693861705, -37.801089042949]]]]}}