{"type": "Feature", "properties": {"seg_id": "30266", "street_id": "30266", "name": "King and Godfree Lane", "str_type": "Private", "status_id": "4", "seg_part": "1", "poly_area": "78", "gisid": "197"}, "geometry": {"type": "MultiPolygon", "coordinates": [[[[144.967180761148, -37.798253168712], [144.967176051149, -37.798280850016], [144.967015115811, -37.798263099701], [144.966970316784, -37.7982552746], [144.966951803493, -37.798242648501], [144.96696144905, -37.798185112558], [144.966998882028, -37.798189203984], [144.966992888322, -37.798225967726], [144.9670002681, -37.798232098777], [144.967180761148, -37.798253168712]]]]}}