{"type": "Feature", "properties": {"seg_id": "30277", "street_id": "30277", "name": "Pl5028", "str_type": "Private", "status_id": "4", "seg_part": "1", "poly_area": "45", "gisid": "207"}, "geometry": {"type": "MultiPolygon", "coordinates": [[[[144.971278622123, -37.798607512895], [144.971303384123, -37.798610288839], [144.971275440759, -37.798772687466], [144.971273718962, -37.798782693334], [144.971261031973, -37.798780782361], [144.971237230099, -37.79877719927], [144.971245672202, -37.798771001305], [144.971252777931, -37.798749058348], [144.971278622123, -37.798607512895]]]]}}