{"type": "Feature", "properties": {"seg_id": "30279", "street_id": "30279", "name": "Pl5026", "str_type": "Private", "status_id": "4", "seg_part": "1", "poly_area": "51", "gisid": "209"}, "geometry": {"type": "MultiPolygon", "coordinates": [[[[144.970904569933, -37.798017799314], [144.970930703756, -37.797854642334], [144.970944992945, -37.797856183527], [144.970952736354, -37.797835091471], [144.970965465942, -37.797837099637], [144.970964240231, -37.797844373563], [144.97093198592, -37.798021029297], [144.970904569933, -37.798017799314]]]]}}