{"type": "Feature", "properties": {"seg_id": "30288", "street_id": "30288", "name": "Pl5015", "str_type": "Private", "status_id": "4", "seg_part": "1", "poly_area": "96", "gisid": "218"}, "geometry": {"type": "MultiPolygon", "coordinates": [[[[144.974742659122, -37.793681413075], [144.974746634035, -37.793656454755], [144.975007166543, -37.793686232699], [144.975012967149, -37.793650555581], [144.975047038643, -37.793654665031], [144.97502968639, -37.793750316234], [144.974995604601, -37.793745792059], [144.975002746667, -37.793710479556], [144.974742659122, -37.793681413075]]]]}}