{"type": "Feature", "properties": {"seg_id": "30310", "street_id": "30310", "name": "Pl5331", "str_type": "Private", "status_id": "4", "seg_part": "1", "poly_area": "51", "gisid": "234"}, "geometry": {"type": "MultiPolygon", "coordinates": [[[[144.945641658029, -37.79448782846], [144.945636860028, -37.79451504589], [144.945574056295, -37.79450739786], [144.9455744675, -37.794505303491], [144.945584346376, -37.794455047818], [144.94559795693, -37.794385812689], [144.945632283432, -37.794389478196], [144.94561622727, -37.794471156461], [144.945630906826, -37.794486519851], [144.945641658029, -37.79448782846]]]]}}