{"type": "Feature", "properties": {"seg_id": "30324", "street_id": "30324", "name": "Pl5298", "str_type": "Private", "status_id": "4", "seg_part": "1", "poly_area": "33", "gisid": "246"}, "geometry": {"type": "MultiPolygon", "coordinates": [[[[144.944429068898, -37.79401066469], [144.944424687493, -37.794034514435], [144.944294271716, -37.794018358117], [144.944300511174, -37.79398381141], [144.944319132639, -37.793986128955], [144.944317215606, -37.793996742886], [144.944362755229, -37.794002411347], [144.944429068898, -37.79401066469]]]]}}