{"type": "Feature", "properties": {"seg_id": "30327", "street_id": "30327", "name": "Pl5233", "str_type": "Private", "status_id": "4", "seg_part": "1", "poly_area": "6", "gisid": "249"}, "geometry": {"type": "MultiPolygon", "coordinates": [[[[144.94337165289, -37.800941021829], [144.943377841803, -37.800941831029], [144.94337411329, -37.800993742973], [144.943370666562, -37.801004502282], [144.943360326233, -37.801003457467], [144.943368740711, -37.800957076766], [144.94337165289, -37.800941021829]]]]}}