{"type": "Feature", "properties": {"seg_id": "30330", "street_id": "30330", "name": "Pl5229", "str_type": "Private", "status_id": "4", "seg_part": "1", "poly_area": "40", "gisid": "252"}, "geometry": {"type": "MultiPolygon", "coordinates": [[[[144.943315285265, -37.801390842862], [144.94328607123, -37.801387457887], [144.943021979886, -37.801356006381], [144.943026115523, -37.801342483498], [144.943318727708, -37.801377332194], [144.943318034376, -37.801380053348], [144.943315285265, -37.801390842862]]]]}}