{"type": "Feature", "properties": {"seg_id": "30355", "street_id": "30355", "name": "Pl5175", "str_type": "Private", "status_id": "4", "seg_part": "1", "poly_area": "33", "gisid": "275"}, "geometry": {"type": "MultiPolygon", "coordinates": [[[[144.943776167696, -37.79340626523], [144.943766048847, -37.79340513421], [144.943812500459, -37.793130090791], [144.943754039351, -37.79312355668], [144.943755396655, -37.793115520261], [144.943823976593, -37.793123184485], [144.943776167696, -37.79340626523]]]]}}