{"type": "Feature", "properties": {"seg_id": "30354", "street_id": "30354", "name": "Curran Place", "str_type": "Private", "status_id": "4", "seg_part": "1", "poly_area": "135", "gisid": "274"}, "geometry": {"type": "MultiPolygon", "coordinates": [[[[144.94399779162, -37.792512771441], [144.944031420467, -37.792517891439], [144.943986498816, -37.792775807808], [144.943971179578, -37.792862805741], [144.94393070389, -37.79285830245], [144.943946023199, -37.792771303623], [144.943844733384, -37.792760033229], [144.943846296716, -37.792749807845], [144.943952839502, -37.792762361299], [144.94399779162, -37.792512771441]]]]}}