{"type": "Feature", "properties": {"seg_id": "30369", "street_id": "30369", "name": "Pl5345", "str_type": "Private", "status_id": "4", "seg_part": "1", "poly_area": "130", "gisid": "287"}, "geometry": {"type": "MultiPolygon", "coordinates": [[[[144.95277912906, -37.804491336177], [144.952755672607, -37.80461640628], [144.953032010833, -37.804646975686], [144.953026362781, -37.8046742372], [144.952716584902, -37.80464167157], [144.952743928861, -37.804487209629], [144.95277912906, -37.804491336177]]]]}}