{"type": "Feature", "properties": {"seg_id": "30360", "street_id": "30360", "name": "Pl5139", "str_type": "Private", "status_id": "4", "seg_part": "1", "poly_area": "62", "gisid": "3838"}, "geometry": {"type": "MultiPolygon", "coordinates": [[[[144.947904704403, -37.802175023897], [144.947871795859, -37.802375421524], [144.947840720508, -37.802370530014], [144.947873666647, -37.802171526269], [144.947904704403, -37.802175023897]]], [[[144.947696986744, -37.802489458483], [144.947773310637, -37.802499121795], [144.947769165139, -37.802527923204], [144.947692797647, -37.802518561925], [144.947696986744, -37.802489458483]]]]}}