{"type": "Feature", "properties": {"seg_id": "30377", "street_id": "30377", "name": "Errol Place", "str_type": "Private", "status_id": "4", "seg_part": "1", "poly_area": "197", "gisid": "295"}, "geometry": {"type": "MultiPolygon", "coordinates": [[[[144.949183861399, -37.804560987833], [144.949173573239, -37.804615883977], [144.948922567774, -37.804588257444], [144.948890119368, -37.804585008559], [144.948814269813, -37.804576919552], [144.948823947796, -37.804521344141], [144.949183861399, -37.804560987833]]]]}}