{"type": "Feature", "properties": {"seg_id": "30376", "street_id": "30376", "name": "PL5334", "str_type": "Private", "status_id": "4", "seg_part": "1", "poly_area": "70", "gisid": "294"}, "geometry": {"type": "MultiPolygon", "coordinates": [[[[144.948922567774, -37.804588257444], [144.948900209302, -37.804715484314], [144.948892222374, -37.804760926633], [144.948884665295, -37.804803927946], [144.948850843783, -37.804800016198], [144.948855928565, -37.804771083325], [144.948857391697, -37.804771239481], [144.948890119368, -37.804585008559], [144.948922567774, -37.804588257444]]]]}}