{"type": "Feature", "properties": {"seg_id": "30387", "street_id": "30387", "name": "Pl5192", "str_type": "Private", "status_id": "4", "seg_part": "1", "poly_area": "53", "gisid": "304"}, "geometry": {"type": "MultiPolygon", "coordinates": [[[[144.956033989049, -37.80304233965], [144.956019659738, -37.803040705825], [144.956026908442, -37.802993447791], [144.956250808398, -37.803018811596], [144.956245335713, -37.803040954945], [144.956038503948, -37.803017368017], [144.956034182461, -37.803041462558], [144.956033989049, -37.80304233965]]]]}}