{"type": "Feature", "properties": {"seg_id": "30399", "street_id": "30399", "name": "Pl5169", "str_type": "Private", "status_id": "4", "seg_part": "1", "poly_area": "70", "gisid": "314"}, "geometry": {"type": "MultiPolygon", "coordinates": [[[[144.954451235611, -37.803930648207], [144.954416619913, -37.803926790051], [144.954412366975, -37.80392631605], [144.954424661793, -37.803874125339], [144.95442657568, -37.803874328006], [144.954421725224, -37.803864637213], [144.954423491783, -37.803856924996], [144.95442922838, -37.803857551834], [144.954453372742, -37.803724972983], [144.954485988143, -37.803728340386], [144.954451235611, -37.803930648207]]]]}}