{"type": "Feature", "properties": {"seg_id": "30404", "street_id": "30404", "name": "PL5164", "str_type": "Private", "status_id": "4", "seg_part": "1", "poly_area": "72", "gisid": "319"}, "geometry": {"type": "MultiPolygon", "coordinates": [[[[144.957110284715, -37.803455053779], [144.957121069433, -37.803479931304], [144.956907241622, -37.803534538552], [144.956895557997, -37.803531524172], [144.956890280627, -37.803514481482], [144.956898588491, -37.803512228494], [144.956903598612, -37.803478386128], [144.956898754966, -37.803382880127], [144.956911818685, -37.803382592208], [144.956916107758, -37.803507494874], [144.957110284715, -37.803455053779]]]]}}