{"type": "Feature", "properties": {"seg_id": "30406", "street_id": "30406", "name": "Pl5153", "str_type": "Private", "status_id": "4", "seg_part": "1", "poly_area": "73", "gisid": "321"}, "geometry": {"type": "MultiPolygon", "coordinates": [[[[144.955759025793, -37.80452709654], [144.955793916394, -37.804530801372], [144.955764381953, -37.80470837638], [144.955753135627, -37.804707127672], [144.955748178411, -37.804736598388], [144.955752372529, -37.804737024458], [144.955749333376, -37.804755097053], [144.955735848296, -37.804753645464], [144.955736903366, -37.804747264529], [144.955722260773, -37.804745776623], [144.955759025793, -37.80452709654]]]]}}