{"type": "Feature", "properties": {"seg_id": "30400", "street_id": "30400", "name": "De Le More Place", "str_type": "Private", "status_id": "4", "seg_part": "1", "poly_area": "108", "gisid": "315"}, "geometry": {"type": "MultiPolygon", "coordinates": [[[[144.949425484623, -37.801786541174], [144.949356834344, -37.801779219545], [144.94938986457, -37.801598944102], [144.949423365844, -37.801602474313], [144.949419374748, -37.801624076286], [144.949418579864, -37.801633515776], [144.949415904769, -37.801646588509], [144.949450467272, -37.801650185855], [144.949425484623, -37.801786541174]]]]}}