{"type": "Feature", "properties": {"seg_id": "30412", "street_id": "30412", "name": "Chetwynd Place", "str_type": "Private", "status_id": "4", "seg_part": "1", "poly_area": "300", "gisid": "326"}, "geometry": {"type": "MultiPolygon", "coordinates": [[[[144.952175826337, -37.802833531234], [144.952238834793, -37.802475570536], [144.952560547151, -37.802512823673], [144.952556038442, -37.802538640572], [144.952298919893, -37.802510368002], [144.952241199403, -37.802840835697], [144.952175826337, -37.802833531234]]]]}}