{"type": "Feature", "properties": {"seg_id": "30456", "street_id": "30456", "name": "Pl5106", "str_type": "Private", "status_id": "4", "seg_part": "1", "poly_area": "35", "gisid": "2405"}, "geometry": {"type": "MultiPolygon", "coordinates": [[[[144.946171696083, -37.8098350692], [144.945985195254, -37.809661656419], [144.94599045352, -37.809658079463], [144.946048926377, -37.80961830778], [144.946053423282, -37.809622489265], [144.946000209849, -37.809658683112], [144.946182400911, -37.809828088876], [144.946171696083, -37.8098350692]]]]}}