{"type": "Feature", "properties": {"seg_id": "30466", "street_id": "30466", "name": "Bowen Street", "str_type": "Private", "status_id": "4", "seg_part": "1", "poly_area": "1123", "gisid": "2413"}, "geometry": {"type": "MultiPolygon", "coordinates": [[[[144.963895121612, -37.807303416481], [144.963958426859, -37.807284962747], [144.964045813468, -37.80747789265], [144.964040457566, -37.807508219273], [144.964652161081, -37.808781261586], [144.964584536971, -37.808801836291], [144.964394526976, -37.808407818622], [144.963977598138, -37.807541780876], [144.963987300511, -37.807498692144], [144.963895121612, -37.807303416481]]]]}}