{"type": "Feature", "properties": {"seg_id": "30479", "street_id": "30479", "name": "Pl5285", "str_type": "Private", "status_id": "4", "seg_part": "1", "poly_area": "65", "gisid": "2424"}, "geometry": {"type": "MultiPolygon", "coordinates": [[[[144.959304027031, -37.807376335673], [144.959344007513, -37.807463018763], [144.959365522572, -37.807456749942], [144.959381637193, -37.80749139195], [144.959317516463, -37.807510168816], [144.959261644247, -37.807388836744], [144.959304027031, -37.807376335673]]]]}}