{"type": "Feature", "properties": {"seg_id": "30494", "street_id": "30494", "name": "Pl5148", "str_type": "Private", "status_id": "4", "seg_part": "1", "poly_area": "24", "gisid": "2433"}, "geometry": {"type": "MultiPolygon", "coordinates": [[[[144.954051706455, -37.807602599439], [144.954047483421, -37.807603832769], [144.95400548493, -37.807615790697], [144.95399761604, -37.807597388049], [144.953985188653, -37.807566982743], [144.95400394742, -37.807561662816], [144.954030100487, -37.807554245459], [144.954031499708, -37.807557377924], [144.954051706455, -37.807602599439]]]]}}