{"type": "Feature", "properties": {"seg_id": "30509", "street_id": "30509", "name": "Pl5184", "str_type": "Private", "status_id": "4", "seg_part": "1", "poly_area": "30", "gisid": "2447"}, "geometry": {"type": "MultiPolygon", "coordinates": [[[[144.967915035268, -37.807531075916], [144.967949408593, -37.807520869377], [144.968040248833, -37.807493939902], [144.968071563896, -37.807562438955], [144.968058655559, -37.80756643823], [144.968032304055, -37.8075087984], [144.967977727291, -37.807524978087], [144.967978498636, -37.807526672995], [144.967880201102, -37.807555813186], [144.967877319389, -37.807549476842], [144.967874434492, -37.807543132333], [144.967915035268, -37.807531075916]]]]}}