{"type": "Feature", "properties": {"seg_id": "30526", "street_id": "30526", "name": "PL5102", "str_type": "Private", "status_id": "4", "seg_part": "1", "poly_area": "11", "gisid": "2460"}, "geometry": {"type": "MultiPolygon", "coordinates": [[[[144.94982962576, -37.805487064952], [144.949859987549, -37.805485200935], [144.949859027572, -37.805490999505], [144.949861894573, -37.805491279219], [144.949856815448, -37.805523099601], [144.949824074385, -37.805519902647], [144.94982962576, -37.805487064952]]]]}}