{"type": "Feature", "properties": {"seg_id": "30568", "street_id": "30568", "name": "Highett Street", "str_type": "Private", "status_id": "4", "seg_part": "1", "poly_area": "1767", "gisid": "2475"}, "geometry": {"type": "MultiPolygon", "coordinates": [[[[144.916695373683, -37.801582883327], [144.916360958976, -37.801547860605], [144.916573968622, -37.801424562529], [144.91659647988, -37.801449226633], [144.91673835759, -37.801493579835], [144.916968469293, -37.801325705268], [144.916990677866, -37.801297195755], [144.916920192429, -37.801224080547], [144.917461733899, -37.800910540299], [144.917597692042, -37.801057911493], [144.916695373683, -37.801582883327]]]]}}