{"type": "Feature", "properties": {"seg_id": "30579", "street_id": "30579", "name": "South Kensington Railway", "str_type": "Rail/Tram", "status_id": "9", "seg_part": "1", "poly_area": "14243", "gisid": "2484"}, "geometry": {"type": "MultiPolygon", "coordinates": [[[[144.919954019326, -37.798467315763], [144.919268784449, -37.798863015811], [144.916872187753, -37.798509654415], [144.916835514442, -37.798652973215], [144.916737617524, -37.798638286173], [144.916782072899, -37.798465253769], [144.916801246109, -37.798372025221], [144.916511121204, -37.798330118485], [144.916521559648, -37.798211038544], [144.916530177558, -37.798112732634], [144.916847461975, -37.798160652947], [144.916851777861, -37.798015884911], [144.917891695335, -37.79816722118], [144.919954019326, -37.798467315763]]]]}}