{"type": "Feature", "properties": {"seg_id": "30573", "street_id": "30573", "name": "Pl5005", "str_type": "Private", "status_id": "4", "seg_part": "1", "poly_area": "85", "gisid": "2480"}, "geometry": {"type": "MultiPolygon", "coordinates": [[[[144.928790230635, -37.795945164216], [144.928764976983, -37.795960085068], [144.92856715877, -37.795744523559], [144.928550832179, -37.795743154974], [144.928561232724, -37.795738066051], [144.928586946813, -37.79572320741], [144.928790230635, -37.795945164216]]]]}}