{"type": "Feature", "properties": {"seg_id": "30584", "street_id": "30584", "name": "Maribyrnong River", "str_type": "River", "status_id": "8", "seg_part": "1", "poly_area": "7230", "gisid": "2489"}, "geometry": {"type": "MultiPolygon", "coordinates": [[[[144.913427776686, -37.795031334757], [144.913592465422, -37.795110246582], [144.913652428479, -37.795132330536], [144.914385253652, -37.795498238668], [144.914942680468, -37.795807401028], [144.915397710287, -37.796118350237], [144.915142480469, -37.796350983389], [144.915115682735, -37.796326365684], [144.914679449465, -37.796025623271], [144.914054205438, -37.795687393333], [144.913513312755, -37.795410395985], [144.91314342093, -37.795227610642], [144.913060182948, -37.795186477751], [144.913427776686, -37.795031334757]]]]}}