{"type": "Feature", "properties": {"seg_id": "30596", "street_id": "30596", "name": "Clifton Hill Railway", "str_type": "Rail/Tram", "status_id": "9", "seg_part": "1", "poly_area": "9766", "gisid": "2499"}, "geometry": {"type": "MultiPolygon", "coordinates": [[[[144.98284558721, -37.816258040387], [144.983499139343, -37.816330579784], [144.983490252391, -37.816380971079], [144.983028944084, -37.816329769166], [144.983003484559, -37.816474123564], [144.983305925579, -37.816509317731], [144.983406338505, -37.816520638657], [144.983833179922, -37.816568802235], [144.983830122445, -37.816583768921], [144.983923495971, -37.816594542615], [144.983915164418, -37.816642483235], [144.98404523761, -37.816656709501], [144.984130038703, -37.816680525909], [144.984178964971, -37.816691577495], [144.984385554529, -37.816711337148], [144.984417635673, -37.816715190939], [144.984431146393, -37.816636117609], [144.984648936441, -37.816661776591], [144.984661965456, -37.816642173668], [144.984666823315, -37.816616722823], [144.984676380238, -37.816557708709], [144.984682237681, -37.816524491492], [144.984960564024, -37.816555379186], [144.984971392081, -37.816493976145], [144.984994012858, -37.816496486435], [144.985346802266, -37.816535637026], [144.987529605035, -37.816777850441], [144.987599863091, -37.816802596341], [144.987623194671, -37.816810814628], [144.987618195434, -37.816856064793], [144.987582346897, -37.817031078349], [144.985436450704, -37.81679144834], [144.985435715292, -37.81679564246], [144.985148534351, -37.816763276925], [144.985137810678, -37.816824437548], [144.982680946657, -37.81655127755], [144.982728914234, -37.816279311795], [144.98274231723, -37.816272526646], [144.982766693577, -37.816264831857], [144.982792989278, -37.816259490478], [144.982819041576, -37.816257039508], [144.98284558721, -37.816258040387]]]]}}