{"type": "Feature", "properties": {"seg_id": "30591", "street_id": "30591", "name": "Treasury Place", "str_type": "Private", "status_id": "4", "seg_part": "1", "poly_area": "4748", "gisid": "2495"}, "geometry": {"type": "MultiPolygon", "coordinates": [[[[144.977573518115, -37.812539950514], [144.977608563958, -37.812650248341], [144.977610736905, -37.8126573437], [144.977612819668, -37.812664456062], [144.977614812037, -37.812671584704], [144.97432058167, -37.813656240382], [144.974293160197, -37.813692390687], [144.974274462098, -37.813646821792], [144.974228998618, -37.813536024797], [144.974608630195, -37.813424139786], [144.976862280663, -37.812751645455], [144.977011035901, -37.812707369703], [144.977573518115, -37.812539950514]]]]}}