{"type": "Feature", "properties": {"seg_id": "30594", "street_id": "30594", "name": "Clifton Hill Railway", "str_type": "Rail/Tram", "status_id": "9", "seg_part": "1", "poly_area": "7656", "gisid": "2497"}, "geometry": {"type": "MultiPolygon", "coordinates": [[[[144.982459850504, -37.816454117382], [144.980580394889, -37.816242037934], [144.980045244742, -37.816188063746], [144.979214402048, -37.816085987853], [144.979248560976, -37.815885157236], [144.979249037161, -37.815882817638], [144.979249800257, -37.815880527181], [144.979250814138, -37.81587830029], [144.979252070989, -37.815876154133], [144.979253561117, -37.815874105258], [144.979255273035, -37.815872169463], [144.979257193542, -37.815870361672], [144.979259307831, -37.815868695825], [144.979261599601, -37.815867184764], [144.979264051182, -37.815865840141], [144.979266643671, -37.815864672324], [144.97926935708, -37.815863690315], [144.979272170488, -37.815862901687], [144.979275062203, -37.81586231252], [144.979278009929, -37.815861927356], [144.979280990939, -37.815861749166], [144.979283982248, -37.815861779324], [144.979286964937, -37.815861993675], [144.982390938234, -37.816200326407], [144.98247146184, -37.816209102134], [144.982474391164, -37.816209568699], [144.982477266659, -37.816210212945], [144.982480062162, -37.816211053821], [144.982482756256, -37.816212084884], [144.982485328302, -37.816213298236], [144.982487758596, -37.816214684582], [144.982490028521, -37.816216233301], [144.982492120686, -37.816217932528], [144.982494019063, -37.816219769246], [144.98249570911, -37.816221729385], [144.982497177879, -37.816223797927], [144.982498414119, -37.816225959026], [144.982499408358, -37.816228196126], [144.982500152981, -37.816230492089], [144.982500642281, -37.816232829326], [144.982500872512, -37.816235189932], [144.982500841909, -37.816237555822], [144.982500516537, -37.81623990479], [144.982459850504, -37.816454117382]]]]}}