{"type": "Feature", "properties": {"seg_id": "30609", "street_id": "30609", "name": "Mozart Place", "str_type": "Private", "status_id": "4", "seg_part": "1", "poly_area": "146", "gisid": "2509"}, "geometry": {"type": "MultiPolygon", "coordinates": [[[[144.987075409572, -37.815532747296], [144.98711993352, -37.815540542137], [144.987072906574, -37.815822154178], [144.986931455518, -37.815806826556], [144.986934629317, -37.815786382601], [144.987031304747, -37.815796858813], [144.987075409572, -37.815532747296]]]]}}