{"type": "Feature", "properties": {"seg_id": "30614", "street_id": "30614", "name": "Pl5297", "str_type": "Private", "status_id": "4", "seg_part": "1", "poly_area": "259", "gisid": "2512"}, "geometry": {"type": "MultiPolygon", "coordinates": [[[[144.990246704217, -37.810077983143], [144.990273956923, -37.810081232921], [144.990222617281, -37.810378016482], [144.990238880427, -37.810395086646], [144.990411621712, -37.810414385806], [144.990543981709, -37.810429173709], [144.990539867603, -37.810453428157], [144.989861420061, -37.810380419538], [144.989866149065, -37.81035389743], [144.990171924383, -37.810388038416], [144.990195430897, -37.810374453311], [144.990246704217, -37.810077983143]]]]}}