{"type": "Feature", "properties": {"seg_id": "30619", "street_id": "30619", "name": "Clifton Hill Railway", "str_type": "Rail/Tram", "status_id": "9", "seg_part": "1", "poly_area": "1963", "gisid": "2516"}, "geometry": {"type": "MultiPolygon", "coordinates": [[[[144.989520888278, -37.816298659713], [144.989703156371, -37.816222423789], [144.989748972231, -37.816206783805], [144.989818786008, -37.816181542298], [144.989901495986, -37.816190702634], [144.990011196026, -37.816315903496], [144.990002355608, -37.816366166357], [144.990002458039, -37.81636528276], [144.990002452454, -37.816364394418], [144.99000235019, -37.816363509169], [144.990002152012, -37.81636263363], [144.990001859401, -37.816361774349], [144.990001474545, -37.816360937749], [144.990001000322, -37.816360130086], [144.990000440276, -37.816359357397], [144.989999798596, -37.816358625461], [144.989999080079, -37.81635793975], [144.989998290096, -37.816357305389], [144.989997434555, -37.816356727122], [144.989996519851, -37.816356209273], [144.989995552825, -37.816355755714], [144.989994540704, -37.816355369834], [144.989993491058, -37.81635505452], [144.989992411733, -37.816354812129], [144.989991310799, -37.816354644473], [144.989990196487, -37.816354552805], [144.98998907713, -37.816354537811], [144.989987961094, -37.816354599604], [144.989986856726, -37.81635473772], [144.989985772281, -37.816354951128], [144.989984715868, -37.816355238232], [144.989983695384, -37.816355596884], [144.989982743297, -37.816356056472], [144.989704746697, -37.816494310582], [144.989675690153, -37.816509269719], [144.989674443575, -37.816516319088], [144.989615676521, -37.816509794201], [144.989611808922, -37.816534607922], [144.989234669749, -37.816674119476], [144.989155213603, -37.816523436289], [144.989175632522, -37.816402093368], [144.989196641402, -37.816404229271], [144.989210926616, -37.816425906869], [144.989520888278, -37.816298659713]]]]}}