{"type": "Feature", "properties": {"seg_id": "30626", "street_id": "30626", "name": "Melbourne Park Tramway", "str_type": "Rail/Tram", "status_id": "9", "seg_part": "1", "poly_area": "177", "gisid": "2523"}, "geometry": {"type": "MultiPolygon", "coordinates": [[[[144.97351795662, -37.817260479272], [144.973654838316, -37.817256078003], [144.973733700191, -37.817298951474], [144.97382855111, -37.817348977817], [144.973878384086, -37.817374894364], [144.973741208544, -37.817383345229], [144.973686623746, -37.817354645121], [144.973592937917, -37.817303558204], [144.97351795662, -37.817260479272]]]]}}