{"type": "Feature", "properties": {"seg_id": "30622", "street_id": "30622", "name": "Yarra River", "str_type": "River", "status_id": "8", "seg_part": "1", "poly_area": "72534", "gisid": "2519"}, "geometry": {"type": "MultiPolygon", "coordinates": [[[[144.968634533137, -37.819658083823], [144.968254553255, -37.818840130439], [144.968459353334, -37.818857001637], [144.969104251684, -37.818837118365], [144.969480210859, -37.818825158123], [144.970116382694, -37.81881241833], [144.970292624374, -37.818810187407], [144.970408197447, -37.818750002089], [144.970974354807, -37.818744766034], [144.971206801483, -37.818740477034], [144.971494669233, -37.818742851343], [144.971642808507, -37.818747861826], [144.971820487487, -37.818763711145], [144.972014014409, -37.818789714558], [144.972198431449, -37.818827185038], [144.972438178523, -37.818878396631], [144.97268058526, -37.818939534934], [144.972775522639, -37.818966021283], [144.972785917661, -37.81897605507], [144.972796841683, -37.818985680394], [144.972808784629, -37.818994510905], [144.972821653523, -37.819002477857], [144.972835348181, -37.819009519228], [144.97284976199, -37.8190155802], [144.972864782738, -37.81902061359], [144.97288029349, -37.819024580211], [144.972896173495, -37.819027449185], [144.972912299125, -37.819029198176], [144.972928544844, -37.819029813568], [144.972944784179, -37.819029290571], [144.972960890707, -37.819027633255], [144.972976629953, -37.819024540119], [144.973213359922, -37.819103905029], [144.9733467338, -37.8191585141], [144.973540886463, -37.81924207042], [144.973749326538, -37.819339241253], [144.973904681429, -37.819420966783], [144.974050864417, -37.819516483606], [144.974204326335, -37.819613870165], [144.974371948742, -37.81972951917], [144.974551598161, -37.819861068825], [144.974638452119, -37.819928245147], [144.974881349368, -37.820135099561], [144.975040806024, -37.820285117742], [144.975187920378, -37.82043047345], [144.975338490592, -37.820603121062], [144.975457448915, -37.820751063482], [144.975561893602, -37.820904448971], [144.975695163027, -37.821060316144], [144.975791675881, -37.821183667625], [144.975948121413, -37.821377558886], [144.976102445674, -37.821555103083], [144.976210795745, -37.821666004279], [144.976350908749, -37.821819684946], [144.976517316317, -37.821983484271], [144.976666519684, -37.822123499449], [144.976798758769, -37.822246328576], [144.976924888406, -37.822389379522], [144.977054795214, -37.822526758342], [144.97722786382, -37.822691495703], [144.97746055733, -37.822881231975], [144.977602613636, -37.822981756213], [144.977812475968, -37.823147101295], [144.977862199689, -37.823194360487], [144.977839665188, -37.823192994784], [144.976611646968, -37.823114136377], [144.976438538907, -37.822956391476], [144.976069083315, -37.82260391862], [144.975720070914, -37.822238572002], [144.975392213428, -37.821861096993], [144.974477417724, -37.820755186469], [144.974273941607, -37.820551171143], [144.9740591868, -37.820355488614], [144.973823486079, -37.820175613182], [144.973568710853, -37.820012973018], [144.973296883978, -37.819868859447], [144.973010163699, -37.819744416697], [144.972710826508, -37.819640632816], [144.972401249074, -37.819558331824], [144.972083889371, -37.819498167172], [144.971761267162, -37.819460616553], [144.971435943994, -37.819445978111], [144.971110773457, -37.819456887751], [144.968823291955, -37.819611449354], [144.968819583453, -37.819611776974], [144.968815934217, -37.819612389902], [144.968812368991, -37.819613253948], [144.968808915045, -37.819614362503], [144.968805598797, -37.819615707089], [144.968802445611, -37.819617277421], [144.968799479607, -37.819619061488], [144.968796723468, -37.819621045644], [144.968794198278, -37.819623214713], [144.968791923349, -37.819625552105], [144.968789916082, -37.819628039942], [144.968788191831, -37.819630659194], [144.968786763782, -37.819633389828], [144.96878564286, -37.819636210958], [144.968784837637, -37.819639101007], [144.968784354273, -37.819642037869], [144.968784196465, -37.819644999081], [144.968784330449, -37.819647964246], [144.968634533137, -37.819658083823]]]]}}