{"type": "Feature", "properties": {"seg_id": "30629", "street_id": "30629", "name": "Jolimont Rail Yards", "str_type": "Rail/Tram", "status_id": "9", "seg_part": "1", "poly_area": "23446", "gisid": "2525"}, "geometry": {"type": "MultiPolygon", "coordinates": [[[[144.970151400028, -37.816813078345], [144.972125534732, -37.816231523131], [144.972129488535, -37.816239969466], [144.972197947015, -37.816219801388], [144.972231396319, -37.816268854445], [144.97230434785, -37.816375834121], [144.972314074567, -37.816390098733], [144.972407398339, -37.816526954427], [144.972422258245, -37.816548746638], [144.972589202023, -37.816749675615], [144.97260557764, -37.816769384247], [144.97282641544, -37.816954888999], [144.972847080213, -37.816972247276], [144.97295399105, -37.817062051717], [144.972980815663, -37.817084585136], [144.973226540233, -37.817249082187], [144.973073748458, -37.817241830816], [144.97289794292, -37.817233072794], [144.972807136893, -37.817235533197], [144.972497563595, -37.817245495905], [144.97224365642, -37.817284427744], [144.971911588096, -37.817357760653], [144.97158413281, -37.817443155031], [144.970990254693, -37.817606115277], [144.970945081557, -37.817619505386], [144.97090103458, -37.817635078624], [144.97085828123, -37.817652775782], [144.970807229068, -37.817674481252], [144.970778892283, -37.817682791083], [144.97077900458, -37.817679188313], [144.970723521218, -37.817674747246], [144.97055066913, -37.817719225842], [144.97049055637, -37.817627443962], [144.970145470727, -37.816872898054], [144.970151400028, -37.816813078345]]]]}}