{"type": "Feature", "properties": {"seg_id": "30628", "street_id": "30628", "name": "Melbourne Park Tramway", "str_type": "Rail/Tram", "status_id": "9", "seg_part": "2", "poly_area": "59", "gisid": "3992"}, "geometry": {"type": "MultiPolygon", "coordinates": [[[[144.976569805087, -37.818204558369], [144.976625147825, -37.818233481056], [144.97657342765, -37.818227486191], [144.976262089799, -37.818191401721], [144.976339105152, -37.818186749166], [144.976416422291, -37.818187984066], [144.976493395446, -37.818194302509], [144.976569805087, -37.818204558369]]], [[[144.986824932531, -37.824238810852], [144.986667964809, -37.82421862323], [144.986774490124, -37.823649958658], [144.986763661371, -37.82363643527], [144.986752028766, -37.823623383094], [144.986739004365, -37.823611183075], [144.986724688859, -37.823599929532], [144.986709192924, -37.823589709466], [144.986692636359, -37.823580601891], [144.986675147165, -37.823572677218], [144.986657082583, -37.823565558158], [144.986162999129, -37.82339209633], [144.986016735728, -37.82334292599], [144.985869179087, -37.823296250341], [144.985720396818, -37.82325209077], [144.985182755154, -37.823096941378], [144.98514793842, -37.823090808736], [144.984791157361, -37.82298747553], [144.984756946615, -37.82299461037], [144.984700312978, -37.823006421513], [144.984632521349, -37.822987972942], [144.984633710946, -37.822958526598], [144.984613595863, -37.822936043053], [144.984575931397, -37.822925138426], [144.984437830287, -37.822882860681], [144.984301127312, -37.822837814641], [144.98416591065, -37.822790029362], [144.984130620931, -37.822772771397], [144.98402396938, -37.822731050684], [144.983918847022, -37.822686955588], [144.983815337846, -37.822640521343], [144.983578260654, -37.822525112792], [144.983509596755, -37.822610486825], [144.982935430775, -37.822324681621], [144.982948651274, -37.822308074111], [144.982742879064, -37.822206129383], [144.982738832925, -37.822181742687], [144.982780240416, -37.822127587531], [144.982567256751, -37.82201738149], [144.982363280643, -37.821896930083], [144.982169094199, -37.821766695188], [144.982053055369, -37.821685817396], [144.982047615657, -37.821690539157], [144.98190568325, -37.821582618278], [144.981851434505, -37.821546439782], [144.981795559156, -37.821506125813], [144.981576563599, -37.821353307143], [144.981421914677, -37.821240966394], [144.981270224736, -37.821126115294], [144.981121558511, -37.821008802868], [144.980497869757, -37.820501771876], [144.980187502866, -37.820275945857], [144.979855334475, -37.820070562933], [144.97950349863, -37.819886942489], [144.979217500064, -37.819744039753], [144.979200139983, -37.819766877732], [144.978389522219, -37.819362184969], [144.978255330225, -37.819264046971], [144.977894761454, -37.819083372845], [144.977707174178, -37.818985687118], [144.977522667987, -37.818884376301], [144.977341354174, -37.818779501512], [144.976810749818, -37.818465738807], [144.976619982824, -37.818354106781], [144.976550034176, -37.818315038163], [144.976556963325, -37.818307527875], [144.976742980472, -37.818329087732], [144.976913294199, -37.818428093199], [144.977140837834, -37.81856490826], [144.977238124538, -37.818622895985], [144.977325135004, -37.818674141123], [144.977450520762, -37.818746843665], [144.977535872137, -37.818798783796], [144.97763544302, -37.818855142353], [144.977711158299, -37.818896657847], [144.977792986234, -37.818939227215], [144.977878216054, -37.818983025581], [144.97808929505, -37.819088920551], [144.978359797943, -37.819227081081], [144.978377085197, -37.819205043122], [144.978478394689, -37.819254890083], [144.978826815324, -37.819428963658], [144.978849021973, -37.81944005805], [144.979285425295, -37.819658085093], [144.97939251878, -37.819702253995], [144.979651500374, -37.819832864774], [144.979758363254, -37.81989163297], [144.979734179047, -37.81991930681], [144.980016801417, -37.82007685129], [144.980213932268, -37.820201469385], [144.980459712592, -37.820370640431], [144.980634616934, -37.820506851442], [144.981236194359, -37.820996293724], [144.981367930568, -37.821098930009], [144.981521136638, -37.821214315494], [144.981709706042, -37.821347188733], [144.981847469044, -37.82144432518], [144.982012713619, -37.821557399392], [144.982178555703, -37.821672997], [144.982275548725, -37.821741060667], [144.982400630252, -37.821823550401], [144.982526729703, -37.82189941667], [144.982625654086, -37.82195640343], [144.982723602267, -37.82200714895], [144.982831219359, -37.822060075974], [144.98286895531, -37.822011373089], [144.982940177001, -37.822047204761], [144.982937981032, -37.822049748114], [144.983139543361, -37.822147207321], [144.983321321832, -37.822239187011], [144.983671780671, -37.822410349825], [144.983861093274, -37.82248903107], [144.984132016537, -37.822596435734], [144.984107998915, -37.822635924157], [144.984142202023, -37.822647645614], [144.984175835691, -37.822654450399], [144.984485339305, -37.822761512676], [144.984521611255, -37.822752399065], [144.984757827498, -37.822823653119], [144.984754959499, -37.822841631188], [144.984755316077, -37.822847525586], [144.985938201406, -37.823190899508], [144.986202337206, -37.823275875592], [144.986966572799, -37.82354269093], [144.986949663476, -37.823625796825], [144.986824932531, -37.824238810852]]], [[[144.973878384086, -37.817374894364], [144.973923532971, -37.817398374614], [144.974018634543, -37.81744759406], [144.974113271096, -37.817497164999], [144.974208371789, -37.817546384279], [144.974303354164, -37.817595780782], [144.974398230484, -37.817644905932], [144.974493329125, -37.817694214166], [144.974588200776, -37.817743519321], [144.974683302136, -37.817792737332], [144.974778406062, -37.817841866096], [144.974873273199, -37.81789135028], [144.974965559838, -37.817943854911], [144.975055155114, -37.817999196952], [144.975141724472, -37.818057189519], [144.975226304559, -37.818117311541], [144.975311114366, -37.818177346434], [144.975398259232, -37.818235079259], [144.975504278242, -37.818267271863], [144.975661861593, -37.818257858613], [144.975618758057, -37.818221221857], [144.975757442968, -37.818207721141], [144.975756649266, -37.818212032244], [144.97588094078, -37.818226439407], [144.976030749014, -37.8182119157], [144.976067435848, -37.818296406259], [144.975744023165, -37.818327691225], [144.975731690703, -37.818317209392], [144.97551299973, -37.818334740644], [144.9754172489, -37.81834246561], [144.97533619886, -37.818290335682], [144.975254528561, -37.818227650362], [144.975171419498, -37.818167734793], [144.975085099265, -37.818108934572], [144.974999371809, -37.818053389621], [144.974912454874, -37.817999805839], [144.974824671816, -37.817948821411], [144.97473177436, -37.817897928282], [144.97463713687, -37.817848357817], [144.974542035497, -37.817799138867], [144.974447605685, -37.817750291864], [144.974352842722, -37.817701169603], [144.974256402662, -37.817651026218], [144.974161528872, -37.817601811781], [144.974068222722, -37.817553434399], [144.973971791553, -37.817503021485], [144.973878142553, -37.817454728173], [144.973782486765, -37.81740504939], [144.973741208544, -37.817383345229], [144.973878384086, -37.817374894364]]]]}}