{"type": "Feature", "properties": {"seg_id": "30637", "street_id": "30637", "name": "Yarra River", "str_type": "River", "status_id": "8", "seg_part": "1", "poly_area": "989808", "gisid": "2529"}, "geometry": {"type": "MultiPolygon", "coordinates": [[[[144.925541300714, -37.818391607733], [144.931895878877, -37.819214441139], [144.931776501878, -37.819266684836], [144.931729255426, -37.819396524656], [144.931795003012, -37.819491130981], [144.931921880105, -37.81952021449], [144.931487720337, -37.820698697721], [144.931451195962, -37.82079783994], [144.931419457778, -37.820794442744], [144.931436941156, -37.820693220438], [144.930973725596, -37.820643251679], [144.930959208885, -37.820727268629], [144.930925719097, -37.820723663889], [144.927902622097, -37.820398213392], [144.927917089533, -37.82031676973], [144.92769668715, -37.820293064958], [144.927701758107, -37.820265335092], [144.927661151518, -37.820260834567], [144.927656170835, -37.820288707504], [144.927421963069, -37.820263517418], [144.927426981119, -37.820235327037], [144.92738640262, -37.820230676416], [144.927381109276, -37.820259123289], [144.927149489777, -37.820234210726], [144.927154673693, -37.820202856566], [144.926944212998, -37.820180219378], [144.926938856807, -37.820211556075], [144.926810555506, -37.820197755705], [144.926816342063, -37.82016382942], [144.926365935776, -37.820115382034], [144.926359849985, -37.820149276891], [144.925927339541, -37.820102753401], [144.925933089236, -37.820069549253], [144.92589719679, -37.820065638522], [144.925891437769, -37.820098891168], [144.925559992653, -37.820063237658], [144.925565753727, -37.820029308288], [144.92514167973, -37.81998578006], [144.92513613767, -37.820017642379], [144.924796816055, -37.819981138703], [144.919802780336, -37.820038799737], [144.916232804656, -37.820555476614], [144.916264114279, -37.820691621424], [144.914419647574, -37.820959325703], [144.913732242631, -37.821059169612], [144.913669129859, -37.821066105004], [144.913596550829, -37.821085410562], [144.912920743344, -37.821182973398], [144.912678265841, -37.821217977512], [144.912533688269, -37.821399733715], [144.909512383715, -37.822209348753], [144.909549303536, -37.822295984639], [144.909473421461, -37.822345624442], [144.909387230714, -37.822374931952], [144.909212455377, -37.822428151337], [144.909015795345, -37.822478287302], [144.908704026138, -37.822563939005], [144.908345402392, -37.822692328904], [144.908240780849, -37.822732000472], [144.908263971983, -37.822779538117], [144.908149062619, -37.822818263536], [144.908095869976, -37.822906640294], [144.907814703138, -37.823069506405], [144.907562893876, -37.823168769258], [144.907022263183, -37.823473900327], [144.906961026507, -37.823477108472], [144.90666566916, -37.823644623643], [144.906664987765, -37.823653499733], [144.90658254596, -37.823699523562], [144.906516422673, -37.823624946908], [144.906241529495, -37.823860822385], [144.906297728955, -37.823923100223], [144.90622451633, -37.823980614678], [144.906199748218, -37.824010610199], [144.904234452495, -37.825642347735], [144.903903086649, -37.825914302401], [144.903739977711, -37.826006444281], [144.90295065473, -37.826676096526], [144.901659515917, -37.827742386946], [144.901531856843, -37.82784656173], [144.901403338502, -37.82795330199], [144.90130071458, -37.828041447669], [144.901265232943, -37.828114453871], [144.901256886617, -37.828139560238], [144.901276665423, -37.828167642581], [144.901286912151, -37.828205340751], [144.901259995546, -37.828283971507], [144.901201991566, -37.828406903555], [144.901081950388, -37.828540963788], [144.901014113951, -37.828611524053], [144.90095179901, -37.828705019146], [144.90088261911, -37.828792104371], [144.900826036168, -37.828876124912], [144.900743485641, -37.829021853765], [144.900696046797, -37.829108779531], [144.900625968611, -37.829180673858], [144.900553713447, -37.829247956809], [144.900535569219, -37.829277805147], [144.900494552397, -37.829382217104], [144.900447588489, -37.829489042641], [144.900413657875, -37.82954583542], [144.900354260831, -37.829588849383], [144.900282624146, -37.829653169341], [144.900226769686, -37.829753645213], [144.900158558118, -37.82987952437], [144.900101091486, -37.829991245891], [144.900068414727, -37.830061501797], [144.900002254512, -37.830206855565], [144.899973187154, -37.830253071469], [144.899964618087, -37.830267656262], [144.899905486794, -37.830368302405], [144.899855121584, -37.830469649196], [144.899820412192, -37.830542933624], [144.899775189511, -37.830675557818], [144.899743949234, -37.830764689808], [144.899686174561, -37.830929531958], [144.899637860639, -37.831057038194], [144.899579156902, -37.831162720274], [144.899506784073, -37.831259325223], [144.899430980046, -37.831356840357], [144.8994205425, -37.831371196213], [144.899414060946, -37.831380112936], [144.899343298994, -37.831489449333], [144.899310455741, -37.831641149268], [144.89928500022, -37.831749059164], [144.899296219843, -37.83182782198], [144.89932473119, -37.831906632907], [144.899340121119, -37.831948090733], [144.899352116729, -37.832031544432], [144.899357689242, -37.83210787246], [144.89936020402, -37.832169827325], [144.899234928518, -37.832297528996], [144.899240159049, -37.832362677386], [144.899275909114, -37.832443058454], [144.899291225964, -37.83251993975], [144.899275175617, -37.832710923666], [144.899260097864, -37.832770608173], [144.899262570024, -37.832999924698], [144.899284781386, -37.833072125813], [144.899264677439, -37.833125142128], [144.899242276687, -37.833201485544], [144.899221735174, -37.833278735359], [144.899181856177, -37.833360389226], [144.899153461695, -37.833426477651], [144.899130223941, -37.833505843026], [144.899114180107, -37.833602412935], [144.899086262619, -37.83380911759], [144.899080946383, -37.833879997501], [144.899079720761, -37.834000892926], [144.899076384088, -37.834079693348], [144.899070003272, -37.834148806899], [144.899059032085, -37.834223965542], [144.899047786302, -37.834308761738], [144.899039352606, -37.83437257585], [144.899038333758, -37.834408486176], [144.899034147964, -37.834439078086], [144.899027892396, -37.834503814209], [144.898982360525, -37.834667732587], [144.898971970803, -37.834722751565], [144.898876790328, -37.834767488903], [144.898870533701, -37.834832215982], [144.89886365184, -37.834918216491], [144.898784135563, -37.834912255383], [144.898739479046, -37.835504831078], [144.898733778539, -37.836098800775], [144.898748398893, -37.836693023719], [144.898727488182, -37.836753595273], [144.898663054147, -37.836849130085], [144.898598470515, -37.836944364804], [144.89854239404, -37.837090567061], [144.898504866705, -37.837244995513], [144.898490828874, -37.837389325796], [144.898514412427, -37.837531697181], [144.898518551546, -37.837697376992], [144.898527155897, -37.837783401563], [144.898541431252, -37.837942260273], [144.898549846977, -37.838035292524], [144.898560119235, -37.83814062275], [144.898576159615, -37.838237297533], [144.898601168312, -37.838368303623], [144.898615365969, -37.838451796629], [144.898622740018, -37.838499500679], [144.898631754416, -37.83853621188], [144.898652385911, -37.838626831681], [144.898677337184, -37.838721033211], [144.898722141608, -37.838894449924], [144.898748070223, -37.838993057549], [144.898788512077, -37.839125213196], [144.898795450986, -37.839153381256], [144.898822780011, -37.839241488271], [144.898857046882, -37.839357764217], [144.898882371307, -37.839438833399], [144.898910712964, -37.839530464893], [144.898941358379, -37.839618640083], [144.898967511408, -37.839709357471], [144.89901185013, -37.839859984343], [144.899031380704, -37.83995058442], [144.899059165536, -37.840061489932], [144.8990655637, -37.840120412235], [144.899111362947, -37.84024797567], [144.899158560978, -37.84037521805], [144.899207154221, -37.840502129727], [144.899226085658, -37.840566923279], [144.899277141002, -37.840705259989], [144.899331589826, -37.840872985591], [144.899376993707, -37.840986920638], [144.899441350353, -37.841065189692], [144.899513375743, -37.841135269703], [144.899577975852, -37.841195034037], [144.899772941804, -37.841406483106], [144.8999347512, -37.841566613871], [144.900413295852, -37.842077864075], [144.900720099443, -37.842495617118], [144.900739309695, -37.842527878903], [144.900774820625, -37.842576390978], [144.900839165289, -37.842673295124], [144.900903195972, -37.842780837274], [144.900948694979, -37.842832185836], [144.900964480593, -37.842867044949], [144.900996792145, -37.842910174034], [144.9010321641, -37.842964000417], [144.901087047984, -37.843039460173], [144.901154732682, -37.843136424604], [144.901186754251, -37.843190190303], [144.901241864704, -37.843257669722], [144.901393772508, -37.843459868512], [144.901435996941, -37.843508500079], [144.901480979448, -37.843578457262], [144.901565127073, -37.843686357685], [144.901594087528, -37.84372942687], [144.901639071193, -37.843799393026], [144.901694245549, -37.843864206834], [144.901723369017, -37.843901971043], [144.901748978979, -37.843944980467], [144.901772960092, -37.843994980913], [144.901813215328, -37.844051363296], [144.901891227928, -37.844167625071], [144.90193670657, -37.844231733365], [144.901976745011, -37.844279334499], [144.902028274184, -37.84433886455], [144.902302913339, -37.844662600475], [144.902352988277, -37.844720932958], [144.902399044722, -37.844765117645], [144.902444889136, -37.844816345631], [144.902483551166, -37.844860407534], [144.902517949639, -37.844898526882], [144.902688026059, -37.845096119309], [144.902746003477, -37.845161134873], [144.90280247111, -37.84523054822], [144.902910621287, -37.845341695973], [144.902994487506, -37.845425934848], [144.903058219476, -37.84548443914], [144.903304171755, -37.845740361974], [144.903371834414, -37.845807757599], [144.903599102298, -37.846035763328], [144.90366681524, -37.846100960844], [144.903720814073, -37.846159290544], [144.903814084147, -37.846255835884], [144.903980717329, -37.84641436192], [144.904049734706, -37.846482880704], [144.904090569129, -37.846514500562], [144.904129559575, -37.846562641039], [144.904268751721, -37.846707430982], [144.904316143234, -37.846753513121], [144.904367577589, -37.846804073905], [144.904516516101, -37.84694904699], [144.904583949929, -37.847024160825], [144.904643578117, -37.847080391482], [144.904736496007, -37.84718905859], [144.904819043063, -37.847271064859], [144.90488639613, -37.847349494269], [144.904958155376, -37.847419169763], [144.905111202495, -37.847566422183], [144.905217107306, -37.84765876658], [144.905248406886, -37.847683600922], [144.905405442066, -37.847809640266], [144.905535341836, -37.847926672473], [144.905647345358, -37.848036868008], [144.905765628773, -37.84815760433], [144.905875694421, -37.848278194336], [144.906042149317, -37.848440200937], [144.906192757209, -37.8485810671], [144.906411511268, -37.848782852617], [144.906527932315, -37.848911377159], [144.906710555637, -37.849087110337], [144.906966634764, -37.849302225359], [144.907026617455, -37.84930589989], [144.907048050966, -37.849261346295], [144.907066634981, -37.849277810257], [144.907268798111, -37.849456903503], [144.907250891076, -37.849541008806], [144.906857471329, -37.849690016559], [144.906210159442, -37.849631742633], [144.904416932163, -37.84837245631], [144.902750509098, -37.847071306753], [144.901335568783, -37.84562940093], [144.900072036129, -37.844344754191], [144.898732167122, -37.84278919642], [144.897872798783, -37.841327757128], [144.897320074834, -37.839758548275], [144.89709277432, -37.838253687309], [144.896975645185, -37.836850642788], [144.896961937802, -37.835172482798], [144.897157207442, -37.833089256825], [144.897735605908, -37.830860086746], [144.898797001331, -37.829103037317], [144.900144361334, -37.827517030337], [144.901836884975, -37.825915006225], [144.903768110461, -37.824286059773], [144.905085855668, -37.823188268052], [144.90606402173, -37.822243788861], [144.906639678056, -37.821004499065], [144.908493977011, -37.820074405864], [144.908551936502, -37.819925485701], [144.908963611306, -37.819841724843], [144.90931721665, -37.8197086748], [144.90944450803, -37.819648276849], [144.909805244543, -37.819477016264], [144.910147360425, -37.819301313812], [144.910367427886, -37.819172108267], [144.910608311359, -37.819023346877], [144.910914309564, -37.81885207477], [144.910954997036, -37.818827007066], [144.910943047415, -37.818746181979], [144.911446415354, -37.818442199563], [144.911504408486, -37.81844888219], [144.911526127468, -37.81847013038], [144.911667006998, -37.818499296563], [144.911764222438, -37.818438524803], [144.911864983111, -37.81853786237], [144.912017749125, -37.818439152327], [144.912944970848, -37.81821834585], [144.913879313908, -37.818017322586], [144.914820107896, -37.817836226787], [144.914900408417, -37.81783834727], [144.915197164156, -37.818101985216], [144.915210866744, -37.818102705461], [144.915325439316, -37.818025331222], [144.916139407582, -37.81827324014], [144.916167884489, -37.818284892349], [144.91619539163, -37.818297850257], [144.916221328051, -37.81831272164], [144.916245480725, -37.818329384354], [144.916267651277, -37.818347701543], [144.916288782585, -37.818366874777], [144.916474376054, -37.818672113729], [144.916496393907, -37.818751625957], [144.916799135598, -37.818706976035], [144.916853553082, -37.818796578687], [144.925541300714, -37.818391607733]]]]}}