{"type": "Feature", "properties": {"seg_id": "30639", "street_id": "30639", "name": "West Gate Freeway", "str_type": "Freeway", "status_id": "11", "seg_part": "1", "poly_area": "148327", "gisid": "2531"}, "geometry": {"type": "MultiPolygon", "coordinates": [[[[144.922892621451, -37.828509258821], [144.922760099887, -37.828555076419], [144.922663200013, -37.828592198441], [144.922566833241, -37.82863018355], [144.922471011789, -37.828669026931], [144.922279564396, -37.828706114466], [144.922237940458, -37.828724171025], [144.922196429462, -37.828742390434], [144.922155032422, -37.828760772249], [144.922184272564, -37.828854898946], [144.921703678413, -37.829086515281], [144.921241228769, -37.829340309896], [144.920798548521, -37.829615391132], [144.920902477424, -37.829952637597], [144.920301151322, -37.830069214678], [144.919488368098, -37.831201260658], [144.919065510555, -37.831493712688], [144.918451603229, -37.83200117328], [144.918159081869, -37.832255008847], [144.916451537455, -37.832775770618], [144.914157224931, -37.833747540273], [144.913567222292, -37.833931790254], [144.91342865309, -37.833975063093], [144.912584904209, -37.832958790856], [144.912582716666, -37.832922644142], [144.913773231178, -37.832396358133], [144.914059920755, -37.832362902516], [144.914643034604, -37.831998114286], [144.915612172379, -37.831391577788], [144.916807696564, -37.8306045207], [144.916798175757, -37.830591820601], [144.916888444984, -37.830542899349], [144.916889943599, -37.830550373111], [144.91694885397, -37.830511589287], [144.917261182755, -37.830225553283], [144.917317876462, -37.830228246825], [144.917788459953, -37.829863244153], [144.918013589088, -37.829704489258], [144.918131703194, -37.829523708589], [144.918134765499, -37.829390390863], [144.917887983685, -37.829172577949], [144.918551658465, -37.82891528072], [144.918757773594, -37.828864532838], [144.918651224098, -37.828910909432], [144.918622032431, -37.828934891592], [144.918567273813, -37.82900968645], [144.918564866987, -37.829049281753], [144.918630580636, -37.829313572738], [144.918759086754, -37.829431490478], [144.918891309176, -37.829506323169], [144.919053923599, -37.829540144585], [144.919194674261, -37.829529579844], [144.919435073545, -37.82941019733], [144.91943642442, -37.82931830571], [144.919506262599, -37.829311104963], [144.919570809948, -37.829288764784], [144.919922578087, -37.82912784895], [144.92012315743, -37.829045181533], [144.920806505121, -37.828712649779], [144.920765267792, -37.828658833695], [144.920391716128, -37.828479173753], [144.920368405646, -37.828467962396], [144.921236304733, -37.828254403236], [144.921446206944, -37.828185419244], [144.92256166027, -37.827910930896], [144.922697809706, -37.827877426196], [144.922892621451, -37.828509258821]], [[144.917871577094, -37.831562335694], [144.91822739389, -37.831733899477], [144.918742289025, -37.831469813484], [144.9190671436, -37.831189010024], [144.919637069831, -37.830395229426], [144.919504865199, -37.830247807926], [144.917575011727, -37.83119769492], [144.917871577094, -37.831562335694]]]]}}