{"type": "Feature", "properties": {"seg_id": "30634", "street_id": "30634", "name": "Webb Dock Railway", "str_type": "Rail/Tram", "status_id": "9", "seg_part": "1", "poly_area": "20368", "gisid": "2528"}, "geometry": {"type": "MultiPolygon", "coordinates": [[[[144.911379313107, -37.825417771178], [144.91151065365, -37.825859227173], [144.911516602648, -37.825977180236], [144.911511710637, -37.826095034579], [144.911492389654, -37.826211799255], [144.911464985011, -37.826327442285], [144.911423485581, -37.82644038217], [144.911370250014, -37.826550109887], [144.911305648045, -37.826655863349], [144.911230128353, -37.82675690807], [144.91114421544, -37.826852542269], [144.911048505995, -37.826942101741], [144.910938631595, -37.827020608951], [144.911014591375, -37.827085261033], [144.909753017009, -37.82759185237], [144.908944401889, -37.828113608696], [144.908702601633, -37.828234775019], [144.907417622512, -37.829063870487], [144.907149520907, -37.829248553184], [144.906896811397, -37.829446419451], [144.906660522603, -37.82965666399], [144.906499494878, -37.829809409439], [144.906327937649, -37.829980605171], [144.906167279001, -37.830158329125], [144.906017913212, -37.830342145227], [144.904745874428, -37.831995868027], [144.904654707595, -37.832170705535], [144.904590338943, -37.832353214161], [144.904545665504, -37.832539510952], [144.904522111824, -37.832728326496], [144.904516110373, -37.832900970967], [144.904527952656, -37.833073574422], [144.904556463202, -37.833245056127], [144.904595783444, -37.833415501876], [144.90464938603, -37.833566835114], [144.904716196523, -37.833714826131], [144.904795888093, -37.833858750795], [144.904821452262, -37.833899781164], [144.904848064701, -37.833940390115], [144.904875714372, -37.833980560804], [144.904951310198, -37.834077537543], [144.905037314553, -37.834168896545], [144.90513306781, -37.834253937075], [144.905237835559, -37.834332006856], [144.904946109104, -37.834292610049], [144.904865874139, -37.834214703835], [144.904792707893, -37.834132536629], [144.904726968883, -37.834046511083], [144.904679152568, -37.833975981104], [144.904634352128, -37.833904216384], [144.904592618172, -37.833831298011], [144.904513736674, -37.833671561929], [144.90444955346, -37.833507737841], [144.904400401248, -37.833340675246], [144.904361653965, -37.833116575862], [144.904344570261, -37.832891160047], [144.90435612476, -37.832665771514], [144.904383997099, -37.832476754551], [144.904432547328, -37.832290469905], [144.904499734147, -37.832107982248], [144.904593204724, -37.831933247616], [144.905871406768, -37.830271425591], [144.906025375223, -37.830081985234], [144.906190982537, -37.829898825012], [144.906367822248, -37.829722394381], [144.906528850039, -37.829569649113], [144.906627570349, -37.829478551678], [144.906729288163, -37.829389553057], [144.906833932573, -37.829302715283], [144.906987119527, -37.829183471676], [144.907145823119, -37.829068856853], [144.907309821156, -37.828959031262], [144.909639385041, -37.827455926018], [144.910712531886, -37.827050011132], [144.910831668837, -37.82698185583], [144.9109382467, -37.826901537294], [144.911035389548, -37.826814003975], [144.911122338065, -37.826719940078], [144.911198412615, -37.826620080856], [144.911258511737, -37.826513627864], [144.911307648084, -37.82641485143], [144.911346649705, -37.826313270046], [144.91137526591, -37.826209536755], [144.911395839463, -37.826205725729], [144.911410674286, -37.826130600733], [144.911418066189, -37.826054708711], [144.911420320088, -37.825978570312], [144.911413906204, -37.825875406193], [144.911397819577, -37.825772855018], [144.911375144286, -37.825670907122], [144.91130430307, -37.825431655763], [144.910833054417, -37.823840082775], [144.910806910942, -37.823721192565], [144.910790211906, -37.823601450997], [144.910786528014, -37.823481098758], [144.91079588651, -37.823361025937], [144.910818218183, -37.823242120553], [144.910853357874, -37.823125261993], [144.910901045702, -37.823011314504], [144.910960928982, -37.822901120806], [144.911038000042, -37.822798086826], [144.911154285585, -37.822762437038], [144.911155979347, -37.822761917376], [144.911076741587, -37.822853635537], [144.911013068642, -37.822952866835], [144.910960075424, -37.82305602985], [144.910918130121, -37.823162407822], [144.910887524162, -37.823271261656], [144.910868470192, -37.823381835051], [144.910861100596, -37.823493359763], [144.910865466576, -37.823605060937], [144.910881537798, -37.82371616249], [144.910905900082, -37.823826510618], [144.911379313107, -37.825417771178]]]]}}