{"type": "Feature", "properties": {"seg_id": "30640", "street_id": "30640", "name": "Empress Road", "str_type": "Port Roads", "status_id": "5", "seg_part": "1", "poly_area": "16491", "gisid": "4103"}, "geometry": {"type": "MultiPolygon", "coordinates": [[[[144.91236121537, -37.837582495675], [144.91226348799, -37.837659796577], [144.912351968688, -37.837947965178], [144.912482018134, -37.838288093093], [144.912592125486, -37.838578034605], [144.912790860136, -37.839098878709], [144.912835778078, -37.839294041163], [144.912853050537, -37.839426403273], [144.912850358959, -37.839652078543], [144.912810260675, -37.8398877009], [144.912717680714, -37.840144635243], [144.912671431731, -37.840257572878], [144.912617581477, -37.840359633816], [144.912455288599, -37.84059360916], [144.912375038574, -37.840693965415], [144.912308894164, -37.840765656987], [144.912188739312, -37.840879286976], [144.912144163032, -37.840927546788], [144.912086783724, -37.84100142311], [144.910865784408, -37.84157365771], [144.910686618999, -37.841271805766], [144.91150733235, -37.84088725787], [144.911561010061, -37.840936762248], [144.911845042086, -37.840765995365], [144.911954506722, -37.84068668169], [144.912049572372, -37.840596290926], [144.912134496185, -37.840499726912], [144.912208658028, -37.840397694779], [144.912271516356, -37.840290939588], [144.912318800542, -37.840179256177], [144.912410089084, -37.839957009445], [144.912453380954, -37.839842327203], [144.912480039088, -37.839724296314], [144.912493673972, -37.839604790955], [144.912494182847, -37.839484711767], [144.91248156188, -37.839364963715], [144.912455906186, -37.839246449269], [144.912421472535, -37.839129089093], [144.911961904177, -37.837921426992], [144.91188872553, -37.837736356121], [144.911811717601, -37.837688968527], [144.91236121537, -37.837582495675]]]]}}