{"type": "Feature", "properties": {"seg_id": "30644", "street_id": "30644", "name": "Central Boulevard", "str_type": "Private", "status_id": "4", "seg_part": "1", "poly_area": "5669", "gisid": "2535"}, "geometry": {"type": "MultiPolygon", "coordinates": [[[[144.918214319752, -37.822322056873], [144.918149628596, -37.822112007757], [144.920339622152, -37.82168758702], [144.92034547138, -37.821706578835], [144.920571651857, -37.8216627424], [144.920565721336, -37.821643487821], [144.920587787669, -37.821639210391], [144.920585631418, -37.821632208977], [144.920607697721, -37.821627932443], [144.920600958183, -37.82160605199], [144.920634471695, -37.821562460468], [144.920667571139, -37.821556044751], [144.920770899099, -37.821891510185], [144.920732283497, -37.821898994625], [144.920684179045, -37.821875855574], [144.920676900096, -37.821852225443], [144.920654833728, -37.821856501987], [144.920652677465, -37.821849500574], [144.919738020998, -37.822026768472], [144.919777863496, -37.822156124165], [144.919700629565, -37.822171092326], [144.919660788332, -37.822041736632], [144.918214319752, -37.822322056873]]]]}}