{"type": "Feature", "properties": {"seg_id": "30648", "street_id": "30648", "name": "St Kilda and Port Melbourne Light Railway", "str_type": "Rail/Tram", "status_id": "9", "seg_part": "1", "poly_area": "9242", "gisid": "2539"}, "geometry": {"type": "MultiPolygon", "coordinates": [[[[144.954856761704, -37.828093904836], [144.954551270321, -37.828025567917], [144.95457229419, -37.82794252693], [144.954586158664, -37.827938496244], [144.954640314611, -37.827805808491], [144.95467033795, -37.827708401428], [144.954693787554, -37.827653534467], [144.954760484804, -37.827668448638], [144.954898206276, -37.827410789371], [144.955055188853, -37.827160156132], [144.955230865573, -37.826917453814], [144.954874835445, -37.827137932334], [144.954502008385, -37.82734019178], [144.954113863998, -37.827523429407], [144.954139719472, -37.827529636294], [144.954153138594, -37.827532636979], [144.953608186369, -37.827788603842], [144.953568057626, -37.827805621587], [144.953288158088, -37.827743005312], [144.954275173326, -37.827280885404], [144.954742930053, -37.827038386109], [144.955180859241, -37.826763066194], [144.955585312297, -37.826457219668], [144.956337217021, -37.825834114828], [144.956665627338, -37.825594568719], [144.956861868487, -37.825579813924], [144.9557056417, -37.826536410746], [144.955362997914, -37.827034244463], [144.955079243309, -37.827554866316], [144.954856761704, -37.828093904836]]]]}}