{"type": "Feature", "properties": {"seg_id": "30642", "street_id": "30642", "name": "Bayside Avenue", "str_type": "Private", "status_id": "4", "seg_part": "1", "poly_area": "4723", "gisid": "2533"}, "geometry": {"type": "MultiPolygon", "coordinates": [[[[144.921022607788, -37.822708685842], [144.921071132313, -37.822866222569], [144.921060098987, -37.822868360874], [144.921005181871, -37.822841904308], [144.921002486142, -37.82283315412], [144.917245669148, -37.823561203566], [144.916600198901, -37.821465276053], [144.91654503277, -37.821475965487], [144.916536947459, -37.821449709259], [144.91668239799, -37.821428545351], [144.917288092858, -37.823395318141], [144.917411654012, -37.823454844259], [144.918266752982, -37.82328914186], [144.918555168305, -37.823233250001], [144.920980919599, -37.822763138187], [144.920975528253, -37.822745634208], [144.921008628206, -37.82273921841], [144.921000540045, -37.822712962423], [144.921022607788, -37.822708685842]]]]}}