{"type": "Feature", "properties": {"seg_id": "30646", "street_id": "30646", "name": "West Gate Freeway", "str_type": "Freeway", "status_id": "11", "seg_part": "1", "poly_area": "1484", "gisid": "2537"}, "geometry": {"type": "MultiPolygon", "coordinates": [[[[144.962588578544, -37.82842511196], [144.962630532059, -37.828472342148], [144.962765616515, -37.828690734334], [144.962572286018, -37.828563725231], [144.962325841617, -37.828484746513], [144.962189661232, -37.828374635229], [144.962233968909, -37.82833356063], [144.962155545536, -37.828289040556], [144.962075563653, -37.828246744674], [144.961991555658, -37.828209734465], [144.961904080581, -37.828178256211], [144.961813720524, -37.828152519384], [144.961721076786, -37.828132695249], [144.961626902905, -37.828118106826], [144.961642590201, -37.828011247791], [144.961751651287, -37.828026733622], [144.961858818626, -37.828049104245], [144.961963140248, -37.828078911707], [144.962065579839, -37.828113154886], [144.962117293592, -37.828135394033], [144.962167626481, -37.828159544243], [144.962216466332, -37.828185551695], [144.962252677941, -37.828206619653], [144.962287908928, -37.828228708898], [144.962322113533, -37.828251790738], [144.962324206315, -37.828249850684], [144.962548604904, -37.828447827285], [144.962588578544, -37.82842511196]]]]}}