{"type": "Feature", "properties": {"seg_id": "30641", "street_id": "30641", "name": "Westside Avenue", "str_type": "Private", "status_id": "4", "seg_part": "1", "poly_area": "3950", "gisid": "2532"}, "geometry": {"type": "MultiPolygon", "coordinates": [[[[144.918149628596, -37.822112007757], [144.918214319752, -37.822322056873], [144.918304268971, -37.822614113684], [144.918267306832, -37.822621275987], [144.918438472082, -37.823177032078], [144.918555168305, -37.823233250001], [144.918266752982, -37.82328914186], [144.918337625564, -37.823196575231], [144.918166461039, -37.822640819016], [144.918129940923, -37.822647896271], [144.918118269448, -37.822609999427], [144.917986971356, -37.822635443574], [144.917771686668, -37.821936415636], [144.917902983572, -37.821910971692], [144.917717808349, -37.821309700432], [144.917706775175, -37.821311838427], [144.917669708015, -37.821293980455], [144.917667025243, -37.821285270075], [144.917926637635, -37.821247491986], [144.91792934541, -37.821256283908], [144.917906833067, -37.821285687442], [144.917895799901, -37.821287825455], [144.918014856757, -37.821674404435], [144.918036420201, -37.821744420832], [144.918149628596, -37.822112007757]], [[144.917921851683, -37.821972236057], [144.917905301199, -37.821975443514], [144.917871950341, -37.822019004669], [144.917914592046, -37.822157461793], [144.917975274613, -37.822145702259], [144.917921851683, -37.821972236057]], [[144.918039992363, -37.822355839348], [144.91797930963, -37.82236759891], [144.918027935754, -37.82252548647], [144.918082850427, -37.822551942568], [144.918099401034, -37.82254873509], [144.918039992363, -37.822355839348]]]]}}