{"type": "Feature", "properties": {"seg_id": "30652", "street_id": "30652", "name": "Yarra River", "str_type": "River", "status_id": "8", "seg_part": "1", "poly_area": "28862", "gisid": "3870"}, "geometry": {"type": "MultiPolygon", "coordinates": [[[[144.955919105172, -37.823603001997], [144.955932493213, -37.823642968974], [144.955904473846, -37.823658819897], [144.955879726139, -37.823634372161], [144.955863067476, -37.823601522636], [144.955595284968, -37.82368811697], [144.95541140314, -37.823741808442], [144.955225705717, -37.8237914129], [144.955038337046, -37.823836891784], [144.954830520299, -37.823882334298], [144.954620869792, -37.823922125943], [144.954409629674, -37.823956220381], [144.954204075976, -37.823986126336], [144.953997437199, -37.824010884473], [144.953789918199, -37.824030470249], [144.952664685977, -37.824055749503], [144.952667160372, -37.824144420195], [144.952399672708, -37.824301363275], [144.952251807693, -37.824146025674], [144.95184962216, -37.82327127247], [144.95185103267, -37.823270702309], [144.951852342158, -37.823269995624], [144.951853570548, -37.823269202922], [144.951854709003, -37.823268329906], [144.951855749328, -37.823267382861], [144.951856684036, -37.8232663686], [144.951857506402, -37.823265294424], [144.951858210507, -37.823264168063], [144.951858791283, -37.823262997623], [144.951859244551, -37.823261791527], [144.95185956705, -37.823260558454], [144.951859756458, -37.823259307279], [144.951859811412, -37.823258047005], [144.951859747554, -37.823256785623], [144.951857189901, -37.82323308714], [144.952812232652, -37.823236332574], [144.952842922398, -37.823260570513], [144.952874573629, -37.823283857773], [144.952908541696, -37.823304983942], [144.952944589718, -37.823323801694], [144.952982466305, -37.823340179798], [144.953021907317, -37.82335400404], [144.953062637705, -37.823365178011], [144.953104373428, -37.82337362379], [144.953146778638, -37.823379585192], [144.953164262789, -37.823416722802], [144.953357581007, -37.823360978172], [144.953396538727, -37.823375075641], [144.95362825706, -37.823329833459], [144.953633197738, -37.82334575565], [144.954545333068, -37.823167436132], [144.954580764601, -37.82310717741], [144.954910078617, -37.823042473084], [144.95491602306, -37.823027805203], [144.954959102456, -37.82303432581], [144.955002554064, -37.823038621636], [144.955046278416, -37.823039979817], [144.955089960283, -37.823038390564], [144.955133284747, -37.823033865332], [144.955175939461, -37.823026436747], [144.955217126281, -37.823015092537], [144.955249795746, -37.823006015265], [144.955280914541, -37.822993975747], [144.955310615014, -37.822979879587], [144.955338683707, -37.822963828094], [144.955364918885, -37.822945936633], [144.955389131996, -37.82292633379], [144.955411149017, -37.822905160453], [144.955430811709, -37.822882568798], [144.955447978755, -37.822858721192], [144.955462526774, -37.82283378903], [144.955474351207, -37.822807951502], [144.955483367072, -37.822781394306], [144.955489509571, -37.822754308309], [144.955492734556, -37.822726888182], [144.95549301885, -37.822699330996], [144.955490793642, -37.822671796484], [144.955495487981, -37.822670435221], [144.955915892436, -37.823603903266], [144.955919105172, -37.823603001997]]]]}}