{"type": "Feature", "properties": {"seg_id": "30666", "street_id": "30666", "name": "Yarra River", "str_type": "River", "status_id": "8", "seg_part": "1", "poly_area": "22127", "gisid": "2553"}, "geometry": {"type": "MultiPolygon", "coordinates": [[[[144.967896507345, -37.81885769754], [144.968258598076, -37.819645765853], [144.96753229542, -37.819687325549], [144.967373584772, -37.819694746537], [144.96714750781, -37.819716727946], [144.966746754306, -37.819764959195], [144.966315251501, -37.81982419211], [144.966002699363, -37.81987069909], [144.965651192619, -37.819929148638], [144.965290858858, -37.819994653091], [144.965091185431, -37.820034457863], [144.965077390797, -37.820037385281], [144.965023934191, -37.819902519695], [144.965040612362, -37.819896762724], [144.965056291023, -37.819889439201], [144.965071127434, -37.819881090352], [144.965085016495, -37.819871775318], [144.965097214764, -37.81986109032], [144.965107889842, -37.819851021292], [144.965117514258, -37.819840306521], [144.965126026204, -37.81982901482], [144.965133371016, -37.819817218702], [144.965139501526, -37.819804993925], [144.965129077628, -37.819803823384], [144.965131854239, -37.819797428255], [144.965134283401, -37.819790944747], [144.965136360665, -37.819784384735], [144.965136495883, -37.819783639096], [144.965131252772, -37.819784684865], [144.965159473478, -37.819629299883], [144.965184839788, -37.819632199375], [144.96518532564, -37.819629524071], [144.965185811492, -37.819626848767], [144.965160445184, -37.819623949276], [144.965192302245, -37.819448540826], [144.965204954073, -37.819446766072], [144.96522117288, -37.819484666829], [144.965264963137, -37.819475615193], [144.96525490757, -37.819432201221], [144.965283737574, -37.819422357552], [144.965311283478, -37.819410422208], [144.965337304775, -37.819396499399], [144.965307045052, -37.819394133869], [144.965276680036, -37.819393688107], [144.965246460624, -37.819395736976], [144.96521350682, -37.819253476572], [144.965214781617, -37.819253221941], [144.965602220584, -37.819176013832], [144.965753240521, -37.819145917642], [144.966229190904, -37.819060703096], [144.966619786267, -37.819002609598], [144.967045616219, -37.818950298615], [144.967768762792, -37.818890142068], [144.967896507345, -37.81885769754]]]]}}