{"type": "Feature", "properties": {"seg_id": "30675", "street_id": "30675", "name": "Pl5317", "str_type": "Private", "status_id": "4", "seg_part": "1", "poly_area": "109", "gisid": "2559"}, "geometry": {"type": "MultiPolygon", "coordinates": [[[[144.980741860898, -37.834282663632], [144.980937775397, -37.834308427002], [144.981142598203, -37.83433536114], [144.981136975331, -37.834362476615], [144.980932069815, -37.834335531135], [144.98073599449, -37.834309746072], [144.980741860898, -37.834282663632]]]]}}