{"type": "Feature", "properties": {"seg_id": "30685", "street_id": "30685", "name": "PL5068", "str_type": "Private", "status_id": "4", "seg_part": "1", "poly_area": "43", "gisid": "2569"}, "geometry": {"type": "MultiPolygon", "coordinates": [[[[144.980811934208, -37.83551725306], [144.980794391763, -37.835527442763], [144.980769845851, -37.835648454244], [144.980745146062, -37.835644597115], [144.980746563612, -37.835633032313], [144.980740697634, -37.835632300877], [144.980763953455, -37.835515098172], [144.980750494991, -37.835509112426], [144.980764765078, -37.835511002732], [144.980796863677, -37.83551525621], [144.980811934208, -37.83551725306]]]]}}