{"type": "Feature", "properties": {"seg_id": "30699", "street_id": "30699", "name": "West Coburg Tramway", "str_type": "Rail/Tram", "status_id": "9", "seg_part": "1", "poly_area": "8735", "gisid": "2583"}, "geometry": {"type": "MultiPolygon", "coordinates": [[[[144.949888829979, -37.788435371304], [144.949902447983, -37.788486176122], [144.949943433599, -37.788713498722], [144.949948402756, -37.788953073106], [144.949918025361, -37.789180895459], [144.949876989929, -37.789379608981], [144.949850823763, -37.789579170691], [144.949854640408, -37.789781054873], [144.949885137544, -37.789976029157], [144.949923894937, -37.790124210304], [144.949945790407, -37.790319182629], [144.94991763693, -37.790511094784], [144.949841505314, -37.790691939771], [144.949528311541, -37.791250605203], [144.949395386003, -37.791456829465], [144.948952447566, -37.792078842427], [144.948573930445, -37.792563529779], [144.948419646129, -37.792745679844], [144.948244539664, -37.792923061984], [144.947701167552, -37.793428132625], [144.947513658396, -37.79327878685], [144.947704209675, -37.793128405684], [144.948120298801, -37.792826103554], [144.948296148064, -37.792667397005], [144.948450896725, -37.792491413832], [144.948827338387, -37.792012556487], [144.949268292505, -37.791392142378], [144.949392165361, -37.791195897977], [144.949697523203, -37.790642738765], [144.949756943314, -37.790480155485], [144.949778739842, -37.790317589486], [144.949762511491, -37.79014734226], [144.949729856069, -37.790000262191], [144.949691710931, -37.789791291919], [144.949693116864, -37.789571262434], [144.949717384276, -37.789360627387], [144.949765379406, -37.789162345087], [144.94979113741, -37.788944356215], [144.949785875651, -37.788725451548], [144.94974791904, -37.788513164604], [144.949747114991, -37.788510949031], [144.94988120972, -37.788439547186], [144.949888829979, -37.788435371304]]]]}}