{"type": "Feature", "properties": {"seg_id": "30698", "street_id": "30698", "name": "West Coburg Tramway", "str_type": "Rail/Tram", "status_id": "9", "seg_part": "1", "poly_area": "449", "gisid": "2582"}, "geometry": {"type": "MultiPolygon", "coordinates": [[[[144.949747114991, -37.788510949031], [144.949699222414, -37.78837906337], [144.949665170836, -37.78825055835], [144.949664317398, -37.788247336202], [144.949806596591, -37.788175651563], [144.949819990156, -37.788168838408], [144.949821336633, -37.788174271616], [144.949851886645, -37.788297550993], [144.949888829979, -37.788435371304], [144.94988120972, -37.788439547186], [144.949747114991, -37.788510949031]]]]}}