{"type": "Feature", "properties": {"seg_id": "30701", "street_id": "30701", "name": "Upfield Railway", "str_type": "Rail/Tram", "status_id": "9", "seg_part": "1", "poly_area": "1954", "gisid": "2584"}, "geometry": {"type": "MultiPolygon", "coordinates": [[[[144.941850746984, -37.786789680463], [144.941853595211, -37.786791223486], [144.941862148112, -37.78684925191], [144.941866100432, -37.786851140826], [144.941869904332, -37.786853200419], [144.941873459489, -37.786855524477], [144.941876736471, -37.786858093759], [144.941879708146, -37.786860886992], [144.94188234991, -37.786863881052], [144.941884639893, -37.78686705115], [144.941886559135, -37.78687037104], [144.941888091747, -37.786873813235], [144.941889225039, -37.786877349238], [144.941890000914, -37.786880945479], [144.941906430043, -37.786993809344], [144.941906878653, -37.786999070285], [144.941906811912, -37.787004336328], [144.941906148656, -37.787009572395], [144.941904894264, -37.787014736023], [144.941903058909, -37.787019785337], [144.941900657475, -37.787024679388], [144.941897709436, -37.787029378488], [144.941894238701, -37.787033844527], [144.941890046544, -37.787037892469], [144.941883836574, -37.786996384804], [144.940856997148, -37.787514980499], [144.940852298332, -37.787491945698], [144.940848068638, -37.787468853706], [144.940844309166, -37.78744571054], [144.940843644413, -37.787441388031], [144.940842996069, -37.787437063953], [144.940842364142, -37.787432738345], [144.940841129795, -37.787364385974], [144.941850746984, -37.786789680463]]]]}}