{"type": "Feature", "properties": {"seg_id": "30711", "street_id": "30711", "name": "Pl5148", "str_type": "Private", "status_id": "4", "seg_part": "1", "poly_area": "89", "gisid": "2593"}, "geometry": {"type": "MultiPolygon", "coordinates": [[[[144.953781195568, -37.807727623275], [144.953770465862, -37.807704024287], [144.954013641882, -37.807634867923], [144.95400548493, -37.807615790697], [144.954047483421, -37.807603832769], [144.954051706455, -37.807602599439], [144.954071949588, -37.807647902688], [144.953781195568, -37.807727623275]]]]}}