{"type": "Feature", "properties": {"seg_id": "30710", "street_id": "30710", "name": "Pl5324", "str_type": "Private", "status_id": "4", "seg_part": "1", "poly_area": "203", "gisid": "2592"}, "geometry": {"type": "MultiPolygon", "coordinates": [[[[144.959723649892, -37.779240226963], [144.959574225543, -37.779228785323], [144.959335011434, -37.779209352553], [144.959296789537, -37.779206897888], [144.959269526905, -37.779416503205], [144.959268964925, -37.779416460124], [144.959234508437, -37.779413781399], [144.959265439948, -37.779175144162], [144.959729195306, -37.779212062916], [144.959723649892, -37.779240226963]]]]}}