{"type": "Feature", "properties": {"seg_id": "30722", "street_id": "30722", "name": "Victoria Parade", "str_type": "Rail/Tram", "status_id": "9", "seg_part": "1", "poly_area": "6140", "gisid": "2603"}, "geometry": {"type": "MultiPolygon", "coordinates": [[[[144.985539778756, -37.809269385349], [144.983896430957, -37.80909180987], [144.983639475502, -37.809067914969], [144.982622521541, -37.808959175802], [144.982481216743, -37.808944041034], [144.982292108487, -37.808924041605], [144.982288431243, -37.80894592231], [144.982207834832, -37.808937398522], [144.982206334318, -37.808946328729], [144.982142736092, -37.808939602941], [144.982144236637, -37.808930671835], [144.982013661688, -37.808916862169], [144.982017337851, -37.808894982356], [144.98128365502, -37.80881738581], [144.981023721612, -37.808789671739], [144.979031282528, -37.808579162251], [144.979027294187, -37.808602920067], [144.978899306993, -37.808589395588], [144.978897808338, -37.808598326681], [144.978833421183, -37.808591522488], [144.978834919821, -37.808582592296], [144.978754997963, -37.808574146219], [144.97875898634, -37.808550390216], [144.978649798149, -37.808538852624], [144.978447848892, -37.808515187713], [144.976855132016, -37.808349065084], [144.976766252653, -37.808339559879], [144.976591455961, -37.808326304625], [144.976589089431, -37.808359694979], [144.976330648765, -37.808333101068], [144.976323783205, -37.808375095149], [144.976271980231, -37.808369763869], [144.97627884582, -37.808327769791], [144.976175238772, -37.808317108952], [144.976072755501, -37.808322740816], [144.97601854448, -37.808295074684], [144.97600239202, -37.808302224862], [144.975987527605, -37.808310972882], [144.975973706938, -37.808320736357], [144.975961038356, -37.808331438751], [144.975949621168, -37.80834299617], [144.975940168736, -37.808355611447], [144.97581626976, -37.808342989288], [144.975819235026, -37.808324663431], [144.97580858316, -37.808322659045], [144.975816625077, -37.808294534558], [144.975826989256, -37.808266892545], [144.975839630493, -37.808239853566], [144.975809538037, -37.808236699436], [144.975717920867, -37.80822709411], [144.975662344617, -37.808221267836], [144.975601553818, -37.80821489499], [144.97438480747, -37.808083578292], [144.974330447456, -37.8080776867], [144.97353260449, -37.807990960122], [144.97350281385, -37.807988837656], [144.973472940059, -37.80798840636], [144.973443141764, -37.807989918223], [144.973413619188, -37.807993363086], [144.973384570703, -37.807998717803], [144.973356191494, -37.808005946392], [144.973329173161, -37.808015846165], [144.973342414544, -37.807938632222], [144.976375965041, -37.808266073371], [144.99102374478, -37.809818075117], [144.990909414389, -37.809826377236], [144.990794466016, -37.809824529566], [144.990680017331, -37.809814675073], [144.990546269162, -37.809800391736], [144.990542558177, -37.809822264036], [144.990386680012, -37.809805619372], [144.990385165723, -37.809814548557], [144.990324390168, -37.809808058289], [144.990325904464, -37.809799129106], [144.990271206459, -37.80979328865], [144.99027491878, -37.809771411876], [144.989206885778, -37.80965734183], [144.98884934828, -37.809619690987], [144.986517920861, -37.809370722859], [144.986343379634, -37.809352082046], [144.986254944193, -37.809345040983], [144.986180667262, -37.80933708758], [144.986176946979, -37.809358963176], [144.986000932462, -37.809340120029], [144.985999414252, -37.809349049084], [144.985938642226, -37.8093425422], [144.985940160418, -37.809333614046], [144.985805786503, -37.809319228122], [144.985809508273, -37.809297343553], [144.985685772847, -37.809284093814], [144.985539778756, -37.809269385349]]]]}}