{"type": "Feature", "properties": {"seg_id": "30734", "street_id": "30734", "name": "Yarra River", "str_type": "River", "status_id": "8", "seg_part": "1", "poly_area": "3317", "gisid": "746"}, "geometry": {"type": "MultiPolygon", "coordinates": [[[[144.947771409572, -37.823808238338], [144.94747876337, -37.823770490206], [144.947456070396, -37.823767563203], [144.947445932057, -37.823766932606], [144.947435773385, -37.823766917021], [144.947425657279, -37.823767590533], [144.947415657783, -37.823768948211], [144.947405848088, -37.823770980118], [144.947396299995, -37.823773671381], [144.94738708339, -37.823777002302], [144.947378265735, -37.823780948501], [144.947369911569, -37.823785481094], [144.947362082041, -37.823790566904], [144.947354834457, -37.823796168706], [144.947348221867, -37.823802245499], [144.94734229267, -37.823808752803], [144.947337090265, -37.823815642988], [144.94733265273, -37.823822865624], [144.947329012547, -37.823830367843], [144.947326400176, -37.823838135303], [144.947318839248, -37.823869653636], [144.947307655126, -37.823900486606], [144.947292942652, -37.823930372735], [144.947291572481, -37.823932390784], [144.947289892744, -37.823934257098], [144.947288013479, -37.823935998992], [144.947285948951, -37.823937603245], [144.947283714827, -37.823939057683], [144.947281328066, -37.823940351265], [144.94727880678, -37.823941474173], [144.947276170108, -37.823942417886], [144.947273438059, -37.823943175241], [144.947270631371, -37.82394374049], [144.947267771344, -37.823944109341], [144.947264879686, -37.823944278997], [144.947261978344, -37.823944248169], [144.947259089338, -37.823944017091], [144.947256234596, -37.823943587517], [144.947253435784, -37.823942962708], [144.947250714144, -37.823942147405], [144.947248090332, -37.823941147797], [144.947245584264, -37.82393997147], [144.94724321496, -37.823938627353], [144.947241000401, -37.823937125646], [144.947238957397, -37.823935477748], [144.947237101452, -37.823933696166], [144.947235446653, -37.823931794421], [144.94723400556, -37.823929786947], [144.94723278911, -37.823927688981], [144.947231806536, -37.823925516446], [144.947231065295, -37.82392328583], [144.947230571012, -37.823921014063], [144.947230327441, -37.823918718388], [144.947230336429, -37.823916416228], [144.947230597907, -37.823914125057], [144.947231109892, -37.823911862263], [144.947231940262, -37.823909663606], [144.947276677127, -37.823832672423], [144.947278971065, -37.823829513504], [144.947281481812, -37.823826460091], [144.947284201678, -37.823823521537], [144.947302656295, -37.823804376481], [144.947317694463, -37.823783392644], [144.947330210113, -37.823761378911], [144.947340095879, -37.823738524126], [144.947347266958, -37.823715024348], [144.947351661831, -37.823691081171], [144.947353242798, -37.82366689999], [144.947352264678, -37.823642671366], [144.94734905611, -37.823476213049], [144.94734074697, -37.82340798752], [144.947328218024, -37.823340168682], [144.947311499603, -37.823272920656], [144.947174683589, -37.822790726747], [144.947519323965, -37.822845205686], [144.947569494273, -37.823036870202], [144.94775372259, -37.823740665634], [144.947771409572, -37.823808238338]]]]}}