{"type": "Feature", "properties": {"seg_id": "30759", "street_id": "30759", "name": "Commissioners Lane", "str_type": "Private", "status_id": "4", "seg_part": "1", "poly_area": "636", "gisid": "399"}, "geometry": {"type": "MultiPolygon", "coordinates": [[[[144.954173134355, -37.819501742169], [144.953692546561, -37.819635994271], [144.953686924862, -37.819637601275], [144.9536815833, -37.819639728802], [144.95367650195, -37.819642222299], [144.953671720166, -37.819645062455], [144.953667274983, -37.819648227273], [144.953663200828, -37.819651692242], [144.953659529254, -37.819655430527], [144.953656288697, -37.819659413174], [144.953653504255, -37.81966360934], [144.953651197493, -37.819667986526], [144.953649386276, -37.81967251083], [144.953648084632, -37.819677147213], [144.953647302642, -37.819681859766], [144.953647046362, -37.819686611993], [144.953647317777, -37.819691367087], [144.953648114786, -37.819696088222], [144.953649431215, -37.819700738832], [144.95365108294, -37.819705332692], [144.953694675317, -37.81980114793], [144.953641790868, -37.819816282315], [144.953646219559, -37.819870518927], [144.953573772979, -37.819890245412], [144.953586475887, -37.819729309297], [144.953532183768, -37.819611231094], [144.953529382431, -37.819605140034], [144.953717927039, -37.819552476614], [144.95374899621, -37.819543798466], [144.954142371306, -37.819433920593], [144.954173134355, -37.819501742169]]]]}}