{"type": "Feature", "properties": {"seg_id": "30758", "street_id": "30758", "name": "Centre Lane", "str_type": "Private", "status_id": "4", "seg_part": "1", "poly_area": "1011", "gisid": "393"}, "geometry": {"type": "MultiPolygon", "coordinates": [[[[144.984433188544, -37.845741657683], [144.984303239453, -37.846370745877], [144.984119202354, -37.846347050309], [144.984180738608, -37.846183922734], [144.984216041515, -37.846011512586], [144.984219685734, -37.846011984124], [144.984238282924, -37.845921156892], [144.984234638709, -37.845920685356], [144.984275489872, -37.845721173642], [144.984433188544, -37.845741657683]]]]}}