{"type": "Feature", "properties": {"seg_id": "30750", "street_id": "30750", "name": "Phillip Court", "str_type": "Private", "status_id": "4", "seg_part": "1", "poly_area": "3208", "gisid": "3020"}, "geometry": {"type": "MultiPolygon", "coordinates": [[[[144.921872907892, -37.825469088666], [144.921991614468, -37.825854440041], [144.921888074906, -37.825788936854], [144.921728166341, -37.825787037006], [144.920849325122, -37.825958221505], [144.92087075551, -37.826028173755], [144.920822218782, -37.826037623267], [144.920819536729, -37.826028868813], [144.920432688897, -37.826104218458], [144.920345947013, -37.825824032446], [144.920676867953, -37.825759576346], [144.920773043765, -37.825805793504], [144.921696749417, -37.825625869874], [144.921823467577, -37.82555931781], [144.921872907892, -37.825469088666]]]]}}