{"type": "Feature", "properties": {"seg_id": "30764", "street_id": "30764", "name": "McLennan Drive", "str_type": "Private", "status_id": "4", "seg_part": "1", "poly_area": "2504", "gisid": "412"}, "geometry": {"type": "MultiPolygon", "coordinates": [[[[144.929106008647, -37.799820683344], [144.929103666458, -37.799828585863], [144.929102411044, -37.799836655263], [144.929102034797, -37.799844786137], [144.929102540502, -37.799852918326], [144.929103924418, -37.799860991661], [144.929106176305, -37.799868946408], [144.929109279502, -37.799876723712], [144.929113211048, -37.799884266031], [144.929117941855, -37.799891517558], [144.92912343692, -37.799898424643], [144.929129655586, -37.799904936179], [144.929136551843, -37.79991100399], [144.929144074665, -37.799916583181], [144.929152168394, -37.799921632472], [144.929160773144, -37.799926114504], [144.929169825251, -37.799929996115], [144.929179257739, -37.799933248587], [144.92918900082, -37.799935847854], [144.929198953119, -37.799937896822], [144.930047725912, -37.800066030902], [144.931948534679, -37.800466533618], [144.931956512883, -37.800467832098], [144.931964568644, -37.80046870599], [144.9319726841, -37.80046901704], [144.93198079687, -37.800468762857], [144.931988844594, -37.800467945395], [144.931996765411, -37.800466570938], [144.932004498437, -37.80046465005], [144.932011984229, -37.800462197498], [144.932019165246, -37.800459232132], [144.932025986291, -37.800455776748], [144.932032394932, -37.800451857905], [144.932038341908, -37.800447505727], [144.932043781505, -37.800442753667], [144.932048671911, -37.800437638253], [144.932052975536, -37.800432198806], [144.932056659298, -37.800426477137], [144.932059694882, -37.800420517227], [144.932061890821, -37.800414329506], [144.932148727957, -37.800154837638], [144.932152039994, -37.800144121481], [144.932153882575, -37.800133167928], [144.932154549987, -37.800122122325], [144.932154037445, -37.800111063846], [144.932152348624, -37.800100071758], [144.93214949563, -37.800089224854], [144.932145498911, -37.800078600885], [144.932140387118, -37.800068276002], [144.932134196891, -37.800058324215], [144.932126972602, -37.800048816859], [144.932118766036, -37.800039822083], [144.932109636016, -37.800031404361], [144.932100090346, -37.800023234127], [144.93230080932, -37.800166167422], [144.93229862366, -37.800164849495], [144.932296379043, -37.800163607627], [144.932294008122, -37.800162525014], [144.932291528969, -37.800161609906], [144.932288960479, -37.800160869278], [144.932286322229, -37.800160308776], [144.932283634327, -37.800159932671], [144.93228091726, -37.800159743829], [144.932278191737, -37.800159743692], [144.932275478531, -37.800159932258], [144.932272798322, -37.800160308092], [144.932270171538, -37.800160868328], [144.9322676182, -37.800161608697], [144.93226515777, -37.800162523555], [144.932262809, -37.80016360593], [144.932260589791, -37.800164847572], [144.93225851706, -37.800166239017], [144.932256701121, -37.800167837826], [144.932239088783, -37.800183213495], [144.932143065887, -37.800470160588], [144.93213964559, -37.800479347302], [144.932134984282, -37.800488183749], [144.932129388002, -37.800496666572], [144.932122897463, -37.800504734058], [144.932115559885, -37.800512327513], [144.932107428649, -37.800519391696], [144.932098562912, -37.800525875212], [144.932089027173, -37.800531730894], [144.932078890806, -37.800536916141], [144.932068227554, -37.800541393229], [144.932057114993, -37.800545129587], [144.932045633969, -37.800548098032], [144.932033868009, -37.800550276969], [144.93202190271, -37.800551650546], [144.932009825122, -37.800552208769], [144.931997723111, -37.800551947577], [144.931985664071, -37.800550979453], [144.931839825776, -37.800513526645], [144.930029087913, -37.800132000788], [144.929051222839, -37.799984377705], [144.929106008647, -37.799820683344]]]]}}