{"type": "Feature", "properties": {"seg_id": "30761", "street_id": "30761", "name": "Aquarium Drive", "str_type": "Lease/Reserve", "status_id": "6", "seg_part": "1", "poly_area": "527", "gisid": "400"}, "geometry": {"type": "MultiPolygon", "coordinates": [[[[144.959005648773, -37.820055510687], [144.959108304567, -37.820025767949], [144.959121715576, -37.820151634045], [144.959122035233, -37.820154747089], [144.959122331155, -37.820157861608], [144.959122603329, -37.82016097749], [144.959122112121, -37.820173296943], [144.959120337369, -37.820185532197], [144.959117251613, -37.820197594103], [144.959112877382, -37.820209394599], [144.95910724661, -37.82022084753], [144.959100400409, -37.82023186928], [144.959092388762, -37.820242379378], [144.95908327016, -37.820252301093], [144.959072575469, -37.82026115811], [144.959059832815, -37.82027167285], [144.959045812926, -37.820281109496], [144.95903066005, -37.820289370957], [144.958962949266, -37.82032242382], [144.958960744333, -37.820324523724], [144.958958906956, -37.82032683969], [144.958957326507, -37.820329273193], [144.958956014508, -37.820331806495], [144.958955055694, -37.82033443752], [144.958915291817, -37.820342102692], [144.958874617777, -37.820346122664], [144.95883362487, -37.820347248724], [144.958792616355, -37.820345668128], [144.958780179905, -37.820341711641], [144.958768093319, -37.820337148472], [144.95875654865, -37.820331765465], [144.958745634744, -37.820325604047], [144.958735435593, -37.820318711635], [144.958726029689, -37.820311141274], [144.958717489418, -37.820302951222], [144.958709880505, -37.820294204509], [144.958702807485, -37.820285150898], [144.958617694669, -37.820151959606], [144.958639204067, -37.820145052392], [144.958660832283, -37.82013838274], [144.958682575147, -37.820131951935], [144.958694182669, -37.820128589033], [144.958753940633, -37.82022210267], [144.958793954393, -37.820273555919], [144.958798735656, -37.82027622455], [144.95880364228, -37.820278719365], [144.958808802815, -37.82028086397], [144.958814177298, -37.820282641757], [144.958819724108, -37.82028403896], [144.95882540029, -37.820285044758], [144.958831161888, -37.820285651361], [144.958836964284, -37.820285854074], [144.958842762544, -37.820285651325], [144.958848511766, -37.820285044686], [144.958854167427, -37.820284038853], [144.958859685731, -37.820282641616], [144.958865023943, -37.820280863795], [144.958870017646, -37.820278554049], [144.958976667471, -37.820241081906], [144.958984875224, -37.820238200767], [144.958992572058, -37.820234532703], [144.95899982637, -37.820230338308], [144.959006581779, -37.820225650183], [144.959012785779, -37.820220504766], [144.959018390148, -37.820214942049], [144.959023351329, -37.820209005267], [144.959027630761, -37.820202740563], [144.959031195183, -37.82019619663], [144.95903401689, -37.820189424328], [144.959036073952, -37.820182476295], [144.95903735038, -37.820175406534], [144.959037836253, -37.820168269993], [144.959037527795, -37.82016112214], [144.959036427403, -37.820154018531], [144.959034748542, -37.820146973357], [144.959005648773, -37.820055510687]]]]}}