{"type": "Feature", "properties": {"seg_id": "30772", "street_id": "30772", "name": "PL5373", "str_type": "Private", "status_id": "4", "seg_part": "1", "poly_area": "160", "gisid": "428"}, "geometry": {"type": "MultiPolygon", "coordinates": [[[[144.941586477945, -37.7907648129], [144.941636709974, -37.790482289033], [144.941627063779, -37.790466106543], [144.941413753284, -37.790444544808], [144.941418606346, -37.790416819347], [144.941674553663, -37.790444010629], [144.941617236086, -37.790767441217], [144.941586477945, -37.7907648129]]]]}}