{"type": "Feature", "properties": {"seg_id": "30771", "street_id": "30771", "name": "Cade Square", "str_type": "Lease/Reserve", "status_id": "6", "seg_part": "1", "poly_area": "947", "gisid": "425"}, "geometry": {"type": "MultiPolygon", "coordinates": [[[[144.939591244453, -37.777940271189], [144.939582464637, -37.77794877161], [144.939209388301, -37.777706003823], [144.939218168104, -37.777697504331], [144.939369897096, -37.777550607623], [144.939584497215, -37.777690750518], [144.939598698375, -37.777699998998], [144.93974266056, -37.777793676732], [144.939591244453, -37.777940271189]]]]}}