{"type": "Feature", "properties": {"seg_id": "30787", "street_id": "30787", "name": "Upfield Railway", "str_type": "Rail/Tram", "status_id": "9", "seg_part": "1", "poly_area": "777", "gisid": "688"}, "geometry": {"type": "MultiPolygon", "coordinates": [[[[144.938324422139, -37.788864015588], [144.938414129904, -37.788781357542], [144.938787573318, -37.788483383744], [144.939190555535, -37.788210724128], [144.93962036038, -37.787965216286], [144.940074090994, -37.787748514808], [144.940090295881, -37.787741126525], [144.940111640988, -37.78777124768], [144.939947927046, -37.787845505035], [144.939440768746, -37.788105896695], [144.938966987744, -37.788403261259], [144.938530849347, -37.788734921875], [144.938477541485, -37.788778595055], [144.938425809583, -37.788823445977], [144.938375694942, -37.788869438837], [144.938324422139, -37.788864015588]]]]}}