{"type": "Feature", "properties": {"seg_id": "30798", "street_id": "30798", "name": null, "str_type": "Private", "status_id": "4", "seg_part": "1", "poly_area": "393", "gisid": "3843"}, "geometry": {"type": "MultiPolygon", "coordinates": [[[[144.937596900695, -37.813587946216], [144.937589621008, -37.813451803869], [144.937585346575, -37.813371840973], [144.937700090362, -37.813368079612], [144.937771214442, -37.813365747646], [144.937778029926, -37.813496581162], [144.937782581437, -37.813581698203], [144.937645940518, -37.8135862963], [144.937596900695, -37.813587946216]]]]}}