{"type": "Feature", "properties": {"seg_id": "30808", "street_id": "30808", "name": "Star Circus", "str_type": "Private", "status_id": "4", "seg_part": "1", "poly_area": "524", "gisid": "3853"}, "geometry": {"type": "MultiPolygon", "coordinates": [[[[144.937627393773, -37.812316702559], [144.937482212691, -37.812317642647], [144.937473471189, -37.812288442036], [144.937435930039, -37.812295516506], [144.937442685453, -37.812318082143], [144.937376028442, -37.812314217277], [144.937309966573, -37.812305942662], [144.93724496131, -37.812293323259], [144.937181466944, -37.812276447259], [144.937119927203, -37.812255432601], [144.93706077216, -37.812230426145], [144.937004415218, -37.812201602648], [144.936949227055, -37.812171087595], [144.936942512671, -37.812167130058], [144.936920148779, -37.812148444421], [144.936842743101, -37.8119276644], [144.936836213302, -37.811909039004], [144.936873003968, -37.811920716688], [144.936949059458, -37.812137649359], [144.937044235661, -37.812196391738], [144.937098693891, -37.812219689636], [144.937154088546, -37.812241224909], [144.93721150246, -37.812259060129], [144.937270541269, -37.812273072792], [144.93733079945, -37.812283166647], [144.937391839548, -37.81228951828], [144.93739602662, -37.812245802753], [144.937477493834, -37.812250714621], [144.937634675742, -37.812289040647], [144.937752710759, -37.812277785299], [144.937868710068, -37.812257274599], [144.937980541796, -37.812225843768], [144.938097935819, -37.812185757083], [144.93816490305, -37.812157235221], [144.938228562425, -37.812124288974], [144.938288450662, -37.812087158112], [144.938344131925, -37.812046112857], [144.93835975717, -37.812071931076], [144.938302922833, -37.812112831476], [144.938242011203, -37.812149854151], [144.938177441405, -37.81218274435], [144.93799249963, -37.812251152631], [144.937874449289, -37.81228410108], [144.937751985092, -37.812305364029], [144.937627393773, -37.812316702559]]]]}}