{"type": "Feature", "properties": {"seg_id": "30804", "street_id": "30804", "name": "Wharf Street", "str_type": "Private", "status_id": "4", "seg_part": "1", "poly_area": "1210", "gisid": "3849"}, "geometry": {"type": "MultiPolygon", "coordinates": [[[[144.938538992063, -37.813122133438], [144.938431292783, -37.81315071379], [144.938144514039, -37.812476493438], [144.938078417368, -37.812437136219], [144.93799249963, -37.812251152631], [144.938177441405, -37.81218274435], [144.938199764819, -37.812235683513], [144.938165809411, -37.812244773845], [144.938230331285, -37.812396467043], [144.938240556962, -37.812420510044], [144.938538992063, -37.813122133438]]]]}}