{"type": "Feature", "properties": {"seg_id": "30818", "street_id": "30818", "name": "Orrs Walk", "str_type": "Private", "status_id": "4", "seg_part": "1", "poly_area": "469", "gisid": "3874"}, "geometry": {"type": "MultiPolygon", "coordinates": [[[[144.95123424447, -37.825069955069], [144.951214532373, -37.824994803], [144.95128324411, -37.824983472367], [144.951490550999, -37.824759081903], [144.951540008054, -37.824661749713], [144.951658637002, -37.824681215288], [144.95156218016, -37.824799676975], [144.951415008137, -37.824958977748], [144.951401928866, -37.825042305105], [144.95123424447, -37.825069955069]]]]}}