{"type": "Feature", "properties": {"seg_id": "30819", "street_id": "30819", "name": "Dukes Walk", "str_type": "Private", "status_id": "4", "seg_part": "1", "poly_area": "3195", "gisid": "3875"}, "geometry": {"type": "MultiPolygon", "coordinates": [[[[144.949378707335, -37.824216074242], [144.949295916613, -37.824207204784], [144.948885904039, -37.824163282141], [144.948883791497, -37.824175693234], [144.948721502016, -37.824158307404], [144.948718842778, -37.824173926154], [144.948540385796, -37.824154808408], [144.948556270208, -37.824065308576], [144.948741401594, -37.824085983555], [144.948744726548, -37.824067247532], [144.948899873717, -37.824084573785], [144.949431477439, -37.824143938871], [144.949708163558, -37.824175464611], [144.949707162671, -37.824181005614], [144.949775581083, -37.824188545807], [144.949776540232, -37.824183240183], [144.950332496841, -37.824246455145], [144.950334476594, -37.82424651304], [144.950334184515, -37.824252799042], [144.950411677191, -37.824255120442], [144.950411972193, -37.824248769607], [144.950755116872, -37.824258758268], [144.951035207815, -37.824266911468], [144.951034922277, -37.824273045288], [144.951103774387, -37.82427497705], [144.951104057314, -37.824268896354], [144.951658319049, -37.824284881149], [144.95165802646, -37.824291189676], [144.951726683334, -37.824293198783], [144.95172697785, -37.824286861452], [144.952005836046, -37.824294903483], [144.952051939469, -37.824302611116], [144.952147869176, -37.824318648907], [144.952390512769, -37.824401102599], [144.951416147688, -37.824384152974], [144.951246197471, -37.824340724098], [144.950849571367, -37.824342242243], [144.950840909991, -37.824392134519], [144.950748219586, -37.824385499009], [144.950747357779, -37.824401333835], [144.950510881601, -37.824376004032], [144.950411416897, -37.824326696959], [144.949378707335, -37.824216074242]]]]}}