{"type": "Feature", "properties": {"seg_id": "30817", "street_id": "30817", "name": "Rona Walk", "str_type": "Private", "status_id": "4", "seg_part": "1", "poly_area": "710", "gisid": "3873"}, "geometry": {"type": "MultiPolygon", "coordinates": [[[[144.950411416897, -37.824326696959], [144.950510881601, -37.824376004032], [144.950538456667, -37.824481225539], [144.950544942697, -37.824480157005], [144.950705649938, -37.825093961131], [144.950728295664, -37.825090237839], [144.950736357309, -37.825121087417], [144.950636630255, -37.825137483159], [144.950623946198, -37.825139226029], [144.950618469398, -37.825116789727], [144.950411416897, -37.824326696959]]]]}}