{"type": "Feature", "properties": {"seg_id": "30815", "street_id": "30815", "name": "Convention Centre Place", "str_type": "Private", "status_id": "4", "seg_part": "1", "poly_area": "8277", "gisid": "3871"}, "geometry": {"type": "MultiPolygon", "coordinates": [[[[144.948588340264, -37.824872067916], [144.948600789724, -37.824885746757], [144.948614307393, -37.824898772052], [144.948628838887, -37.824911091399], [144.948634414835, -37.82491455304], [144.948640139987, -37.824917827308], [144.948646195287, -37.824920700373], [144.948652535725, -37.82492315088], [144.948659114168, -37.824925160613], [144.948665881719, -37.824926714632], [144.948672788072, -37.824927801387], [144.94867978189, -37.8249284128], [144.948686811186, -37.824928544325], [144.948693823709, -37.824928194984], [144.948700767333, -37.824927367375], [144.948707590444, -37.82492606765], [144.948714242324, -37.824924305469], [144.948720673528, -37.824922093932], [144.948726836251, -37.824919449477], [144.948732684682, -37.824916391762], [144.948738175351, -37.824912943515], [144.948743267441, -37.824909130368], [144.948747923103, -37.824904980666], [144.94875210773, -37.824900525254], [144.948755790216, -37.82489579725], [144.948758943188, -37.8248908318], [144.94876154321, -37.824885665813], [144.948763570954, -37.824880337689], [144.948765011347, -37.824874887033], [144.948765853684, -37.824869354363], [144.948766091702, -37.824863780803], [144.948765723632, -37.824858207785], [144.94876475221, -37.824852676732], [144.948763355716, -37.824847192594], [144.949050229901, -37.82473614358], [144.949126149462, -37.82475836966], [144.949410342805, -37.824841568551], [144.950440697148, -37.825143203178], [144.950618469398, -37.825116789727], [144.950623946198, -37.825139226029], [144.950636630255, -37.825137483159], [144.950736357309, -37.825121087417], [144.950744113766, -37.825150771872], [144.95123424447, -37.825069955069], [144.951401928866, -37.825042305105], [144.951396775276, -37.825075136174], [144.951520206987, -37.82536333857], [144.951487451761, -37.825389914684], [144.951474518313, -37.825518048183], [144.951368897588, -37.825639700793], [144.951000762442, -37.825531571997], [144.95097370703, -37.825509060257], [144.949678445024, -37.825128604817], [144.949636888684, -37.825084467139], [144.949508974895, -37.825160445008], [144.949464804501, -37.82511400701], [144.949305305544, -37.82506731307], [144.949018770745, -37.824983428792], [144.949020343565, -37.824980047957], [144.949010283067, -37.824977102497], [144.948675607966, -37.82520648419], [144.948603857243, -37.825255450972], [144.948588340264, -37.824872067916]]]]}}