{"type": "Feature", "properties": {"seg_id": "30826", "street_id": "30826", "name": "Appleton Dock Road", "str_type": "Port Roads", "status_id": "5", "seg_part": "1", "poly_area": "10557", "gisid": "3898"}, "geometry": {"type": "MultiPolygon", "coordinates": [[[[144.927655858838, -37.814893019218], [144.927473756915, -37.814928393163], [144.927440885235, -37.81493335016], [144.927407486654, -37.814935524236], [144.927373953215, -37.814935494532], [144.927340479378, -37.814933502553], [144.927303762092, -37.814928216295], [144.927267721484, -37.814920514263], [144.927232698795, -37.814910220431], [144.927198990793, -37.814897422025], [144.927166883107, -37.814882227494], [144.927136647805, -37.814864765591], [144.92710854109, -37.81484518428], [144.927081558828, -37.81482450064], [144.92706305013, -37.814796708011], [144.927037042637, -37.814777051601], [144.926892394348, -37.81465819983], [144.926841890182, -37.814619584001], [144.926777738119, -37.814573481532], [144.926718803514, -37.814535823469], [144.92665840615, -37.814499981277], [144.926594462199, -37.814468277649], [144.926527425809, -37.814440937755], [144.926457773093, -37.81441815577], [144.926385998746, -37.814400093499], [144.926312612529, -37.814386879225], [144.926238135655, -37.8143786068], [144.926163097079, -37.814375334977], [144.926088029749, -37.814377086995], [144.926013466814, -37.814383850408], [144.925939937844, -37.814395577182], [144.925868749613, -37.814413991224], [144.92570589606, -37.814461246398], [144.925545434328, -37.814513397757], [144.925387598209, -37.814570369319], [144.92395293733, -37.815116925615], [144.923273676169, -37.815370934664], [144.923207723683, -37.815394805909], [144.923163097032, -37.81541245671], [144.922972798036, -37.815479850827], [144.922434759881, -37.815676084818], [144.922243822912, -37.815742321994], [144.921766470349, -37.815913347433], [144.921369026462, -37.816001232985], [144.921138959099, -37.816090679257], [144.921120017138, -37.816060016857], [144.921176106151, -37.81603821026], [144.921161062978, -37.816013859103], [144.921104973979, -37.816035665694], [144.921073945572, -37.815985439071], [144.921298497159, -37.815899854382], [144.921248018828, -37.815813583687], [144.921773507358, -37.815612860326], [144.921810855613, -37.81570872992], [144.922548761781, -37.815509707289], [144.925966597123, -37.814201976967], [144.926009199125, -37.814186135118], [144.926053997791, -37.814174541916], [144.926099867217, -37.814165890189], [144.926146502743, -37.8141602374], [144.926193605602, -37.814157854672], [144.926317946343, -37.814110126916], [144.926419982996, -37.814187184252], [144.926429592069, -37.814183037767], [144.926520614506, -37.814249511455], [144.926567593423, -37.814284879703], [144.926737114017, -37.814410438361], [144.926809044779, -37.814464258462], [144.926863871612, -37.814497211758], [144.926921858192, -37.814532822341], [144.926988221934, -37.814582703529], [144.927035719613, -37.814626303008], [144.927081455016, -37.814652011142], [144.927127492059, -37.814673190779], [144.927175593741, -37.814691140902], [144.927223006556, -37.814705047942], [144.927269573178, -37.81471537864], [144.927316331442, -37.814722716302], [144.927363125646, -37.814727063591], [144.927409333417, -37.814728537521], [144.927465380697, -37.814726602472], [144.927517195475, -37.814720725975], [144.927544404993, -37.814710281806], [144.927655858838, -37.814893019218]]]]}}