{"type": "Feature", "properties": {"seg_id": "30839", "street_id": "30839", "name": "William Barak Bridge", "str_type": "Rail/Tram", "status_id": "9", "seg_part": "1", "poly_area": "574", "gisid": "4002"}, "geometry": {"type": "MultiPolygon", "coordinates": [[[[144.975303450567, -37.818425051837], [144.975259770104, -37.818429277911], [144.974970179334, -37.81845531623], [144.974631607318, -37.818485742627], [144.974482757811, -37.818495834627], [144.973986542552, -37.818480407831], [144.973988546922, -37.818439883958], [144.974484760456, -37.818455322428], [144.975243176028, -37.818376326874], [144.975255281729, -37.818385875745], [144.975271475798, -37.818398827527], [144.975287532454, -37.81841188653], [144.975303450567, -37.818425051837]]]]}}