{"type": "Feature", "properties": {"seg_id": "30834", "street_id": "30834", "name": "William Barak Bridge", "str_type": "Rail/Tram", "status_id": "9", "seg_part": "1", "poly_area": "718", "gisid": "3987"}, "geometry": {"type": "MultiPolygon", "coordinates": [[[[144.978849792592, -37.818491307224], [144.979776809082, -37.818598731852], [144.979762046834, -37.818678968139], [144.978898531852, -37.81857890381], [144.978880332577, -37.818550405214], [144.978864070797, -37.818521178745], [144.978849792592, -37.818491307224]]]]}}