{"type": "Feature", "properties": {"seg_id": "30838", "street_id": "30838", "name": "William Barak Bridge", "str_type": "Rail/Tram", "status_id": "9", "seg_part": "1", "poly_area": "231", "gisid": "3999"}, "geometry": {"type": "MultiPolygon", "coordinates": [[[[144.975369086835, -37.818418702516], [144.975349898729, -37.818402468548], [144.97533050374, -37.818386390039], [144.97531090387, -37.818370468647], [144.975309921102, -37.818369683043], [144.975744023165, -37.818327691225], [144.975767245891, -37.818347429727], [144.975781902064, -37.818359887233], [144.975797910095, -37.818377168549], [144.975564167503, -37.81839982927], [144.975369086835, -37.818418702516]]], [[[144.975369086835, -37.818418702516], [144.975303450567, -37.818425051837], [144.975287532454, -37.81841188653], [144.975271475798, -37.818398827527], [144.975255281729, -37.818385875745], [144.975243176028, -37.818376326874], [144.975268371824, -37.81837370155], [144.975309921102, -37.818369683043], [144.97531090387, -37.818370468647], [144.97533050374, -37.818386390039], [144.975349898729, -37.818402468548], [144.975369086835, -37.818418702516]]]]}}