{"type": "Feature", "properties": {"seg_id": "30836", "street_id": "30836", "name": "William Barak Bridge", "str_type": "Rail/Tram", "status_id": "9", "seg_part": "1", "poly_area": "1410", "gisid": "3990"}, "geometry": {"type": "MultiPolygon", "coordinates": [[[[144.976625147825, -37.818233481056], [144.978463416098, -37.81844653097], [144.978449364725, -37.818526851377], [144.976742980472, -37.818329087732], [144.976715969975, -37.818313386491], [144.976707054361, -37.818276284122], [144.976625147825, -37.818233481056]]]]}}