{"type": "Feature", "properties": {"seg_id": "30843", "street_id": "30843", "name": "Upfield Railway", "str_type": "Rail/Tram", "status_id": "9", "seg_part": "1", "poly_area": "17234", "gisid": "4013"}, "geometry": {"type": "MultiPolygon", "coordinates": [[[[144.938057334711, -37.789110114447], [144.938181922001, -37.789123281863], [144.937884781199, -37.789528201831], [144.937791294608, -37.789655883598], [144.937737529649, -37.789702705357], [144.937614616064, -37.789871776346], [144.937368905638, -37.790209741517], [144.937288641114, -37.790184543819], [144.937244382304, -37.790273346374], [144.937314852395, -37.790295487898], [144.937261592586, -37.790389448845], [144.93716929813, -37.790564012974], [144.937162241497, -37.790580921586], [144.937082305375, -37.790560236275], [144.937047834135, -37.790644162705], [144.936908886303, -37.790944524517], [144.936881963493, -37.791026511319], [144.936795812626, -37.791343478304], [144.936774528897, -37.791422770221], [144.936852290227, -37.791435937895], [144.93687346288, -37.7913565539], [144.936900653689, -37.791358832582], [144.936819167799, -37.791753022778], [144.936799170227, -37.791749338096], [144.936774454435, -37.79183361556], [144.936867470136, -37.791850803865], [144.936867510479, -37.791827676814], [144.936885976424, -37.791829718846], [144.936885907983, -37.791829933929], [144.936862127458, -37.792010040732], [144.936721041175, -37.792663077449], [144.936600096048, -37.793314921281], [144.936555907106, -37.793492861736], [144.936441731195, -37.794106974559], [144.936441395229, -37.794106927218], [144.93626758449, -37.795044282521], [144.936095830993, -37.795025077591], [144.936088590629, -37.79508564772], [144.936082063161, -37.795146268846], [144.936076249158, -37.795206935687], [144.935949327741, -37.795192655333], [144.935955261043, -37.795132023702], [144.935961737147, -37.795071427058], [144.935968755723, -37.795010868462], [144.935891180347, -37.79500219398], [144.935889570924, -37.794980699794], [144.935888521231, -37.794958190782], [144.935917539867, -37.794959678969], [144.935921072878, -37.794916306981], [144.935951254873, -37.794749389624], [144.935997328989, -37.794754451582], [144.936034581, -37.794552981808], [144.936100168943, -37.794199154966], [144.936108726968, -37.794152804333], [144.93617397706, -37.793800193493], [144.936183315991, -37.79375026265], [144.936198265123, -37.793669677532], [144.93619140284, -37.79366893186], [144.936219655527, -37.793500496345], [144.936236025017, -37.793411797599], [144.936243230193, -37.793412544771], [144.936257548604, -37.793334663827], [144.936250362184, -37.793333814251], [144.936309251721, -37.793014732674], [144.936322169497, -37.793016237802], [144.936338203925, -37.792929735633], [144.936325174118, -37.792928216828], [144.936349485931, -37.792796457608], [144.936384156985, -37.792615917263], [144.936395391751, -37.792617217163], [144.936412229827, -37.792526313301], [144.936400884441, -37.792524989836], [144.936457898523, -37.792213835348], [144.936466321081, -37.792214822822], [144.936482769479, -37.792125713564], [144.93647434582, -37.792124725171], [144.936533709678, -37.791806435735], [144.936541257712, -37.791807180784], [144.936553277769, -37.791730250801], [144.936548771605, -37.791729805972], [144.936569555892, -37.791625497743], [144.936584651404, -37.791552596722], [144.936617716949, -37.791411677135], [144.93662750843, -37.791413254518], [144.93664903359, -37.791329371768], [144.936639910271, -37.791327901617], [144.936657923219, -37.791260747123], [144.936679520375, -37.79118925408], [144.936736621256, -37.791017927237], [144.936766037085, -37.790936012983], [144.936794337699, -37.79085740542], [144.936841498869, -37.790742434203], [144.936785162946, -37.790729686938], [144.936814361858, -37.790648338409], [144.936884838692, -37.790665999666], [144.936906684046, -37.790611410659], [144.93692122818, -37.790615180023], [144.936958503024, -37.790524363693], [144.936878680554, -37.790503679335], [144.936852248984, -37.790568011707], [144.936845871577, -37.790566419355], [144.936980399176, -37.790264467093], [144.937050658295, -37.790285453376], [144.937079125871, -37.790225482258], [144.937116615305, -37.790237133268], [144.937164126657, -37.790141629817], [144.937085998752, -37.790117191249], [144.937048590195, -37.790192414952], [144.937022322461, -37.790184563389], [144.937043201159, -37.790150756545], [144.937100565313, -37.79007462705], [144.937229287445, -37.789940762746], [144.937255360971, -37.78991059838], [144.937278845845, -37.789873883985], [144.937298152459, -37.789836737737], [144.937348441077, -37.789855399592], [144.937389797435, -37.789785201389], [144.937337030952, -37.789765644543], [144.937356786217, -37.789732045059], [144.937430102526, -37.789644794002], [144.937468493718, -37.789596157631], [144.937497097203, -37.789546304474], [144.937516561918, -37.789494971045], [144.937523747122, -37.789474860979], [144.937534552096, -37.789442554711], [144.937560425492, -37.789416064465], [144.937613911658, -37.789383471969], [144.937654423913, -37.789341366546], [144.937731416327, -37.789251953757], [144.937857637629, -37.789089007247], [144.938057334711, -37.789110114447]], [[144.936446810841, -37.793781089725], [144.936445820755, -37.793781100072], [144.936444836291, -37.793781179069], [144.936443864947, -37.793781325937], [144.936442914116, -37.79378153956], [144.936441991034, -37.79378181831], [144.936441102726, -37.793782160066], [144.936440255952, -37.793782562228], [144.936439457158, -37.793783021735], [144.936438712422, -37.793783535089], [144.936438027413, -37.793784098384], [144.936437407343, -37.793784707333], [144.936436856933, -37.793785357301], [144.936436380369, -37.793786043341], [144.936435981281, -37.793786760233], [144.936435662705, -37.793787502521], [144.936435427065, -37.793788264554], [144.936435276155, -37.793789040535], [144.936435211124, -37.793789824556], [144.936435232466, -37.793790610651], [144.936435340019, -37.793791392838], [144.936435532964, -37.793792165163], [144.936435809834, -37.793792921749], [144.93643616852, -37.793793656837], [144.936436606293, -37.793794364834], [144.936437119821, -37.79379504035], [144.936437705197, -37.793795678245], [144.936438357964, -37.793796273664], [144.936439073156, -37.793796822076], [144.936439845328, -37.793797319306], [144.936440668605, -37.793797761571], [144.936441536721, -37.793798145504], [144.936442443068, -37.793798468184], [144.936443380749, -37.793798727155], [144.936444342628, -37.793798920446], [144.936445321383, -37.793799046585], [144.936446309572, -37.793799104437], [144.936447299659, -37.79379909409], [144.936448284123, -37.793799015093], [144.936449255466, -37.793798868224], [144.936450206298, -37.793798654602], [144.93645112938, -37.793798375852], [144.936452017688, -37.793798034096], [144.936452864462, -37.793797631934], [144.936453663256, -37.793797172427], [144.936454407991, -37.793796659073], [144.936455093001, -37.793796095778], [144.93645571307, -37.793795486829], [144.936456263481, -37.793794836861], [144.936456740044, -37.793794150821], [144.936457139133, -37.793793433929], [144.936457457709, -37.793792691641], [144.936457693349, -37.793791929608], [144.936457844258, -37.793791153627], [144.93645790929, -37.793790369606], [144.936457887948, -37.793789583511], [144.936457780395, -37.793788801324], [144.936457587449, -37.793788028999], [144.93645731058, -37.793787272413], [144.936456951894, -37.793786537325], [144.936456514121, -37.793785829328], [144.936456000592, -37.793785153812], [144.936455415217, -37.793784515917], [144.936454762449, -37.793783920498], [144.936454047258, -37.793783372086], [144.936453275085, -37.793782874856], [144.936452451808, -37.793782432591], [144.936451583693, -37.793782048658], [144.936450677346, -37.793781725978], [144.936449739665, -37.793781467007], [144.936448777786, -37.793781273716], [144.93644779903, -37.793781147576], [144.936446810841, -37.793781089725]], [[144.936288246234, -37.794182128521], [144.936286810601, -37.794182143522], [144.93628538312, -37.794182258064], [144.936283974663, -37.79418247102], [144.93628259595, -37.794182780769], [144.936281257472, -37.794183184954], [144.936279969418, -37.794183680498], [144.936278741588, -37.79418426363], [144.936277583329, -37.794184929912], [144.936276503454, -37.794185674273], [144.936275510183, -37.794186491049], [144.936274611076, -37.794187374022], [144.936273812973, -37.794188316474], [144.936273121951, -37.794189311232], [144.936272543267, -37.794190350724], [144.936272081326, -37.794191427039], [144.936271739644, -37.794192531987], [144.936271520821, -37.794193657158], [144.936271426523, -37.794194793988], [144.936271457466, -37.794195933826], [144.936271613416, -37.794197067997], [144.936271893185, -37.794198187869], [144.936272294646, -37.794199284919], [144.936272814741, -37.794200350799], [144.936273449513, -37.794201377395], [144.936274194131, -37.794202356895], [144.936275042928, -37.794203281845], [144.936275989444, -37.794204145204], [144.936277026475, -37.794204940403], [144.936278146129, -37.79420566139], [144.936279339886, -37.794206302676], [144.936280598658, -37.794206859382], [144.936281912868, -37.794207327271], [144.936283272512, -37.794207702782], [144.936284667243, -37.794207983056], [144.936286086446, -37.794208165962], [144.936287519327, -37.79420824985], [144.93628895496, -37.794208234849], [144.936290382441, -37.794208120307], [144.936291790898, -37.794207907351], [144.936293169611, -37.794207597602], [144.936294508089, -37.794207193417], [144.936295796144, -37.794206697873], [144.936297023973, -37.794206114741], [144.936298182232, -37.794205448459], [144.936299262107, -37.794204704098], [144.936300255378, -37.794203887322], [144.936301154486, -37.794203004349], [144.936301952588, -37.794202061897], [144.93630264361, -37.79420106714], [144.936303222294, -37.794200027648], [144.936303684235, -37.794198951332], [144.936304025917, -37.794197846384], [144.93630424474, -37.794196721213], [144.936304339039, -37.794195584383], [144.936304308095, -37.794194444545], [144.936304152145, -37.794193310374], [144.936303872376, -37.794192190502], [144.936303470916, -37.794191093452], [144.93630295082, -37.794190027572], [144.936302316048, -37.794189000976], [144.93630157143, -37.794188021476], [144.936300722634, -37.794187096526], [144.936299776118, -37.794186233167], [144.936298739086, -37.794185437968], [144.936297619432, -37.794184716982], [144.936296425676, -37.794184075695], [144.936295166903, -37.794183518989], [144.936293852693, -37.7941830511], [144.936292493049, -37.79418267559], [144.936291098318, -37.794182395315], [144.936289679115, -37.794182212409], [144.936288246234, -37.794182128521]], [[144.936365154963, -37.793781281019], [144.936363719338, -37.793781296022], [144.936362291865, -37.793781410566], [144.936360883416, -37.793781623524], [144.93635950471, -37.793781933274], [144.936358166241, -37.793782337461], [144.936356878193, -37.793782833006], [144.936355650371, -37.79378341614], [144.936354492119, -37.793784082423], [144.936353412251, -37.793784826786], [144.936352418987, -37.793785643563], [144.936351519885, -37.793786526538], [144.936350721788, -37.793787468991], [144.936350030771, -37.793788463749], [144.936349452091, -37.793789503242], [144.936348990155, -37.793790579558], [144.936348648476, -37.793791684506], [144.936348429655, -37.793792809677], [144.936348335359, -37.793793946508], [144.936348366303, -37.793795086346], [144.936348522254, -37.793796220517], [144.936348802023, -37.793797340389], [144.936349203483, -37.793798437439], [144.936349723576, -37.793799503317], [144.936350358346, -37.793800529913], [144.936351102962, -37.793801509412], [144.936351951755, -37.793802434361], [144.936352898267, -37.793803297719], [144.936353935294, -37.793804092917], [144.936355054943, -37.793804813902], [144.936356248694, -37.793805455187], [144.936357507461, -37.793806011892], [144.936358821663, -37.793806479779], [144.936360181301, -37.793806855288], [144.936361576024, -37.793807135561], [144.93636299522, -37.793807318465], [144.936364428094, -37.793807402351], [144.93636586372, -37.793807387349], [144.936367291192, -37.793807272804], [144.936368699641, -37.793807059847], [144.936370078347, -37.793806750096], [144.936371416817, -37.79380634591], [144.936372704864, -37.793805850364], [144.936373932686, -37.793805267231], [144.936375090939, -37.793804600947], [144.936376170806, -37.793803856584], [144.936377164071, -37.793803039808], [144.936378063173, -37.793802156833], [144.936378861269, -37.79380121438], [144.936379552287, -37.793800219622], [144.936380130966, -37.793799180129], [144.936380592903, -37.793798103813], [144.936380934582, -37.793796998864], [144.936381153402, -37.793795873693], [144.936381247699, -37.793794736862], [144.936381216754, -37.793793597024], [144.936381060804, -37.793792462853], [144.936380781034, -37.793791342982], [144.936380379575, -37.793790245932], [144.936379859481, -37.793789180053], [144.936379224711, -37.793788153458], [144.936378480096, -37.793787173958], [144.936377631302, -37.79378624901], [144.93637668479, -37.793785385651], [144.936375647764, -37.793784590453], [144.936374528114, -37.793783869468], [144.936373334364, -37.793783228183], [144.936372075597, -37.793782671479], [144.936370761394, -37.793782203592], [144.936369401757, -37.793781828083], [144.936368007033, -37.79378154781], [144.936366587837, -37.793781364906], [144.936365154963, -37.793781281019]], [[144.936143146099, -37.794984698787], [144.93614171045, -37.794984713784], [144.936140282954, -37.794984828323], [144.936138874481, -37.794985041276], [144.936137495752, -37.794985351021], [144.93613615726, -37.794985755203], [144.93613486919, -37.794986250743], [144.936133641345, -37.794986833872], [144.936132483072, -37.794987500152], [144.936131403184, -37.79498824451], [144.936130409901, -37.794989061284], [144.936129510781, -37.794989944255], [144.936128712668, -37.794990886705], [144.936128021635, -37.79499188146], [144.936127442943, -37.794992920951], [144.936126980995, -37.794993997265], [144.936126639306, -37.794995102212], [144.936126420478, -37.794996227382], [144.936126326175, -37.794997364212], [144.936126357116, -37.79499850405], [144.936126513065, -37.794999638221], [144.936126792835, -37.795000758094], [144.936127194297, -37.795001855145], [144.936127714395, -37.795002921025], [144.936128349171, -37.795003947622], [144.936129093795, -37.795004927124], [144.936129942598, -37.795005852076], [144.936130889122, -37.795006715437], [144.936131926163, -37.795007510639], [144.936133045828, -37.795008231628], [144.936134239595, -37.795008872917], [144.93613549838, -37.795009429626], [144.936136812602, -37.795009897518], [144.93613817226, -37.795010273031], [144.936139567005, -37.795010553309], [144.936140986223, -37.795010736218], [144.93614241912, -37.79501082011], [144.936143854769, -37.795010805112], [144.936145282265, -37.795010690573], [144.936146690737, -37.795010477621], [144.936148069466, -37.795010167875], [144.936149407959, -37.795009763694], [144.936150696029, -37.795009268153], [144.936151923873, -37.795008685024], [144.936153082147, -37.795008018745], [144.936154162035, -37.795007274386], [144.936155155318, -37.795006457613], [144.936156054438, -37.795005574642], [144.936156852551, -37.795004632192], [144.936157543583, -37.795003637436], [144.936158122276, -37.795002597946], [144.936158584224, -37.795001521631], [144.936158925913, -37.795000416685], [144.936159144741, -37.794999291514], [144.936159239043, -37.794998154684], [144.936159208103, -37.794997014846], [144.936159052154, -37.794995880675], [144.936158772384, -37.794994760803], [144.936158370922, -37.794993663752], [144.936157850824, -37.794992597871], [144.936157216048, -37.794991571274], [144.936156471424, -37.794990591772], [144.93615562262, -37.794989666821], [144.936154676096, -37.794988803459], [144.936153639056, -37.794988008258], [144.936152519391, -37.794987287269], [144.936151325624, -37.79498664598], [144.936150066839, -37.794986089271], [144.936148752616, -37.794985621379], [144.936147392959, -37.794985245865], [144.936145998213, -37.794984965587], [144.936144578995, -37.794984782678], [144.936143146099, -37.794984698787]], [[144.93593819815, -37.794962993291], [144.935936762502, -37.794963008285], [144.935935335006, -37.79496312282], [144.935933926534, -37.79496333577], [144.935932547804, -37.794963645512], [144.935931209311, -37.79496404969], [144.93592992124, -37.794964545228], [144.935928693395, -37.794965128354], [144.93592753512, -37.79496579463], [144.93592645523, -37.794966538986], [144.935925461945, -37.794967355757], [144.935924562823, -37.794968238726], [144.935923764708, -37.794969181174], [144.935923073673, -37.794970175928], [144.935922494978, -37.794971215417], [144.935922033027, -37.79497229173], [144.935921691335, -37.794973396676], [144.935921472504, -37.794974521846], [144.935921378199, -37.794975658675], [144.935921409136, -37.794976798513], [144.935921565082, -37.794977932685], [144.935921844849, -37.794979052558], [144.935922246307, -37.79498014961], [144.935922766402, -37.794981215491], [144.935923401175, -37.79498224209], [144.935924145796, -37.794983221594], [144.935924994597, -37.794984146547], [144.935925941118, -37.794985009911], [144.935926978156, -37.794985805115], [144.935928097818, -37.794986526106], [144.935929291583, -37.794987167398], [144.935930550366, -37.79498772411], [144.935931864587, -37.794988192005], [144.935933224243, -37.794988567522], [144.935934618987, -37.794988847803], [144.935936038204, -37.794989030716], [144.9359374711, -37.79498911461], [144.935938906748, -37.794989099617], [144.935940334244, -37.794988985081], [144.935941742716, -37.794988772132], [144.935943121446, -37.794988462389], [144.935944459939, -37.794988058211], [144.93594574801, -37.794987562674], [144.935946975855, -37.794986979547], [144.93594813413, -37.794986313271], [144.93594921402, -37.794985568915], [144.935950207305, -37.794984752144], [144.935951106427, -37.794983869175], [144.935951904542, -37.794982926727], [144.935952595577, -37.794981931973], [144.935953174272, -37.794980892484], [144.935953636223, -37.794979816171], [144.935953977915, -37.794978711225], [144.935954196746, -37.794977586056], [144.935954291052, -37.794976449226], [144.935954260114, -37.794975309388], [144.935954104168, -37.794974175216], [144.935953824402, -37.794973055343], [144.935953422943, -37.794971958291], [144.935952902848, -37.79497089241], [144.935952268075, -37.794969865811], [144.935951523454, -37.794968886307], [144.935950674653, -37.794967961354], [144.935949728132, -37.79496709799], [144.935948691094, -37.794966302786], [144.935947571432, -37.794965581795], [144.935946377667, -37.794964940503], [144.935945118884, -37.794964383791], [144.935943804663, -37.794963915896], [144.935942445007, -37.794963540379], [144.935941050263, -37.794963260098], [144.935939631046, -37.794963077186], [144.93593819815, -37.794962993291]], [[144.936207262769, -37.794582454846], [144.936205827128, -37.794582469845], [144.93620439964, -37.794582584385], [144.936202991175, -37.79458279734], [144.936201612454, -37.794583107087], [144.936200273969, -37.79458351127], [144.936198985906, -37.794584006812], [144.936197758069, -37.794584589942], [144.936196599803, -37.794585256223], [144.936195519922, -37.794586000583], [144.936194526645, -37.794586817357], [144.936193627531, -37.794587700329], [144.936192829423, -37.79458864278], [144.936192138395, -37.794589637536], [144.936191559707, -37.794590677028], [144.936191097763, -37.794591753343], [144.936190756077, -37.79459285829], [144.936190537251, -37.79459398346], [144.936190442951, -37.79459512029], [144.936190473893, -37.794596260128], [144.936190629842, -37.794597394299], [144.936190909611, -37.794598514172], [144.936191311072, -37.794599611222], [144.936191831169, -37.794600677102], [144.936192465943, -37.794601703699], [144.936193210563, -37.7946026832], [144.936194059364, -37.794603608151], [144.936195005883, -37.794604471512], [144.936196042919, -37.794605266712], [144.936197162579, -37.794605987699], [144.93619835634, -37.794606628987], [144.936199615119, -37.794607185695], [144.936200929335, -37.794607653586], [144.936202288986, -37.794608029098], [144.936203683724, -37.794608309374], [144.936205102934, -37.794608492282], [144.936206535823, -37.794608576172], [144.936207971464, -37.794608561173], [144.936209398953, -37.794608446632], [144.936210807417, -37.794608233678], [144.936212186138, -37.794607923931], [144.936213524624, -37.794607519748], [144.936214812686, -37.794607024206], [144.936216040523, -37.794606441076], [144.936217198789, -37.794605774795], [144.936218278671, -37.794605030435], [144.936219271948, -37.794604213661], [144.936220171062, -37.794603330688], [144.93622096917, -37.794602388238], [144.936221660197, -37.794601393481], [144.936222238885, -37.79460035399], [144.93622270083, -37.794599277675], [144.936223042515, -37.794598172728], [144.936223261341, -37.794597047557], [144.936223355642, -37.794595910727], [144.9362233247, -37.794594770889], [144.936223168751, -37.794593636718], [144.936222888981, -37.794592516846], [144.93622248752, -37.794591419795], [144.936221967424, -37.794590353915], [144.93622133265, -37.794589327318], [144.936220588029, -37.794588347817], [144.936219739229, -37.794587422867], [144.936218792709, -37.794586559506], [144.936217755673, -37.794585764306], [144.936216636014, -37.794585043318], [144.936215442252, -37.79458440203], [144.936214183473, -37.794583845323], [144.936212869257, -37.794583377432], [144.936211509607, -37.79458300192], [144.936210114869, -37.794582721643], [144.936208695658, -37.794582538736], [144.936207262769, -37.794582454846]], [[144.93787088838, -37.78911711082], [144.937823888858, -37.789165672301], [144.937885193979, -37.789202972985], [144.937932194856, -37.789154321386], [144.93787088838, -37.78911711082]], [[144.937525097042, -37.789836324485], [144.937484693878, -37.789904917314], [144.93754640016, -37.789927806393], [144.937586803282, -37.789859213542], [144.937525097042, -37.789836324485]], [[144.937593982802, -37.78940911018], [144.937546954315, -37.789479119015], [144.937615080511, -37.789507979024], [144.937662108979, -37.78943796926], [144.937593982802, -37.78940911018]], [[144.936705099377, -37.791742733577], [144.936689079991, -37.79182464009], [144.936769884183, -37.791834616903], [144.936785903483, -37.791752710377], [144.936705099377, -37.791742733577]], [[144.937787472641, -37.789487026494], [144.937736069429, -37.789563267031], [144.937812277736, -37.789595511781], [144.937863567393, -37.789519269222], [144.937787472641, -37.789487026494]], [[144.936411072864, -37.793351412376], [144.936397160296, -37.793426957397], [144.93656032245, -37.79344829039], [144.936575159726, -37.793368075441], [144.936411072864, -37.793351412376]], [[144.9366316447, -37.792146166176], [144.936617079909, -37.79222476381], [144.936785034293, -37.792245189135], [144.936799873531, -37.792164884054], [144.9366316447, -37.792146166176]], [[144.936478400171, -37.792943817365], [144.936462476902, -37.79303041162], [144.936634508495, -37.793047214703], [144.936649348121, -37.79296690876], [144.936478400171, -37.792943817365]], [[144.936552584678, -37.792542830888], [144.936536553085, -37.792629243929], [144.936709829856, -37.792646157925], [144.93672466677, -37.792565942937], [144.936552584678, -37.792542830888]]]]}}