{"type": "Feature", "properties": {"seg_id": "30847", "street_id": "30847", "name": "Watertank Way", "str_type": "Private", "status_id": "4", "seg_part": "1", "poly_area": "1049", "gisid": "4019"}, "geometry": {"type": "MultiPolygon", "coordinates": [[[[144.953523999226, -37.814942986421], [144.95353211094, -37.814960885047], [144.953476949313, -37.815091466226], [144.95351028712, -37.815165229126], [144.953568692613, -37.815294098339], [144.953562279588, -37.815295927108], [144.953579186238, -37.815333231275], [144.95350961374, -37.815353075324], [144.953511918991, -37.815358161967], [144.953390726058, -37.8153927297], [144.95338842084, -37.815387642155], [144.953312435179, -37.815409315745], [144.953314740418, -37.815414402391], [144.953220962813, -37.815441150272], [144.953202051815, -37.81547144164], [144.953134020257, -37.815490845442], [144.953137476496, -37.815498471784], [144.953113911549, -37.815505193127], [144.953062682055, -37.81551118842], [144.952922673461, -37.815551109568], [144.952923677796, -37.815553324993], [144.952910640964, -37.81555704368], [144.952912811253, -37.815561833304], [144.952907896947, -37.815563235704], [144.952917613672, -37.81560091421], [144.952888589448, -37.815611533697], [144.952915560149, -37.815657896701], [144.952938574829, -37.815732902332], [144.952951009948, -37.815759560774], [144.952957676144, -37.815774270283], [144.95296803934, -37.815797142917], [144.952877667258, -37.815839251659], [144.952859061398, -37.815847920993], [144.95284139914, -37.815809605091], [144.952848319457, -37.815807590528], [144.952847684457, -37.815806151126], [144.952905522817, -37.815789438717], [144.952899069633, -37.815775571902], [144.952918360417, -37.81577007038], [144.952845702608, -37.815609749913], [144.952848906415, -37.815608831446], [144.952840856926, -37.815591069034], [144.952834443835, -37.815592898664], [144.952828253114, -37.815579236469], [144.952832415815, -37.815578189585], [144.952831185844, -37.815575465578], [144.952824504014, -37.815577359925], [144.952823739808, -37.815575663245], [144.952807593958, -37.815580240756], [144.952808358164, -37.815581937437], [144.952775205455, -37.81559133702], [144.952774440139, -37.815589639419], [144.95275164106, -37.815596103653], [144.952750970765, -37.815594667242], [144.952743306612, -37.815596797735], [144.952719273077, -37.815544657868], [144.952933459555, -37.81548358466], [144.952913784201, -37.81544017728], [144.953068851948, -37.81539594177], [144.953072503103, -37.815403995955], [144.953200639528, -37.815367442306], [144.953202198978, -37.8153669981], [144.953208573998, -37.815381063601], [144.953142847379, -37.815399809968], [144.953156238732, -37.815429357055], [144.953211223167, -37.815413673585], [144.953210931138, -37.815412895301], [144.953254694685, -37.815400413281], [144.953249508218, -37.815388967429], [144.953352424998, -37.815359612676], [144.953373050709, -37.815353729654], [144.953495846551, -37.815318704966], [144.953492580893, -37.81531149829], [144.953504336402, -37.815308145672], [144.953466918126, -37.815225582174], [144.95345729915, -37.815228325781], [144.953428715444, -37.815165254123], [144.953436218503, -37.815163113575], [144.953422792837, -37.815133490223], [144.953414220373, -37.815135935703], [144.953388186067, -37.815078490222], [144.953376459488, -37.815035676169], [144.953268936196, -37.815030178164], [144.953252556843, -37.815034866128], [144.95324675468, -37.81502206412], [144.953523999226, -37.814942986421]]]]}}