{"type": "Feature", "properties": {"seg_id": "30840", "street_id": "30840", "name": "Digital Drive", "str_type": "Private", "status_id": "4", "seg_part": "1", "poly_area": "1559", "gisid": "4011"}, "geometry": {"type": "MultiPolygon", "coordinates": [[[[144.946950274886, -37.814310051014], [144.946778240611, -37.814359820396], [144.946724051787, -37.814236076151], [144.946707810833, -37.814205135918], [144.946682002389, -37.814178808666], [144.946291148549, -37.81388990143], [144.946020457248, -37.813690162269], [144.946135626626, -37.813591948107], [144.94677104504, -37.814062636585], [144.946788560841, -37.814107095016], [144.946901572576, -37.814190483025], [144.946950274886, -37.814310051014]]]]}}