{"type": "Feature", "properties": {"seg_id": "30856", "street_id": "30856", "name": "Malkara Lane", "str_type": "Private", "status_id": "4", "seg_part": "1", "poly_area": "292", "gisid": "4041"}, "geometry": {"type": "MultiPolygon", "coordinates": [[[[144.904601027572, -37.828010118119], [144.90459945896, -37.828009138098], [144.904597847502, -37.828008211613], [144.904596141544, -37.828007399471], [144.90459435408, -37.828006707859], [144.904592498723, -37.828006142042], [144.904590589602, -37.82800570633], [144.904588641258, -37.828005404042], [144.90458666853, -37.82800523748], [144.904584686441, -37.828005207912], [144.904582710087, -37.828005315564], [144.904580754519, -37.828005559616], [144.904578834632, -37.828005938208], [144.904576965047, -37.828006448458], [144.904575160003, -37.82800708648], [144.904573433247, -37.828007847414], [144.90457179793, -37.828008725465], [144.904570266507, -37.828009713946], [144.904568919578, -37.828010856943], [144.904264785066, -37.828266402045], [144.904210586834, -37.828225821101], [144.904574641656, -37.82792104408], [144.904601027572, -37.828010118119]]]]}}