{"type": "Feature", "properties": {"seg_id": "30852", "street_id": "30852", "name": "Hornet Drive", "str_type": "Private", "status_id": "4", "seg_part": "1", "poly_area": "3663", "gisid": "4037"}, "geometry": {"type": "MultiPolygon", "coordinates": [[[[144.905545672547, -37.827997933242], [144.905563896448, -37.827987644418], [144.9056105669, -37.827961294616], [144.906371742046, -37.828809486736], [144.906392818927, -37.828837844894], [144.906412286644, -37.828866799917], [144.906428485614, -37.828896979551], [144.906441290441, -37.828928150177], [144.906450602002, -37.828960070503], [144.906456348217, -37.828992493436], [144.906458484606, -37.829025167991], [144.90645699463, -37.829057841235], [144.906451889824, -37.829090260246], [144.906443209703, -37.829122174069], [144.906431021459, -37.829153335661], [144.906415419443, -37.829183503801], [144.906396524427, -37.829212444959], [144.906374482679, -37.829239935102], [144.906347998922, -37.829264779541], [144.905462220569, -37.830096709803], [144.90545087964, -37.830107501009], [144.905437805693, -37.830116995825], [144.905423744049, -37.830125558917], [144.905408798384, -37.83013312715], [144.90539307889, -37.830139644725], [144.905376701464, -37.830145063588], [144.905359786855, -37.830149343787], [144.905342459772, -37.830152453765], [144.905324847965, -37.830154370593], [144.905307081283, -37.830155080137], [144.905289290718, -37.830154577166], [144.905271607438, -37.83015286539], [144.905254161818, -37.830149957427], [144.905237082483, -37.830145874719], [144.905220495356, -37.830140647367], [144.905204522732, -37.830134313911], [144.905189282375, -37.830126921047], [144.90517488665, -37.830118523282], [144.905160854826, -37.830109671141], [144.904728209786, -37.829782762917], [144.904704160084, -37.829770934817], [144.904679681216, -37.82975981857], [144.904654147736, -37.829750333344], [144.904627733372, -37.829742543675], [144.904600617842, -37.829736502562], [144.904572985636, -37.82973225111], [144.904545024758, -37.829729818243], [144.904516928518, -37.829729327518], [144.904476043698, -37.829730387201], [144.904435182314, -37.829728174684], [144.904394716115, -37.829723007934], [144.904354984245, -37.829714930253], [144.904316319696, -37.829704009339], [144.904279046515, -37.82969033672], [144.904242602714, -37.829675119121], [144.904087704375, -37.829572753073], [144.904015299756, -37.82954576641], [144.903998394003, -37.829540617602], [144.903981209149, -37.82953620161], [144.903963613517, -37.829533000384], [144.903945743828, -37.829531038799], [144.903927738935, -37.829530332096], [144.903909738738, -37.829530885767], [144.903891883104, -37.829532695509], [144.903874310775, -37.829535747261], [144.903857158292, -37.829540017309], [144.903840558933, -37.829545472474], [144.90382464168, -37.829552070369], [144.903809530212, -37.829559759727], [144.903795341949, -37.829568480798], [144.903782797049, -37.829578643094], [144.903263595634, -37.829996040508], [144.903273893125, -37.830090663317], [144.903152655867, -37.829995274891], [144.903217598188, -37.82994099367], [144.903315609625, -37.829881105849], [144.903805797807, -37.829487031931], [144.903815922763, -37.829478010776], [144.903827504521, -37.829470152372], [144.903839913737, -37.829463130464], [144.903853055987, -37.829456998484], [144.903866831267, -37.829451803092], [144.903881134755, -37.829447583822], [144.903895857613, -37.829444372779], [144.90391088781, -37.829442194397], [144.903926110975, -37.829441065251], [144.903941411272, -37.829440993935], [144.903956672274, -37.829441980991], [144.903971777857, -37.829444018908], [144.903986613078, -37.829447092178], [144.904001065049, -37.829451177417], [144.904015276738, -37.829455845914], [144.904167354507, -37.829544850728], [144.90424513019, -37.829602582449], [144.904372216357, -37.829664273865], [144.904493157742, -37.82968799691], [144.904673319098, -37.829690387085], [144.904682583349, -37.829690984027], [144.904691760915, -37.829692180689], [144.904700789033, -37.829693973344], [144.90470960613, -37.829696349764], [144.904718152072, -37.829699293744], [144.904726368576, -37.829702785204], [144.904734199603, -37.829706800333], [144.904741591745, -37.829711311747], [144.904748819644, -37.829716027135], [144.905212680718, -37.830066522713], [144.905223003768, -37.830071862985], [144.905233552399, -37.830076857703], [144.905244595252, -37.830081118521], [144.905256050692, -37.830084613941], [144.905267834036, -37.830087318123], [144.905279858178, -37.830089211078], [144.905292034231, -37.830090278812], [144.905304272183, -37.830090513432], [144.905316481567, -37.830089913202], [144.905328572127, -37.830088482562], [144.905340454485, -37.830086232086], [144.9053520408, -37.83008317841], [144.905363245423, -37.830079344109], [144.905373985525, -37.830074757528], [144.90538418171, -37.830069452572], [144.905393758604, -37.830063468457], [144.905402219369, -37.830056519092], [144.906315267286, -37.829198977381], [144.906369164933, -37.829065408946], [144.906372193642, -37.829037848778], [144.906371949081, -37.829010152769], [144.906368789803, -37.828982550551], [144.906362737891, -37.828955235056], [144.906353835648, -37.828928397213], [144.906342145297, -37.828902224612], [144.906327748551, -37.828876900193], [144.906312081422, -37.828851959276], [144.905684087581, -37.828152174449], [144.905545672547, -37.827997933242]]]]}}