{"type": "Feature", "properties": {"seg_id": "30853", "street_id": "30853", "name": "Mirage Way", "str_type": "Private", "status_id": "4", "seg_part": "1", "poly_area": "987", "gisid": "4038"}, "geometry": {"type": "MultiPolygon", "coordinates": [[[[144.905190093992, -37.828256297292], [144.905398186245, -37.82808120035], [144.905545672547, -37.827997933242], [144.905684087581, -37.828152174449], [144.905675372346, -37.828144118439], [144.905666254107, -37.82813639111], [144.905656319079, -37.828129326439], [144.905645644709, -37.828122979496], [144.905634314208, -37.828117399758], [144.905622415899, -37.828112630721], [144.905610042533, -37.82810870956], [144.905597290564, -37.828105666841], [144.905584259397, -37.828103526285], [144.905571050614, -37.828102304576], [144.90555776718, -37.828102011239], [144.905544512644, -37.82810264856], [144.905531390329, -37.828104211571], [144.905518502526, -37.828106688088], [144.9055059497, -37.828110058806], [144.905493829703, -37.828114297449], [144.905482237015, -37.828119370975], [144.905471262002, -37.828125239836], [144.90546099022, -37.828131858282], [144.905451958497, -37.828139516228], [144.904642439317, -37.828820672348], [144.904577383588, -37.828771850017], [144.905005377927, -37.828411723746], [144.905190093992, -37.828256297292]]]]}}