{"type": "Feature", "properties": {"seg_id": "30863", "street_id": "30863", "name": "CL0533", "str_type": "Private", "status_id": "4", "seg_part": "1", "poly_area": "206", "gisid": "4055"}, "geometry": {"type": "MultiPolygon", "coordinates": [[[[144.931347395146, -37.802345741388], [144.931322546942, -37.802347656941], [144.930843131304, -37.802549473143], [144.930816100918, -37.802523524732], [144.931310339604, -37.802315467976], [144.931406176575, -37.802308081218], [144.931400522074, -37.802341647006], [144.931347395146, -37.802345741388]]]]}}