{"type": "Feature", "properties": {"seg_id": "30868", "street_id": "30868", "name": "Yarra River", "str_type": "River", "status_id": "8", "seg_part": "1", "poly_area": "239", "gisid": "4076"}, "geometry": {"type": "MultiPolygon", "coordinates": [[[[144.948073406896, -37.822918247453], [144.948051203987, -37.822940259956], [144.948029786711, -37.822962756918], [144.948009171859, -37.822985720702], [144.947970483816, -37.822949464634], [144.947934247676, -37.822911827987], [144.947902578791, -37.822871695554], [144.947875754778, -37.822829419145], [144.947852465954, -37.822785775961], [144.948044740006, -37.822808865475], [144.948073406896, -37.822918247453]]]]}}