{"type": "Feature", "properties": {"seg_id": "30864", "street_id": "30864", "name": "Flinders Street", "str_type": "Undetermined", "status_id": "18", "seg_part": "1", "poly_area": "1326", "gisid": "4069"}, "geometry": {"type": "MultiPolygon", "coordinates": [[[[144.961100258494, -37.819722344673], [144.961095161749, -37.819715272612], [144.961089590554, -37.819708449014], [144.961083266392, -37.819702049597], [144.961076241408, -37.819696127129], [144.961068573526, -37.819690730442], [144.961060325972, -37.819685904033], [144.961051566749, -37.8196816877], [144.961042368082, -37.819678116207], [144.961032805817, -37.819675219003], [144.961022997185, -37.819672884906], [144.960704659598, -37.819731425423], [144.960473207136, -37.819786306397], [144.960347336459, -37.819820911047], [144.960338304342, -37.819806491691], [144.96027782679, -37.819700223758], [144.960265064009, -37.819677797715], [144.960982509819, -37.819464599952], [144.961003977987, -37.819511222723], [144.961100258494, -37.819722344673]]]]}}