{"type": "Feature", "properties": {"seg_id": "30870", "street_id": "30870", "name": "Frederick Way", "str_type": "Private", "status_id": "4", "seg_part": "1", "poly_area": "350", "gisid": "4079"}, "geometry": {"type": "MultiPolygon", "coordinates": [[[[144.957006393528, -37.810262864969], [144.956962621585, -37.810275455531], [144.956791024321, -37.809899970929], [144.95682048861, -37.809731210778], [144.95682600003, -37.809704504547], [144.956860940412, -37.809504378457], [144.956905918564, -37.809509411518], [144.956835982035, -37.80989627668], [144.956888147207, -37.810004446027], [144.956899956476, -37.81003133023], [144.957006393528, -37.810262864969]]]]}}