{"type": "Feature", "properties": {"seg_id": "30874", "street_id": "30874", "name": "Elm Lane", "str_type": "Private", "status_id": "4", "seg_part": "1", "poly_area": "189", "gisid": "4085"}, "geometry": {"type": "MultiPolygon", "coordinates": [[[[144.948366012945, -37.778638870766], [144.948355456268, -37.778635986952], [144.94825588931, -37.778623438444], [144.948135943745, -37.778608732491], [144.947989960068, -37.778591319844], [144.94795748224, -37.778587206078], [144.947965811722, -37.778541092803], [144.947996362196, -37.778544570099], [144.948125360386, -37.778560335074], [144.948265683401, -37.778577197458], [144.948361290747, -37.778589227298], [144.948374668114, -37.778590742689], [144.948366012945, -37.778638870766]]]]}}