{"type": "Feature", "properties": {"seg_id": "30882", "street_id": "30882", "name": "Tanderrum Bridge", "str_type": "Private", "status_id": "4", "seg_part": "2", "poly_area": "512", "gisid": "4124"}, "geometry": {"type": "MultiPolygon", "coordinates": [[[[144.975333554809, -37.819415172579], [144.97527518209, -37.819458038997], [144.975265846696, -37.819450039127], [144.975275604478, -37.819442873147], [144.974527547122, -37.819292619984], [144.974446544104, -37.819201273746], [144.97452090584, -37.819228043664], [144.975297121226, -37.819383952022], [144.975333554809, -37.819415172579]]], [[[144.975482137547, -37.819352460626], [144.975418433048, -37.819371648939], [144.975397186726, -37.819327259317], [144.975460894598, -37.819308071073], [144.975482137547, -37.819352460626]]], [[[144.976070260762, -37.819890758553], [144.976068564885, -37.819858727709], [144.976064497074, -37.819820538004], [144.976058088904, -37.819789381406], [144.976064562, -37.819791711373], [144.976103572668, -37.819805754503], [144.976102717745, -37.819792266512], [144.976101758021, -37.819778782957], [144.976100693533, -37.819765304352], [144.976571578538, -37.819934984864], [144.976562901836, -37.819982601735], [144.976374878921, -37.819996854094], [144.976373875368, -37.820021618309], [144.976106570212, -37.819925296676], [144.976106622182, -37.819918149], [144.976106644753, -37.819911001227], [144.976106637925, -37.819903853435], [144.976077801445, -37.819893473649], [144.976070260762, -37.819890758553]]], [[[144.974342499415, -37.819163817934], [144.974446544104, -37.819201273746], [144.974527547122, -37.819292619984], [144.975275604478, -37.819442873147], [144.975265846696, -37.819450039127], [144.97527518209, -37.819458038997], [144.975333554809, -37.819415172579], [144.975512772742, -37.819568745334], [144.975418433048, -37.819371648939], [144.975482137547, -37.819352460626], [144.975614874426, -37.819629833422], [144.976058088904, -37.819789381406], [144.976064497074, -37.819820538004], [144.976068564885, -37.819858727709], [144.976070260762, -37.819890758553], [144.975565203883, -37.819708948943], [144.97542847364, -37.819716125205], [144.97540798139, -37.819658645442], [144.975452065359, -37.819646746431], [144.97523780241, -37.819463143911], [144.974570754393, -37.819329162493], [144.974567711608, -37.819325731639], [144.974563995778, -37.81932780531], [144.974483842747, -37.819311704855], [144.974468856069, -37.819306310333], [144.974342499415, -37.819163817934]]], [[[144.974468856069, -37.819306310333], [144.973788670783, -37.819061444828], [144.973834687961, -37.818981007353], [144.974342499415, -37.819163817934], [144.974468856069, -37.819306310333]]]]}}