{"type": "Feature", "properties": {"seg_id": "30883", "street_id": "30883", "name": "West Gate Freeway", "str_type": "Freeway", "status_id": "11", "seg_part": "1", "poly_area": "16", "gisid": "4130"}, "geometry": {"type": "MultiPolygon", "coordinates": [[[[144.958715524666, -37.828577400824], [144.958748729881, -37.828575724509], [144.95876196191, -37.828575056356], [144.959080794587, -37.828558956553], [144.95921348857, -37.828544606673], [144.95921555264, -37.82854907262], [144.959186520517, -37.828551751141], [144.959157471425, -37.828554311308], [144.959128406131, -37.828556753054], [144.95899148868, -37.828566771003], [144.958854360354, -37.828574771277], [144.958717068413, -37.828580751117], [144.958715524666, -37.828577400824]]]]}}