{"type": "Feature", "properties": {"seg_id": "30884", "street_id": "30884", "name": "South Wharf Drive", "str_type": "Private", "status_id": "4", "seg_part": "1", "poly_area": "638", "gisid": "4148"}, "geometry": {"type": "MultiPolygon", "coordinates": [[[[144.940141428505, -37.82298687042], [144.940241289169, -37.823023646572], [144.940338330405, -37.823064638398], [144.9404307231, -37.823111966353], [144.94051780552, -37.823165291465], [144.940602648664, -37.823221286854], [144.94049209148, -37.823315053799], [144.940408810955, -37.823256268474], [144.940319464569, -37.823203383301], [144.940224714614, -37.823156790291], [144.940125263428, -37.823116834811], [144.940132325483, -37.823097256956], [144.9401039334, -37.823090813391], [144.940141428505, -37.82298687042]]]]}}