{"type": "Feature", "properties": {"seg_id": "30886", "street_id": "30886", "name": "Baskerville Lane", "str_type": "Private", "status_id": "4", "seg_part": "1", "poly_area": "212", "gisid": "4159"}, "geometry": {"type": "MultiPolygon", "coordinates": [[[[144.96258511387, -37.809379799861], [144.962632849091, -37.809365908677], [144.962656782238, -37.809417675403], [144.962703697902, -37.809521291524], [144.96272581282, -37.809569124685], [144.962812127487, -37.809750896544], [144.962764080011, -37.809764941003], [144.962754953827, -37.809745289765], [144.962707322955, -37.809642726482], [144.962692180444, -37.809647153314], [144.962677654815, -37.809615872691], [144.962692704542, -37.809611473994], [144.962656421969, -37.809533346876], [144.962641372233, -37.809537746469], [144.962626806916, -37.809506382246], [144.962641856647, -37.809501982654], [144.962600646517, -37.809413244521], [144.962592448007, -37.809395591909], [144.96258511387, -37.809379799861]]]]}}